"","station","valid","lon","lat","tmpf","dwpf","relh","drct","sknt","p01i","alti","mslp","vsby","gust","skyc1","skyc2","skyc3","skyc4","skyl1","skyl2","skyl3","skyl4","wxcodes","ice_accretion_1hr","ice_accretion_3hr","ice_accretion_6hr","peak_wind_gust","peak_wind_drct","peak_wind_time","feel","metar"
"1","LFBA",2019-12-06 00:00:00,0.5947,44.1722,35.6,35.6,100,100,5,0,30.24,NA,0.31,NA,"VV ",NA,NA,NA,NA,NA,NA,NA,"FG",NA,NA,NA,NA,NA,NA,30.67,"LFBA 060000Z AUTO 10005KT 0500 0400 R29/0400N FG VV/// 02/02 Q1024"
"2","LFBA",2019-12-06 00:30:00,0.5947,44.1722,35.6,35.6,100,100,4,0,30.21,NA,0.34,NA,"VV ",NA,NA,NA,NA,NA,NA,NA,"FG",NA,NA,NA,NA,NA,NA,31.62,"LFBA 060030Z AUTO 10004KT 0550 0400 R29/0500N FG VV/// 02/02 Q1023"
"3","LFBA",2019-12-06 01:00:00,0.5947,44.1722,35.6,33.8,93.08,100,3,0,30.21,NA,0.25,NA,"VV ",NA,NA,NA,NA,NA,NA,NA,"FG",NA,NA,NA,NA,NA,NA,32.8,"LFBA 060100Z AUTO 10003KT 0400 0300 R29/0350N FG VV/// 02/01 Q1023"
"4","LFBA",2019-12-06 01:30:00,0.5947,44.1722,35.6,33.8,93.08,290,1,0,30.21,NA,0.31,NA,"VV ",NA,NA,NA,NA,NA,NA,NA,"FG",NA,NA,NA,NA,NA,NA,NA,"LFBA 060130Z AUTO 29001KT 0500 0400 R29/0450N FG VV/// 02/01 Q1023"
"5","LFBA",2019-12-06 02:00:00,0.5947,44.1722,35.6,33.8,93.08,0,0,0,30.24,NA,0.34,NA,"VV ",NA,NA,NA,NA,NA,NA,NA,"FG",NA,NA,NA,NA,NA,NA,NA,"LFBA 060200Z AUTO 00000KT 0550 0450 R29/0550N FG VV/// 02/01 Q1024"
"6","LFBA",2019-12-06 02:30:00,0.5947,44.1722,33.8,32,93.03,0,0,0,30.24,NA,0.34,NA,"VV ",NA,NA,NA,NA,NA,NA,NA,"FG",NA,NA,NA,NA,NA,NA,NA,"LFBA 060230Z AUTO 00000KT 0550 0450 R29/0550N FG VV/// 01/00 Q1024"
"7","LFBA",2019-12-06 03:00:00,0.5947,44.1722,33.8,33.8,100,100,2,0,30.24,NA,0.28,NA,"VV ",NA,NA,NA,NA,NA,NA,NA,"FG",NA,NA,NA,NA,NA,NA,NA,"LFBA 060300Z AUTO 10002KT 0450 0350 R29/0400N FG VV/// 01/01 Q1024"
"8","LFBA",2019-12-06 03:30:00,0.5947,44.1722,35.6,35.6,100,120,3,0,30.24,NA,0.25,NA,"VV ",NA,NA,NA,NA,NA,NA,NA,"FG",NA,NA,NA,NA,NA,NA,32.8,"LFBA 060330Z AUTO 12003KT 0400 0350 R29/0375N FG VV/// 02/02 Q1024"
"9","LFBA",2019-12-06 04:00:00,0.5947,44.1722,35.6,35.6,100,130,4,0,30.24,NA,0.34,NA,"VV ",NA,NA,NA,NA,NA,NA,NA,"FG",NA,NA,NA,NA,NA,NA,31.62,"LFBA 060400Z AUTO 13004KT 0550 0450 R29/0500N FG VV/// 02/02 Q1024"
"10","LFBA",2019-12-06 04:30:00,0.5947,44.1722,35.6,35.6,100,80,3,0,30.24,NA,0.37,NA,"VV ",NA,NA,NA,NA,NA,NA,NA,"FG",NA,NA,NA,NA,NA,NA,32.8,"LFBA 060430Z AUTO 08003KT 0600 0450 R29/0550N FG VV/// 02/02 Q1024"
"11","LFBA",2019-12-06 05:00:00,0.5947,44.1722,35.6,35.6,100,110,3,0,30.24,NA,0.25,NA,"VV ",NA,NA,NA,NA,NA,NA,NA,"FG",NA,NA,NA,NA,NA,NA,32.8,"LFBA 060500Z AUTO 11003KT 0400 0350 R29/0375N FG VV/// 02/02 Q1024"
"12","LFBA",2019-12-06 05:30:00,0.5947,44.1722,35.6,35.6,100,NA,1,0,30.24,NA,0.28,NA,"VV ",NA,NA,NA,NA,NA,NA,NA,"FG",NA,NA,NA,NA,NA,NA,NA,"LFBA 060530Z AUTO VRB01KT 0450 0350 R29/0400N FG VV/// 02/02 Q1024 BECMG 0300 FG"
"13","LFBA",2019-12-06 06:00:00,0.5947,44.1722,35.6,35.6,100,130,3,0,30.24,NA,0.22,NA,"VV ",NA,NA,NA,NA,NA,NA,NA,"FG",NA,NA,NA,NA,NA,NA,32.8,"LFBA 060600Z AUTO 13003KT 0350 0250 R29/0275N FG VV/// 02/02 Q1024 NOSIG"
"14","LFBA",2019-12-06 06:30:00,0.5947,44.1722,35.6,35.6,100,100,1,0,30.24,NA,0.28,NA,"VV ",NA,NA,NA,NA,NA,NA,NA,"FG",NA,NA,NA,NA,NA,NA,NA,"LFBA 060630Z AUTO 10001KT 0450 0350 R29/0400N FG VV/// 02/02 Q1024 BECMG 0300 FG"
"15","LFBA",2019-12-06 07:00:00,0.5947,44.1722,37.4,35.6,93.14,0,0,0,30.24,NA,0.25,NA,"VV ",NA,NA,NA,NA,NA,NA,NA,"FG",NA,NA,NA,NA,NA,NA,NA,"LFBA 060700Z AUTO 00000KT 0400 0300 R29/0375N FG VV/// 03/02 Q1024 BECMG 0300 FG"
"16","LFBA",2019-12-06 07:30:00,0.5947,44.1722,37.4,37.4,100,NA,2,0,30.24,NA,0.28,NA,"VV ",NA,NA,NA,NA,NA,NA,NA,"FG",NA,NA,NA,NA,NA,NA,NA,"LFBA 060730Z AUTO VRB02KT 0450 0350 R29/0400N FG VV/// 03/03 Q1024 BECMG 0300 FG"
"17","LFBA",2019-12-06 08:00:00,0.5947,44.1722,37.4,37.4,100,NA,1,0,30.24,NA,0.34,NA,"VV ",NA,NA,NA,NA,NA,NA,NA,"FG",NA,NA,NA,NA,NA,NA,NA,"LFBA 060800Z AUTO VRB01KT 0550 0450 R29/0600N FG VV/// 03/03 Q1024 BECMG 0300 FG"
"18","LFBA",2019-12-06 08:30:00,0.5947,44.1722,39.2,37.4,93.19,100,4,0,30.24,NA,0.34,NA,"VV ",NA,NA,NA,NA,NA,NA,NA,"FG",NA,NA,NA,NA,NA,NA,35.83,"LFBA 060830Z AUTO 10004KT 0550 0450 R29/0600N FG VV/// 04/03 Q1024 NOSIG"
"19","LFBA",2019-12-06 09:00:00,0.5947,44.1722,39.2,37.4,93.19,90,5,0,30.27,NA,0.25,NA,"VV ",NA,NA,NA,NA,NA,NA,NA,"FG",NA,NA,NA,NA,NA,NA,34.95,"LFBA 060900Z AUTO 09005KT 0400 0350 R29/0450N FG VV/// 04/03 Q1025 NOSIG"
"20","LFBA",2019-12-06 09:30:00,0.5947,44.1722,39.2,39.2,100,90,3,0,30.27,NA,0.28,NA,"VV ",NA,NA,NA,NA,NA,NA,NA,"FG",NA,NA,NA,NA,NA,NA,36.92,"LFBA 060930Z AUTO 09003KT 0450 0400 R29/0550N FG VV/// 04/04 Q1025 NOSIG"
"21","LFBA",2019-12-06 10:00:00,0.5947,44.1722,39.2,39.2,100,100,4,0,30.27,NA,0.28,NA,"VV ",NA,NA,NA,NA,NA,NA,NA,"FG",NA,NA,NA,NA,NA,NA,35.83,"LFBA 061000Z AUTO 10004KT 0450 0400 R29/0550N FG VV/// 04/04 Q1025 NOSIG"
"22","LFBA",2019-12-06 10:30:00,0.5947,44.1722,41,39.2,93.24,NA,2,0,30.27,NA,0.4,NA,"VV ",NA,NA,NA,NA,NA,NA,NA,"FG",NA,NA,NA,NA,NA,NA,NA,"LFBA 061030Z AUTO VRB02KT 0650 0600 R29/0800N FG VV/// 05/04 Q1025 BECMG 0500 FG"
"23","LFBA",2019-12-06 11:00:00,0.5947,44.1722,41,39.2,93.24,NA,3,0,30.24,NA,1.06,NA,"VV ",NA,NA,NA,NA,NA,NA,NA,"BCFG",NA,NA,NA,NA,NA,NA,38.98,"LFBA 061100Z AUTO VRB03KT 1700 R29/1100U BCFG VV/// 05/04 Q1024 BECMG 0500 FG"
"24","LFBA",2019-12-06 11:30:00,0.5947,44.1722,41,41,100,120,5,0,30.24,NA,1.68,NA,"OVC",NA,NA,NA,200,NA,NA,NA,"BR",NA,NA,NA,NA,NA,NA,37.08,"LFBA 061130Z AUTO 12005KT 2700 BR OVC002 05/05 Q1024 BECMG VV///"
"25","LFBA",2019-12-06 12:00:00,0.5947,44.1722,41,41,100,120,5,0,30.21,NA,1.86,NA,"OVC",NA,NA,NA,200,NA,NA,NA,"BR",NA,NA,NA,NA,NA,NA,37.08,"LFBA 061200Z AUTO 12005KT 3000 1400 R29/1700D BR OVC002 05/05 Q1023 BECMG VV///"
"26","LFBA",2019-12-06 12:30:00,0.5947,44.1722,42.8,41,93.3,110,4,0,30.21,NA,1.62,NA,"OVC",NA,NA,NA,200,NA,NA,NA,"BR",NA,NA,NA,NA,NA,NA,40.03,"LFBA 061230Z AUTO 11004KT 080V140 2600 BR OVC002 06/05 Q1023 BECMG VV///"
"27","LFBA",2019-12-06 13:00:00,0.5947,44.1722,42.8,42.8,100,110,5,0,30.21,NA,1.37,NA,"OVC",NA,NA,NA,200,NA,NA,NA,"BR",NA,NA,NA,NA,NA,NA,39.22,"LFBA 061300Z AUTO 11005KT 2200 BR OVC002 06/06 Q1023 BECMG VV///"
"28","LFBA",2019-12-06 13:30:00,0.5947,44.1722,42.8,42.8,100,90,4,0,30.21,NA,1.8,NA,"OVC",NA,NA,NA,200,NA,NA,NA,"BR",NA,NA,NA,NA,NA,NA,40.03,"LFBA 061330Z AUTO 09004KT 2900 BR OVC002 06/06 Q1023 BECMG VV///"
"29","LFBA",2019-12-06 14:00:00,0.5947,44.1722,42.8,42.8,100,100,5,0,30.18,NA,1.12,NA,"OVC",NA,NA,NA,200,NA,NA,NA,"BR",NA,NA,NA,NA,NA,NA,39.22,"LFBA 061400Z AUTO 10005KT 1800 BR OVC002 06/06 Q1022 BECMG VV///"
"30","LFBA",2019-12-06 14:30:00,0.5947,44.1722,42.8,42.8,100,100,5,0,30.18,NA,2.05,NA,"OVC",NA,NA,NA,200,NA,NA,NA,"BR",NA,NA,NA,NA,NA,NA,39.22,"LFBA 061430Z AUTO 10005KT 3300 BR OVC002 06/06 Q1022 TEMPO 2000 BR BECMG VV///"
"31","LFBA",2019-12-06 15:00:00,0.5947,44.1722,42.8,42.8,100,110,5,0,30.18,NA,2.8,NA,"OVC",NA,NA,NA,300,NA,NA,NA,"BR",NA,NA,NA,NA,NA,NA,39.22,"LFBA 061500Z AUTO 11005KT 4500 BR OVC003 06/06 Q1022 TEMPO 2000 BR BECMG VV///"
"32","LFBA",2019-12-06 15:30:00,0.5947,44.1722,44.6,42.8,93.35,110,4,0,30.18,NA,2.67,NA,"OVC",NA,NA,NA,300,NA,NA,NA,"BR",NA,NA,NA,NA,NA,NA,42.13,"LFBA 061530Z AUTO 11004KT 4300 BR OVC003 07/06 Q1022 TEMPO 2000 BR BECMG VV///"
"33","LFBA",2019-12-06 16:00:00,0.5947,44.1722,42.8,42.8,100,100,4,0,30.18,NA,1.43,NA,"OVC",NA,NA,NA,200,NA,NA,NA,"BR",NA,NA,NA,NA,NA,NA,40.03,"LFBA 061600Z AUTO 10004KT 050V150 2300 BR OVC002 06/06 Q1022 BECMG VV///"
"34","LFBA",2019-12-06 16:30:00,0.5947,44.1722,42.8,42.8,100,110,5,0,30.18,NA,1.55,NA,"OVC",NA,NA,NA,200,NA,NA,NA,"BR",NA,NA,NA,NA,NA,NA,39.22,"LFBA 061630Z AUTO 11005KT 2500 BR OVC002 06/06 Q1022 BECMG VV///"
"35","LFBA",2019-12-06 17:00:00,0.5947,44.1722,42.8,42.8,100,120,4,0,30.18,NA,2.67,NA,"OVC",NA,NA,NA,300,NA,NA,NA,"BR",NA,NA,NA,NA,NA,NA,40.03,"LFBA 061700Z AUTO 12004KT 090V150 4300 BR OVC003 06/06 Q1022 TEMPO 2000 BR BECMG VV///"
"36","LFBA",2019-12-06 17:30:00,0.5947,44.1722,42.8,42.8,100,120,4,0,30.18,NA,2.05,NA,"OVC",NA,NA,NA,200,NA,NA,NA,"BR",NA,NA,NA,NA,NA,NA,40.03,"LFBA 061730Z AUTO 12004KT 3300 BR OVC002 06/06 Q1022 TEMPO 2000 BR BECMG VV///"
"37","LFBA",2019-12-06 18:00:00,0.5947,44.1722,42.8,42.8,100,110,5,0,30.18,NA,1.06,NA,"OVC",NA,NA,NA,200,NA,NA,NA,"BR",NA,NA,NA,NA,NA,NA,39.22,"LFBA 061800Z AUTO 11005KT 1700 1400 R29/1900D BR OVC002 06/06 Q1022 TEMPO 0500 FG VV///"
"38","LFBA",2019-12-06 18:30:00,0.5947,44.1722,42.8,42.8,100,140,4,0,30.18,NA,0.99,NA,"VV ",NA,NA,NA,NA,NA,NA,NA,"BR",NA,NA,NA,NA,NA,NA,40.03,"LFBA 061830Z AUTO 14004KT 1600 BR VV/// 06/06 Q1022 TEMPO 0500 FG"
"39","LFBA",2019-12-06 19:00:00,0.5947,44.1722,42.8,42.8,100,120,4,0,30.18,NA,0.37,NA,"VV ",NA,NA,NA,NA,NA,NA,NA,"FG",NA,NA,NA,NA,NA,NA,40.03,"LFBA 061900Z AUTO 12004KT 0600 0500 R29/0600N FG VV/// 06/06 Q1022 NOSIG"
"40","LFBA",2019-12-06 19:30:00,0.5947,44.1722,42.8,42.8,100,120,4,0,30.18,NA,0.34,NA,"VV ",NA,NA,NA,NA,NA,NA,NA,"FG",NA,NA,NA,NA,NA,NA,40.03,"LFBA 061930Z AUTO 12004KT 100V180 0550 0500 R29/0600U FG VV/// 06/06 Q1022 NOSIG"
"41","LFBA",2019-12-06 20:00:00,0.5947,44.1722,42.8,42.8,100,110,4,0,30.18,NA,0.31,NA,"VV ",NA,NA,NA,NA,NA,NA,NA,"FG",NA,NA,NA,NA,NA,NA,40.03,"LFBA 062000Z AUTO 11004KT 0500 0450 R29/0550N FG VV/// 06/06 Q1022 NOSIG"
"42","LFBA",2019-12-06 20:30:00,0.5947,44.1722,42.8,42.8,100,NA,3,0,30.18,NA,0.31,NA,"VV ",NA,NA,NA,NA,NA,NA,NA,"FG",NA,NA,NA,NA,NA,NA,41.03,"LFBA 062030Z AUTO VRB03KT 0500 0450 R29/0550N FG VV/// 06/06 Q1022 NOSIG"
"43","LFBA",2019-12-06 21:00:00,0.5947,44.1722,42.8,42.8,100,90,4,0,30.21,NA,0.34,NA,"VV ",NA,NA,NA,NA,NA,NA,NA,"FG",NA,NA,NA,NA,NA,NA,40.03,"LFBA 062100Z AUTO 09004KT 0550 0500 R29/0550N FG VV/// 06/06 Q1023 NOSIG"
"44","LFBA",2019-12-06 21:30:00,0.5947,44.1722,42.8,41,93.3,110,5,0,30.21,NA,0.37,NA,"VV ",NA,NA,NA,NA,NA,NA,NA,"FG",NA,NA,NA,NA,NA,NA,39.22,"LFBA 062130Z AUTO 11005KT 0600 0550 R29/0650N FG VV/// 06/05 Q1023 NOSIG"
"45","LFBA",2019-12-06 22:00:00,0.5947,44.1722,42.8,41,93.3,120,3,0,30.21,NA,0.4,NA,"VV ",NA,NA,NA,NA,NA,NA,NA,"FG",NA,NA,NA,NA,NA,NA,41.03,"LFBA 062200Z AUTO 12003KT 0650 0600 R29/0750N FG VV/// 06/05 Q1023 TEMPO 0500 FG"
"46","LFBA",2019-12-06 22:30:00,0.5947,44.1722,41,41,100,120,5,0,30.21,NA,0.37,NA,"VV ",NA,NA,NA,NA,NA,NA,NA,"FG",NA,NA,NA,NA,NA,NA,37.08,"LFBA 062230Z AUTO 12005KT 0600 0550 R29/0650D FG VV/// 05/05 Q1023"
"47","LFBA",2019-12-06 23:00:00,0.5947,44.1722,41,41,100,100,3,0,30.21,NA,0.34,NA,"VV ",NA,NA,NA,NA,NA,NA,NA,"FG",NA,NA,NA,NA,NA,NA,38.98,"LFBA 062300Z AUTO 10003KT 0550 0500 R29/0600N FG VV/// 05/05 Q1023"
"48","LFBA",2019-12-06 23:30:00,0.5947,44.1722,41,41,100,100,4,0,30.21,NA,0.37,NA,"VV ",NA,NA,NA,NA,NA,NA,NA,"FG",NA,NA,NA,NA,NA,NA,37.93,"LFBA 062330Z AUTO 10004KT 0600 0550 R29/0650N FG VV/// 05/05 Q1023"
"49","LFKJ",2019-12-06 00:00:00,8.7928,41.9306,53.6,48.2,81.87,40,8,0,30.18,NA,6.21,NA,"BKN","OVC",NA,NA,7400,9400,NA,NA,NA,NA,NA,NA,NA,NA,NA,NA,"LFKJ 060000Z AUTO 04008KT 9999 BKN074 OVC094 12/09 Q1022"
"50","LFKJ",2019-12-06 00:30:00,8.7928,41.9306,53.6,48.2,81.87,40,6,0,30.18,NA,6.21,NA,"FEW","BKN","BKN",NA,4000,5600,7000,NA,NA,NA,NA,NA,NA,NA,NA,NA,"LFKJ 060030Z AUTO 04006KT 9999 FEW040 BKN056 BKN070 12/09 Q1022"
"51","LFKJ",2019-12-06 01:00:00,8.7928,41.9306,53.6,48.2,81.87,40,6,0,30.18,NA,6.21,NA,"FEW","BKN","BKN",NA,3800,5200,6800,NA,NA,NA,NA,NA,NA,NA,NA,NA,"LFKJ 060100Z AUTO 04006KT 9999 FEW038 BKN052 BKN068 12/09 Q1022"
"52","LFKJ",2019-12-06 01:30:00,8.7928,41.9306,53.6,48.2,81.87,50,5,0,30.18,NA,6.21,NA,"FEW","BKN","OVC",NA,3500,4300,5400,NA,NA,NA,NA,NA,NA,NA,NA,NA,"LFKJ 060130Z AUTO 05005KT 9999 FEW035 BKN043 OVC054 12/09 Q1022"
"53","LFKJ",2019-12-06 02:00:00,8.7928,41.9306,53.6,48.2,81.87,40,6,0,30.18,NA,6.21,NA,"BKN","BKN","OVC",NA,4000,4800,5800,NA,NA,NA,NA,NA,NA,NA,NA,NA,"LFKJ 060200Z AUTO 04006KT 9999 BKN040 BKN048 OVC058 12/09 Q1022"
"54","LFKJ",2019-12-06 02:30:00,8.7928,41.9306,53.6,48.2,81.87,40,7,0,30.18,NA,6.21,NA,"BKN","OVC",NA,NA,4100,5800,NA,NA,NA,NA,NA,NA,NA,NA,NA,NA,"LFKJ 060230Z AUTO 04007KT 9999 BKN041 OVC058 12/09 Q1022"
"55","LFKJ",2019-12-06 03:00:00,8.7928,41.9306,53.6,48.2,81.87,40,6,0,30.18,NA,6.21,NA,"SCT","OVC","///",NA,4000,4700,NA,NA,NA,NA,NA,NA,NA,NA,NA,NA,"LFKJ 060300Z AUTO 04006KT 9999 SCT040/// OVC047/// ///TCU 12/09 Q1022"
"56","LFKJ",2019-12-06 03:30:00,8.7928,41.9306,53.6,48.2,81.87,40,6,0,30.18,NA,6.21,NA,"BKN","OVC","///",NA,3900,6400,NA,NA,NA,NA,NA,NA,NA,NA,NA,NA,"LFKJ 060330Z AUTO 04006KT 9999 BKN039/// OVC064/// ///TCU 12/09 Q1022"
"57","LFKJ",2019-12-06 04:00:00,8.7928,41.9306,53.6,48.2,81.87,60,4,0,30.18,NA,6.21,NA,"FEW","SCT","BKN","///",3500,4400,5400,NA,NA,NA,NA,NA,NA,NA,NA,NA,"LFKJ 060400Z AUTO 06004KT 9999 FEW035/// SCT044/// BKN054/// ///CB 12/09 Q1022"
"58","LFKJ",2019-12-06 04:30:00,8.7928,41.9306,53.6,48.2,81.87,40,4,0,30.18,NA,6.21,NA,"SCT","BKN","OVC","///",3600,4200,6200,NA,NA,NA,NA,NA,NA,NA,NA,NA,"LFKJ 060430Z AUTO 04004KT 9999 SCT036/// BKN042/// OVC062/// ///CB 12/09 Q1022"
"59","LFKJ",2019-12-06 05:00:00,8.7928,41.9306,53.6,48.2,81.87,50,4,0,30.18,NA,6.21,NA,"OVC","///",NA,NA,3900,NA,NA,NA,NA,NA,NA,NA,NA,NA,NA,NA,"LFKJ 060500Z AUTO 05004KT 9999 OVC039/// ///CB 12/09 Q1022"
"60","LFKJ",2019-12-06 05:30:00,8.7928,41.9306,53.6,48.2,81.87,40,4,0,30.18,NA,6.21,NA,"FEW","BKN","BKN","///",3400,4100,5600,NA,NA,NA,NA,NA,NA,NA,NA,NA,"LFKJ 060530Z AUTO 04004KT 9999 FEW034/// BKN041/// BKN056/// ///CB 12/09 Q1022"
"61","LFKJ",2019-12-06 06:00:00,8.7928,41.9306,53.6,48.2,81.87,NA,3,0,30.18,NA,6.21,NA,"BKN","BKN","OVC","///",3100,4200,4800,NA,NA,NA,NA,NA,NA,NA,NA,NA,"LFKJ 060600Z AUTO VRB03KT 9999 BKN031/// BKN042/// OVC048/// ///CB 12/09 Q1022"
"62","LFKJ",2019-12-06 06:30:00,8.7928,41.9306,53.6,51.8,93.6,60,6,0,30.18,NA,6.21,NA,"SCT","SCT","BKN","///",2700,3400,4300,NA,"RA",NA,NA,NA,NA,NA,NA,NA,"LFKJ 060630Z AUTO 06006KT 9999 RA SCT027/// SCT034/// BKN043/// ///CB 12/11 Q1022"
"63","LFKJ",2019-12-06 07:00:00,8.7928,41.9306,53.6,51.8,93.6,30,3,0,30.18,NA,6.21,NA,"SCT","SCT","BKN","///",3300,4900,6000,NA,NA,NA,NA,NA,NA,NA,NA,NA,"LFKJ 060700Z AUTO 03003KT 9999 SCT033/// SCT049/// BKN060/// ///CB 12/11 Q1022"
"64","LFKJ",2019-12-06 07:30:00,8.7928,41.9306,53.6,51.8,93.6,40,5,0,30.21,NA,6.21,NA,"BKN","BKN","BKN","///",3400,4200,5400,NA,NA,NA,NA,NA,NA,NA,NA,NA,"LFKJ 060730Z AUTO 04005KT 9999 BKN034/// BKN042/// BKN054/// ///CB 12/11 Q1023"
"65","LFKJ",2019-12-06 08:00:00,8.7928,41.9306,55.4,51.8,87.65,50,3,0,30.21,NA,6.21,NA,"SCT","BKN","OVC","///",3000,3700,7800,NA,NA,NA,NA,NA,NA,NA,NA,NA,"LFKJ 060800Z AUTO 05003KT 010V080 9999 SCT030/// BKN037/// OVC078/// ///CB 13/11 Q1023 TEMPO TSRA"
"66","LFKJ",2019-12-06 08:30:00,8.7928,41.9306,57.2,53.6,87.74,30,5,0,30.21,NA,6.21,NA,"FEW","BKN","BKN","///",2700,4700,5600,NA,NA,NA,NA,NA,NA,NA,NA,NA,"LFKJ 060830Z AUTO 03005KT 9999 FEW027/// BKN047/// BKN056/// ///CB 14/12 Q1023 TEMPO TSRA"
"67","LFKJ",2019-12-06 09:00:00,8.7928,41.9306,57.2,53.6,87.74,20,5,0,30.21,NA,6.21,NA,"FEW","SCT","BKN","///",2700,3900,5600,NA,NA,NA,NA,NA,NA,NA,NA,NA,"LFKJ 060900Z AUTO 02005KT 9999 FEW027/// SCT039/// BKN056/// ///CB 14/12 Q1023 TEMPO TSRA"
"68","LFKJ",2019-12-06 09:30:00,8.7928,41.9306,55.4,53.6,93.65,NA,2,0,30.24,NA,3.11,NA,"FEW","SCT","BKN","///",2500,3400,5600,NA,"RA BR",NA,NA,NA,NA,NA,NA,NA,"LFKJ 060930Z AUTO VRB02KT 5000 RA BR FEW025/// SCT034/// BKN056/// ///CB 13/12 Q1024 TEMPO TSRA"
"69","LFKJ",2019-12-06 10:00:00,8.7928,41.9306,59,55.4,87.83,30,3,0,30.21,NA,6.21,NA,"FEW","BKN","BKN","///",2100,7400,12000,NA,NA,NA,NA,NA,NA,NA,NA,NA,"LFKJ 061000Z AUTO 03003KT 350V060 9999 FEW021/// BKN074/// BKN120/// ///CB 15/13 Q1023 TEMPO TSRA"
"70","LFKJ",2019-12-06 10:30:00,8.7928,41.9306,59,55.4,87.83,80,5,0,30.21,NA,6.21,NA,"FEW","SCT","BKN","///",3300,6400,7800,NA,NA,NA,NA,NA,NA,NA,NA,NA,"LFKJ 061030Z AUTO 08005KT 050V110 9999 FEW033/// SCT064/// BKN078/// ///CB 15/13 Q1023 TEMPO TSRA"
"71","LFKJ",2019-12-06 11:00:00,8.7928,41.9306,59,55.4,87.83,30,6,0,30.21,NA,6.21,NA,"FEW","SCT","BKN","///",1100,4100,4900,NA,NA,NA,NA,NA,NA,NA,NA,NA,"LFKJ 061100Z AUTO 03006KT 9999 FEW011/// SCT041/// BKN049/// ///TCU 15/13 Q1023 TEMPO TSRA SCT020 FEW025CB BKN028"
"72","LFKJ",2019-12-06 11:30:00,8.7928,41.9306,59,53.6,82.25,30,6,0,30.21,NA,6.21,NA,"BKN","BKN","BKN","///",3300,3900,7800,NA,NA,NA,NA,NA,NA,NA,NA,NA,"LFKJ 061130Z AUTO 03006KT 9999 BKN033/// BKN039/// BKN078/// ///CB 15/12 Q1023 TEMPO TSRA"
"73","LFKJ",2019-12-06 12:00:00,8.7928,41.9306,60.8,53.6,77.14,20,6,0,30.18,NA,6.21,NA,"FEW","SCT","BKN","///",4900,7400,16000,NA,NA,NA,NA,NA,NA,NA,NA,NA,"LFKJ 061200Z AUTO 02006KT 9999 FEW049/// SCT074/// BKN160/// ///CB 16/12 Q1022 TEMPO TSRA"
"74","LFKJ",2019-12-06 12:30:00,8.7928,41.9306,60.8,53.6,77.14,360,5,0,30.18,NA,6.21,NA,"FEW","BKN","BKN","///",3400,4500,7800,NA,NA,NA,NA,NA,NA,NA,NA,NA,"LFKJ 061230Z AUTO 36005KT 9999 FEW034/// BKN045/// BKN078/// ///CB 16/12 Q1022 TEMPO TSRA"
"75","LFKJ",2019-12-06 13:00:00,8.7928,41.9306,60.8,51.8,72.2,10,3,0,30.18,NA,6.21,NA,"BKN","OVC","///",NA,3900,7000,NA,NA,NA,NA,NA,NA,NA,NA,NA,NA,"LFKJ 061300Z AUTO 01003KT 330V040 9999 BKN039/// OVC070/// ///TCU 16/11 Q1022 TEMPO TSRA SCT020 FEW025CB BKN028"
"76","LFKJ",2019-12-06 13:30:00,8.7928,41.9306,62.6,51.8,67.75,NA,1,0,30.15,NA,6.21,NA,"FEW","SCT","OVC","///",3400,6600,7800,NA,NA,NA,NA,NA,NA,NA,NA,NA,"LFKJ 061330Z AUTO VRB01KT 9999 FEW034/// SCT066/// OVC078/// ///TCU 17/11 Q1021 TEMPO TSRA SCT020 FEW025CB BKN028"
"77","LFKJ",2019-12-06 14:00:00,8.7928,41.9306,62.6,53.6,72.38,190,3,0,30.15,NA,6.21,NA,"FEW","BKN","///",NA,4400,8200,NA,NA,NA,NA,NA,NA,NA,NA,NA,NA,"LFKJ 061400Z AUTO 19003KT 9999 FEW044/// BKN082/// ///TCU 17/12 Q1021 TEMPO TSRA SCT020 FEW025CB BKN028"
"78","LFKJ",2019-12-06 14:30:00,8.7928,41.9306,60.8,53.6,77.14,200,2,0,30.15,NA,6.21,NA,"BKN","BKN","BKN","///",7400,8400,24000,NA,NA,NA,NA,NA,NA,NA,NA,NA,"LFKJ 061430Z AUTO 20002KT 9999 BKN074/// BKN084/// BKN240/// ///TCU 16/12 Q1021 TEMPO TSRA SCT020 FEW025CB BKN028"
"79","LFKJ",2019-12-06 15:00:00,8.7928,41.9306,60.8,55.4,82.37,200,2,0,30.15,NA,6.21,NA,"SCT","OVC","///",NA,4700,6600,NA,NA,NA,NA,NA,NA,NA,NA,NA,NA,"LFKJ 061500Z AUTO 20002KT 9999 SCT047/// OVC066/// ///CB 16/13 Q1021 TEMPO TSRA"
"80","LFKJ",2019-12-06 15:30:00,8.7928,41.9306,59,55.4,87.83,220,1,0,30.15,NA,6.21,NA,"BKN","BKN","OVC","///",4700,5800,7200,NA,NA,NA,NA,NA,NA,NA,NA,NA,"LFKJ 061530Z AUTO 22001KT 9999 BKN047/// BKN058/// OVC072/// ///CB 15/13 Q1021 TEMPO TSRA"
"81","LFKJ",2019-12-06 16:00:00,8.7928,41.9306,59,55.4,87.83,0,0,0,30.15,NA,6.21,NA,"BKN","OVC","///",NA,4100,5200,NA,NA,NA,NA,NA,NA,NA,NA,NA,NA,"LFKJ 061600Z AUTO 00000KT 9999 BKN041/// OVC052/// ///CB 15/13 Q1021 TEMPO TSRA"
"82","LFKJ",2019-12-06 16:30:00,8.7928,41.9306,59,55.4,87.83,70,2,0,30.15,NA,6.21,NA,"FEW","BKN","BKN","///",3500,4100,4800,NA,"-RA",NA,NA,NA,NA,NA,NA,NA,"LFKJ 061630Z AUTO 07002KT 9999 -RA FEW035/// BKN041/// BKN048/// ///CB 15/13 Q1021 TEMPO TSRA"
"83","LFKJ",2019-12-06 17:00:00,8.7928,41.9306,57.2,55.4,93.69,80,3,0,30.15,NA,6.21,NA,"SCT","BKN","OVC","///",3300,7800,8800,NA,NA,NA,NA,NA,NA,NA,NA,NA,"LFKJ 061700Z AUTO 08003KT 9999 SCT033/// BKN078/// OVC088/// ///CB 14/13 Q1021 TEMPO TSRA"
"84","LFKJ",2019-12-06 17:30:00,8.7928,41.9306,57.2,55.4,93.69,40,3,0,30.15,NA,6.21,NA,"SCT","SCT","OVC","///",3200,4300,7600,NA,NA,NA,NA,NA,NA,NA,NA,NA,"LFKJ 061730Z AUTO 04003KT 9999 SCT032/// SCT043/// OVC076/// ///CB 14/13 Q1021 TEMPO TSRA"
"85","LFKJ",2019-12-06 18:00:00,8.7928,41.9306,57.2,53.6,87.74,60,4,0,30.15,NA,6.21,NA,"BKN","///",NA,NA,8200,NA,NA,NA,NA,NA,NA,NA,NA,NA,NA,NA,"LFKJ 061800Z AUTO 06004KT 9999 BKN082/// ///TCU 14/12 Q1021 TEMPO TSRA BKN020 FEW025CB BKN030"
"86","LFKJ",2019-12-06 18:30:00,8.7928,41.9306,55.4,53.6,93.65,50,4,0,30.15,NA,6.21,NA,"SCT","BKN","///",NA,4400,8000,NA,NA,NA,NA,NA,NA,NA,NA,NA,NA,"LFKJ 061830Z AUTO 05004KT 9999 SCT044/// BKN080/// ///TCU 13/12 Q1021 TEMPO TSRA BKN020 FEW025CB BKN030"
"87","LFKJ",2019-12-06 19:00:00,8.7928,41.9306,55.4,51.8,87.65,50,4,0,30.18,NA,6.21,NA,"FEW","///",NA,NA,4400,NA,NA,NA,NA,NA,NA,NA,NA,NA,NA,NA,"LFKJ 061900Z AUTO 05004KT 9999 FEW044/// ///TCU 13/11 Q1022 TEMPO TSRA BKN020 FEW025CB BKN030"
"88","LFKJ",2019-12-06 19:30:00,8.7928,41.9306,53.6,51.8,93.6,50,3,0,30.18,NA,6.21,NA,"FEW","///",NA,NA,7000,NA,NA,NA,NA,NA,NA,NA,NA,NA,NA,NA,"LFKJ 061930Z AUTO 05003KT 030V090 9999 FEW070/// ///TCU 12/11 Q1022 TEMPO TSRA BKN020 FEW025CB BKN030"
"89","LFKJ",2019-12-06 20:00:00,8.7928,41.9306,51.8,50,93.55,40,5,0,30.18,NA,6.21,NA,"FEW","SCT",NA,NA,4800,7400,NA,NA,NA,NA,NA,NA,NA,NA,NA,NA,"LFKJ 062000Z AUTO 04005KT 9999 FEW048 SCT074 11/10 Q1022 TEMPO TSRA BKN020 FEW025CB BKN030"
"90","LFKJ",2019-12-06 20:30:00,8.7928,41.9306,51.8,50,93.55,50,6,0,30.18,NA,6.21,NA,"BKN",NA,NA,NA,7600,NA,NA,NA,NA,NA,NA,NA,NA,NA,NA,NA,"LFKJ 062030Z AUTO 05006KT 9999 BKN076 11/10 Q1022 TEMPO SHRA SCT020CB"
"91","LFKJ",2019-12-06 21:00:00,8.7928,41.9306,51.8,50,93.55,40,6,0,30.18,NA,6.21,NA,"SCT","SCT","OVC",NA,5600,6600,7800,NA,NA,NA,NA,NA,NA,NA,NA,NA,"LFKJ 062100Z AUTO 04006KT 9999 SCT056 SCT066 OVC078 11/10 Q1022 TEMPO SHRA SCT020CB"
"92","LFKJ",2019-12-06 21:30:00,8.7928,41.9306,51.8,50,93.55,30,6,0,30.15,NA,6.21,NA,"FEW","BKN","OVC",NA,3400,6200,8400,NA,NA,NA,NA,NA,NA,NA,NA,NA,"LFKJ 062130Z AUTO 03006KT 9999 FEW034 BKN062 OVC084 11/10 Q1021 TEMPO SHRA SCT020CB"
"93","LFKJ",2019-12-06 22:00:00,8.7928,41.9306,51.8,50,93.55,30,6,0,30.18,NA,6.21,NA,"SCT","BKN","OVC",NA,3100,6400,8200,NA,NA,NA,NA,NA,NA,NA,NA,NA,"LFKJ 062200Z AUTO 03006KT 9999 SCT031 BKN064 OVC082 11/10 Q1022 TEMPO SHRA SCT020CB"
"94","LFKJ",2019-12-06 22:30:00,8.7928,41.9306,51.8,50,93.55,30,6,0,30.18,NA,6.21,NA,"SCT","BKN","BKN",NA,3400,4000,4600,NA,NA,NA,NA,NA,NA,NA,NA,NA,"LFKJ 062230Z AUTO 03006KT 9999 SCT034 BKN040 BKN046 11/10 Q1022 TEMPO SHRA SCT020CB"
"95","LFKJ",2019-12-06 23:00:00,8.7928,41.9306,51.8,50,93.55,30,6,0,30.15,NA,6.21,NA,"FEW","SCT","BKN","///",2800,4300,5800,NA,NA,NA,NA,NA,NA,NA,NA,NA,"LFKJ 062300Z AUTO 03006KT 9999 FEW028/// SCT043/// BKN058/// ///TCU 11/10 Q1021 TEMPO SHRA SCT020CB"
"96","LFKJ",2019-12-06 23:30:00,8.7928,41.9306,53.6,50,87.56,20,6,0,30.15,NA,6.21,NA,"FEW","BKN","BKN","///",2700,5400,6800,NA,NA,NA,NA,NA,NA,NA,NA,NA,"LFKJ 062330Z AUTO 02006KT 9999 FEW027/// BKN054/// BKN068/// ///CB 12/10 Q1021 TEMPO SHRA BECMG NSC"
"97","LFLP",2019-12-06 00:00:00,6.1058,45.9297,32,32,100,NA,2,0,30.24,NA,0.75,NA,"VV ",NA,NA,NA,NA,NA,NA,NA,"BR",NA,NA,NA,NA,NA,NA,NA,"LFLP 060000Z AUTO VRB02KT 1200 1000 R04/1700D BR VV/// M00/M00 Q1024"
"98","LFLP",2019-12-06 00:30:00,6.1058,45.9297,32,32,100,NA,2,0,30.24,NA,0.31,NA,"VV ",NA,NA,NA,NA,NA,NA,NA,"FZFG",NA,NA,NA,NA,NA,NA,NA,"LFLP 060030Z AUTO VRB02KT 0500 R04/0450D FZFG VV/// M00/M00 Q1024"
"99","LFLP",2019-12-06 01:00:00,6.1058,45.9297,30.2,30.2,100,60,3,0,30.24,NA,0.81,NA,"VV ",NA,NA,NA,NA,NA,NA,NA,"BCFG",NA,NA,NA,NA,NA,NA,26.63,"LFLP 060100Z AUTO 06003KT 1300 0600 R04/0700D BCFG VV/// M01/M01 Q1024"
"100","LFLP",2019-12-06 01:30:00,6.1058,45.9297,30.2,30.2,100,60,4,0,30.24,NA,0.34,NA,"VV ",NA,NA,NA,NA,NA,NA,NA,"FZFG",NA,NA,NA,NA,NA,NA,25.32,"LFLP 060130Z AUTO 06004KT 0550 R04/0650N FZFG VV/// M01/M01 Q1024"
"101","LFLP",2019-12-06 02:00:00,6.1058,45.9297,28.4,28.4,100,60,3,0,30.24,NA,0.5,NA,"VV ",NA,NA,NA,NA,NA,NA,NA,"FZFG",NA,NA,NA,NA,NA,NA,24.57,"LFLP 060200Z AUTO 06003KT 030V090 0800 R04/1000U FZFG VV/// M02/M02 Q1024"
"102","LFLP",2019-12-06 02:30:00,6.1058,45.9297,28.4,28.4,100,30,3,0,30.24,NA,4.35,NA,"VV ",NA,NA,NA,NA,NA,NA,NA,NA,NA,NA,NA,NA,NA,NA,24.57,"LFLP 060230Z AUTO 03003KT 350V070 7000 VV/// M02/M02 Q1024 TEMPO 0400 FZFG"
"103","LFLP",2019-12-06 03:00:00,6.1058,45.9297,28.4,28.4,100,20,3,0,30.21,NA,5.59,NA,"OVC",NA,NA,NA,400,NA,NA,NA,NA,NA,NA,NA,NA,NA,NA,24.57,"LFLP 060300Z AUTO 02003KT 9000 OVC004 M02/M02 Q1023 TEMPO 0400 FZFG VV///"
"104","LFLP",2019-12-06 03:30:00,6.1058,45.9297,28.4,26.6,92.86,NA,2,0,30.21,NA,6.21,NA,"OVC",NA,NA,NA,400,NA,NA,NA,NA,NA,NA,NA,NA,NA,NA,NA,"LFLP 060330Z AUTO VRB02KT 9999 OVC004 M02/M03 Q1023 TEMPO 0400 FZFG VV///"
"105","LFLP",2019-12-06 04:00:00,6.1058,45.9297,28.4,28.4,100,NA,3,0,30.21,NA,4.97,NA,"OVC",NA,NA,NA,300,NA,NA,NA,NA,NA,NA,NA,NA,NA,NA,24.57,"LFLP 060400Z AUTO VRB03KT 8000 OVC003 M02/M02 Q1023 TEMPO 0400 FZFG VV///"
"106","LFLP",2019-12-06 04:30:00,6.1058,45.9297,28.4,28.4,100,30,3,0,30.21,NA,0.56,NA,"OVC",NA,NA,NA,300,NA,NA,NA,"FZFG",NA,NA,NA,NA,NA,NA,24.57,"LFLP 060430Z AUTO 03003KT 0900 R04/1300U FZFG OVC003 M02/M02 Q1023 TEMPO 0400 FZFG VV///"
"107","LFLP",2019-12-06 05:00:00,6.1058,45.9297,28.4,28.4,100,NA,2,0,30.21,NA,0.37,NA,"VV ",NA,NA,NA,NA,NA,NA,NA,"FZFG",NA,NA,NA,NA,NA,NA,NA,"LFLP 060500Z AUTO VRB02KT 0600 0300 R04/0350N FZFG VV/// M02/M02 Q1023 NOSIG"
"108","LFLP",2019-12-06 05:30:00,6.1058,45.9297,28.4,28.4,100,NA,1,0,30.21,NA,3.73,NA,"OVC",NA,NA,NA,300,NA,NA,NA,NA,NA,NA,NA,NA,NA,NA,NA,"LFLP 060530Z AUTO VRB01KT 6000 OVC003 M02/M02 Q1023 TEMPO 0400 FZFG VV///"
"109","LFLP",2019-12-06 06:00:00,6.1058,45.9297,28.4,28.4,100,NA,2,0,30.24,NA,0.87,NA,"OVC",NA,NA,NA,300,NA,NA,NA,"BR",NA,NA,NA,NA,NA,NA,NA,"LFLP 060600Z AUTO VRB02KT 1400 R04/2300U BR OVC003 M02/M02 Q1024 TEMPO 0400 FZFG VV///"
"110","LFLP",2019-12-06 06:30:00,6.1058,45.9297,28.4,26.6,92.86,50,3,0,30.24,NA,3.73,NA,"VV ",NA,NA,NA,NA,NA,NA,NA,NA,NA,NA,NA,NA,NA,NA,24.57,"LFLP 060630Z AUTO 05003KT 6000 R04/1300U VV/// M02/M03 Q1024 TEMPO 0400 FZFG BECMG BKN011"
"111","LFLP",2019-12-06 07:00:00,6.1058,45.9297,26.6,26.6,100,NA,2,0,30.24,NA,6.21,NA,NA,NA,NA,NA,NA,NA,NA,NA,NA,NA,NA,NA,NA,NA,NA,NA,"LFLP 060700Z AUTO VRB02KT CAVOK M03/M03 Q1024 TEMPO 0400 FZFG VV///"
"112","LFLP",2019-12-06 07:30:00,6.1058,45.9297,28.4,28.4,100,0,0,0,30.24,NA,6.21,NA,"BKN",NA,NA,NA,200,NA,NA,NA,NA,NA,NA,NA,NA,NA,NA,NA,"LFLP 060730Z AUTO 00000KT 9999 BKN002 M02/M02 Q1024 BECMG BKN011"
"113","LFLP",2019-12-06 08:00:00,6.1058,45.9297,30.2,28.4,92.92,320,3,0,30.24,NA,6.21,NA,"OVC",NA,NA,NA,300,NA,NA,NA,NA,NA,NA,NA,NA,NA,NA,26.63,"LFLP 060800Z AUTO 32003KT 9999 OVC003 M01/M02 Q1024 BECMG BKN011"
"114","LFLP",2019-12-06 08:30:00,6.1058,45.9297,30.2,28.4,92.92,60,2,0,30.24,NA,6.21,NA,"OVC",NA,NA,NA,400,NA,NA,NA,NA,NA,NA,NA,NA,NA,NA,NA,"LFLP 060830Z AUTO 06002KT 9999 OVC004 M01/M02 Q1024 BECMG NSC"
"115","LFLP",2019-12-06 09:00:00,6.1058,45.9297,32,30.2,92.97,NA,2,0,30.24,NA,1.24,NA,"BKN",NA,NA,NA,200,NA,NA,NA,"BCFG",NA,NA,NA,NA,NA,NA,NA,"LFLP 060900Z AUTO VRB02KT 2000 0500 R04/2300U BCFG BKN002 M00/M01 Q1024 BECMG 7000 NSW NSC"
"116","LFLP",2019-12-06 09:30:00,6.1058,45.9297,33.8,32,93.03,0,0,0,30.24,NA,5.59,NA,"FEW",NA,NA,NA,100,NA,NA,NA,NA,NA,NA,NA,NA,NA,NA,NA,"LFLP 060930Z AUTO 00000KT 9000 FEW001 01/00 Q1024 TEMPO 3000 BR BECMG BKN008"
"117","LFLP",2019-12-06 10:00:00,6.1058,45.9297,35.6,32,86.59,NA,1,0,30.24,NA,6.21,NA,NA,NA,NA,NA,NA,NA,NA,NA,NA,NA,NA,NA,NA,NA,NA,NA,"LFLP 061000Z AUTO VRB01KT CAVOK 02/00 Q1024 TEMPO 0400 FG BKN002"
"118","LFLP",2019-12-06 10:30:00,6.1058,45.9297,39.2,32,75.16,0,0,0,30.21,NA,6.21,NA,NA,NA,NA,NA,NA,NA,NA,NA,NA,NA,NA,NA,NA,NA,NA,NA,"LFLP 061030Z AUTO 00000KT CAVOK 04/00 Q1023 TEMPO 4000 BR"
"119","LFLP",2019-12-06 11:00:00,6.1058,45.9297,42.8,32,65.38,NA,1,0,30.21,NA,6.21,NA,NA,NA,NA,NA,NA,NA,NA,NA,NA,NA,NA,NA,NA,NA,NA,NA,"LFLP 061100Z AUTO VRB01KT CAVOK 06/00 Q1023 TEMPO 4000 BR"
"120","LFLP",2019-12-06 11:30:00,6.1058,45.9297,46.4,32,57,NA,1,0,30.18,NA,6.21,NA,NA,NA,NA,NA,NA,NA,NA,NA,NA,NA,NA,NA,NA,NA,NA,NA,"LFLP 061130Z AUTO VRB01KT CAVOK 08/00 Q1022 NOSIG"
"121","LFLP",2019-12-06 12:00:00,6.1058,45.9297,46.4,33.8,61.28,NA,1,0,30.18,NA,6.21,NA,NA,NA,NA,NA,NA,NA,NA,NA,NA,NA,NA,NA,NA,NA,NA,NA,"LFLP 061200Z AUTO VRB01KT CAVOK 08/01 Q1022 NOSIG"
"122","LFLP",2019-12-06 12:30:00,6.1058,45.9297,48.2,35.6,61.52,0,0,0,30.15,NA,6.21,NA,NA,NA,NA,NA,NA,NA,NA,NA,NA,NA,NA,NA,NA,NA,NA,NA,"LFLP 061230Z AUTO 00000KT CAVOK 09/02 Q1021 NOSIG"
"123","LFLP",2019-12-06 13:00:00,6.1058,45.9297,48.2,35.6,61.52,200,3,0,30.15,NA,6.21,NA,NA,NA,NA,NA,NA,NA,NA,NA,NA,NA,NA,NA,NA,NA,NA,47.21,"LFLP 061300Z AUTO 20003KT CAVOK 09/02 Q1021 NOSIG"
"124","LFLP",2019-12-06 13:30:00,6.1058,45.9297,50,35.6,57.52,NA,1,0,30.15,NA,6.21,NA,NA,NA,NA,NA,NA,NA,NA,NA,NA,NA,NA,NA,NA,NA,NA,NA,"LFLP 061330Z AUTO VRB01KT CAVOK 10/02 Q1021 NOSIG"
"125","LFLP",2019-12-06 14:00:00,6.1058,45.9297,50,37.4,61.76,190,2,0,30.12,NA,6.21,NA,NA,NA,NA,NA,NA,NA,NA,NA,NA,NA,NA,NA,NA,NA,NA,NA,"LFLP 061400Z AUTO 19002KT CAVOK 10/03 Q1020 NOSIG"
"126","LFLP",2019-12-06 14:30:00,6.1058,45.9297,48.2,37.4,66.05,190,4,0,30.12,NA,6.21,NA,NA,NA,NA,NA,NA,NA,NA,NA,NA,NA,NA,NA,NA,NA,NA,46.34,"LFLP 061430Z AUTO 19004KT CAVOK 09/03 Q1020 NOSIG"
"127","LFLP",2019-12-06 15:00:00,6.1058,45.9297,44.6,35.6,70.48,210,3,0,30.12,NA,6.21,NA,NA,NA,NA,NA,NA,NA,NA,NA,NA,NA,NA,NA,NA,NA,NA,43.09,"LFLP 061500Z AUTO 21003KT CAVOK 07/02 Q1020 NOSIG"
"128","LFLP",2019-12-06 15:30:00,6.1058,45.9297,41,33.8,75.33,210,3,0,30.12,NA,6.21,NA,NA,NA,NA,NA,NA,NA,NA,NA,NA,NA,NA,NA,NA,NA,NA,38.98,"LFLP 061530Z AUTO 21003KT CAVOK 05/01 Q1020 NOSIG"
"129","LFLP",2019-12-06 16:00:00,6.1058,45.9297,39.2,33.8,80.79,160,2,0,30.12,NA,6.21,NA,"FEW",NA,NA,NA,7800,NA,NA,NA,NA,NA,NA,NA,NA,NA,NA,NA,"LFLP 061600Z AUTO 16002KT 9999 FEW078 04/01 Q1020 NOSIG"
"130","LFLP",2019-12-06 16:30:00,6.1058,45.9297,37.4,33.8,86.69,40,3,0,30.12,NA,6.21,NA,"BKN","BKN",NA,NA,7800,24000,NA,NA,NA,NA,NA,NA,NA,NA,NA,34.86,"LFLP 061630Z AUTO 04003KT 350V070 9999 BKN078 BKN240 03/01 Q1020 NOSIG"
"131","LFLP",2019-12-06 17:00:00,6.1058,45.9297,37.4,33.8,86.69,50,5,0,30.12,NA,6.21,NA,"FEW","BKN","BKN",NA,7600,21000,24000,NA,NA,NA,NA,NA,NA,NA,NA,32.81,"LFLP 061700Z AUTO 05005KT 9999 FEW076 BKN210 BKN240 03/01 Q1020 NOSIG"
"132","LFLP",2019-12-06 17:30:00,6.1058,45.9297,37.4,33.8,86.69,80,5,0,30.12,NA,6.21,NA,"FEW","BKN",NA,NA,7600,22000,NA,NA,NA,NA,NA,NA,NA,NA,NA,32.81,"LFLP 061730Z AUTO 08005KT 9999 FEW076 BKN220 03/01 Q1020 NOSIG"
"133","LFLP",2019-12-06 18:00:00,6.1058,45.9297,37.4,33.8,86.69,40,5,0,30.12,NA,6.21,NA,NA,NA,NA,NA,NA,NA,NA,NA,NA,NA,NA,NA,NA,NA,NA,32.81,"LFLP 061800Z AUTO 04005KT CAVOK 03/01 Q1020 NOSIG"
"134","LFLP",2019-12-06 18:30:00,6.1058,45.9297,35.6,32,86.59,60,5,0,30.12,NA,5.59,NA,"NSC",NA,NA,NA,NA,NA,NA,NA,NA,NA,NA,NA,NA,NA,NA,30.67,"LFLP 061830Z AUTO 06005KT 9000 NSC 02/M00 Q1020 NOSIG"
"135","LFLP",2019-12-06 19:00:00,6.1058,45.9297,35.6,32,86.59,90,2,0,30.15,NA,6.21,NA,NA,NA,NA,NA,NA,NA,NA,NA,NA,NA,NA,NA,NA,NA,NA,NA,"LFLP 061900Z AUTO 09002KT CAVOK 02/M00 Q1021 NOSIG"
"136","LFLP",2019-12-06 19:30:00,6.1058,45.9297,35.6,32,86.59,50,3,0,30.12,NA,6.21,NA,"OVC",NA,NA,NA,8200,NA,NA,NA,NA,NA,NA,NA,NA,NA,NA,32.8,"LFLP 061930Z AUTO 05003KT 360V070 9999 OVC082 02/00 Q1020 NOSIG"
"137","LFLP",2019-12-06 20:00:00,6.1058,45.9297,35.6,33.8,93.08,NA,3,0,30.12,NA,6.21,NA,"OVC",NA,NA,NA,8200,NA,NA,NA,NA,NA,NA,NA,NA,NA,NA,32.8,"LFLP 062000Z AUTO VRB03KT 9999 OVC082 02/01 Q1020 NOSIG"
"138","LFLP",2019-12-06 20:30:00,6.1058,45.9297,37.4,33.8,86.69,NA,2,0,30.12,NA,6.21,NA,"OVC",NA,NA,NA,8200,NA,NA,NA,NA,NA,NA,NA,NA,NA,NA,NA,"LFLP 062030Z AUTO VRB02KT 9999 OVC082 03/01 Q1020 NOSIG"
"139","LFLP",2019-12-06 21:00:00,6.1058,45.9297,37.4,33.8,86.69,0,0,0,30.15,NA,6.21,NA,"OVC",NA,NA,NA,8200,NA,NA,NA,NA,NA,NA,NA,NA,NA,NA,NA,"LFLP 062100Z AUTO 00000KT 9999 OVC082 03/01 Q1021 NOSIG"
"140","LFLP",2019-12-06 21:30:00,6.1058,45.9297,37.4,33.8,86.69,NA,1,0,30.15,NA,6.21,NA,NA,NA,NA,NA,NA,NA,NA,NA,NA,NA,NA,NA,NA,NA,NA,NA,"LFLP 062130Z AUTO VRB01KT CAVOK 03/01 Q1021"
"141","LFLP",2019-12-06 22:00:00,6.1058,45.9297,37.4,33.8,86.69,150,1,0,30.15,NA,6.21,NA,NA,NA,NA,NA,NA,NA,NA,NA,NA,NA,NA,NA,NA,NA,NA,NA,"LFLP 062200Z AUTO 15001KT CAVOK 03/01 Q1021"
"142","LFLP",2019-12-06 22:30:00,6.1058,45.9297,37.4,33.8,86.69,60,2,0,30.15,NA,6.21,NA,NA,NA,NA,NA,NA,NA,NA,NA,NA,NA,NA,NA,NA,NA,NA,NA,"LFLP 062230Z AUTO 06002KT CAVOK 03/01 Q1021"
"143","LFLP",2019-12-06 23:00:00,6.1058,45.9297,37.4,33.8,86.69,NA,2,0,30.15,NA,6.21,NA,NA,NA,NA,NA,NA,NA,NA,NA,NA,NA,NA,NA,NA,NA,NA,NA,"LFLP 062300Z AUTO VRB02KT CAVOK 03/01 Q1021"
"144","LFLP",2019-12-06 23:30:00,6.1058,45.9297,37.4,33.8,86.69,0,0,0,30.15,NA,6.21,NA,NA,NA,NA,NA,NA,NA,NA,NA,NA,NA,NA,NA,NA,NA,NA,NA,"LFLP 062330Z AUTO 00000KT CAVOK 03/01 Q1021"
"145","LFLW",2019-12-06 00:00:00,2.4211,44.8986,32,30.2,92.97,120,3,0,30.21,NA,6.21,NA,NA,NA,NA,NA,NA,NA,NA,NA,NA,NA,NA,NA,NA,NA,NA,28.69,"LFLW 060000Z AUTO 12003KT 9999 ////// M00/M01 Q1023"
"146","LFLW",2019-12-06 00:30:00,2.4211,44.8986,30.2,28.4,92.92,120,4,0,30.21,NA,6.21,NA,NA,NA,NA,NA,NA,NA,NA,NA,NA,NA,NA,NA,NA,NA,NA,25.32,"LFLW 060030Z AUTO 12004KT 9999 ////// M01/M02 Q1023"
"147","LFLW",2019-12-06 01:00:00,2.4211,44.8986,28.4,26.6,92.86,120,3,0,30.21,NA,6.21,NA,NA,NA,NA,NA,NA,NA,NA,NA,NA,NA,NA,NA,NA,NA,NA,24.57,"LFLW 060100Z AUTO 12003KT 9999 ////// M02/M03 Q1023"
"148","LFLW",2019-12-06 01:30:00,2.4211,44.8986,30.2,28.4,92.92,120,4,0,30.21,NA,6.21,NA,NA,NA,NA,NA,NA,NA,NA,NA,NA,NA,NA,NA,NA,NA,NA,25.32,"LFLW 060130Z AUTO 12004KT 9999 ////// M01/M02 Q1023"
"149","LFLW",2019-12-06 02:00:00,2.4211,44.8986,30.2,28.4,92.92,120,5,0,30.21,NA,6.21,NA,NA,NA,NA,NA,NA,NA,NA,NA,NA,NA,NA,NA,NA,NA,NA,24.26,"LFLW 060200Z AUTO 12005KT 9999 ////// M01/M02 Q1023"
"150","LFLW",2019-12-06 02:30:00,2.4211,44.8986,28.4,26.6,92.86,110,4,0,30.21,NA,6.21,NA,NA,NA,NA,NA,NA,NA,NA,NA,NA,NA,NA,NA,NA,NA,NA,23.22,"LFLW 060230Z AUTO 11004KT 9999 ////// M02/M03 Q1023"
"151","LFLW",2019-12-06 03:00:00,2.4211,44.8986,28.4,26.6,92.86,110,3,0,30.21,NA,6.21,NA,NA,NA,NA,NA,NA,NA,NA,NA,NA,NA,NA,NA,NA,NA,NA,24.57,"LFLW 060300Z AUTO 11003KT 9999 ////// M02/M03 Q1023"
"152","LFLW",2019-12-06 03:30:00,2.4211,44.8986,30.2,26.6,86.28,120,3,0,30.21,NA,6.21,NA,NA,NA,NA,NA,NA,NA,NA,NA,NA,NA,NA,NA,NA,NA,NA,26.63,"LFLW 060330Z AUTO 12003KT 9999 ////// M01/M03 Q1023"
"153","LFLW",2019-12-06 04:00:00,2.4211,44.8986,30.2,28.4,92.92,130,4,0,30.21,NA,6.21,NA,NA,NA,NA,NA,NA,NA,NA,NA,NA,NA,NA,NA,NA,NA,NA,25.32,"LFLW 060400Z AUTO 13004KT 9999 ////// M01/M02 Q1023"
"154","LFLW",2019-12-06 04:30:00,2.4211,44.8986,28.4,26.6,92.86,110,5,0,30.18,NA,6.21,NA,NA,NA,NA,NA,NA,NA,NA,NA,NA,NA,NA,NA,NA,NA,NA,22.12,"LFLW 060430Z AUTO 11005KT 9999 ////// M02/M03 Q1022"
"155","LFLW",2019-12-06 05:00:00,2.4211,44.8986,30.2,26.6,86.28,110,5,0,30.18,NA,6.21,NA,NA,NA,NA,NA,NA,NA,NA,NA,NA,NA,NA,NA,NA,NA,NA,24.26,"LFLW 060500Z AUTO 11005KT 9999 ////// M01/M03 Q1022"
"156","LFLW",2019-12-06 05:30:00,2.4211,44.8986,30.2,26.6,86.28,110,4,0,30.18,NA,6.21,NA,NA,NA,NA,NA,NA,NA,NA,NA,NA,NA,NA,NA,NA,NA,NA,25.32,"LFLW 060530Z AUTO 11004KT 9999 ////// M01/M03 Q1022"
"157","LFLW",2019-12-06 06:00:00,2.4211,44.8986,30.2,26.6,86.28,120,1,0,30.21,NA,6.21,NA,NA,NA,NA,NA,NA,NA,NA,NA,NA,NA,NA,NA,NA,NA,NA,NA,"LFLW 060600Z AUTO 12001KT 9999 ////// M01/M03 Q1023"
"158","LFLW",2019-12-06 06:30:00,2.4211,44.8986,28.4,24.8,86.18,130,4,0,30.21,NA,6.21,NA,NA,NA,NA,NA,NA,NA,NA,NA,NA,NA,NA,NA,NA,NA,NA,23.22,"LFLW 060630Z AUTO 13004KT 9999 ////// M02/M04 Q1023"
"159","LFLW",2019-12-06 07:00:00,2.4211,44.8986,28.4,26.6,92.86,120,5,0,30.21,NA,6.21,NA,NA,NA,NA,NA,NA,NA,NA,NA,NA,NA,NA,NA,NA,NA,NA,22.12,"LFLW 060700Z AUTO 12005KT 9999 ////// M02/M03 Q1023"
"160","LFLW",2019-12-06 07:30:00,2.4211,44.8986,30.2,26.6,86.28,110,3,0,30.21,NA,6.21,NA,NA,NA,NA,NA,NA,NA,NA,NA,NA,NA,NA,NA,NA,NA,NA,26.63,"LFLW 060730Z AUTO 11003KT 9999 ////// M01/M03 Q1023"
"161","LFLW",2019-12-06 08:00:00,2.4211,44.8986,30.2,26.6,86.28,110,3,0,30.21,NA,6.21,NA,NA,NA,NA,NA,NA,NA,NA,NA,NA,NA,NA,NA,NA,NA,NA,26.63,"LFLW 060800Z AUTO 11003KT 9999 ////// M01/M03 Q1023"
"162","LFLW",2019-12-06 08:30:00,2.4211,44.8986,35.6,30.2,80.51,120,3,0,30.21,NA,6.21,NA,NA,NA,NA,NA,NA,NA,NA,NA,NA,NA,NA,NA,NA,NA,NA,32.8,"LFLW 060830Z AUTO 12003KT 9999 ////// 02/M01 Q1023"
"163","LFLW",2019-12-06 09:00:00,2.4211,44.8986,37.4,30.2,74.98,120,3,0,30.21,NA,6.21,NA,NA,NA,NA,NA,NA,NA,NA,NA,NA,NA,NA,NA,NA,NA,NA,34.86,"LFLW 060900Z AUTO 12003KT 9999 ////// 03/M01 Q1023"
"164","LFLW",2019-12-06 09:30:00,2.4211,44.8986,41,32,70.08,NA,1,0,30.21,NA,6.21,NA,NA,NA,NA,NA,NA,NA,NA,NA,NA,NA,NA,NA,NA,NA,NA,NA,"LFLW 060930Z AUTO VRB01KT 9999 ////// 05/00 Q1023"
"165","LFLW",2019-12-06 10:00:00,2.4211,44.8986,44.6,33.8,65.61,NA,2,0,30.21,NA,6.21,NA,NA,NA,NA,NA,NA,NA,NA,NA,NA,NA,NA,NA,NA,NA,NA,NA,"LFLW 061000Z AUTO VRB02KT 9999 ////// 07/01 Q1023"
"166","LFLW",2019-12-06 10:30:00,2.4211,44.8986,46.4,33.8,61.28,110,2,0,30.21,NA,6.21,NA,NA,NA,NA,NA,NA,NA,NA,NA,NA,NA,NA,NA,NA,NA,NA,NA,"LFLW 061030Z AUTO 11002KT 9999 ////// 08/01 Q1023"
"167","LFLW",2019-12-06 11:00:00,2.4211,44.8986,50,33.8,53.54,NA,2,0,30.21,NA,6.21,NA,NA,NA,NA,NA,NA,NA,NA,NA,NA,NA,NA,NA,NA,NA,NA,NA,"LFLW 061100Z AUTO VRB02KT 9999 ////// 10/01 Q1023"
"168","LFLW",2019-12-06 11:30:00,2.4211,44.8986,51.8,32,46.59,NA,3,0,30.18,NA,6.21,NA,NA,NA,NA,NA,NA,NA,NA,NA,NA,NA,NA,NA,NA,NA,NA,NA,"LFLW 061130Z AUTO VRB03KT 9999 ////// 11/00 Q1022"
"169","LFLW",2019-12-06 12:00:00,2.4211,44.8986,51.8,33.8,50.08,120,5,0,30.18,NA,6.21,NA,NA,NA,NA,NA,NA,NA,NA,NA,NA,NA,NA,NA,NA,NA,NA,NA,"LFLW 061200Z AUTO 12005KT 9999 ////// 11/01 Q1022"
"170","LFLW",2019-12-06 12:30:00,2.4211,44.8986,51.8,33.8,50.08,140,4,0,30.18,NA,6.21,NA,NA,NA,NA,NA,NA,NA,NA,NA,NA,NA,NA,NA,NA,NA,NA,NA,"LFLW 061230Z AUTO 14004KT 9999 ////// 11/01 Q1022"
"171","LFLW",2019-12-06 13:00:00,2.4211,44.8986,53.6,33.8,46.88,160,3,0,30.15,NA,6.21,NA,NA,NA,NA,NA,NA,NA,NA,NA,NA,NA,NA,NA,NA,NA,NA,NA,"LFLW 061300Z AUTO 16003KT 120V210 9999 ////// 12/01 Q1021"
"172","LFLW",2019-12-06 13:30:00,2.4211,44.8986,53.6,33.8,46.88,210,4,0,30.15,NA,6.21,NA,NA,NA,NA,NA,NA,NA,NA,NA,NA,NA,NA,NA,NA,NA,NA,NA,"LFLW 061330Z AUTO 21004KT 140V250 9999 ////// 12/01 Q1021"
"173","LFLW",2019-12-06 14:00:00,2.4211,44.8986,51.8,33.8,50.08,230,4,0,30.15,NA,6.21,NA,NA,NA,NA,NA,NA,NA,NA,NA,NA,NA,NA,NA,NA,NA,NA,NA,"LFLW 061400Z AUTO 23004KT 190V260 9999 ////// 11/01 Q1021"
"174","LFLW",2019-12-06 14:30:00,2.4211,44.8986,51.8,33.8,50.08,230,3,0,30.15,NA,6.21,NA,NA,NA,NA,NA,NA,NA,NA,NA,NA,NA,NA,NA,NA,NA,NA,NA,"LFLW 061430Z AUTO 23003KT 180V250 9999 ////// 11/01 Q1021"
"175","LFLW",2019-12-06 15:00:00,2.4211,44.8986,50,33.8,53.54,NA,3,0,30.15,NA,6.21,NA,NA,NA,NA,NA,NA,NA,NA,NA,NA,NA,NA,NA,NA,NA,NA,49.27,"LFLW 061500Z AUTO VRB03KT 9999 ////// 10/01 Q1021"
"176","LFLW",2019-12-06 15:30:00,2.4211,44.8986,48.2,33.8,57.26,230,2,0,30.15,NA,6.21,NA,NA,NA,NA,NA,NA,NA,NA,NA,NA,NA,NA,NA,NA,NA,NA,NA,"LFLW 061530Z AUTO 23002KT 9999 ////// 09/01 Q1021"
"177","LFLW",2019-12-06 16:00:00,2.4211,44.8986,46.4,33.8,61.28,200,2,0,30.15,NA,6.21,NA,NA,NA,NA,NA,NA,NA,NA,NA,NA,NA,NA,NA,NA,NA,NA,NA,"LFLW 061600Z AUTO 20002KT 9999 ////// 08/01 Q1021"
"178","LFLW",2019-12-06 16:30:00,2.4211,44.8986,44.6,33.8,65.61,0,0,0,30.15,NA,6.21,NA,NA,NA,NA,NA,NA,NA,NA,NA,NA,NA,NA,NA,NA,NA,NA,NA,"LFLW 061630Z AUTO 00000KT 9999 ////// 07/01 Q1021"
"179","LFLW",2019-12-06 17:00:00,2.4211,44.8986,42.8,33.8,70.28,0,0,0,30.15,NA,6.21,NA,NA,NA,NA,NA,NA,NA,NA,NA,NA,NA,NA,NA,NA,NA,NA,NA,"LFLW 061700Z AUTO 00000KT 9999 ////// 06/01 Q1021"
"180","LFLW",2019-12-06 17:30:00,2.4211,44.8986,41,33.8,75.33,120,2,0,30.15,NA,6.21,NA,NA,NA,NA,NA,NA,NA,NA,NA,NA,NA,NA,NA,NA,NA,NA,NA,"LFLW 061730Z AUTO 12002KT 9999 ////// 05/01 Q1021"
"181","LFLW",2019-12-06 18:00:00,2.4211,44.8986,39.2,33.8,80.79,110,2,0,30.15,NA,6.21,NA,NA,NA,NA,NA,NA,NA,NA,NA,NA,NA,NA,NA,NA,NA,NA,NA,"LFLW 061800Z AUTO 11002KT 9999 ////// 04/01 Q1021"
"182","LFLW",2019-12-06 18:30:00,2.4211,44.8986,35.6,32,86.59,110,2,0,30.15,NA,6.21,NA,NA,NA,NA,NA,NA,NA,NA,NA,NA,NA,NA,NA,NA,NA,NA,NA,"LFLW 061830Z AUTO 11002KT 9999 ////// 02/00 Q1021"
"183","LFLW",2019-12-06 19:00:00,2.4211,44.8986,35.6,33.8,93.08,110,4,0,30.15,NA,6.21,NA,NA,NA,NA,NA,NA,NA,NA,NA,NA,NA,NA,NA,NA,NA,NA,31.62,"LFLW 061900Z AUTO 11004KT 9999 ////// 02/01 Q1021"
"184","LFLW",2019-12-06 19:30:00,2.4211,44.8986,37.4,33.8,86.69,120,3,0,30.15,NA,6.21,NA,NA,NA,NA,NA,NA,NA,NA,NA,NA,NA,NA,NA,NA,NA,NA,34.86,"LFLW 061930Z AUTO 12003KT 9999 ////// 03/01 Q1021"
"185","LFLW",2019-12-06 20:00:00,2.4211,44.8986,39.2,33.8,80.79,90,5,0,30.15,NA,6.21,NA,NA,NA,NA,NA,NA,NA,NA,NA,NA,NA,NA,NA,NA,NA,NA,34.95,"LFLW 062000Z AUTO 09005KT 9999 ////// 04/01 Q1021"
"186","LFLW",2019-12-06 20:30:00,2.4211,44.8986,37.4,33.8,86.69,100,4,0,30.18,NA,6.21,NA,NA,NA,NA,NA,NA,NA,NA,NA,NA,NA,NA,NA,NA,NA,NA,33.73,"LFLW 062030Z AUTO 10004KT 9999 ////// 03/01 Q1022"
"187","LFLW",2019-12-06 21:00:00,2.4211,44.8986,37.4,33.8,86.69,NA,3,0,30.18,NA,6.21,NA,NA,NA,NA,NA,NA,NA,NA,NA,NA,NA,NA,NA,NA,NA,NA,34.86,"LFLW 062100Z AUTO VRB03KT 9999 ////// 03/01 Q1022"
"188","LFLW",2019-12-06 21:30:00,2.4211,44.8986,37.4,33.8,86.69,100,3,0,30.18,NA,6.21,NA,NA,NA,NA,NA,NA,NA,NA,NA,NA,NA,NA,NA,NA,NA,NA,34.86,"LFLW 062130Z AUTO 10003KT 9999 ////// 03/01 Q1022"
"189","LFLW",2019-12-06 22:00:00,2.4211,44.8986,37.4,35.6,93.14,120,4,0,30.18,NA,6.21,NA,NA,NA,NA,NA,NA,NA,NA,NA,NA,NA,NA,NA,NA,NA,NA,33.73,"LFLW 062200Z AUTO 12004KT 9999 ////// 03/02 Q1022"
"190","LFLW",2019-12-06 22:30:00,2.4211,44.8986,39.2,33.8,80.79,90,5,0,30.18,NA,6.21,NA,NA,NA,NA,NA,NA,NA,NA,NA,NA,NA,NA,NA,NA,NA,NA,34.95,"LFLW 062230Z AUTO 09005KT 9999 ////// 04/01 Q1022"
"191","LFLW",2019-12-06 23:00:00,2.4211,44.8986,39.2,33.8,80.79,100,5,0,30.15,NA,6.21,NA,NA,NA,NA,NA,NA,NA,NA,NA,NA,NA,NA,NA,NA,NA,NA,34.95,"LFLW 062300Z AUTO 10005KT 9999 ////// 04/01 Q1021"
"192","LFLW",2019-12-06 23:30:00,2.4211,44.8986,39.2,33.8,80.79,100,4,0,30.18,NA,6.21,NA,NA,NA,NA,NA,NA,NA,NA,NA,NA,NA,NA,NA,NA,NA,NA,35.83,"LFLW 062330Z AUTO 10004KT 9999 ////// 04/01 Q1022"
"193","LFOA",2019-12-06 00:00:00,2.6325,47.0533,30.2,28.4,92.92,80,4,0,30.18,NA,3.11,NA,"NSC",NA,NA,NA,NA,NA,NA,NA,"BR",NA,NA,NA,NA,NA,NA,25.32,"LFOA 060000Z AUTO 08004KT 5000 BR NSC M01/M02 Q1022"
"194","LFOA",2019-12-06 00:30:00,2.6325,47.0533,30.2,28.4,92.92,70,3,0,30.18,NA,3.11,NA,"NSC",NA,NA,NA,NA,NA,NA,NA,"BR",NA,NA,NA,NA,NA,NA,26.63,"LFOA 060030Z AUTO 07003KT 5000 BR NSC M01/M02 Q1022"
"195","LFOA",2019-12-06 01:00:00,2.6325,47.0533,30.2,28.4,92.92,80,5,0,30.18,NA,3.11,NA,"NSC",NA,NA,NA,NA,NA,NA,NA,"BR",NA,NA,NA,NA,NA,NA,24.26,"LFOA 060100Z AUTO 08005KT 5000 BR NSC M01/M02 Q1022"
"196","LFOA",2019-12-06 01:30:00,2.6325,47.0533,28.4,26.6,92.86,80,4,0,30.18,NA,3.11,NA,"NSC",NA,NA,NA,NA,NA,NA,NA,"BR",NA,NA,NA,NA,NA,NA,23.22,"LFOA 060130Z AUTO 08004KT 5000 BR NSC M02/M03 Q1022"
"197","LFOA",2019-12-06 02:00:00,2.6325,47.0533,28.4,28.4,100,110,3,0,30.18,NA,3.11,NA,"NSC",NA,NA,NA,NA,NA,NA,NA,"BR",NA,NA,NA,NA,NA,NA,24.57,"LFOA 060200Z AUTO 11003KT 5000 BR NSC M02/M02 Q1022"
"198","LFOA",2019-12-06 02:30:00,2.6325,47.0533,28.4,28.4,100,120,3,0,30.18,NA,2.98,NA,"NSC",NA,NA,NA,NA,NA,NA,NA,"BR",NA,NA,NA,NA,NA,NA,24.57,"LFOA 060230Z AUTO 12003KT 4800 BR NSC M02/M02 Q1022"
"199","LFOA",2019-12-06 03:00:00,2.6325,47.0533,28.4,26.6,92.86,110,4,0,30.15,NA,2.8,NA,"NSC",NA,NA,NA,NA,NA,NA,NA,"BR",NA,NA,NA,NA,NA,NA,23.22,"LFOA 060300Z AUTO 11004KT 4500 BR NSC M02/M03 Q1021"
"200","LFOA",2019-12-06 03:30:00,2.6325,47.0533,28.4,26.6,92.86,0,0,0,30.15,NA,2.86,NA,"NSC",NA,NA,NA,NA,NA,NA,NA,"BR",NA,NA,NA,NA,NA,NA,NA,"LFOA 060330Z AUTO 00000KT 4600 BR NSC M02/M03 Q1021"
"201","LFOA",2019-12-06 04:00:00,2.6325,47.0533,28.4,26.6,92.86,0,0,0,30.15,NA,2.67,NA,"NSC",NA,NA,NA,NA,NA,NA,NA,"BR",NA,NA,NA,NA,NA,NA,NA,"LFOA 060400Z AUTO 00000KT 4300 BR NSC M02/M03 Q1021"
"202","LFOA",2019-12-06 04:30:00,2.6325,47.0533,28.4,28.4,100,0,0,0,30.15,NA,2.42,NA,"FEW",NA,NA,NA,600,NA,NA,NA,"BR",NA,NA,NA,NA,NA,NA,NA,"LFOA 060430Z AUTO 00000KT 3900 BR FEW006 M02/M02 Q1021"
"203","LFOA",2019-12-06 05:00:00,2.6325,47.0533,30.2,28.4,92.92,160,2,0,30.15,NA,2.86,NA,"BKN","OVC",NA,NA,200,600,NA,NA,"BR",NA,NA,NA,NA,NA,NA,NA,"LFOA 060500Z AUTO 16002KT 4600 BR BKN002 OVC006 M01/M02 Q1021"
"204","LFOA",2019-12-06 05:30:00,2.6325,47.0533,30.2,30.2,100,260,2,0,30.15,NA,0.22,NA,"VV ",NA,NA,NA,NA,NA,NA,NA,"FZFG",NA,NA,NA,NA,NA,NA,NA,"LFOA 060530Z AUTO 26002KT 0350 R24/0450N FZFG VV/// M01/M01 Q1021"
"205","LFOA",2019-12-06 06:00:00,2.6325,47.0533,32,32,100,230,6,0,30.15,NA,0.19,NA,"VV ",NA,NA,NA,NA,NA,NA,NA,"FG",NA,NA,NA,NA,NA,NA,25.53,"LFOA 060600Z AUTO 23006KT 0300 R24/0325N FG VV/// 00/M00 Q1021 NOSIG"
"206","LFOA",2019-12-06 06:30:00,2.6325,47.0533,32,32,100,240,7,0,30.15,NA,0.22,NA,"VV ",NA,NA,NA,NA,NA,NA,NA,"FG",NA,NA,NA,NA,NA,NA,24.78,"LFOA 060630Z AUTO 24007KT 0350 0300 R24/0375N FG VV/// 00/00 Q1021 TEMPO 1200 BR"
"207","LFOA",2019-12-06 07:00:00,2.6325,47.0533,32,32,100,260,6,0,30.18,NA,0.25,NA,"VV ",NA,NA,NA,NA,NA,NA,NA,"FG",NA,NA,NA,NA,NA,NA,25.53,"LFOA 060700Z AUTO 26006KT 0400 R24/0500D FG VV/// 00/00 Q1022 TEMPO 1200 BR"
"208","LFOA",2019-12-06 07:30:00,2.6325,47.0533,33.8,32,93.03,210,4,0,30.15,NA,0.22,NA,"VV ",NA,NA,NA,NA,NA,NA,NA,"FG",NA,NA,NA,NA,NA,NA,29.52,"LFOA 060730Z AUTO 21004KT 0350 R24/0400N FG VV/// 01/00 Q1021 TEMPO 1200 BR"
"209","LFOA",2019-12-06 08:00:00,2.6325,47.0533,33.8,33.8,100,210,3,0,30.18,NA,0.19,NA,"VV ",NA,NA,NA,NA,NA,NA,NA,"FG",NA,NA,NA,NA,NA,NA,30.75,"LFOA 060800Z AUTO 21003KT 0300 R24/0375N FG VV/// 01/01 Q1022 TEMPO 1200 BR"
"210","LFOA",2019-12-06 08:30:00,2.6325,47.0533,33.8,33.8,100,210,3,0,30.18,NA,0.19,NA,"VV ",NA,NA,NA,NA,NA,NA,NA,"FG",NA,NA,NA,NA,NA,NA,30.75,"LFOA 060830Z AUTO 21003KT 0300 R24/0375N FG VV/// 01/01 Q1022 TEMPO 1200 BR"
"211","LFOA",2019-12-06 09:00:00,2.6325,47.0533,35.6,33.8,93.08,210,4,0,30.18,NA,0.16,NA,"VV ",NA,NA,NA,NA,NA,NA,NA,"FG",NA,NA,NA,NA,NA,NA,31.62,"LFOA 060900Z AUTO 21004KT 0250 R24/0300N FG VV/// 02/01 Q1022 TEMPO 1200 BR"
"212","LFOA",2019-12-06 09:30:00,2.6325,47.0533,35.6,35.6,100,220,5,0,30.18,NA,0.16,NA,"VV ",NA,NA,NA,NA,NA,NA,NA,"FG",NA,NA,NA,NA,NA,NA,30.67,"LFOA 060930Z AUTO 22005KT 0250 R24/0300N FG VV/// 02/02 Q1022 BECMG 3000 BR OVC003"
"213","LFOA",2019-12-06 10:00:00,2.6325,47.0533,35.6,35.6,100,230,5,0,30.18,NA,0.19,NA,"VV ",NA,NA,NA,NA,NA,NA,NA,"FG",NA,NA,NA,NA,NA,NA,30.67,"LFOA 061000Z AUTO 23005KT 0300 R24/0350N FG VV/// 02/02 Q1022 BECMG 3000 BR OVC003"
"214","LFOA",2019-12-06 10:30:00,2.6325,47.0533,35.6,35.6,100,210,6,0,30.18,NA,0.19,NA,"VV ",NA,NA,NA,NA,NA,NA,NA,"FG",NA,NA,NA,NA,NA,NA,29.87,"LFOA 061030Z AUTO 21006KT 0300 R24/0400N FG VV/// 02/02 Q1022 BECMG 3000 BR OVC003"
"215","LFOA",2019-12-06 11:00:00,2.6325,47.0533,37.4,35.6,93.14,210,7,0,30.15,NA,0.28,NA,"VV ",NA,NA,NA,NA,NA,NA,NA,"FG",NA,NA,NA,NA,NA,NA,31.36,"LFOA 061100Z AUTO 21007KT 0450 0400 R24/0550N FG VV/// 03/02 Q1021 BECMG 3000 BR OVC003"
"216","LFOA",2019-12-06 11:30:00,2.6325,47.0533,37.4,35.6,93.14,200,5,0,30.15,NA,0.47,NA,"VV ",NA,NA,NA,NA,NA,NA,NA,"FG",NA,NA,NA,NA,NA,NA,32.81,"LFOA 061130Z AUTO 20005KT 0750 0700 R24/1100U FG VV/// 03/02 Q1021 BECMG 3000 BR OVC003"
"217","LFOA",2019-12-06 12:00:00,2.6325,47.0533,39.2,37.4,93.19,200,6,0,30.12,NA,1.18,NA,"OVC",NA,NA,NA,200,NA,NA,NA,"BR",NA,NA,NA,NA,NA,NA,34.2,"LFOA 061200Z AUTO 20006KT 1900 BR OVC002 04/03 Q1020 BECMG 3000 BR"
"218","LFOA",2019-12-06 12:30:00,2.6325,47.0533,39.2,39.2,100,210,4,0,30.12,NA,1.99,NA,"OVC",NA,NA,NA,200,NA,NA,NA,"BR",NA,NA,NA,NA,NA,NA,35.83,"LFOA 061230Z AUTO 21004KT 3200 BR OVC002 04/04 Q1020 TEMPO 5000 -RA BKN006 BKN015"
"219","LFOA",2019-12-06 13:00:00,2.6325,47.0533,39.2,39.2,100,230,3,0,30.09,NA,2.61,NA,"BKN","OVC",NA,NA,300,15000,NA,NA,"BR",NA,NA,NA,NA,NA,NA,36.92,"LFOA 061300Z AUTO 23003KT 4200 BR BKN003 OVC150 04/04 Q1019 TEMPO 5000 -RA BKN006 BKN015"
"220","LFOA",2019-12-06 13:30:00,2.6325,47.0533,41,41,100,NA,3,0,30.09,NA,2.92,NA,"SCT","BKN","OVC",NA,500,900,15000,NA,"BR",NA,NA,NA,NA,NA,NA,38.98,"LFOA 061330Z AUTO VRB03KT 4700 BR SCT005 BKN009 OVC150 05/05 Q1019 TEMPO 5000 -RA"
"221","LFOA",2019-12-06 14:00:00,2.6325,47.0533,41,41,100,280,8,0,30.09,NA,6.21,NA,"BKN","OVC",NA,NA,800,12000,NA,NA,NA,NA,NA,NA,NA,NA,NA,35.2,"LFOA 061400Z AUTO 28008KT 9999 BKN008 OVC120 05/05 Q1019 NOSIG"
"222","LFOA",2019-12-06 14:30:00,2.6325,47.0533,42.8,41,93.3,260,8,0,30.09,NA,6.21,NA,"FEW","BKN",NA,NA,1000,14000,NA,NA,NA,NA,NA,NA,NA,NA,NA,37.42,"LFOA 061430Z AUTO 26008KT 9999 FEW010 BKN140 06/05 Q1019 TEMPO 3000 -RA BR BKN003 OVC008"
"223","LFOA",2019-12-06 15:00:00,2.6325,47.0533,42.8,41,93.3,250,6,0,30.09,NA,6.21,NA,NA,NA,NA,NA,NA,NA,NA,NA,NA,NA,NA,NA,NA,NA,NA,38.54,"LFOA 061500Z AUTO 25006KT CAVOK 06/05 Q1019 TEMPO 3000 -RA BR BKN003 OVC008"
"224","LFOA",2019-12-06 15:30:00,2.6325,47.0533,42.8,41,93.3,210,6,0,30.06,NA,6.21,NA,"BKN","BKN","OVC",NA,1300,2100,13000,NA,NA,NA,NA,NA,NA,NA,NA,38.54,"LFOA 061530Z AUTO 21006KT 9999 BKN013 BKN021 OVC130 06/05 Q1018 TEMPO 3000 -RA BR BKN003 OVC008"
"225","LFOA",2019-12-06 16:00:00,2.6325,47.0533,42.8,41,93.3,200,8,0,30.06,NA,6.21,NA,"OVC",NA,NA,NA,1200,NA,NA,NA,NA,NA,NA,NA,NA,NA,NA,37.42,"LFOA 061600Z AUTO 20008KT 9999 OVC012 06/05 Q1018 TEMPO 3000 -RA BR BKN003 OVC008"
"226","LFOA",2019-12-06 16:30:00,2.6325,47.0533,42.8,41,93.3,200,8,0,30.06,NA,6.21,NA,"BKN","OVC",NA,NA,1400,1900,NA,NA,NA,NA,NA,NA,NA,NA,NA,37.42,"LFOA 061630Z AUTO 20008KT 9999 BKN014 OVC019 06/05 Q1018 TEMPO 3000 -RA BR BKN003 OVC008"
"227","LFOA",2019-12-06 17:00:00,2.6325,47.0533,42.8,41,93.3,200,9,0,30.06,NA,4.97,NA,"SCT","SCT","OVC",NA,1500,2900,8600,NA,NA,NA,NA,NA,NA,NA,NA,36.94,"LFOA 061700Z AUTO 20009KT 8000 SCT015 SCT029 OVC086 06/05 Q1018 TEMPO 3000 -RA BR BKN003 OVC008"
"228","LFOA",2019-12-06 17:30:00,2.6325,47.0533,42.8,41,93.3,210,8,0,30.06,NA,4.35,NA,"NSC",NA,NA,NA,NA,NA,NA,NA,"-RA",NA,NA,NA,NA,NA,NA,37.42,"LFOA 061730Z AUTO 21008KT 7000 -RA NSC 06/05 Q1018"
"229","LFOA",2019-12-06 18:00:00,2.6325,47.0533,42.8,41,93.3,200,10,0,30.06,NA,4.35,NA,"FEW","BKN","OVC",NA,2000,7200,8400,NA,NA,NA,NA,NA,NA,NA,NA,36.51,"LFOA 061800Z AUTO 20010KT 7000 FEW020 BKN072 OVC084 06/05 Q1018"
"230","LFOA",2019-12-06 18:30:00,2.6325,47.0533,42.8,41,93.3,210,9,0,30.06,NA,4.35,NA,"BKN","BKN","OVC",NA,1900,3400,8000,NA,NA,NA,NA,NA,NA,NA,NA,36.94,"LFOA 061830Z AUTO 21009KT 7000 BKN019 BKN034 OVC080 06/05 Q1018"
"231","LFOA",2019-12-06 19:00:00,2.6325,47.0533,42.8,41,93.3,200,8,0,30.06,NA,4.97,NA,"BKN","BKN","BKN",NA,1800,2400,5200,NA,NA,NA,NA,NA,NA,NA,NA,37.42,"LFOA 061900Z AUTO 20008KT 8000 BKN018 BKN024 BKN052 06/05 Q1018"
"232","LFOA",2019-12-06 19:30:00,2.6325,47.0533,42.8,41,93.3,210,9,0,30.06,NA,4.97,NA,"BKN","BKN","BKN",NA,1900,7600,13000,NA,NA,NA,NA,NA,NA,NA,NA,36.94,"LFOA 061930Z AUTO 21009KT 8000 BKN019 BKN076 BKN130 06/05 Q1018"
"233","LFOA",2019-12-06 20:00:00,2.6325,47.0533,42.8,41,93.3,220,7,0,30.06,NA,4.97,NA,"SCT","BKN","BKN",NA,1800,7000,8600,NA,NA,NA,NA,NA,NA,NA,NA,37.94,"LFOA 062000Z AUTO 22007KT 8000 SCT018 BKN070 BKN086 06/05 Q1018"
"234","LFOA",2019-12-06 20:30:00,2.6325,47.0533,44.6,41,87.09,220,9,0,30.06,NA,6.21,NA,"SCT","BKN","OVC",NA,1800,2800,6000,NA,NA,NA,NA,NA,NA,NA,NA,39.18,"LFOA 062030Z AUTO 22009KT 9999 SCT018 BKN028 OVC060 07/05 Q1018"
"235","LFOA",2019-12-06 21:00:00,2.6325,47.0533,44.6,41,87.09,210,9,0,30.06,NA,6.21,NA,"BKN","BKN","OVC",NA,2000,2600,6400,NA,NA,NA,NA,NA,NA,NA,NA,39.18,"LFOA 062100Z AUTO 21009KT 9999 BKN020 BKN026 OVC064 07/05 Q1018"
"236","LFOA",2019-12-06 21:30:00,2.6325,47.0533,44.6,41,87.09,220,8,0,30.06,NA,6.21,NA,"BKN","OVC",NA,NA,1700,5400,NA,NA,NA,NA,NA,NA,NA,NA,NA,39.63,"LFOA 062130Z AUTO 22008KT 9999 BKN017 OVC054 07/05 Q1018"
"237","LFOA",2019-12-06 22:00:00,2.6325,47.0533,46.4,41,81.34,220,8,0,30.06,NA,6.21,NA,"FEW","BKN","BKN",NA,1100,2500,3300,NA,NA,NA,NA,NA,NA,NA,NA,41.85,"LFOA 062200Z AUTO 22008KT 9999 FEW011 BKN025 BKN033 08/05 Q1018"
"238","LFOA",2019-12-06 22:30:00,2.6325,47.0533,46.4,42.8,87.19,230,8,0,30.06,NA,4.35,NA,"OVC",NA,NA,NA,1500,NA,NA,NA,NA,NA,NA,NA,NA,NA,NA,41.85,"LFOA 062230Z AUTO 23008KT 7000 OVC015 08/06 Q1018"
"239","LFOA",2019-12-06 23:00:00,2.6325,47.0533,44.6,44.6,100,230,7,0,30.06,NA,2.55,NA,"OVC",NA,NA,NA,800,NA,NA,NA,"-DZ BR",NA,NA,NA,NA,NA,NA,40.14,"LFOA 062300Z AUTO 23007KT 4100 -DZ BR OVC008 07/07 Q1018"
"240","LFOA",2019-12-06 23:30:00,2.6325,47.0533,46.4,44.6,93.4,220,11,0,30.06,NA,3.11,NA,"BKN","OVC",NA,NA,700,1300,NA,NA,"BR",NA,NA,NA,NA,NA,NA,40.66,"LFOA 062330Z AUTO 22011KT 5000 BR BKN007 OVC013 08/07 Q1018"
"241","LFSB",2019-12-06 00:00:00,7.5103,47.6142,28.4,28.4,100,190,4,0,30.21,NA,3.11,NA,"NSC",NA,NA,NA,NA,NA,NA,NA,"BR",NA,NA,NA,NA,NA,NA,23.22,"LFSB 060000Z AUTO 19004KT 5000 BR NSC M02/M02 Q1023 TEMPO 1200"
"242","LFSB",2019-12-06 00:30:00,7.5103,47.6142,30.2,28.4,92.92,190,5,0,30.18,NA,3.11,NA,"NSC",NA,NA,NA,NA,NA,NA,NA,"BR",NA,NA,NA,NA,NA,NA,24.26,"LFSB 060030Z AUTO 19005KT 5000 BR NSC M01/M02 Q1022 TEMPO 1200"
"243","LFSB",2019-12-06 01:00:00,7.5103,47.6142,30.2,28.4,92.92,180,6,0,30.21,NA,3.11,NA,"NSC",NA,NA,NA,NA,NA,NA,NA,"BR",NA,NA,NA,NA,NA,NA,23.36,"LFSB 060100Z AUTO 18006KT 5000 BR NSC M01/M02 Q1023 TEMPO 1200"
"244","LFSB",2019-12-06 01:30:00,7.5103,47.6142,30.2,28.4,92.92,180,6,0,30.21,NA,3.11,NA,"FEW",NA,NA,NA,500,NA,NA,NA,"BR",NA,NA,NA,NA,NA,NA,23.36,"LFSB 060130Z AUTO 18006KT 5000 BR FEW005 M01/M02 Q1023 TEMPO 1200"
"245","LFSB",2019-12-06 02:00:00,7.5103,47.6142,30.2,28.4,92.92,170,8,0,30.21,NA,2.92,NA,"FEW",NA,NA,NA,400,NA,NA,NA,"BR",NA,NA,NA,NA,NA,NA,21.9,"LFSB 060200Z AUTO 17008KT 4700 BR FEW004 M01/M02 Q1023 TEMPO 1200"
"246","LFSB",2019-12-06 02:30:00,7.5103,47.6142,28.4,28.4,100,170,5,0,30.21,NA,2.67,NA,"BKN","BKN",NA,NA,300,1700,NA,NA,"BR",NA,NA,NA,NA,NA,NA,22.12,"LFSB 060230Z AUTO 17005KT 140V210 4300 BR BKN003 BKN017 M02/M02 Q1023 TEMPO 1200 BECMG NSC"
"247","LFSB",2019-12-06 03:00:00,7.5103,47.6142,30.2,28.4,92.92,170,5,0,30.18,NA,2.36,NA,"OVC",NA,NA,NA,300,NA,NA,NA,"BR",NA,NA,NA,NA,NA,NA,24.26,"LFSB 060300Z AUTO 17005KT 140V200 3800 BR OVC003 M01/M02 Q1022 TEMPO 1200 BECMG NSC"
"248","LFSB",2019-12-06 03:30:00,7.5103,47.6142,30.2,28.4,92.92,170,5,0,30.18,NA,1.86,NA,"OVC",NA,NA,NA,300,NA,NA,NA,"BR",NA,NA,NA,NA,NA,NA,24.26,"LFSB 060330Z 17005KT 3000 BR OVC003 M01/M02 Q1022 NOSIG"
"249","LFSB",2019-12-06 04:00:00,7.5103,47.6142,30.2,28.4,92.92,170,6,0,30.18,NA,1.86,NA,"OVC",NA,NA,NA,300,NA,NA,NA,"BR",NA,NA,NA,NA,NA,NA,23.36,"LFSB 060400Z 17006KT 3000 BR OVC003 M01/M02 Q1022 NOSIG"
"250","LFSB",2019-12-06 04:30:00,7.5103,47.6142,28.4,28.4,100,180,7,0,30.18,NA,1.86,NA,"BKN",NA,NA,NA,400,NA,NA,NA,"BR",NA,NA,NA,NA,NA,NA,20.39,"LFSB 060430Z 18007KT 3000 BR BKN004 M02/M02 Q1022 TEMPO NSC"
"251","LFSB",2019-12-06 05:00:00,7.5103,47.6142,28.4,28.4,100,180,4,0,30.18,NA,2.49,NA,"FEW",NA,NA,NA,400,NA,NA,NA,"BR",NA,NA,NA,NA,NA,NA,23.22,"LFSB 060500Z 18004KT 4000 BR FEW004 M02/M02 Q1022 TEMPO BKN003"
"252","LFSB",2019-12-06 05:30:00,7.5103,47.6142,28.4,28.4,100,190,6,0,30.18,NA,2.49,NA,"NSC",NA,NA,NA,NA,NA,NA,NA,"BR",NA,NA,NA,NA,NA,NA,21.19,"LFSB 060530Z 19006KT 4000 BR NSC M02/M02 Q1022 TEMPO BKN003"
"253","LFSB",2019-12-06 06:00:00,7.5103,47.6142,28.4,26.6,92.86,200,5,0,30.18,NA,2.49,NA,"NSC",NA,NA,NA,NA,NA,NA,NA,"BR",NA,NA,NA,NA,NA,NA,22.12,"LFSB 060600Z 20005KT 4000 BR NSC M02/M03 Q1022 NOSIG"
"254","LFSB",2019-12-06 06:30:00,7.5103,47.6142,28.4,28.4,100,190,5,0,30.18,NA,3.11,NA,"FEW",NA,NA,NA,500,NA,NA,NA,"BR",NA,NA,NA,NA,NA,NA,22.12,"LFSB 060630Z 19005KT 5000 BR FEW005 M02/M02 Q1022 NOSIG"
"255","LFSB",2019-12-06 07:00:00,7.5103,47.6142,28.4,28.4,100,180,7,0,30.18,NA,3.11,NA,"FEW",NA,NA,NA,500,NA,NA,NA,"BR",NA,NA,NA,NA,NA,NA,20.39,"LFSB 060700Z 18007KT 5000 BR FEW005 M02/M02 Q1022 NOSIG"
"256","LFSB",2019-12-06 07:30:00,7.5103,47.6142,30.2,28.4,92.92,190,6,0,30.18,NA,3.11,NA,"FEW",NA,NA,NA,500,NA,NA,NA,"BR",NA,NA,NA,NA,NA,NA,23.36,"LFSB 060730Z 19006KT 5000 BR FEW005 M01/M02 Q1022 BECMG FM0800 8000 NSW"
"257","LFSB",2019-12-06 08:00:00,7.5103,47.6142,30.2,28.4,92.92,170,6,0,30.18,NA,3.11,NA,"FEW",NA,NA,NA,600,NA,NA,NA,"BR",NA,NA,NA,NA,NA,NA,23.36,"LFSB 060800Z 17006KT 5000 BR FEW006 M01/M02 Q1022 BECMG TL0900 9000 NSW"
"258","LFSB",2019-12-06 08:30:00,7.5103,47.6142,32,28.4,86.39,180,5,0,30.18,NA,3.73,NA,"FEW","SCT",NA,NA,600,27000,NA,NA,NA,NA,NA,NA,NA,NA,NA,26.4,"LFSB 060830Z 18005KT 6000 FEW006 SCT270 M00/M02 Q1022 BECMG CAVOK"
"259","LFSB",2019-12-06 09:00:00,7.5103,47.6142,33.8,30.2,86.49,190,5,0,30.18,NA,4.97,NA,"FEW","SCT",NA,NA,700,27000,NA,NA,NA,NA,NA,NA,NA,NA,NA,28.53,"LFSB 060900Z 19005KT 8000 FEW007 SCT270 01/M01 Q1022 BECMG CAVOK"
"260","LFSB",2019-12-06 09:30:00,7.5103,47.6142,35.6,32,86.59,180,4,0,30.18,NA,4.97,NA,"FEW","SCT",NA,NA,700,27000,NA,NA,NA,NA,NA,NA,NA,NA,NA,31.62,"LFSB 060930Z 18004KT 130V210 8000 FEW007 SCT270 02/00 Q1022 BECMG CAVOK"
"261","LFSB",2019-12-06 10:00:00,7.5103,47.6142,37.4,33.8,86.69,170,7,0,30.18,NA,5.59,NA,"FEW","SCT",NA,NA,800,27000,NA,NA,NA,NA,NA,NA,NA,NA,NA,31.36,"LFSB 061000Z 17007KT 9000 FEW008 SCT270 03/01 Q1022 NOSIG"
"262","LFSB",2019-12-06 10:30:00,7.5103,47.6142,39.2,32,75.16,160,8,0,30.15,NA,6.21,NA,"FEW","SCT",NA,NA,2000,27000,NA,NA,NA,NA,NA,NA,NA,NA,NA,32.98,"LFSB 061030Z 16008KT 9999 FEW020 SCT270 04/00 Q1021 NOSIG"
"263","LFSB",2019-12-06 11:00:00,7.5103,47.6142,41,33.8,75.33,160,7,0,30.15,NA,6.21,NA,"FEW","SCT",NA,NA,2000,27000,NA,NA,NA,NA,NA,NA,NA,NA,NA,35.75,"LFSB 061100Z 16007KT 9999 FEW020 SCT270 05/01 Q1021 NOSIG"
"264","LFSB",2019-12-06 11:30:00,7.5103,47.6142,42.8,33.8,70.28,200,4,0,30.12,NA,6.21,NA,"FEW","SCT",NA,NA,2500,27000,NA,NA,NA,NA,NA,NA,NA,NA,NA,40.03,"LFSB 061130Z 20004KT 160V250 9999 FEW025 SCT270 06/01 Q1020 NOSIG"
"265","LFSB",2019-12-06 12:00:00,7.5103,47.6142,44.6,33.8,65.61,NA,3,0,30.12,NA,6.21,NA,"FEW","BKN",NA,NA,2500,27000,NA,NA,NA,NA,NA,NA,NA,NA,NA,43.09,"LFSB 061200Z VRB03KT 9999 FEW025 BKN270 07/01 Q1020 NOSIG"
"266","LFSB",2019-12-06 12:30:00,7.5103,47.6142,44.6,33.8,65.61,170,4,0,30.09,NA,6.21,NA,"FEW","BKN",NA,NA,2500,27000,NA,NA,NA,NA,NA,NA,NA,NA,NA,42.13,"LFSB 061230Z 17004KT 120V230 9999 FEW025 BKN270 07/01 Q1019 NOSIG"
"267","LFSB",2019-12-06 13:00:00,7.5103,47.6142,46.4,35.6,65.83,160,4,0,30.09,NA,6.21,NA,"FEW","BKN",NA,NA,2500,27000,NA,NA,NA,NA,NA,NA,NA,NA,NA,44.24,"LFSB 061300Z 16004KT 110V190 9999 FEW025 BKN270 08/02 Q1019 NOSIG"
"268","LFSB",2019-12-06 13:30:00,7.5103,47.6142,46.4,35.6,65.83,190,4,0,30.09,NA,6.21,NA,"FEW","BKN",NA,NA,2500,27000,NA,NA,NA,NA,NA,NA,NA,NA,NA,44.24,"LFSB 061330Z 19004KT 9999 FEW025 BKN270 08/02 Q1019 NOSIG"
"269","LFSB",2019-12-06 14:00:00,7.5103,47.6142,46.4,35.6,65.83,200,4,0,30.09,NA,6.21,NA,"FEW","BKN",NA,NA,2500,26000,NA,NA,NA,NA,NA,NA,NA,NA,NA,44.24,"LFSB 061400Z 20004KT 9999 FEW025 BKN260 08/02 Q1019 NOSIG"
"270","LFSB",2019-12-06 14:30:00,7.5103,47.6142,44.6,35.6,70.48,180,4,0,30.06,NA,6.21,NA,"FEW","BKN",NA,NA,2500,26000,NA,NA,NA,NA,NA,NA,NA,NA,NA,42.13,"LFSB 061430Z 18004KT 9999 FEW025 BKN260 07/02 Q1018 NOSIG"
"271","LFSB",2019-12-06 15:00:00,7.5103,47.6142,42.8,35.6,75.5,180,5,0,30.06,NA,6.21,NA,"FEW","BKN",NA,NA,2500,25000,NA,NA,NA,NA,NA,NA,NA,NA,NA,39.22,"LFSB 061500Z 18005KT 9999 FEW025 BKN250 06/02 Q1018 NOSIG"
"272","LFSB",2019-12-06 15:30:00,7.5103,47.6142,41,35.6,80.93,180,5,0,30.06,NA,6.21,NA,"FEW","BKN",NA,NA,2500,25000,NA,NA,NA,NA,NA,NA,NA,NA,NA,37.08,"LFSB 061530Z 18005KT 9999 FEW025 BKN250 05/02 Q1018 NOSIG"
"273","LFSB",2019-12-06 16:00:00,7.5103,47.6142,39.2,32,75.16,190,4,0,30.06,NA,6.21,NA,"FEW","BKN",NA,NA,3000,24000,NA,NA,NA,NA,NA,NA,NA,NA,NA,35.83,"LFSB 061600Z 19004KT 160V250 9999 FEW030 BKN240 04/00 Q1018 NOSIG"
"274","LFSB",2019-12-06 16:30:00,7.5103,47.6142,39.2,33.8,80.79,190,4,0,30.06,NA,6.21,NA,"FEW","BKN",NA,NA,3000,23000,NA,NA,NA,NA,NA,NA,NA,NA,NA,35.83,"LFSB 061630Z 19004KT 9999 FEW030 BKN230 04/01 Q1018 NOSIG"
"275","LFSB",2019-12-06 17:00:00,7.5103,47.6142,37.4,32,80.65,190,4,0,30.03,NA,6.21,NA,NA,NA,NA,NA,NA,NA,NA,NA,NA,NA,NA,NA,NA,NA,NA,33.73,"LFSB 061700Z 19004KT CAVOK 03/00 Q1017 NOSIG"
"276","LFSB",2019-12-06 17:30:00,7.5103,47.6142,37.4,33.8,86.69,190,5,0,30.06,NA,6.21,NA,NA,NA,NA,NA,NA,NA,NA,NA,NA,NA,NA,NA,NA,NA,NA,32.81,"LFSB 061730Z 19005KT 160V220 CAVOK 03/01 Q1018 NOSIG"
"277","LFSB",2019-12-06 18:00:00,7.5103,47.6142,39.2,33.8,80.79,170,6,0,30.06,NA,6.21,NA,"FEW","SCT","BKN",NA,4500,17000,24000,NA,NA,NA,NA,NA,NA,NA,NA,34.2,"LFSB 061800Z 17006KT 130V190 9999 FEW045 SCT170 BKN240 04/01 Q1018 NOSIG"
"278","LFSB",2019-12-06 18:30:00,7.5103,47.6142,39.2,33.8,80.79,170,7,0,30.06,NA,6.21,NA,"BKN","BKN",NA,NA,4600,17000,NA,NA,NA,NA,NA,NA,NA,NA,NA,33.56,"LFSB 061830Z 17007KT 9999 BKN046 BKN170 04/01 Q1018 NOSIG"
"279","LFSB",2019-12-06 19:00:00,7.5103,47.6142,39.2,33.8,80.79,170,6,0,30.06,NA,6.21,NA,"BKN",NA,NA,NA,4600,NA,NA,NA,NA,NA,NA,NA,NA,NA,NA,34.2,"LFSB 061900Z 17006KT 9999 BKN046 04/01 Q1018 NOSIG"
"280","LFSB",2019-12-06 19:30:00,7.5103,47.6142,39.2,35.6,86.79,150,6,0,30.06,NA,6.21,NA,"BKN",NA,NA,NA,5000,NA,NA,NA,NA,NA,NA,NA,NA,NA,NA,34.2,"LFSB 061930Z 15006KT 9999 BKN050 04/02 Q1018 NOSIG"
"281","LFSB",2019-12-06 20:00:00,7.5103,47.6142,39.2,35.6,86.79,160,5,0,30.06,NA,6.21,NA,"BKN",NA,NA,NA,5000,NA,NA,NA,NA,NA,NA,NA,NA,NA,NA,34.95,"LFSB 062000Z 16005KT 9999 BKN050 04/02 Q1018 NOSIG"
"282","LFSB",2019-12-06 20:30:00,7.5103,47.6142,39.2,35.6,86.79,200,2,0,30.03,NA,6.21,NA,"BKN",NA,NA,NA,4600,NA,NA,NA,NA,NA,NA,NA,NA,NA,NA,NA,"LFSB 062030Z 20002KT 9999 BKN046 04/02 Q1017 NOSIG"
"283","LFSB",2019-12-06 21:00:00,7.5103,47.6142,39.2,35.6,86.79,NA,2,0,30.03,NA,6.21,NA,"BKN","BKN",NA,NA,4600,11000,NA,NA,NA,NA,NA,NA,NA,NA,NA,NA,"LFSB 062100Z VRB02KT 9999 BKN046 BKN110 04/02 Q1017 NOSIG"
"284","LFSB",2019-12-06 21:30:00,7.5103,47.6142,39.2,35.6,86.79,NA,2,0,30.03,NA,6.21,NA,"BKN","BKN",NA,NA,5000,9000,NA,NA,"-RA",NA,NA,NA,NA,NA,NA,NA,"LFSB 062130Z VRB02KT 9999 -RA BKN050 BKN090 04/02 Q1017 NOSIG"
"285","LFSB",2019-12-06 22:00:00,7.5103,47.6142,39.2,35.6,86.79,NA,1,0,30.03,NA,6.21,NA,"BKN","BKN",NA,NA,5000,9000,NA,NA,"-RA",NA,NA,NA,NA,NA,NA,NA,"LFSB 062200Z VRB01KT 9999 -RA BKN050 BKN090 04/02 Q1017 NOSIG"
"286","LFSB",2019-12-06 23:00:00,7.5103,47.6142,39.2,35.6,86.79,170,5,0,30.03,NA,4.97,NA,"NSC",NA,NA,NA,NA,NA,NA,NA,NA,NA,NA,NA,NA,NA,NA,34.95,"LFSB 062300Z 17005KT 8000 NSC 04/02 Q1017 NOSIG"
"287","LFSB",2019-12-06 23:30:00,7.5103,47.6142,39.2,35.6,86.79,170,3,0,30.03,NA,5.59,NA,"NCD",NA,NA,NA,NA,NA,NA,NA,NA,NA,NA,NA,NA,NA,NA,36.92,"LFSB 062330Z AUTO 17003KT 130V210 9000 NCD 04/02 Q1017 NOSIG"
"288","LFKB",2019-12-06 00:00:00,9.4853,42.5406,53.6,51.8,93.6,230,3,0,30.18,NA,6.21,NA,"FEW","BKN","BKN","///",6400,7600,12000,NA,NA,NA,NA,NA,NA,NA,NA,NA,"LFKB 060000Z AUTO 23003KT 9999 FEW064/// BKN076/// BKN120/// ///CB 12/11 Q1022"
"289","LFKB",2019-12-06 00:30:00,9.4853,42.5406,51.8,50,93.55,220,3,0,30.18,NA,6.21,NA,"BKN","///",NA,NA,7400,NA,NA,NA,NA,NA,NA,NA,NA,NA,NA,NA,"LFKB 060030Z AUTO 22003KT 9999 1100 R34/P5000 BKN074/// ///CB 11/10 Q1022"
"290","LFKB",2019-12-06 01:00:00,9.4853,42.5406,50,50,100,210,4,0,30.18,NA,6.21,NA,"FEW","///",NA,NA,1200,NA,NA,NA,NA,NA,NA,NA,NA,NA,NA,48.44,"LFKB 060100Z AUTO 21004KT 9999 FEW012/// ///TCU 10/10 Q1022"
"291","LFKB",2019-12-06 01:30:00,9.4853,42.5406,50,50,100,220,5,0,30.18,NA,6.21,NA,"FEW","///",NA,NA,1200,NA,NA,NA,NA,NA,NA,NA,NA,NA,NA,47.77,"LFKB 060130Z AUTO 22005KT 9999 FEW012/// ///CB 10/10 Q1022"
"292","LFKB",2019-12-06 02:00:00,9.4853,42.5406,51.8,48.2,87.47,210,4,0,30.18,NA,6.21,NA,"FEW","///",NA,NA,9000,NA,NA,NA,NA,NA,NA,NA,NA,NA,NA,NA,"LFKB 060200Z AUTO 21004KT 9999 FEW090/// ///CB 11/09 Q1022"
"293","LFKB",2019-12-06 02:30:00,9.4853,42.5406,50,48.2,93.5,230,4,0,30.18,NA,6.21,NA,"SCT",NA,NA,NA,9000,NA,NA,NA,NA,NA,NA,NA,NA,NA,NA,48.44,"LFKB 060230Z AUTO 23004KT 9999 SCT090 10/09 Q1022"
"294","LFKB",2019-12-06 03:00:00,9.4853,42.5406,50,48.2,93.5,230,5,0,30.18,NA,6.21,NA,"BKN",NA,NA,NA,9200,NA,NA,NA,NA,NA,NA,NA,NA,NA,NA,47.77,"LFKB 060300Z AUTO 23005KT 9999 BKN092 10/09 Q1022"
"295","LFKB",2019-12-06 03:30:00,9.4853,42.5406,51.8,50,93.55,230,4,0,30.18,NA,6.21,NA,"OVC",NA,NA,NA,9200,NA,NA,NA,NA,NA,NA,NA,NA,NA,NA,NA,"LFKB 060330Z AUTO 23004KT 9999 OVC092 11/10 Q1022"
"296","LFKB",2019-12-06 04:00:00,9.4853,42.5406,51.8,50,93.55,230,4,0,30.18,NA,6.21,NA,"OVC",NA,NA,NA,9200,NA,NA,NA,NA,NA,NA,NA,NA,NA,NA,NA,"LFKB 060400Z AUTO 23004KT 9999 OVC092 11/10 Q1022"
"297","LFKB",2019-12-06 04:30:00,9.4853,42.5406,51.8,50,93.55,230,4,0,30.18,NA,6.21,NA,"OVC",NA,NA,NA,9400,NA,NA,NA,NA,NA,NA,NA,NA,NA,NA,NA,"LFKB 060430Z AUTO 23004KT 9999 OVC094 11/10 Q1022"
"298","LFKB",2019-12-06 05:00:00,9.4853,42.5406,51.8,50,93.55,220,4,0,30.18,NA,6.21,NA,"OVC",NA,NA,NA,9200,NA,NA,NA,NA,NA,NA,NA,NA,NA,NA,NA,"LFKB 060500Z AUTO 22004KT 9999 OVC092 11/10 Q1022"
"299","LFKB",2019-12-06 05:30:00,9.4853,42.5406,53.6,48.2,81.87,220,5,0,30.18,NA,6.21,NA,"OVC",NA,NA,NA,9200,NA,NA,NA,NA,NA,NA,NA,NA,NA,NA,NA,"LFKB 060530Z AUTO 22005KT 9999 OVC092 12/09 Q1022"
"300","LFKB",2019-12-06 06:00:00,9.4853,42.5406,51.8,50,93.55,220,4,0,30.18,NA,6.21,NA,"OVC",NA,NA,NA,9200,NA,NA,NA,NA,NA,NA,NA,NA,NA,NA,NA,"LFKB 060600Z AUTO 22004KT 9999 OVC092 11/10 Q1022"
"301","LFKB",2019-12-06 06:30:00,9.4853,42.5406,51.8,50,93.55,220,3,0,30.18,NA,6.21,NA,"OVC",NA,NA,NA,9400,NA,NA,NA,NA,NA,NA,NA,NA,NA,NA,NA,"LFKB 060630Z AUTO 22003KT 9999 OVC094 11/10 Q1022"
"302","LFKB",2019-12-06 07:00:00,9.4853,42.5406,51.8,48.2,87.47,210,3,0,30.18,NA,6.21,NA,"OVC",NA,NA,NA,9600,NA,NA,NA,NA,NA,NA,NA,NA,NA,NA,NA,"LFKB 060700Z AUTO 21003KT 9999 OVC096 11/09 Q1022"
"303","LFKB",2019-12-06 07:30:00,9.4853,42.5406,51.8,48.2,87.47,230,5,0,30.18,NA,6.21,NA,"BKN",NA,NA,NA,9800,NA,NA,NA,NA,NA,NA,NA,NA,NA,NA,NA,"LFKB 060730Z AUTO 23005KT 9999 BKN098 11/09 Q1022"
"304","LFKB",2019-12-06 08:00:00,9.4853,42.5406,53.6,50,87.56,220,3,0,30.18,NA,6.21,NA,"BKN",NA,NA,NA,9400,NA,NA,NA,NA,NA,NA,NA,NA,NA,NA,NA,"LFKB 060800Z AUTO 22003KT 9999 BKN094 12/10 Q1022 TEMPO FEW025TCU BKN030"
"305","LFKB",2019-12-06 08:30:00,9.4853,42.5406,55.4,51.8,87.65,210,3,0,30.18,NA,6.21,NA,"SCT",NA,NA,NA,9400,NA,NA,NA,NA,NA,NA,NA,NA,NA,NA,NA,"LFKB 060830Z AUTO 21003KT 170V230 9999 SCT094 13/11 Q1022 TEMPO FEW025TCU BKN030"
"306","LFKB",2019-12-06 09:00:00,9.4853,42.5406,57.2,51.8,82.12,210,4,0,30.21,NA,6.21,NA,"BKN",NA,NA,NA,9400,NA,NA,NA,NA,NA,NA,NA,NA,NA,NA,NA,"LFKB 060900Z AUTO 21004KT 170V230 9999 BKN094 14/11 Q1023 TEMPO FEW025TCU BKN030"
"307","LFKB",2019-12-06 09:30:00,9.4853,42.5406,60.8,51.8,72.2,200,3,0,30.21,NA,6.21,NA,"BKN",NA,NA,NA,9400,NA,NA,NA,NA,NA,NA,NA,NA,NA,NA,NA,"LFKB 060930Z AUTO 20003KT 170V230 9999 BKN094 16/11 Q1023 TEMPO FEW025TCU BKN030"
"308","LFKB",2019-12-06 10:00:00,9.4853,42.5406,60.8,51.8,72.2,180,3,0,30.21,NA,6.21,NA,"FEW","SCT",NA,NA,2100,10000,NA,NA,NA,NA,NA,NA,NA,NA,NA,NA,"LFKB 061000Z AUTO 18003KT 140V210 9999 FEW021 SCT100 16/11 Q1023 TEMPO FEW025TCU BKN030"
"309","LFKB",2019-12-06 10:30:00,9.4853,42.5406,62.6,51.8,67.75,NA,3,0,30.18,NA,6.21,NA,"FEW","BKN","BKN",NA,2700,4000,10000,NA,NA,NA,NA,NA,NA,NA,NA,NA,"LFKB 061030Z AUTO VRB03KT 9999 FEW027 BKN040 BKN100 17/11 Q1022 TEMPO FEW025TCU BKN030"
"310","LFKB",2019-12-06 11:00:00,9.4853,42.5406,62.6,53.6,72.38,130,3,0,30.18,NA,6.21,NA,"SCT","SCT","BKN",NA,2700,3400,12000,NA,NA,NA,NA,NA,NA,NA,NA,NA,"LFKB 061100Z AUTO 13003KT 080V190 9999 SCT027 SCT034 BKN120 17/12 Q1022 TEMPO FEW025TCU BKN030"
"311","LFKB",2019-12-06 11:30:00,9.4853,42.5406,62.6,55.4,77.29,120,4,0,30.15,NA,6.21,NA,"FEW","BKN",NA,NA,2700,3500,NA,NA,NA,NA,NA,NA,NA,NA,NA,NA,"LFKB 061130Z AUTO 12004KT 070V160 9999 FEW027 BKN035 17/13 Q1021 TEMPO FEW025TCU BKN030"
"312","LFKB",2019-12-06 12:00:00,9.4853,42.5406,62.6,55.4,77.29,110,4,0,30.15,NA,6.21,NA,"FEW","SCT","BKN",NA,2800,4100,17000,NA,NA,NA,NA,NA,NA,NA,NA,NA,"LFKB 061200Z AUTO 11004KT 080V170 9999 FEW028 SCT041 BKN170 17/13 Q1021 TEMPO FEW025TCU BKN030"
"313","LFKB",2019-12-06 12:30:00,9.4853,42.5406,60.8,55.4,82.37,130,4,0,30.15,NA,6.21,NA,"FEW","BKN","BKN",NA,2700,16000,19000,NA,NA,NA,NA,NA,NA,NA,NA,NA,"LFKB 061230Z AUTO 13004KT 9999 FEW027 BKN160 BKN190 16/13 Q1021 TEMPO FEW025TCU BKN030"
"314","LFKB",2019-12-06 13:00:00,9.4853,42.5406,59,53.6,82.25,120,3,0,30.15,NA,6.21,NA,"BKN","BKN","BKN",NA,5400,16000,18000,NA,NA,NA,NA,NA,NA,NA,NA,NA,"LFKB 061300Z AUTO 12003KT 9999 BKN054 BKN160 BKN180 15/12 Q1021 TEMPO FEW025TCU BKN030"
"315","LFKB",2019-12-06 13:30:00,9.4853,42.5406,59,55.4,87.83,130,3,0,30.12,NA,6.21,NA,"FEW","SCT",NA,NA,1900,14000,NA,NA,NA,NA,NA,NA,NA,NA,NA,NA,"LFKB 061330Z AUTO 13003KT 9999 FEW019 SCT140 15/13 Q1020 TEMPO FEW025TCU BKN030"
"316","LFKB",2019-12-06 14:00:00,9.4853,42.5406,59,55.4,87.83,NA,2,0,30.12,NA,6.21,NA,"FEW","SCT","BKN",NA,3600,8400,10000,NA,NA,NA,NA,NA,NA,NA,NA,NA,"LFKB 061400Z AUTO VRB02KT 9999 FEW036 SCT084 BKN100 15/13 Q1020 TEMPO FEW025TCU BKN030"
"317","LFKB",2019-12-06 14:30:00,9.4853,42.5406,60.8,55.4,82.37,0,0,0,30.12,NA,6.21,NA,"FEW","BKN","BKN",NA,4000,5200,7800,NA,NA,NA,NA,NA,NA,NA,NA,NA,"LFKB 061430Z AUTO 00000KT 9999 FEW040 BKN052 BKN078 16/13 Q1020 TEMPO FEW025TCU BKN030"
"318","LFKB",2019-12-06 15:00:00,9.4853,42.5406,59,53.6,82.25,NA,1,0,30.12,NA,6.21,NA,"BKN","BKN","BKN",NA,6000,7000,8200,NA,NA,NA,NA,NA,NA,NA,NA,NA,"LFKB 061500Z AUTO VRB01KT 9999 BKN060 BKN070 BKN082 15/12 Q1020 TEMPO FEW025TCU BKN030"
"319","LFKB",2019-12-06 15:30:00,9.4853,42.5406,59,53.6,82.25,30,4,0,30.12,NA,6.21,NA,"FEW","OVC",NA,NA,6400,8200,NA,NA,NA,NA,NA,NA,NA,NA,NA,NA,"LFKB 061530Z AUTO 03004KT 360V060 9999 FEW064 OVC082 15/12 Q1020 TEMPO FEW025TCU BKN030"
"320","LFKB",2019-12-06 16:00:00,9.4853,42.5406,55.4,51.8,87.65,30,4,0,30.12,NA,6.21,NA,"FEW","SCT",NA,NA,5400,8400,NA,NA,NA,NA,NA,NA,NA,NA,NA,NA,"LFKB 061600Z AUTO 03004KT 9999 FEW054 SCT084 13/11 Q1020 TEMPO FEW025TCU BKN030"
"321","LFKB",2019-12-06 16:30:00,9.4853,42.5406,53.6,51.8,93.6,NA,2,0,30.12,NA,6.21,NA,"SCT","BKN","BKN",NA,7000,22000,24000,NA,NA,NA,NA,NA,NA,NA,NA,NA,"LFKB 061630Z AUTO VRB02KT 9999 SCT070 BKN220 BKN240 12/11 Q1020 TEMPO FEW025TCU BKN030"
"322","LFKB",2019-12-06 17:00:00,9.4853,42.5406,53.6,51.8,93.6,250,3,0,30.12,NA,6.21,NA,NA,NA,NA,NA,NA,NA,NA,NA,NA,NA,NA,NA,NA,NA,NA,NA,"LFKB 061700Z AUTO 25003KT CAVOK 12/11 Q1020 TEMPO FEW025TCU BKN030"
"323","LFKB",2019-12-06 17:30:00,9.4853,42.5406,51.8,51.8,100,230,3,0,30.12,NA,4.97,NA,"FEW",NA,NA,NA,3700,NA,NA,NA,NA,NA,NA,NA,NA,NA,NA,NA,"LFKB 061730Z AUTO 23003KT 8000 FEW037 11/11 Q1020 TEMPO FEW025TCU BKN030"
"324","LFKB",2019-12-06 18:00:00,9.4853,42.5406,51.8,50,93.55,250,4,0,30.15,NA,6.21,NA,NA,NA,NA,NA,NA,NA,NA,NA,NA,NA,NA,NA,NA,NA,NA,NA,"LFKB 061800Z AUTO 25004KT CAVOK 11/10 Q1021 TEMPO FEW025TCU BKN030"
"325","LFKB",2019-12-06 18:30:00,9.4853,42.5406,51.8,50,93.55,230,3,0,30.15,NA,6.21,NA,NA,NA,NA,NA,NA,NA,NA,NA,NA,NA,NA,NA,NA,NA,NA,NA,"LFKB 061830Z AUTO 23003KT CAVOK 11/10 Q1021 TEMPO FEW025TCU BKN030"
"326","LFKB",2019-12-06 19:00:00,9.4853,42.5406,50,48.2,93.5,230,3,0,30.15,NA,6.21,NA,NA,NA,NA,NA,NA,NA,NA,NA,NA,NA,NA,NA,NA,NA,NA,49.27,"LFKB 061900Z AUTO 23003KT CAVOK 10/09 Q1021 TEMPO FEW025TCU BKN030"
"327","LFKB",2019-12-06 19:30:00,9.4853,42.5406,50,48.2,93.5,230,3,0,30.15,NA,6.21,NA,NA,NA,NA,NA,NA,NA,NA,NA,NA,NA,NA,NA,NA,NA,NA,49.27,"LFKB 061930Z AUTO 23003KT CAVOK 10/09 Q1021 TEMPO FEW025TCU BKN030"
"328","LFKB",2019-12-06 20:00:00,9.4853,42.5406,50,48.2,93.5,210,2,0,30.15,NA,6.21,NA,NA,NA,NA,NA,NA,NA,NA,NA,NA,NA,NA,NA,NA,NA,NA,NA,"LFKB 062000Z AUTO 21002KT CAVOK 10/09 Q1021 TEMPO FEW025TCU BKN030"
"329","LFKB",2019-12-06 20:30:00,9.4853,42.5406,48.2,48.2,100,220,4,0,30.15,NA,6.21,NA,NA,NA,NA,NA,NA,NA,NA,NA,NA,NA,NA,NA,NA,NA,NA,46.34,"LFKB 062030Z AUTO 22004KT CAVOK 09/09 Q1021 NOSIG"
"330","LFKB",2019-12-06 21:00:00,9.4853,42.5406,50,48.2,93.5,220,5,0,30.15,NA,6.21,NA,NA,NA,NA,NA,NA,NA,NA,NA,NA,NA,NA,NA,NA,NA,NA,47.77,"LFKB 062100Z AUTO 22005KT CAVOK 10/09 Q1021 NOSIG"
"331","LFKB",2019-12-06 21:30:00,9.4853,42.5406,50,48.2,93.5,210,5,0,30.15,NA,6.21,NA,NA,NA,NA,NA,NA,NA,NA,NA,NA,NA,NA,NA,NA,NA,NA,47.77,"LFKB 062130Z AUTO 21005KT CAVOK 10/09 Q1021 NOSIG"
"332","LFKB",2019-12-06 22:00:00,9.4853,42.5406,51.8,48.2,87.47,230,6,0,30.15,NA,6.21,NA,"FEW",NA,NA,NA,8200,NA,NA,NA,NA,NA,NA,NA,NA,NA,NA,NA,"LFKB 062200Z AUTO 23006KT 9999 FEW082 11/09 Q1021 NOSIG"
"333","LFKB",2019-12-06 22:30:00,9.4853,42.5406,51.8,48.2,87.47,220,8,0,30.15,NA,6.21,NA,NA,NA,NA,NA,NA,NA,NA,NA,NA,NA,NA,NA,NA,NA,NA,NA,"LFKB 062230Z AUTO 22008KT CAVOK 11/09 Q1021 NOSIG"
"334","LFKB",2019-12-06 23:00:00,9.4853,42.5406,51.8,48.2,87.47,220,6,0,30.15,NA,6.21,NA,"FEW",NA,NA,NA,7400,NA,NA,NA,NA,NA,NA,NA,NA,NA,NA,NA,"LFKB 062300Z AUTO 22006KT 9999 FEW074 11/09 Q1021 NOSIG"
"335","LFKB",2019-12-06 23:30:00,9.4853,42.5406,51.8,48.2,87.47,220,7,0,30.12,NA,6.21,NA,"BKN",NA,NA,NA,7400,NA,NA,NA,NA,NA,NA,NA,NA,NA,NA,NA,"LFKB 062330Z AUTO 22007KT 9999 BKN074 11/09 Q1020 NOSIG"
"336","LFOB",2019-12-06 00:00:00,2.1272,49.4464,33.8,33.8,100,180,5,0,30.12,NA,2.17,NA,"OVC",NA,NA,NA,200,NA,NA,NA,"BR",NA,NA,NA,NA,NA,NA,28.53,"LFOB 060000Z AUTO 18005KT 080V240 3500 BR OVC002 01/01 Q1020 TEMPO 0500 FG VV///"
"337","LFOB",2019-12-06 00:30:00,2.1272,49.4464,33.8,33.8,100,200,7,0,30.09,NA,2.92,NA,"OVC",NA,NA,NA,200,NA,NA,NA,"BR",NA,NA,NA,NA,NA,NA,26.97,"LFOB 060030Z AUTO 20007KT 170V230 4700 BR OVC002 01/01 Q1019 TEMPO 0500 FG VV///"
"338","LFOB",2019-12-06 01:00:00,2.1272,49.4464,33.8,33.8,100,210,7,0,30.09,NA,3.11,NA,"OVC",NA,NA,NA,300,NA,NA,NA,"BR",NA,NA,NA,NA,NA,NA,26.97,"LFOB 060100Z AUTO 21007KT 5000 BR OVC003 01/01 Q1019 TEMPO 0500 FG VV///"
"339","LFOB",2019-12-06 01:30:00,2.1272,49.4464,33.8,33.8,100,200,8,0,30.09,NA,3.73,NA,"OVC",NA,NA,NA,300,NA,NA,NA,NA,NA,NA,NA,NA,NA,NA,26.33,"LFOB 060130Z AUTO 20008KT 6000 OVC003 01/01 Q1019 TEMPO 0500 FG VV///"
"340","LFOB",2019-12-06 02:00:00,2.1272,49.4464,33.8,33.8,100,190,10,0,30.06,NA,3.73,NA,"OVC",NA,NA,NA,300,NA,NA,NA,NA,NA,NA,NA,NA,NA,NA,25.23,"LFOB 060200Z AUTO 19010KT 6000 OVC003 01/01 Q1018 TEMPO 0500 FG VV///"
"341","LFOB",2019-12-06 02:30:00,2.1272,49.4464,33.8,33.8,100,190,8,0,30.06,NA,3.73,NA,"OVC",NA,NA,NA,400,NA,NA,NA,NA,NA,NA,NA,NA,NA,NA,26.33,"LFOB 060230Z AUTO 19008KT 6000 OVC004 01/01 Q1018 TEMPO 1200 DZRA VV///"
"342","LFOB",2019-12-06 03:00:00,2.1272,49.4464,33.8,33.8,100,200,7,0,30.06,NA,4.35,NA,"BKN","BKN","BKN","///",500,7800,10000,NA,NA,NA,NA,NA,NA,NA,NA,26.97,"LFOB 060300Z AUTO 20007KT 7000 BKN005/// BKN078/// BKN100/// ///TCU 01/01 Q1018 TEMPO 1200 DZRA OVC002"
"343","LFOB",2019-12-06 03:30:00,2.1272,49.4464,35.6,35.6,100,190,5,0,30.03,NA,4.35,NA,"SCT","OVC","///",NA,500,7600,NA,NA,NA,NA,NA,NA,NA,NA,NA,30.67,"LFOB 060330Z AUTO 19005KT 140V210 7000 SCT005/// OVC076/// ///TCU 02/02 Q1017 TEMPO 1200 DZRA OVC002"
"344","LFOB",2019-12-06 04:00:00,2.1272,49.4464,35.6,35.6,100,200,8,0,30.03,NA,4.97,NA,"FEW","OVC",NA,NA,600,7200,NA,NA,NA,NA,NA,NA,NA,NA,NA,28.55,"LFOB 060400Z AUTO 20008KT 8000 FEW006 OVC072 02/02 Q1017 TEMPO 1200 DZRA OVC002"
"345","LFOB",2019-12-06 04:30:00,2.1272,49.4464,35.6,35.6,100,200,11,0,30.03,NA,4.97,NA,"NSC",NA,NA,NA,NA,NA,NA,NA,NA,NA,NA,NA,NA,NA,NA,27.02,"LFOB 060430Z AUTO 20011KT 8000 NSC 02/02 Q1017 TEMPO 1200 DZRA OVC002"
"346","LFOB",2019-12-06 05:00:00,2.1272,49.4464,35.6,35.6,100,200,10,0,30.03,NA,4.97,NA,"NSC",NA,NA,NA,NA,NA,NA,NA,NA,NA,NA,NA,NA,NA,NA,27.48,"LFOB 060500Z AUTO 20010KT 8000 NSC 02/02 Q1017 TEMPO 1500 DZRA OVC003"
"347","LFOB",2019-12-06 05:30:00,2.1272,49.4464,37.4,35.6,93.14,200,10,0,30,NA,4.97,NA,"FEW","BKN",NA,NA,1000,5800,NA,NA,NA,NA,NA,NA,NA,NA,NA,29.74,"LFOB 060530Z AUTO 20010KT 8000 FEW010 BKN058 03/02 Q1016 TEMPO 1500 DZRA OVC003"
"348","LFOB",2019-12-06 06:00:00,2.1272,49.4464,37.4,35.6,93.14,190,6,0,30.03,NA,5.59,NA,"BKN","OVC",NA,NA,800,6200,NA,NA,NA,NA,NA,NA,NA,NA,NA,32.03,"LFOB 060600Z AUTO 19006KT 9000 BKN008 OVC062 03/02 Q1017 TEMPO 1500 DZRA OVC003"
"349","LFOB",2019-12-06 06:30:00,2.1272,49.4464,37.4,37.4,100,200,8,0,30,NA,5.59,NA,"OVC","///",NA,NA,800,NA,NA,NA,"-DZ",NA,NA,NA,NA,NA,NA,30.76,"LFOB 060630Z AUTO 20008KT 9000 -DZ OVC008/// ///TCU 03/03 Q1016 TEMPO 2000 DZRA OVC003"
"350","LFOB",2019-12-06 07:00:00,2.1272,49.4464,37.4,37.4,100,200,7,0,30,NA,5.59,NA,"OVC","///",NA,NA,700,NA,NA,NA,NA,NA,NA,NA,NA,NA,NA,31.36,"LFOB 060700Z AUTO 20007KT 170V230 9000 OVC007/// ///CB 03/03 Q1016 TEMPO 2000 DZRA OVC003"
"351","LFOB",2019-12-06 07:30:00,2.1272,49.4464,39.2,37.4,93.19,200,9,0,30,NA,3.73,NA,"OVC","///",NA,NA,700,NA,NA,NA,"-RA",NA,NA,NA,NA,NA,NA,32.47,"LFOB 060730Z AUTO 20009KT 6000 -RA OVC007/// ///CB 04/03 Q1016 TEMPO 2000 DZRA OVC003"
"352","LFOB",2019-12-06 08:00:00,2.1272,49.4464,39.2,37.4,93.19,210,10,0,30,NA,3.73,NA,"OVC","///",NA,NA,700,NA,NA,NA,"-RA",NA,NA,NA,NA,NA,NA,32,"LFOB 060800Z AUTO 21010KT 6000 -RA OVC007/// ///TCU 04/03 Q1016 TEMPO 2000 DZRA OVC003"
"353","LFOB",2019-12-06 08:30:00,2.1272,49.4464,39.2,39.2,100,210,11,0,30,NA,3.11,NA,"BKN","BKN","BKN","///",700,2100,2600,NA,"-RA BR",NA,NA,NA,NA,NA,NA,31.57,"LFOB 060830Z AUTO 21011KT 5000 -RA BR BKN007/// BKN021/// BKN026/// ///TCU 04/04 Q1016 TEMPO 2000 DZRA OVC003"
"354","LFOB",2019-12-06 09:00:00,2.1272,49.4464,41,39.2,93.24,210,10,0,30,NA,4.35,NA,"BKN","OVC",NA,NA,700,1700,NA,NA,"-RA",NA,NA,NA,NA,NA,NA,34.25,"LFOB 060900Z AUTO 21010KT 7000 -RA BKN007 OVC017 05/04 Q1016 TEMPO 2000 DZRA OVC003"
"355","LFOB",2019-12-06 09:30:00,2.1272,49.4464,41,39.2,93.24,200,9,0,29.97,NA,6.21,NA,"BKN","OVC",NA,NA,700,1100,NA,NA,NA,NA,NA,NA,NA,NA,NA,34.7,"LFOB 060930Z AUTO 20009KT 160V220 9999 BKN007 OVC011 05/04 Q1015 TEMPO 21017G27KT 2000 DZRA OVC003"
"356","LFOB",2019-12-06 10:00:00,2.1272,49.4464,41,39.2,93.24,210,12,0,29.97,NA,4.97,NA,"OVC","///",NA,NA,700,NA,NA,NA,"-RA",NA,NA,NA,NA,NA,NA,33.46,"LFOB 061000Z AUTO 21012KT 8000 -RA OVC007/// ///TCU 05/04 Q1015 TEMPO 21017G27KT 2000 DZRA OVC003"
"357","LFOB",2019-12-06 10:30:00,2.1272,49.4464,41,41,100,210,10,0,29.97,NA,4.97,NA,"OVC","///",NA,NA,700,NA,NA,NA,"-RA",NA,NA,NA,NA,NA,NA,34.25,"LFOB 061030Z AUTO 21010KT 190V250 8000 -RA OVC007/// ///TCU 05/05 Q1015 TEMPO 21017G27KT 2000 DZRA OVC003"
"358","LFOB",2019-12-06 11:00:00,2.1272,49.4464,41,41,100,220,11,0,29.94,NA,5.59,NA,"OVC","///",NA,NA,700,NA,NA,NA,"-SNRA",NA,NA,NA,NA,NA,NA,33.84,"LFOB 061100Z AUTO 22011KT 9000 -SNRA OVC007/// ///TCU 05/05 Q1014 TEMPO 21017G27KT 2000 DZRA OVC003"
"359","LFOB",2019-12-06 11:30:00,2.1272,49.4464,41,41,100,230,10,0,29.94,NA,6.21,NA,"OVC","///",NA,NA,700,NA,NA,NA,"-SNRA",NA,NA,NA,NA,NA,NA,34.25,"LFOB 061130Z AUTO 23010KT 190V270 9999 -SNRA OVC007/// ///CB 05/05 Q1014 TEMPO 21017G27KT 2000 DZRA OVC004"
"360","LFOB",2019-12-06 12:00:00,2.1272,49.4464,42.8,41,93.3,210,9,0,29.91,NA,6.21,NA,"OVC","///",NA,NA,700,NA,NA,NA,"-RA",NA,NA,NA,NA,NA,NA,36.94,"LFOB 061200Z AUTO 21009KT 180V240 9999 -RA OVC007/// ///CB 06/05 Q1013 TEMPO 21017G27KT 2000 DZRA OVC004"
"361","LFOB",2019-12-06 12:30:00,2.1272,49.4464,42.8,41,93.3,210,10,0,29.91,NA,6.21,NA,"OVC","///",NA,NA,700,NA,NA,NA,NA,NA,NA,NA,NA,NA,NA,36.51,"LFOB 061230Z AUTO 21010KT 170V240 9999 OVC007/// ///TCU 06/05 Q1013 TEMPO 21017G27KT 2000 DZRA OVC004"
"362","LFOB",2019-12-06 13:00:00,2.1272,49.4464,42.8,41,93.3,220,13,0,29.88,NA,6.21,NA,"OVC",NA,NA,NA,700,NA,NA,NA,NA,NA,NA,NA,NA,NA,NA,35.4,"LFOB 061300Z AUTO 22013KT 190V250 9999 OVC007 06/05 Q1012 TEMPO 21017G27KT 2000 DZRA OVC004"
"363","LFOB",2019-12-06 13:30:00,2.1272,49.4464,44.6,41,87.09,220,11,0,29.88,NA,6.21,NA,"OVC",NA,NA,NA,800,NA,NA,NA,NA,NA,NA,NA,NA,NA,NA,38.39,"LFOB 061330Z AUTO 22011KT 190V250 9999 OVC008 07/05 Q1012 TEMPO 21017G27KT 2000 DZRA OVC004"
"364","LFOB",2019-12-06 14:00:00,2.1272,49.4464,44.6,41,87.09,220,14,0,29.85,NA,6.21,NA,"OVC",NA,NA,NA,800,NA,NA,NA,NA,NA,NA,NA,NA,NA,NA,37.4,"LFOB 061400Z AUTO 22014KT 190V250 9999 OVC008 07/05 Q1011 TEMPO 21017G27KT 2000 DZRA OVC004"
"365","LFOB",2019-12-06 14:30:00,2.1272,49.4464,44.6,41,87.09,220,16,0,29.85,NA,6.21,NA,"OVC",NA,NA,NA,700,NA,NA,NA,NA,NA,NA,NA,NA,NA,NA,36.84,"LFOB 061430Z AUTO 22016KT 9999 OVC007 07/05 Q1011 TEMPO 21017G27KT 2000 DZRA OVC004"
"366","LFOB",2019-12-06 15:00:00,2.1272,49.4464,44.6,42.8,93.35,220,17,0,29.85,NA,6.21,NA,"OVC",NA,NA,NA,700,NA,NA,NA,NA,NA,NA,NA,NA,NA,NA,36.58,"LFOB 061500Z AUTO 22017KT 9999 OVC007 07/06 Q1011 TEMPO 21017G27KT 2000 DZRA OVC004"
"367","LFOB",2019-12-06 15:30:00,2.1272,49.4464,44.6,42.8,93.35,220,14,0,29.85,NA,6.21,NA,"OVC",NA,NA,NA,700,NA,NA,NA,NA,NA,NA,NA,NA,NA,NA,37.4,"LFOB 061530Z AUTO 22014KT 9999 OVC007 07/06 Q1011 TEMPO 21017G27KT 2000 DZRA OVC004"
"368","LFOB",2019-12-06 16:00:00,2.1272,49.4464,46.4,44.6,93.4,210,12,0,29.83,NA,6.21,NA,"OVC",NA,NA,NA,700,NA,NA,NA,NA,NA,NA,NA,NA,NA,NA,40.33,"LFOB 061600Z AUTO 21012KT 9999 OVC007 08/07 Q1010 TEMPO 21017G27KT 2000 DZRA OVC004"
"369","LFOB",2019-12-06 16:30:00,2.1272,49.4464,46.4,44.6,93.4,220,14,0,29.83,NA,6.21,NA,"OVC",NA,NA,NA,700,NA,NA,NA,NA,NA,NA,NA,NA,NA,NA,39.72,"LFOB 061630Z AUTO 22014KT 190V270 9999 OVC007 08/07 Q1010 TEMPO 21017G27KT 2000 DZRA OVC004"
"370","LFOB",2019-12-06 17:00:00,2.1272,49.4464,46.4,44.6,93.4,210,15,0,29.83,NA,4.97,NA,"OVC",NA,NA,NA,800,NA,NA,NA,NA,NA,NA,NA,NA,NA,NA,39.45,"LFOB 061700Z AUTO 21015KT 8000 OVC008 08/07 Q1010 TEMPO 21017G27KT 2000 DZRA OVC004"
"371","LFOB",2019-12-06 17:30:00,2.1272,49.4464,46.4,44.6,93.4,220,14,0,29.83,NA,4.97,NA,"OVC",NA,NA,NA,800,NA,NA,NA,NA,NA,NA,NA,NA,NA,NA,39.72,"LFOB 061730Z AUTO 22014KT 180V260 8000 OVC008 08/07 Q1010 TEMPO 21017G27KT 2000 DZRA OVC004"
"372","LFOB",2019-12-06 18:00:00,2.1272,49.4464,48.2,46.4,93.45,220,14,0,29.83,NA,6.21,NA,"OVC",NA,NA,NA,800,NA,NA,NA,NA,NA,NA,NA,NA,NA,NA,42.04,"LFOB 061800Z AUTO 22014KT 9999 OVC008 09/08 Q1010 TEMPO 21017G27KT 2000 DZRA OVC004 BKN030"
"373","LFOB",2019-12-06 18:30:00,2.1272,49.4464,48.2,46.4,93.45,230,13,0,29.83,NA,6.21,NA,"OVC",NA,NA,NA,900,NA,NA,NA,NA,NA,NA,NA,NA,NA,NA,42.32,"LFOB 061830Z AUTO 23013KT 9999 OVC009 09/08 Q1010 TEMPO 21017G27KT 2000 DZRA OVC004 BKN030"
"374","LFOB",2019-12-06 19:00:00,2.1272,49.4464,48.2,46.4,93.45,230,14,0,29.83,NA,6.21,NA,"OVC",NA,NA,NA,900,NA,NA,NA,NA,NA,NA,NA,NA,NA,NA,42.04,"LFOB 061900Z AUTO 23014KT 9999 OVC009 09/08 Q1010 TEMPO 21017G27KT 2000 DZRA OVC004 BKN030"
"375","LFOB",2019-12-06 19:30:00,2.1272,49.4464,50,48.2,93.5,230,14,0,29.83,NA,6.21,NA,"BKN","OVC",NA,NA,900,1300,NA,NA,NA,NA,NA,NA,NA,NA,NA,44.36,"LFOB 061930Z AUTO 23014KT 9999 BKN009 OVC013 10/09 Q1010 TEMPO 21017G27KT 2000 DZRA OVC004 BKN030"
"376","LFOB",2019-12-06 20:00:00,2.1272,49.4464,50,48.2,93.5,240,15,0,29.83,NA,6.21,NA,"BKN","OVC",NA,NA,1200,2200,NA,NA,NA,NA,NA,NA,NA,NA,NA,44.12,"LFOB 062000Z AUTO 24015KT 9999 BKN012 OVC022 10/09 Q1010 TEMPO 21017G27KT 2000 DZRA BECMG OVC008"
"377","LFOB",2019-12-06 20:30:00,2.1272,49.4464,50,46.4,87.37,240,17,0,29.83,NA,6.21,NA,"BKN","BKN","BKN",NA,1200,2000,2900,NA,NA,NA,NA,NA,NA,NA,NA,43.66,"LFOB 062030Z AUTO 24017KT 9999 BKN012 BKN020 BKN029 10/08 Q1010 BECMG OVC008"
"378","LFOB",2019-12-06 21:00:00,2.1272,49.4464,50,46.4,87.37,240,13,0,29.85,NA,6.21,NA,"FEW","SCT","OVC",NA,1400,1900,5000,NA,NA,NA,NA,NA,NA,NA,NA,44.63,"LFOB 062100Z AUTO 24013KT 9999 FEW014 SCT019 OVC050 10/08 Q1011 BECMG OVC008"
"379","LFOB",2019-12-06 21:30:00,2.1272,49.4464,50,46.4,87.37,250,13,0,29.85,NA,6.21,NA,"FEW","BKN",NA,NA,2200,5000,NA,NA,NA,NA,NA,NA,NA,NA,NA,44.63,"LFOB 062130Z AUTO 25013KT 9999 FEW022 BKN050 10/08 Q1011 BECMG OVC008"
"380","LFOB",2019-12-06 22:00:00,2.1272,49.4464,50,46.4,87.37,240,9,0,29.88,NA,6.21,NA,"FEW","SCT",NA,NA,2300,5600,NA,NA,NA,NA,NA,NA,NA,NA,NA,45.9,"LFOB 062200Z AUTO 24009KT 9999 FEW023 SCT056 10/08 Q1012 BECMG OVC008"
"381","LFOB",2019-12-06 22:30:00,2.1272,49.4464,50,46.4,87.37,240,11,0,29.88,NA,6.21,NA,"FEW","SCT","BKN",NA,1800,2900,6200,NA,"-RA",NA,NA,NA,NA,NA,NA,45.21,"LFOB 062230Z AUTO 24011KT 9999 -RA FEW018 SCT029 BKN062 10/08 Q1012 BECMG OVC008"
"382","LFOB",2019-12-06 23:00:00,2.1272,49.4464,50,46.4,87.37,240,11,0,29.88,NA,6.21,NA,"FEW","SCT","BKN",NA,1700,4100,4800,NA,NA,NA,NA,NA,NA,NA,NA,45.21,"LFOB 062300Z AUTO 24011KT 9999 FEW017 SCT041 BKN048 10/08 Q1012 BECMG OVC008"
"383","LFOB",2019-12-06 23:30:00,2.1272,49.4464,50,46.4,87.37,250,10,0,29.88,NA,6.21,NA,"SCT","BKN","OVC",NA,2400,4400,6000,NA,NA,NA,NA,NA,NA,NA,NA,45.54,"LFOB 062330Z AUTO 25010KT 9999 SCT024 BKN044 OVC060 10/08 Q1012 NOSIG"
"384","LFBE",2019-12-06 00:00:00,0.5164,44.8214,32,30.2,92.97,NA,2,0,30.24,NA,2.36,NA,"NSC",NA,NA,NA,NA,NA,NA,NA,"BR",NA,NA,NA,NA,NA,NA,NA,"LFBE 060000Z AUTO VRB02KT 3800 BR NSC M00/M01 Q1024"
"385","LFBE",2019-12-06 00:30:00,0.5164,44.8214,32,30.2,92.97,320,1,0,30.24,NA,3.73,NA,"SCT",NA,NA,NA,300,NA,NA,NA,NA,NA,NA,NA,NA,NA,NA,NA,"LFBE 060030Z AUTO 32001KT 6000 2200 SCT003 M00/M01 Q1024"
"386","LFBE",2019-12-06 01:00:00,0.5164,44.8214,30.2,30.2,100,NA,2,0,30.24,NA,0.43,NA,"VV ",NA,NA,NA,NA,NA,NA,NA,"FZFG",NA,NA,NA,NA,NA,NA,NA,"LFBE 060100Z AUTO VRB02KT 0700 0650 R27/0750N FZFG VV/// M01/M01 Q1024"
"387","LFBE",2019-12-06 01:30:00,0.5164,44.8214,32,30.2,92.97,140,2,0,30.24,NA,0.19,NA,"VV ",NA,NA,NA,NA,NA,NA,NA,"FZFG",NA,NA,NA,NA,NA,NA,NA,"LFBE 060130Z AUTO 14002KT 0300 0250 R27/0300N FZFG VV/// M00/M01 Q1024"
"388","LFBE",2019-12-06 02:00:00,0.5164,44.8214,30.2,30.2,100,30,3,0,30.24,NA,0.34,NA,"VV ",NA,NA,NA,NA,NA,NA,NA,"FZFG",NA,NA,NA,NA,NA,NA,26.63,"LFBE 060200Z AUTO 03003KT 0550 0500 R27/0600U FZFG VV/// M01/M01 Q1024"
"389","LFBE",2019-12-06 02:30:00,0.5164,44.8214,30.2,30.2,100,0,0,0,30.24,NA,0.37,NA,"VV ",NA,NA,NA,NA,NA,NA,NA,"FZFG",NA,NA,NA,NA,NA,NA,NA,"LFBE 060230Z AUTO 00000KT 0600 R27/0700N FZFG VV/// M01/M01 Q1024"
"390","LFBE",2019-12-06 03:00:00,0.5164,44.8214,32,30.2,92.97,280,3,0,30.24,NA,0.37,NA,"VV ",NA,NA,NA,NA,NA,NA,NA,"FZFG",NA,NA,NA,NA,NA,NA,28.69,"LFBE 060300Z AUTO 28003KT 0600 0550 R27/0650U FZFG VV/// M00/M01 Q1024"
"391","LFBE",2019-12-06 03:30:00,0.5164,44.8214,32,32,100,NA,2,0,30.24,NA,0.31,NA,"VV ",NA,NA,NA,NA,NA,NA,NA,"FG",NA,NA,NA,NA,NA,NA,NA,"LFBE 060330Z AUTO VRB02KT 0500 0450 R27/0550U FG VV/// 00/M00 Q1024"
"392","LFBE",2019-12-06 04:00:00,0.5164,44.8214,33.8,32,93.03,0,0,0,30.24,NA,0.34,NA,"VV ",NA,NA,NA,NA,NA,NA,NA,"FG",NA,NA,NA,NA,NA,NA,NA,"LFBE 060400Z AUTO 00000KT 0550 R27/0650N FG VV/// 01/00 Q1024"
"393","LFBE",2019-12-06 04:30:00,0.5164,44.8214,33.8,33.8,100,140,3,0,30.24,NA,0.25,NA,"VV ",NA,NA,NA,NA,NA,NA,NA,"FG",NA,NA,NA,NA,NA,NA,30.75,"LFBE 060430Z AUTO 14003KT 0400 R27/0450N FG VV/// 01/01 Q1024"
"394","LFBE",2019-12-06 05:00:00,0.5164,44.8214,33.8,33.8,100,0,0,0,30.24,NA,0.22,NA,"VV ",NA,NA,NA,NA,NA,NA,NA,"FG",NA,NA,NA,NA,NA,NA,NA,"LFBE 060500Z AUTO 00000KT 0350 R27/0400N FG VV/// 01/01 Q1024"
"395","LFBE",2019-12-06 05:30:00,0.5164,44.8214,33.8,33.8,100,90,2,0,30.24,NA,0.19,NA,"VV ",NA,NA,NA,NA,NA,NA,NA,"FG",NA,NA,NA,NA,NA,NA,NA,"LFBE 060530Z AUTO 09002KT 0300 R27/0325N FG VV/// 01/01 Q1024"
"396","LFBE",2019-12-06 06:00:00,0.5164,44.8214,33.8,33.8,100,NA,2,0,30.24,NA,0.19,NA,"VV ",NA,NA,NA,NA,NA,NA,NA,"FG",NA,NA,NA,NA,NA,NA,NA,"LFBE 060600Z AUTO VRB02KT 0300 R27/0325N FG VV/// 01/01 Q1024"
"397","LFBE",2019-12-06 06:30:00,0.5164,44.8214,33.8,33.8,100,NA,1,0,30.24,NA,0.28,NA,"VV ",NA,NA,NA,NA,NA,NA,NA,"FG",NA,NA,NA,NA,NA,NA,NA,"LFBE 060630Z AUTO VRB01KT 0450 R27/0550N FG VV/// 01/01 Q1024"
"398","LFBE",2019-12-06 07:00:00,0.5164,44.8214,33.8,33.8,100,NA,2,0,30.24,NA,0.25,NA,"VV ",NA,NA,NA,NA,NA,NA,NA,"FG",NA,NA,NA,NA,NA,NA,NA,"LFBE 060700Z AUTO VRB02KT 0400 R27/0450D FG VV/// 01/01 Q1024"
"399","LFBE",2019-12-06 07:30:00,0.5164,44.8214,33.8,33.8,100,80,2,0,30.24,NA,0.25,NA,"VV ",NA,NA,NA,NA,NA,NA,NA,"FG",NA,NA,NA,NA,NA,NA,NA,"LFBE 060730Z AUTO 08002KT 0400 R27/0500N FG VV/// 01/01 Q1024 TEMPO 3000 BR"
"400","LFBE",2019-12-06 08:00:00,0.5164,44.8214,33.8,33.8,100,70,2,0,30.27,NA,0.22,NA,"VV ",NA,NA,NA,NA,NA,NA,NA,"FG",NA,NA,NA,NA,NA,NA,NA,"LFBE 060800Z AUTO 07002KT 0350 R27/0400N FG VV/// 01/01 Q1025 TEMPO 3000 BR"
"401","LFBE",2019-12-06 08:30:00,0.5164,44.8214,35.6,35.6,100,90,3,0,30.27,NA,0.19,NA,"VV ",NA,NA,NA,NA,NA,NA,NA,"FG",NA,NA,NA,NA,NA,NA,32.8,"LFBE 060830Z AUTO 09003KT 0300 R27/0350N FG VV/// 02/02 Q1025 TEMPO 3000 BR"
"402","LFBE",2019-12-06 09:00:00,0.5164,44.8214,35.6,35.6,100,NA,2,0,30.27,NA,0.31,NA,"VV ",NA,NA,NA,NA,NA,NA,NA,"FG",NA,NA,NA,NA,NA,NA,NA,"LFBE 060900Z AUTO VRB02KT 0500 R27/0700N FG VV/// 02/02 Q1025 TEMPO 3000 BR"
"403","LFBE",2019-12-06 09:30:00,0.5164,44.8214,37.4,37.4,100,140,5,0,30.24,NA,0.25,NA,"VV ",NA,NA,NA,NA,NA,NA,NA,"FG",NA,NA,NA,NA,NA,NA,32.81,"LFBE 060930Z AUTO 14005KT 090V170 0400 R27/0550N FG VV/// 03/03 Q1024 TEMPO 3000 BR"
"404","LFBE",2019-12-06 10:00:00,0.5164,44.8214,39.2,37.4,93.19,140,6,0,30.27,NA,0.4,NA,"VV ",NA,NA,NA,NA,NA,NA,NA,"FG",NA,NA,NA,NA,NA,NA,34.2,"LFBE 061000Z AUTO 14006KT 080V180 0650 0600 R27/0900U FG VV/// 04/03 Q1025 TEMPO 3000 BR"
"405","LFBE",2019-12-06 10:30:00,0.5164,44.8214,39.2,39.2,100,NA,3,0,30.27,NA,0.68,NA,"VV ",NA,NA,NA,NA,NA,NA,NA,"BR",NA,NA,NA,NA,NA,NA,36.92,"LFBE 061030Z AUTO VRB03KT 1100 R27/1600U BR VV/// 04/04 Q1025 BECMG 9999 NSW BKN005"
"406","LFBE",2019-12-06 11:00:00,0.5164,44.8214,39.2,39.2,100,110,4,0,30.24,NA,1.06,NA,"OVC",NA,NA,NA,200,NA,NA,NA,"BR",NA,NA,NA,NA,NA,NA,35.83,"LFBE 061100Z AUTO 11004KT 080V150 1700 BR OVC002 04/04 Q1024 TEMPO VV/// BECMG 9999 NSW"
"407","LFBE",2019-12-06 11:30:00,0.5164,44.8214,39.2,39.2,100,110,4,0,30.24,NA,0.87,NA,"OVC",NA,NA,NA,200,NA,NA,NA,"BR",NA,NA,NA,NA,NA,NA,35.83,"LFBE 061130Z AUTO 11004KT 070V140 1400 1300 R27/1700N BR OVC002 04/04 Q1024 BECMG 8000 NSW"
"408","LFBE",2019-12-06 12:00:00,0.5164,44.8214,39.2,39.2,100,110,4,0,30.21,NA,1.18,NA,"OVC",NA,NA,NA,200,NA,NA,NA,"BR",NA,NA,NA,NA,NA,NA,35.83,"LFBE 061200Z AUTO 11004KT 070V150 1900 BR OVC002 04/04 Q1023 BECMG 8000 NSW"
"409","LFBE",2019-12-06 12:30:00,0.5164,44.8214,39.2,39.2,100,120,3,0,30.21,NA,1.12,NA,"OVC",NA,NA,NA,200,NA,NA,NA,"BR",NA,NA,NA,NA,NA,NA,36.92,"LFBE 061230Z AUTO 12003KT 080V150 1800 BR OVC002 04/04 Q1023 TEMPO BKN007 BECMG 8000 NSW"
"410","LFBE",2019-12-06 13:00:00,0.5164,44.8214,41,41,100,120,4,0,30.21,NA,1.24,NA,"OVC",NA,NA,NA,200,NA,NA,NA,"BR",NA,NA,NA,NA,NA,NA,37.93,"LFBE 061300Z AUTO 12004KT 080V160 2000 BR OVC002 05/05 Q1023 TEMPO BKN007 BECMG 8000 NSW"
"411","LFBE",2019-12-06 13:30:00,0.5164,44.8214,41,41,100,NA,3,0,30.21,NA,1.55,NA,"OVC",NA,NA,NA,300,NA,NA,NA,"BR",NA,NA,NA,NA,NA,NA,38.98,"LFBE 061330Z AUTO VRB03KT 2500 BR OVC003 05/05 Q1023 TEMPO BKN007 BECMG 8000 NSW"
"412","LFBE",2019-12-06 14:00:00,0.5164,44.8214,41,41,100,130,4,0,30.18,NA,1.55,NA,"OVC",NA,NA,NA,300,NA,NA,NA,"BR",NA,NA,NA,NA,NA,NA,37.93,"LFBE 061400Z AUTO 13004KT 090V170 2500 BR OVC003 05/05 Q1022 TEMPO BKN007 BECMG 8000 NSW"
"413","LFBE",2019-12-06 14:30:00,0.5164,44.8214,41,41,100,150,4,0,30.18,NA,2.11,NA,"OVC",NA,NA,NA,300,NA,NA,NA,"BR",NA,NA,NA,NA,NA,NA,37.93,"LFBE 061430Z AUTO 15004KT 110V180 3400 BR OVC003 05/05 Q1022 TEMPO 8000 NSW BKN007"
"414","LFBE",2019-12-06 15:00:00,0.5164,44.8214,41,41,100,140,4,0,30.18,NA,1.99,NA,"OVC",NA,NA,NA,300,NA,NA,NA,"BR",NA,NA,NA,NA,NA,NA,37.93,"LFBE 061500Z AUTO 14004KT 3200 BR OVC003 05/05 Q1022 TEMPO 8000 NSW BKN007"
"415","LFBE",2019-12-06 15:30:00,0.5164,44.8214,41,41,100,150,4,0,30.18,NA,1.49,NA,"OVC",NA,NA,NA,200,NA,NA,NA,"BR",NA,NA,NA,NA,NA,NA,37.93,"LFBE 061530Z AUTO 15004KT 110V170 2400 BR OVC002 05/05 Q1022 TEMPO 8000 NSW BKN007"
"416","LFBE",2019-12-06 16:00:00,0.5164,44.8214,41,41,100,140,5,0,30.18,NA,2.05,NA,"OVC",NA,NA,NA,300,NA,NA,NA,NA,NA,NA,NA,NA,NA,NA,37.08,"LFBE 061600Z AUTO 14005KT 3300 BR OVC003 05/05 Q1022 TEMPO BKN007 BECMG 2500 BR"
"417","LFBE",2019-12-06 16:30:00,0.5164,44.8214,41,41,100,NA,2,0,30.18,NA,2.8,NA,"OVC",NA,NA,NA,400,NA,NA,NA,"BR",NA,NA,NA,NA,NA,NA,NA,"LFBE 061630Z AUTO VRB02KT 4500 BR OVC004 05/05 Q1022 BECMG 0300 FG VV///"
"418","LFBE",2019-12-06 17:00:00,0.5164,44.8214,41,41,100,140,2,0,30.18,NA,2.3,NA,"OVC",NA,NA,NA,300,NA,NA,NA,"BR",NA,NA,NA,NA,NA,NA,NA,"LFBE 061700Z AUTO 14002KT 3700 BR OVC003 05/05 Q1022 BECMG 0300 FG VV///"
"419","LFBE",2019-12-06 17:30:00,0.5164,44.8214,41,41,100,NA,2,0,30.18,NA,2.86,NA,"OVC",NA,NA,NA,300,NA,NA,NA,"BR",NA,NA,NA,NA,NA,NA,NA,"LFBE 061730Z AUTO VRB02KT 4600 BR OVC003 05/05 Q1022 BECMG 0300 FG VV///"
"420","LFBE",2019-12-06 18:00:00,0.5164,44.8214,41,41,100,NA,2,0,30.18,NA,2.24,NA,"OVC",NA,NA,NA,300,NA,NA,NA,"BR",NA,NA,NA,NA,NA,NA,NA,"LFBE 061800Z AUTO VRB02KT 3600 BR OVC003 05/05 Q1022 BECMG 0300 FG VV///"
"421","LFBE",2019-12-06 18:30:00,0.5164,44.8214,41,41,100,NA,2,0,30.18,NA,2.05,NA,"OVC",NA,NA,NA,300,NA,NA,NA,"BR",NA,NA,NA,NA,NA,NA,NA,"LFBE 061830Z AUTO VRB02KT 3300 BR OVC003 05/05 Q1022 BECMG 0300 FG VV///"
"422","LFBE",2019-12-06 19:00:00,0.5164,44.8214,42.8,41,93.3,NA,2,0,30.18,NA,2.55,NA,"OVC",NA,NA,NA,300,NA,NA,NA,"BR",NA,NA,NA,NA,NA,NA,NA,"LFBE 061900Z AUTO VRB02KT 4100 BR OVC003 06/05 Q1022 BECMG 0300 FG VV///"
"423","LFBE",2019-12-06 19:30:00,0.5164,44.8214,42.8,41,93.3,NA,1,0,30.18,NA,2.8,NA,"OVC",NA,NA,NA,300,NA,NA,NA,"BR",NA,NA,NA,NA,NA,NA,NA,"LFBE 061930Z AUTO VRB01KT 4500 BR OVC003 06/05 Q1022 BECMG 0300 FG VV///"
"424","LFBE",2019-12-06 20:00:00,0.5164,44.8214,42.8,41,93.3,NA,1,0,30.21,NA,2.49,NA,"OVC",NA,NA,NA,300,NA,NA,NA,"BR",NA,NA,NA,NA,NA,NA,NA,"LFBE 062000Z AUTO VRB01KT 4000 BR OVC003 06/05 Q1023 BECMG 0300 FG VV///"
"425","LFBE",2019-12-06 20:30:00,0.5164,44.8214,42.8,41,93.3,NA,2,0,30.21,NA,2.24,NA,"OVC",NA,NA,NA,300,NA,NA,NA,"BR",NA,NA,NA,NA,NA,NA,NA,"LFBE 062030Z AUTO VRB02KT 3600 BR OVC003 06/05 Q1023 BECMG 0300 FG VV///"
"426","LFBE",2019-12-06 21:00:00,0.5164,44.8214,42.8,41,93.3,130,3,0,30.18,NA,2.11,NA,"OVC",NA,NA,NA,300,NA,NA,NA,"BR",NA,NA,NA,NA,NA,NA,41.03,"LFBE 062100Z AUTO 13003KT 3400 BR OVC003 06/05 Q1022 BECMG 0300 FG VV///"
"427","LFBE",2019-12-06 21:30:00,0.5164,44.8214,42.8,42.8,100,140,5,0,30.18,NA,1.68,NA,"OVC",NA,NA,NA,200,NA,NA,NA,"BR",NA,NA,NA,NA,NA,NA,39.22,"LFBE 062130Z AUTO 14005KT 2700 BR OVC002 06/06 Q1022"
"428","LFBE",2019-12-06 22:00:00,0.5164,44.8214,41,41,100,120,4,0,30.18,NA,2.67,NA,"OVC",NA,NA,NA,300,NA,NA,NA,"BR",NA,NA,NA,NA,NA,NA,37.93,"LFBE 062200Z AUTO 12004KT 060V180 4300 BR OVC003 05/05 Q1022"
"429","LFBE",2019-12-06 22:30:00,0.5164,44.8214,41,41,100,160,3,0,30.18,NA,2.49,NA,"OVC",NA,NA,NA,300,NA,NA,NA,"BR",NA,NA,NA,NA,NA,NA,38.98,"LFBE 062230Z AUTO 16003KT 080V230 4000 BR OVC003 05/05 Q1022"
"430","LFBE",2019-12-06 23:00:00,0.5164,44.8214,41,41,100,NA,1,0,30.21,NA,3.04,NA,"OVC",NA,NA,NA,300,NA,NA,NA,"BR",NA,NA,NA,NA,NA,NA,NA,"LFBE 062300Z AUTO VRB01KT 4900 BR OVC003 05/05 Q1023"
"431","LFBE",2019-12-06 23:30:00,0.5164,44.8214,41,41,100,NA,3,0,30.21,NA,2.17,NA,"OVC",NA,NA,NA,300,NA,NA,NA,"BR",NA,NA,NA,NA,NA,NA,38.98,"LFBE 062330Z AUTO VRB03KT 3500 BR OVC003 05/05 Q1023"
"432","LFMU",2019-12-06 00:00:00,3.3539,43.3235,44.6,41,87.09,20,2,0,30.24,NA,6.21,NA,NA,NA,NA,NA,NA,NA,NA,NA,NA,NA,NA,NA,NA,NA,NA,NA,"LFMU 060000Z AUTO 02002KT CAVOK 07/05 Q1024"
"433","LFMU",2019-12-06 00:30:00,3.3539,43.3235,42.8,41,93.3,330,2,0,30.21,NA,6.21,NA,NA,NA,NA,NA,NA,NA,NA,NA,NA,NA,NA,NA,NA,NA,NA,NA,"LFMU 060030Z AUTO 33002KT CAVOK 06/05 Q1023"
"434","LFMU",2019-12-06 01:00:00,3.3539,43.3235,44.6,41,87.09,0,0,0,30.21,NA,6.21,NA,NA,NA,NA,NA,NA,NA,NA,NA,NA,NA,NA,NA,NA,NA,NA,NA,"LFMU 060100Z AUTO 00000KT CAVOK 07/05 Q1023"
"435","LFMU",2019-12-06 01:30:00,3.3539,43.3235,42.8,41,93.3,280,4,0,30.21,NA,6.21,NA,NA,NA,NA,NA,NA,NA,NA,NA,NA,NA,NA,NA,NA,NA,NA,40.03,"LFMU 060130Z AUTO 28004KT CAVOK 06/05 Q1023"
"436","LFMU",2019-12-06 02:00:00,3.3539,43.3235,44.6,41,87.09,340,3,0,30.21,NA,6.21,NA,NA,NA,NA,NA,NA,NA,NA,NA,NA,NA,NA,NA,NA,NA,NA,43.09,"LFMU 060200Z AUTO 34003KT CAVOK 07/05 Q1023"
"437","LFMU",2019-12-06 02:30:00,3.3539,43.3235,44.6,41,87.09,NA,2,0,30.21,NA,6.21,NA,NA,NA,NA,NA,NA,NA,NA,NA,NA,NA,NA,NA,NA,NA,NA,NA,"LFMU 060230Z AUTO VRB02KT CAVOK 07/05 Q1023"
"438","LFMU",2019-12-06 03:00:00,3.3539,43.3235,44.6,41,87.09,NA,2,0,30.21,NA,6.21,NA,NA,NA,NA,NA,NA,NA,NA,NA,NA,NA,NA,NA,NA,NA,NA,NA,"LFMU 060300Z AUTO VRB02KT CAVOK 07/05 Q1023"
"439","LFMU",2019-12-06 03:30:00,3.3539,43.3235,44.6,41,87.09,70,3,0,30.21,NA,6.21,NA,NA,NA,NA,NA,NA,NA,NA,NA,NA,NA,NA,NA,NA,NA,NA,43.09,"LFMU 060330Z AUTO 07003KT CAVOK 07/05 Q1023"
"440","LFMU",2019-12-06 04:00:00,3.3539,43.3235,42.8,41,93.3,80,2,0,30.21,NA,6.21,NA,NA,NA,NA,NA,NA,NA,NA,NA,NA,NA,NA,NA,NA,NA,NA,NA,"LFMU 060400Z AUTO 08002KT CAVOK 06/05 Q1023"
"441","LFMU",2019-12-06 04:30:00,3.3539,43.3235,42.8,41,93.3,350,1,0,30.21,NA,6.21,NA,NA,NA,NA,NA,NA,NA,NA,NA,NA,NA,NA,NA,NA,NA,NA,NA,"LFMU 060430Z AUTO 35001KT CAVOK 06/05 Q1023"
"442","LFMU",2019-12-06 05:00:00,3.3539,43.3235,42.8,41,93.3,270,1,0,30.21,NA,6.21,NA,NA,NA,NA,NA,NA,NA,NA,NA,NA,NA,NA,NA,NA,NA,NA,NA,"LFMU 060500Z AUTO 27001KT CAVOK 06/05 Q1023"
"443","LFMU",2019-12-06 05:30:00,3.3539,43.3235,42.8,41,93.3,300,5,0,30.21,NA,6.21,NA,NA,NA,NA,NA,NA,NA,NA,NA,NA,NA,NA,NA,NA,NA,NA,39.22,"LFMU 060530Z AUTO 30005KT CAVOK 06/05 Q1023"
"444","LFMU",2019-12-06 06:00:00,3.3539,43.3235,42.8,41,93.3,340,4,0,30.21,NA,6.21,NA,NA,NA,NA,NA,NA,NA,NA,NA,NA,NA,NA,NA,NA,NA,NA,40.03,"LFMU 060600Z AUTO 34004KT 320V020 CAVOK 06/05 Q1023"
"445","LFMU",2019-12-06 06:30:00,3.3539,43.3235,42.8,41,93.3,NA,2,0,30.21,NA,6.21,NA,NA,NA,NA,NA,NA,NA,NA,NA,NA,NA,NA,NA,NA,NA,NA,NA,"LFMU 060630Z AUTO VRB02KT CAVOK 06/05 Q1023"
"446","LFMU",2019-12-06 07:00:00,3.3539,43.3235,42.8,39.2,86.99,NA,2,0,30.21,NA,6.21,NA,NA,NA,NA,NA,NA,NA,NA,NA,NA,NA,NA,NA,NA,NA,NA,NA,"LFMU 060700Z AUTO VRB02KT CAVOK 06/04 Q1023 NOSIG"
"447","LFMU",2019-12-06 07:30:00,3.3539,43.3235,41,39.2,93.24,290,4,0,30.21,NA,6.21,NA,NA,NA,NA,NA,NA,NA,NA,NA,NA,NA,NA,NA,NA,NA,NA,37.93,"LFMU 060730Z AUTO 29004KT CAVOK 05/04 Q1023 NOSIG"
"448","LFMU",2019-12-06 08:00:00,3.3539,43.3235,42.8,39.2,86.99,300,4,0,30.24,NA,6.21,NA,NA,NA,NA,NA,NA,NA,NA,NA,NA,NA,NA,NA,NA,NA,NA,40.03,"LFMU 060800Z AUTO 30004KT CAVOK 06/04 Q1024 NOSIG"
"449","LFMU",2019-12-06 08:30:00,3.3539,43.3235,46.4,42.8,87.19,0,0,0,30.24,NA,6.21,NA,NA,NA,NA,NA,NA,NA,NA,NA,NA,NA,NA,NA,NA,NA,NA,NA,"LFMU 060830Z AUTO 00000KT CAVOK 08/06 Q1024 NOSIG"
"450","LFMU",2019-12-06 09:00:00,3.3539,43.3235,48.2,41,76.01,0,0,0,30.24,NA,6.21,NA,NA,NA,NA,NA,NA,NA,NA,NA,NA,NA,NA,NA,NA,NA,NA,NA,"LFMU 060900Z AUTO 00000KT CAVOK 09/05 Q1024 NOSIG"
"451","LFMU",2019-12-06 09:30:00,3.3539,43.3235,50,41,71.07,NA,2,0,30.24,NA,6.21,NA,NA,NA,NA,NA,NA,NA,NA,NA,NA,NA,NA,NA,NA,NA,NA,NA,"LFMU 060930Z AUTO VRB02KT CAVOK 10/05 Q1024 NOSIG"
"452","LFMU",2019-12-06 10:00:00,3.3539,43.3235,51.8,41,66.48,230,4,0,30.24,NA,6.21,NA,NA,NA,NA,NA,NA,NA,NA,NA,NA,NA,NA,NA,NA,NA,NA,NA,"LFMU 061000Z AUTO 23004KT 200V260 CAVOK 11/05 Q1024 NOSIG"
"453","LFMU",2019-12-06 10:30:00,3.3539,43.3235,51.8,41,66.48,250,4,0,30.24,NA,6.21,NA,NA,NA,NA,NA,NA,NA,NA,NA,NA,NA,NA,NA,NA,NA,NA,NA,"LFMU 061030Z AUTO 25004KT 220V280 CAVOK 11/05 Q1024 NOSIG"
"454","LFMU",2019-12-06 11:00:00,3.3539,43.3235,53.6,41,62.23,240,4,0,30.24,NA,6.21,NA,NA,NA,NA,NA,NA,NA,NA,NA,NA,NA,NA,NA,NA,NA,NA,NA,"LFMU 061100Z AUTO 24004KT 210V290 CAVOK 12/05 Q1024 NOSIG"
"455","LFMU",2019-12-06 11:30:00,3.3539,43.3235,55.4,42.8,62.46,240,4,0,30.21,NA,6.21,NA,NA,NA,NA,NA,NA,NA,NA,NA,NA,NA,NA,NA,NA,NA,NA,NA,"LFMU 061130Z AUTO 24004KT 210V280 CAVOK 13/06 Q1023 NOSIG"
"456","LFMU",2019-12-06 12:00:00,3.3539,43.3235,57.2,42.8,58.52,240,4,0,30.21,NA,6.21,NA,NA,NA,NA,NA,NA,NA,NA,NA,NA,NA,NA,NA,NA,NA,NA,NA,"LFMU 061200Z AUTO 24004KT 190V280 CAVOK 14/06 Q1023 NOSIG"
"457","LFMU",2019-12-06 12:30:00,3.3539,43.3235,57.2,42.8,58.52,280,4,0,30.18,NA,6.21,NA,NA,NA,NA,NA,NA,NA,NA,NA,NA,NA,NA,NA,NA,NA,NA,NA,"LFMU 061230Z AUTO 28004KT 240V340 CAVOK 14/06 Q1022 TEMPO 18010KT"
"458","LFMU",2019-12-06 13:00:00,3.3539,43.3235,59,42.8,54.86,280,5,0,30.18,NA,6.21,NA,NA,NA,NA,NA,NA,NA,NA,NA,NA,NA,NA,NA,NA,NA,NA,NA,"LFMU 061300Z AUTO 28005KT 250V330 CAVOK 15/06 Q1022 TEMPO 18010KT"
"459","LFMU",2019-12-06 13:30:00,3.3539,43.3235,59,42.8,54.86,270,4,0,30.18,NA,6.21,NA,NA,NA,NA,NA,NA,NA,NA,NA,NA,NA,NA,NA,NA,NA,NA,NA,"LFMU 061330Z AUTO 27004KT 240V300 CAVOK 15/06 Q1022 TEMPO 18010KT"
"460","LFMU",2019-12-06 14:00:00,3.3539,43.3235,60.8,42.8,51.45,NA,3,0,30.15,NA,6.21,NA,NA,NA,NA,NA,NA,NA,NA,NA,NA,NA,NA,NA,NA,NA,NA,NA,"LFMU 061400Z AUTO VRB03KT CAVOK 16/06 Q1021 NOSIG"
"461","LFMU",2019-12-06 14:30:00,3.3539,43.3235,60.8,41,48,230,3,0,30.15,NA,6.21,NA,NA,NA,NA,NA,NA,NA,NA,NA,NA,NA,NA,NA,NA,NA,NA,NA,"LFMU 061430Z AUTO 23003KT 170V280 CAVOK 16/05 Q1021 NOSIG"
"462","LFMU",2019-12-06 15:00:00,3.3539,43.3235,59,42.8,54.86,220,5,0,30.15,NA,6.21,NA,NA,NA,NA,NA,NA,NA,NA,NA,NA,NA,NA,NA,NA,NA,NA,NA,"LFMU 061500Z AUTO 22005KT 180V240 CAVOK 15/06 Q1021 NOSIG"
"463","LFMU",2019-12-06 15:30:00,3.3539,43.3235,59,42.8,54.86,250,3,0,30.15,NA,6.21,NA,NA,NA,NA,NA,NA,NA,NA,NA,NA,NA,NA,NA,NA,NA,NA,NA,"LFMU 061530Z AUTO 25003KT CAVOK 15/06 Q1021 NOSIG"
"464","LFMU",2019-12-06 16:00:00,3.3539,43.3235,55.4,46.4,71.64,220,4,0,30.15,NA,6.21,NA,NA,NA,NA,NA,NA,NA,NA,NA,NA,NA,NA,NA,NA,NA,NA,NA,"LFMU 061600Z AUTO 22004KT CAVOK 13/08 Q1021 NOSIG"
"465","LFMU",2019-12-06 16:30:00,3.3539,43.3235,53.6,46.4,76.5,220,4,0,30.15,NA,6.21,NA,NA,NA,NA,NA,NA,NA,NA,NA,NA,NA,NA,NA,NA,NA,NA,NA,"LFMU 061630Z AUTO 22004KT CAVOK 12/08 Q1021 NOSIG"
"466","LFMU",2019-12-06 17:00:00,3.3539,43.3235,50,44.6,81.61,230,1,0,30.15,NA,6.21,NA,NA,NA,NA,NA,NA,NA,NA,NA,NA,NA,NA,NA,NA,NA,NA,NA,"LFMU 061700Z AUTO 23001KT CAVOK 10/07 Q1021 NOSIG"
"467","LFMU",2019-12-06 17:30:00,3.3539,43.3235,48.2,42.8,81.47,240,2,0,30.15,NA,6.21,NA,NA,NA,NA,NA,NA,NA,NA,NA,NA,NA,NA,NA,NA,NA,NA,NA,"LFMU 061730Z AUTO 24002KT CAVOK 09/06 Q1021 NOSIG"
"468","LFMU",2019-12-06 18:00:00,3.3539,43.3235,46.4,42.8,87.19,230,2,0,30.15,NA,6.21,NA,NA,NA,NA,NA,NA,NA,NA,NA,NA,NA,NA,NA,NA,NA,NA,NA,"LFMU 061800Z AUTO 23002KT CAVOK 08/06 Q1021 NOSIG"
"469","LFMU",2019-12-06 18:30:00,3.3539,43.3235,46.4,42.8,87.19,250,2,0,30.15,NA,6.21,NA,NA,NA,NA,NA,NA,NA,NA,NA,NA,NA,NA,NA,NA,NA,NA,NA,"LFMU 061830Z AUTO 25002KT CAVOK 08/06 Q1021 NOSIG"
"470","LFMU",2019-12-06 19:00:00,3.3539,43.3235,44.6,42.8,93.35,300,3,0,30.18,NA,6.21,NA,NA,NA,NA,NA,NA,NA,NA,NA,NA,NA,NA,NA,NA,NA,NA,43.09,"LFMU 061900Z AUTO 30003KT CAVOK 07/06 Q1022 NOSIG"
"471","LFMU",2019-12-06 19:30:00,3.3539,43.3235,44.6,42.8,93.35,310,4,0,30.18,NA,6.21,NA,NA,NA,NA,NA,NA,NA,NA,NA,NA,NA,NA,NA,NA,NA,NA,42.13,"LFMU 061930Z AUTO 31004KT CAVOK 07/06 Q1022 TEMPO 4000 BR"
"472","LFMU",2019-12-06 20:00:00,3.3539,43.3235,42.8,41,93.3,0,0,0,30.18,NA,6.21,NA,NA,NA,NA,NA,NA,NA,NA,NA,NA,NA,NA,NA,NA,NA,NA,NA,"LFMU 062000Z AUTO 00000KT CAVOK 06/05 Q1022"
"473","LFMU",2019-12-06 20:30:00,3.3539,43.3235,41,39.2,93.24,0,0,0,30.15,NA,6.21,NA,NA,NA,NA,NA,NA,NA,NA,NA,NA,NA,NA,NA,NA,NA,NA,NA,"LFMU 062030Z AUTO 00000KT CAVOK 05/04 Q1021"
"474","LFMU",2019-12-06 21:00:00,3.3539,43.3235,42.8,41,93.3,340,3,0,30.15,NA,6.21,NA,NA,NA,NA,NA,NA,NA,NA,NA,NA,NA,NA,NA,NA,NA,NA,41.03,"LFMU 062100Z AUTO 34003KT CAVOK 06/05 Q1021"
"475","LFMU",2019-12-06 21:30:00,3.3539,43.3235,41,41,100,330,2,0,30.18,NA,6.21,NA,NA,NA,NA,NA,NA,NA,NA,NA,NA,NA,NA,NA,NA,NA,NA,NA,"LFMU 062130Z AUTO 33002KT CAVOK 05/05 Q1022"
"476","LFMU",2019-12-06 22:00:00,3.3539,43.3235,42.8,41,93.3,NA,2,0,30.18,NA,6.21,NA,NA,NA,NA,NA,NA,NA,NA,NA,NA,NA,NA,NA,NA,NA,NA,NA,"LFMU 062200Z AUTO VRB02KT CAVOK 06/05 Q1022"
"477","LFMU",2019-12-06 22:30:00,3.3539,43.3235,42.8,41,93.3,NA,2,0,30.18,NA,6.21,NA,NA,NA,NA,NA,NA,NA,NA,NA,NA,NA,NA,NA,NA,NA,NA,NA,"LFMU 062230Z AUTO VRB02KT CAVOK 06/05 Q1022"
"478","LFMU",2019-12-06 23:00:00,3.3539,43.3235,41,39.2,93.24,NA,1,0,30.18,NA,6.21,NA,NA,NA,NA,NA,NA,NA,NA,NA,NA,NA,NA,NA,NA,NA,NA,NA,"LFMU 062300Z AUTO VRB01KT CAVOK 05/04 Q1022"
"479","LFMU",2019-12-06 23:30:00,3.3539,43.3235,39.2,37.4,93.19,320,2,0,30.18,NA,6.21,NA,NA,NA,NA,NA,NA,NA,NA,NA,NA,NA,NA,NA,NA,NA,NA,NA,"LFMU 062330Z AUTO 32002KT CAVOK 04/03 Q1022"
"480","LFBZ",2019-12-06 00:00:00,-1.5344,43.4694,44.6,44.6,100,200,3,0,30.24,NA,6.21,NA,"FEW",NA,NA,NA,1300,NA,NA,NA,NA,NA,NA,NA,NA,NA,NA,43.09,"LFBZ 060000Z AUTO 20003KT 9999 FEW013 07/07 Q1024"
"481","LFBZ",2019-12-06 00:30:00,-1.5344,43.4694,44.6,44.6,100,220,4,0,30.24,NA,6.21,NA,"BKN",NA,NA,NA,1500,NA,NA,NA,NA,NA,NA,NA,NA,NA,NA,42.13,"LFBZ 060030Z AUTO 22004KT 9999 BKN015 07/07 Q1024"
"482","LFBZ",2019-12-06 01:00:00,-1.5344,43.4694,44.6,44.6,100,210,4,0,30.24,NA,6.21,NA,"BKN",NA,NA,NA,1700,NA,NA,NA,NA,NA,NA,NA,NA,NA,NA,42.13,"LFBZ 060100Z AUTO 21004KT 9999 BKN017 07/07 Q1024"
"483","LFBZ",2019-12-06 01:30:00,-1.5344,43.4694,42.8,42.8,100,220,3,0,30.24,NA,6.21,NA,"BKN","BKN",NA,NA,1700,2300,NA,NA,NA,NA,NA,NA,NA,NA,NA,41.03,"LFBZ 060130Z AUTO 22003KT 9999 BKN017 BKN023 06/06 Q1024"
"484","LFBZ",2019-12-06 02:00:00,-1.5344,43.4694,42.8,42.8,100,190,4,0,30.24,NA,6.21,NA,"FEW",NA,NA,NA,1700,NA,NA,NA,NA,NA,NA,NA,NA,NA,NA,40.03,"LFBZ 060200Z AUTO 19004KT 9999 FEW017 06/06 Q1024"
"485","LFBZ",2019-12-06 02:30:00,-1.5344,43.4694,42.8,42.8,100,190,4,0,30.24,NA,6.21,NA,NA,NA,NA,NA,NA,NA,NA,NA,NA,NA,NA,NA,NA,NA,NA,40.03,"LFBZ 060230Z AUTO 19004KT CAVOK 06/06 Q1024"
"486","LFBZ",2019-12-06 03:00:00,-1.5344,43.4694,42.8,42.8,100,190,3,0,30.24,NA,6.21,NA,NA,NA,NA,NA,NA,NA,NA,NA,NA,NA,NA,NA,NA,NA,NA,41.03,"LFBZ 060300Z AUTO 19003KT CAVOK 06/06 Q1024"
"487","LFBZ",2019-12-06 03:30:00,-1.5344,43.4694,42.8,42.8,100,190,3,0,30.24,NA,6.21,NA,NA,NA,NA,NA,NA,NA,NA,NA,NA,NA,NA,NA,NA,NA,NA,41.03,"LFBZ 060330Z AUTO 19003KT CAVOK 06/06 Q1024"
"488","LFBZ",2019-12-06 04:00:00,-1.5344,43.4694,42.8,42.8,100,NA,2,0,30.21,NA,6.21,NA,NA,NA,NA,NA,NA,NA,NA,NA,NA,NA,NA,NA,NA,NA,NA,NA,"LFBZ 060400Z AUTO VRB02KT CAVOK 06/06 Q1023"
"489","LFBZ",2019-12-06 04:30:00,-1.5344,43.4694,42.8,41,93.3,160,4,0,30.21,NA,6.21,NA,NA,NA,NA,NA,NA,NA,NA,NA,NA,NA,NA,NA,NA,NA,NA,40.03,"LFBZ 060430Z AUTO 16004KT CAVOK 06/05 Q1023"
"490","LFBZ",2019-12-06 05:00:00,-1.5344,43.4694,41,41,100,150,4,0,30.21,NA,6.21,NA,NA,NA,NA,NA,NA,NA,NA,NA,NA,NA,NA,NA,NA,NA,NA,37.93,"LFBZ 060500Z AUTO 15004KT CAVOK 05/05 Q1023"
"491","LFBZ",2019-12-06 05:30:00,-1.5344,43.4694,41,39.2,93.24,150,5,0,30.21,NA,5.59,NA,"NSC",NA,NA,NA,NA,NA,NA,NA,NA,NA,NA,NA,NA,NA,NA,37.08,"LFBZ 060530Z AUTO 15005KT 9000 NSC 05/04 Q1023"
"492","LFBZ",2019-12-06 06:00:00,-1.5344,43.4694,41,41,100,150,5,0,30.21,NA,6.21,NA,NA,NA,NA,NA,NA,NA,NA,NA,NA,NA,NA,NA,NA,NA,NA,37.08,"LFBZ 060600Z AUTO 15005KT CAVOK 05/05 Q1023 TEMPO 0500 FG VV///"
"493","LFBZ",2019-12-06 06:30:00,-1.5344,43.4694,39.2,37.4,93.19,150,6,0,30.21,NA,5.59,NA,"NSC",NA,NA,NA,NA,NA,NA,NA,NA,NA,NA,NA,NA,NA,NA,34.2,"LFBZ 060630Z AUTO 15006KT 9000 NSC 04/03 Q1023 TEMPO 0500 FG VV///"
"494","LFBZ",2019-12-06 07:00:00,-1.5344,43.4694,39.2,39.2,100,150,5,0,30.21,NA,6.21,NA,NA,NA,NA,NA,NA,NA,NA,NA,NA,NA,NA,NA,NA,NA,NA,34.95,"LFBZ 060700Z AUTO 15005KT CAVOK 04/04 Q1023 TEMPO 0500 FG VV///"
"495","LFBZ",2019-12-06 07:30:00,-1.5344,43.4694,39.2,39.2,100,150,5,0,30.21,NA,6.21,NA,NA,NA,NA,NA,NA,NA,NA,NA,NA,NA,NA,NA,NA,NA,NA,34.95,"LFBZ 060730Z AUTO 15005KT CAVOK 04/04 Q1023 TEMPO 0500 FG VV///"
"496","LFBZ",2019-12-06 08:00:00,-1.5344,43.4694,41,41,100,150,6,0,30.21,NA,6.21,NA,NA,NA,NA,NA,NA,NA,NA,NA,NA,NA,NA,NA,NA,NA,NA,36.37,"LFBZ 060800Z AUTO 15006KT CAVOK 05/05 Q1023 TEMPO 0500 FG VV///"
"497","LFBZ",2019-12-06 08:30:00,-1.5344,43.4694,42.8,42.8,100,150,5,0,30.21,NA,6.21,NA,NA,NA,NA,NA,NA,NA,NA,NA,NA,NA,NA,NA,NA,NA,NA,39.22,"LFBZ 060830Z AUTO 15005KT CAVOK 06/06 Q1023 NOSIG"
"498","LFBZ",2019-12-06 09:00:00,-1.5344,43.4694,46.4,44.6,93.4,140,4,0,30.21,NA,6.21,NA,NA,NA,NA,NA,NA,NA,NA,NA,NA,NA,NA,NA,NA,NA,NA,44.24,"LFBZ 060900Z AUTO 14004KT 110V180 CAVOK 08/07 Q1023 NOSIG"
"499","LFBZ",2019-12-06 09:30:00,-1.5344,43.4694,48.2,44.6,87.28,130,6,0,30.21,NA,6.21,NA,NA,NA,NA,NA,NA,NA,NA,NA,NA,NA,NA,NA,NA,NA,NA,45.04,"LFBZ 060930Z AUTO 13006KT 090V170 CAVOK 09/07 Q1023 NOSIG"
"500","LFBZ",2019-12-06 10:00:00,-1.5344,43.4694,51.8,46.4,81.74,140,5,0,30.21,NA,6.21,NA,NA,NA,NA,NA,NA,NA,NA,NA,NA,NA,NA,NA,NA,NA,NA,NA,"LFBZ 061000Z AUTO 14005KT 100V170 CAVOK 11/08 Q1023 NOSIG"
"501","LFBZ",2019-12-06 10:30:00,-1.5344,43.4694,51.8,46.4,81.74,NA,3,0,30.21,NA,6.21,NA,NA,NA,NA,NA,NA,NA,NA,NA,NA,NA,NA,NA,NA,NA,NA,NA,"LFBZ 061030Z AUTO VRB03KT CAVOK 11/08 Q1023 NOSIG"
"502","LFBZ",2019-12-06 11:00:00,-1.5344,43.4694,55.4,48.2,76.66,130,4,0,30.21,NA,6.21,NA,NA,NA,NA,NA,NA,NA,NA,NA,NA,NA,NA,NA,NA,NA,NA,NA,"LFBZ 061100Z AUTO 13004KT 090V170 CAVOK 13/09 Q1023 NOSIG"
"503","LFBZ",2019-12-06 11:30:00,-1.5344,43.4694,57.2,48.2,71.83,150,5,0,30.18,NA,6.21,NA,NA,NA,NA,NA,NA,NA,NA,NA,NA,NA,NA,NA,NA,NA,NA,NA,"LFBZ 061130Z AUTO 15005KT 110V200 CAVOK 14/09 Q1022 NOSIG"
"504","LFBZ",2019-12-06 12:00:00,-1.5344,43.4694,57.2,50,76.82,NA,2,0,30.18,NA,6.21,NA,NA,NA,NA,NA,NA,NA,NA,NA,NA,NA,NA,NA,NA,NA,NA,NA,"LFBZ 061200Z AUTO VRB02KT CAVOK 14/10 Q1022 NOSIG"
"505","LFBZ",2019-12-06 12:30:00,-1.5344,43.4694,53.6,48.2,81.87,330,5,0,30.18,NA,6.21,NA,NA,NA,NA,NA,NA,NA,NA,NA,NA,NA,NA,NA,NA,NA,NA,NA,"LFBZ 061230Z AUTO 33005KT CAVOK 12/09 Q1022 NOSIG"
"506","LFBZ",2019-12-06 13:00:00,-1.5344,43.4694,55.4,48.2,76.66,320,6,0,30.15,NA,6.21,NA,NA,NA,NA,NA,NA,NA,NA,NA,NA,NA,NA,NA,NA,NA,NA,NA,"LFBZ 061300Z AUTO 32006KT CAVOK 13/09 Q1021 NOSIG"
"507","LFBZ",2019-12-06 13:30:00,-1.5344,43.4694,57.2,50,76.82,330,6,0,30.15,NA,6.21,NA,NA,NA,NA,NA,NA,NA,NA,NA,NA,NA,NA,NA,NA,NA,NA,NA,"LFBZ 061330Z AUTO 33006KT CAVOK 14/10 Q1021 NOSIG"
"508","LFBZ",2019-12-06 14:00:00,-1.5344,43.4694,59,50,72.01,360,3,0,30.15,NA,6.21,NA,NA,NA,NA,NA,NA,NA,NA,NA,NA,NA,NA,NA,NA,NA,NA,NA,"LFBZ 061400Z AUTO 36003KT 320V020 CAVOK 15/10 Q1021 NOSIG"
"509","LFBZ",2019-12-06 14:30:00,-1.5344,43.4694,59,48.2,67.33,10,3,0,30.15,NA,6.21,NA,NA,NA,NA,NA,NA,NA,NA,NA,NA,NA,NA,NA,NA,NA,NA,NA,"LFBZ 061430Z AUTO 01003KT CAVOK 15/09 Q1021 NOSIG"
"510","LFBZ",2019-12-06 15:00:00,-1.5344,43.4694,57.2,46.4,67.12,350,2,0,30.12,NA,6.21,NA,NA,NA,NA,NA,NA,NA,NA,NA,NA,NA,NA,NA,NA,NA,NA,NA,"LFBZ 061500Z AUTO 35002KT CAVOK 14/08 Q1020 NOSIG"
"511","LFBZ",2019-12-06 15:30:00,-1.5344,43.4694,57.2,46.4,67.12,350,3,0,30.15,NA,6.21,NA,NA,NA,NA,NA,NA,NA,NA,NA,NA,NA,NA,NA,NA,NA,NA,NA,"LFBZ 061530Z AUTO 35003KT CAVOK 14/08 Q1021 NOSIG"
"512","LFBZ",2019-12-06 16:00:00,-1.5344,43.4694,55.4,46.4,71.64,320,1,0,30.15,NA,6.21,NA,NA,NA,NA,NA,NA,NA,NA,NA,NA,NA,NA,NA,NA,NA,NA,NA,"LFBZ 061600Z AUTO 32001KT CAVOK 13/08 Q1021 NOSIG"
"513","LFBZ",2019-12-06 16:30:00,-1.5344,43.4694,53.6,48.2,81.87,250,2,0,30.15,NA,6.21,NA,NA,NA,NA,NA,NA,NA,NA,NA,NA,NA,NA,NA,NA,NA,NA,NA,"LFBZ 061630Z AUTO 25002KT CAVOK 12/09 Q1021 NOSIG"
"514","LFBZ",2019-12-06 17:00:00,-1.5344,43.4694,51.8,50,93.55,270,4,0,30.15,NA,3.11,NA,"NSC",NA,NA,NA,NA,NA,NA,NA,"BR",NA,NA,NA,NA,NA,NA,NA,"LFBZ 061700Z AUTO 27004KT 230V290 5000 BR NSC 11/10 Q1021 NOSIG"
"515","LFBZ",2019-12-06 17:30:00,-1.5344,43.4694,51.8,50,93.55,260,3,0,30.15,NA,3.73,NA,"NSC",NA,NA,NA,NA,NA,NA,NA,NA,NA,NA,NA,NA,NA,NA,NA,"LFBZ 061730Z AUTO 26003KT 6000 NSC 11/10 Q1021 NOSIG"
"516","LFBZ",2019-12-06 18:00:00,-1.5344,43.4694,51.8,50,93.55,270,5,0,30.15,NA,4.35,NA,"NSC",NA,NA,NA,NA,NA,NA,NA,NA,NA,NA,NA,NA,NA,NA,NA,"LFBZ 061800Z AUTO 27005KT 7000 NSC 11/10 Q1021 NOSIG"
"517","LFBZ",2019-12-06 18:30:00,-1.5344,43.4694,50,48.2,93.5,240,4,0,30.18,NA,3.04,NA,"NSC",NA,NA,NA,NA,NA,NA,NA,"BR",NA,NA,NA,NA,NA,NA,48.44,"LFBZ 061830Z AUTO 24004KT 4900 BR NSC 10/09 Q1022 BECMG 9999 NSW"
"518","LFBZ",2019-12-06 19:00:00,-1.5344,43.4694,50,48.2,93.5,240,5,0,30.18,NA,4.35,NA,"NSC",NA,NA,NA,NA,NA,NA,NA,NA,NA,NA,NA,NA,NA,NA,47.77,"LFBZ 061900Z AUTO 24005KT 7000 NSC 10/09 Q1022 TEMPO 4000 BR"
"519","LFBZ",2019-12-06 19:30:00,-1.5344,43.4694,50,48.2,93.5,260,6,0,30.18,NA,5.59,NA,"NSC",NA,NA,NA,NA,NA,NA,NA,NA,NA,NA,NA,NA,NA,NA,47.21,"LFBZ 061930Z AUTO 26006KT 230V290 9000 NSC 10/09 Q1022 NOSIG"
"520","LFBZ",2019-12-06 20:00:00,-1.5344,43.4694,50,50,100,270,7,0,30.18,NA,5.59,NA,"NSC",NA,NA,NA,NA,NA,NA,NA,NA,NA,NA,NA,NA,NA,NA,46.72,"LFBZ 062000Z AUTO 27007KT 9000 NSC 10/10 Q1022 NOSIG"
"521","LFBZ",2019-12-06 20:30:00,-1.5344,43.4694,51.8,50,93.55,260,7,0,30.18,NA,4.35,NA,"NSC",NA,NA,NA,NA,NA,NA,NA,NA,NA,NA,NA,NA,NA,NA,NA,"LFBZ 062030Z AUTO 26007KT 7000 NSC 11/10 Q1022 NOSIG"
"522","LFBZ",2019-12-06 21:00:00,-1.5344,43.4694,51.8,50,93.55,230,5,0,30.18,NA,5.59,NA,"NSC",NA,NA,NA,NA,NA,NA,NA,NA,NA,NA,NA,NA,NA,NA,NA,"LFBZ 062100Z AUTO 23005KT 200V260 9000 NSC 11/10 Q1022 NOSIG"
"523","LFBZ",2019-12-06 21:30:00,-1.5344,43.4694,51.8,50,93.55,230,4,0,30.21,NA,6.21,NA,NA,NA,NA,NA,NA,NA,NA,NA,NA,NA,NA,NA,NA,NA,NA,NA,"LFBZ 062130Z AUTO 23004KT CAVOK 11/10 Q1023 NOSIG"
"524","LFBZ",2019-12-06 22:00:00,-1.5344,43.4694,51.8,50,93.55,240,4,0,30.21,NA,6.21,NA,"FEW","OVC",NA,NA,1500,11000,NA,NA,NA,NA,NA,NA,NA,NA,NA,NA,"LFBZ 062200Z AUTO 24004KT 210V270 9999 FEW015 OVC110 11/10 Q1023 NOSIG"
"525","LFBZ",2019-12-06 22:30:00,-1.5344,43.4694,51.8,50,93.55,220,4,0,30.21,NA,6.21,NA,"BKN","OVC",NA,NA,1700,10000,NA,NA,NA,NA,NA,NA,NA,NA,NA,NA,"LFBZ 062230Z AUTO 22004KT 9999 BKN017 OVC100 11/10 Q1023 NOSIG"
"526","LFBZ",2019-12-06 23:00:00,-1.5344,43.4694,51.8,50,93.55,240,4,0,30.21,NA,6.21,NA,"BKN","OVC",NA,NA,1700,10000,NA,NA,NA,NA,NA,NA,NA,NA,NA,NA,"LFBZ 062300Z AUTO 24004KT 200V260 9999 BKN017 OVC100 11/10 Q1023 NOSIG"
"527","LFBZ",2019-12-06 23:30:00,-1.5344,43.4694,51.8,48.2,87.47,230,4,0,30.21,NA,6.21,NA,"FEW","OVC",NA,NA,1600,10000,NA,NA,NA,NA,NA,NA,NA,NA,NA,NA,"LFBZ 062330Z AUTO 23004KT 190V260 9999 FEW016 OVC100 11/09 Q1023 NOSIG"
"528","LFBD",2019-12-06 00:00:00,-0.6914,44.8306,39.2,39.2,100,NA,3,0,30.24,NA,0.25,NA,"VV ",NA,NA,NA,NA,NA,NA,NA,"FG",NA,NA,NA,NA,NA,NA,36.92,"LFBD 060000Z AUTO VRB03KT 0400 0300 R23/0450N R05/0325N R29/0550N FG VV/// 04/04 Q1024"
"529","LFBD",2019-12-06 00:30:00,-0.6914,44.8306,39.2,39.2,100,120,3,0,30.24,NA,0.22,NA,"VV ",NA,NA,NA,NA,NA,NA,NA,"FG",NA,NA,NA,NA,NA,NA,36.92,"LFBD 060030Z AUTO 12003KT 0350 R23/0400N R05/0375N R29/0400N FG VV/// 04/04 Q1024"
"530","LFBD",2019-12-06 01:00:00,-0.6914,44.8306,39.2,39.2,100,0,0,0,30.24,NA,0.22,NA,"VV ",NA,NA,NA,NA,NA,NA,NA,"FG",NA,NA,NA,NA,NA,NA,NA,"LFBD 060100Z AUTO 00000KT 0350 0300 R23/0400N R05/0350N R29/0400N FG VV/// 04/04 Q1024"
"531","LFBD",2019-12-06 01:30:00,-0.6914,44.8306,41,41,100,0,0,0,30.24,NA,0.22,NA,"VV ",NA,NA,NA,NA,NA,NA,NA,"FG",NA,NA,NA,NA,NA,NA,NA,"LFBD 060130Z AUTO 00000KT 0350 0300 R23/0450N R05/0350N R29/0450N FG VV/// 05/05 Q1024"
"532","LFBD",2019-12-06 02:00:00,-0.6914,44.8306,41,41,100,110,3,0,30.24,NA,0.28,NA,"VV ",NA,NA,NA,NA,NA,NA,NA,"FG",NA,NA,NA,NA,NA,NA,38.98,"LFBD 060200Z AUTO 11003KT 0450 0400 R23/0550N R05/0450N R29/0500N FG VV/// 05/05 Q1024"
"533","LFBD",2019-12-06 02:30:00,-0.6914,44.8306,41,41,100,120,4,0,30.24,NA,0.22,NA,"VV ",NA,NA,NA,NA,NA,NA,NA,"FG",NA,NA,NA,NA,NA,NA,37.93,"LFBD 060230Z AUTO 12004KT 0350 R23/0450N R05/0400N R29/0400N FG VV/// 05/05 Q1024"
"534","LFBD",2019-12-06 03:00:00,-0.6914,44.8306,41,41,100,120,3,0,30.24,NA,0.25,NA,"VV ",NA,NA,NA,NA,NA,NA,NA,"FG",NA,NA,NA,NA,NA,NA,38.98,"LFBD 060300Z AUTO 12003KT 0400 0350 R23/0500N R05/0400N R29/0450N FG VV/// 05/05 Q1024"
"535","LFBD",2019-12-06 03:30:00,-0.6914,44.8306,41,41,100,140,2,0,30.24,NA,0.19,NA,"VV ",NA,NA,NA,NA,NA,NA,NA,"FG",NA,NA,NA,NA,NA,NA,NA,"LFBD 060330Z AUTO 14002KT 0300 0250 R23/0325N R05/0300N R29/0375N FG VV/// 05/05 Q1024"
"536","LFBD",2019-12-06 04:00:00,-0.6914,44.8306,41,41,100,140,3,0,30.24,NA,0.28,NA,"VV ",NA,NA,NA,NA,NA,NA,NA,"FG",NA,NA,NA,NA,NA,NA,38.98,"LFBD 060400Z AUTO 14003KT 0450 0400 R23/0550N R05/0450N R29/0650U FG VV/// 05/05 Q1024"
"537","LFBD",2019-12-06 04:30:00,-0.6914,44.8306,41,41,100,150,2,0,30.21,NA,0.47,NA,"VV ",NA,NA,NA,NA,NA,NA,NA,"FG",NA,NA,NA,NA,NA,NA,NA,"LFBD 060430Z AUTO 15002KT 0750 0600 R23/1800D R05/0800N R29/1600U FG VV/// 05/05 Q1023"
"538","LFBD",2019-12-06 05:00:00,-0.6914,44.8306,41,41,100,140,4,0,30.21,NA,0.87,NA,"VV ",NA,NA,NA,NA,NA,NA,NA,"BCFG",NA,NA,NA,NA,NA,NA,37.93,"LFBD 060500Z AUTO 14004KT 1400 0800 R23/2100U R05/2000D R29/1800D BCFG VV/// 05/05 Q1023"
"539","LFBD",2019-12-06 05:30:00,-0.6914,44.8306,41,41,100,110,3,0,30.24,NA,2.61,NA,"VV ",NA,NA,NA,NA,NA,NA,NA,"BR",NA,NA,NA,NA,NA,NA,38.98,"LFBD 060530Z AUTO 11003KT 4200 BR VV/// 05/05 Q1024"
"540","LFBD",2019-12-06 06:00:00,-0.6914,44.8306,41,41,100,110,3,0,30.24,NA,3.73,NA,"SCT","OVC",NA,NA,200,1000,NA,NA,NA,NA,NA,NA,NA,NA,NA,38.98,"LFBD 060600Z AUTO 11003KT 6000 SCT002 OVC010 05/05 Q1024"
"541","LFBD",2019-12-06 06:30:00,-0.6914,44.8306,39.2,39.2,100,130,4,0,30.24,NA,4.35,NA,"BKN","OVC",NA,NA,200,1000,NA,NA,NA,NA,NA,NA,NA,NA,NA,35.83,"LFBD 060630Z AUTO 13004KT 7000 BKN002 OVC010 04/04 Q1024"
"542","LFBD",2019-12-06 07:00:00,-0.6914,44.8306,41,39.2,93.24,130,4,0,30.24,NA,4.35,NA,"BKN","OVC",NA,NA,300,1100,NA,NA,NA,NA,NA,NA,NA,NA,NA,37.93,"LFBD 060700Z AUTO 13004KT 7000 BKN003 OVC011 05/04 Q1024 TEMPO 3000 BR VV///"
"543","LFBD",2019-12-06 07:30:00,-0.6914,44.8306,41,39.2,93.24,150,5,0,30.24,NA,3.73,NA,"SCT","OVC",NA,NA,300,1100,NA,NA,NA,NA,NA,NA,NA,NA,NA,37.08,"LFBD 060730Z AUTO 15005KT 6000 SCT003 OVC011 05/04 Q1024 TEMPO 3000 BR BKN004"
"544","LFBD",2019-12-06 08:00:00,-0.6914,44.8306,39.2,39.2,100,150,6,0,30.21,NA,3.73,NA,"BKN","OVC",NA,NA,300,1100,NA,NA,NA,NA,NA,NA,NA,NA,NA,34.2,"LFBD 060800Z AUTO 15006KT 6000 BKN003 OVC011 04/04 Q1023 TEMPO 3000 BR"
"545","LFBD",2019-12-06 08:30:00,-0.6914,44.8306,41,39.2,93.24,140,4,0,30.24,NA,4.97,NA,"SCT","OVC",NA,NA,300,1000,NA,NA,NA,NA,NA,NA,NA,NA,NA,37.93,"LFBD 060830Z AUTO 14004KT 8000 SCT003 OVC010 05/04 Q1024 TEMPO 3000 BR BKN004"
"546","LFBD",2019-12-06 09:00:00,-0.6914,44.8306,41,39.2,93.24,150,6,0,30.24,NA,4.97,NA,"FEW","OVC",NA,NA,400,800,NA,NA,NA,NA,NA,NA,NA,NA,NA,36.37,"LFBD 060900Z AUTO 15006KT 8000 FEW004 OVC008 05/04 Q1024 TEMPO 3000 BR BECMG BKN010"
"547","LFBD",2019-12-06 09:30:00,-0.6914,44.8306,41,41,100,160,4,0,30.24,NA,4.97,NA,"OVC",NA,NA,NA,600,NA,NA,NA,NA,NA,NA,NA,NA,NA,NA,37.93,"LFBD 060930Z AUTO 16004KT 8000 OVC006 05/05 Q1024 BECMG BKN010"
"548","LFBD",2019-12-06 10:00:00,-0.6914,44.8306,42.8,41,93.3,200,3,0,30.24,NA,4.97,NA,"OVC",NA,NA,NA,500,NA,NA,NA,NA,NA,NA,NA,NA,NA,NA,41.03,"LFBD 061000Z AUTO 20003KT 8000 OVC005 06/05 Q1024 TEMPO 3000 BR"
"549","LFBD",2019-12-06 10:30:00,-0.6914,44.8306,42.8,41,93.3,180,3,0,30.24,NA,3.73,NA,"OVC",NA,NA,NA,400,NA,NA,NA,NA,NA,NA,NA,NA,NA,NA,41.03,"LFBD 061030Z AUTO 18003KT 6000 OVC004 06/05 Q1024 TEMPO 4000 BR BECMG BKN010"
"550","LFBD",2019-12-06 11:00:00,-0.6914,44.8306,42.8,42.8,100,220,3,0,30.24,NA,3.11,NA,"OVC",NA,NA,NA,400,NA,NA,NA,"BR",NA,NA,NA,NA,NA,NA,41.03,"LFBD 061100Z AUTO 22003KT 5000 BR OVC004 06/06 Q1024 BECMG BKN010"
"551","LFBD",2019-12-06 11:30:00,-0.6914,44.8306,44.6,42.8,93.35,160,5,0,30.21,NA,2.73,NA,"OVC",NA,NA,NA,400,NA,NA,NA,"BR",NA,NA,NA,NA,NA,NA,41.36,"LFBD 061130Z AUTO 16005KT 4400 BR OVC004 07/06 Q1023 BECMG 8000 NSW BKN010"
"552","LFBD",2019-12-06 12:00:00,-0.6914,44.8306,44.6,42.8,93.35,190,4,0,30.21,NA,3.73,NA,"OVC",NA,NA,NA,400,NA,NA,NA,NA,NA,NA,NA,NA,NA,NA,42.13,"LFBD 061200Z AUTO 19004KT 150V220 6000 OVC004 07/06 Q1023 BECMG BKN010"
"553","LFBD",2019-12-06 12:30:00,-0.6914,44.8306,44.6,42.8,93.35,210,3,0,30.21,NA,6.21,NA,"OVC",NA,NA,NA,500,NA,NA,NA,NA,NA,NA,NA,NA,NA,NA,43.09,"LFBD 061230Z AUTO 21003KT 170V240 9999 OVC005 07/06 Q1023 BECMG BKN010"
"554","LFBD",2019-12-06 13:00:00,-0.6914,44.8306,44.6,42.8,93.35,170,4,0,30.18,NA,6.21,NA,"OVC",NA,NA,NA,500,NA,NA,NA,NA,NA,NA,NA,NA,NA,NA,42.13,"LFBD 061300Z AUTO 17004KT 140V200 9999 OVC005 07/06 Q1022 BECMG BKN010"
"555","LFBD",2019-12-06 13:30:00,-0.6914,44.8306,46.4,42.8,87.19,160,4,0,30.18,NA,6.21,NA,"OVC",NA,NA,NA,600,NA,NA,NA,NA,NA,NA,NA,NA,NA,NA,44.24,"LFBD 061330Z AUTO 16004KT 9999 OVC006 08/06 Q1022 BECMG BKN010"
"556","LFBD",2019-12-06 14:00:00,-0.6914,44.8306,46.4,44.6,93.4,160,4,0,30.15,NA,6.21,NA,"OVC",NA,NA,NA,700,NA,NA,NA,NA,NA,NA,NA,NA,NA,NA,44.24,"LFBD 061400Z AUTO 16004KT 9999 OVC007 08/07 Q1021 BECMG BKN010"
"557","LFBD",2019-12-06 14:30:00,-0.6914,44.8306,46.4,42.8,87.19,170,4,0,30.15,NA,6.21,NA,"OVC",NA,NA,NA,700,NA,NA,NA,NA,NA,NA,NA,NA,NA,NA,44.24,"LFBD 061430Z AUTO 17004KT 140V200 9999 OVC007 08/06 Q1021 TEMPO BKN010"
"558","LFBD",2019-12-06 15:00:00,-0.6914,44.8306,46.4,42.8,87.19,NA,3,0,30.15,NA,6.21,NA,"BKN","BKN","OVC",NA,700,14000,17000,NA,NA,NA,NA,NA,NA,NA,NA,45.15,"LFBD 061500Z AUTO VRB03KT 9999 BKN007 BKN140 OVC170 08/06 Q1021 TEMPO BKN010"
"559","LFBD",2019-12-06 15:30:00,-0.6914,44.8306,46.4,44.6,93.4,160,3,0,30.15,NA,6.21,NA,"OVC",NA,NA,NA,700,NA,NA,NA,NA,NA,NA,NA,NA,NA,NA,45.15,"LFBD 061530Z AUTO 16003KT 9999 OVC007 08/07 Q1021 TEMPO BKN010"
"560","LFBD",2019-12-06 16:00:00,-0.6914,44.8306,46.4,44.6,93.4,NA,2,0,30.15,NA,4.97,NA,"BKN","BKN",NA,NA,700,14000,NA,NA,NA,NA,NA,NA,NA,NA,NA,NA,"LFBD 061600Z AUTO VRB02KT 8000 BKN007 BKN140 08/07 Q1021 TEMPO BKN010"
"561","LFBD",2019-12-06 16:30:00,-0.6914,44.8306,46.4,44.6,93.4,150,4,0,30.15,NA,4.35,NA,"OVC",NA,NA,NA,600,NA,NA,NA,NA,NA,NA,NA,NA,NA,NA,44.24,"LFBD 061630Z AUTO 15004KT 7000 OVC006 08/07 Q1021 BECMG 3000 BR BKN003"
"562","LFBD",2019-12-06 17:00:00,-0.6914,44.8306,44.6,44.6,100,140,5,0,30.15,NA,3.11,NA,"OVC",NA,NA,NA,500,NA,NA,NA,"BR",NA,NA,NA,NA,NA,NA,41.36,"LFBD 061700Z AUTO 14005KT 5000 BR OVC005 07/07 Q1021 TEMPO BKN010"
"563","LFBD",2019-12-06 17:30:00,-0.6914,44.8306,44.6,44.6,100,150,6,0,30.15,NA,3.04,NA,"OVC",NA,NA,NA,400,NA,NA,NA,"BR",NA,NA,NA,NA,NA,NA,40.71,"LFBD 061730Z AUTO 15006KT 4900 BR OVC004 07/07 Q1021 NOSIG"
"564","LFBD",2019-12-06 18:00:00,-0.6914,44.8306,44.6,44.6,100,0,0,0,30.15,NA,3.73,NA,"OVC",NA,NA,NA,400,NA,NA,NA,NA,NA,NA,NA,NA,NA,NA,NA,"LFBD 061800Z AUTO 00000KT 6000 OVC004 07/07 Q1021 TEMPO 3000 BR"
"565","LFBD",2019-12-06 18:30:00,-0.6914,44.8306,44.6,44.6,100,160,2,0,30.18,NA,3.73,NA,"BKN","OVC",NA,NA,400,10000,NA,NA,NA,NA,NA,NA,NA,NA,NA,NA,"LFBD 061830Z AUTO 16002KT 6000 BKN004 OVC100 07/07 Q1022 TEMPO 3000 BR"
"566","LFBD",2019-12-06 19:00:00,-0.6914,44.8306,44.6,44.6,100,NA,3,0,30.15,NA,3.04,NA,"OVC",NA,NA,NA,300,NA,NA,NA,"BR",NA,NA,NA,NA,NA,NA,43.09,"LFBD 061900Z AUTO VRB03KT 4900 BR OVC003 07/07 Q1021 NOSIG"
"567","LFBD",2019-12-06 19:30:00,-0.6914,44.8306,44.6,44.6,100,170,3,0,30.18,NA,2.92,NA,"OVC",NA,NA,NA,300,NA,NA,NA,"BR",NA,NA,NA,NA,NA,NA,43.09,"LFBD 061930Z AUTO 17003KT 4700 BR OVC003 07/07 Q1022 NOSIG"
"568","LFBD",2019-12-06 20:00:00,-0.6914,44.8306,44.6,44.6,100,140,3,0,30.18,NA,2.86,NA,"OVC",NA,NA,NA,300,NA,NA,NA,"BR",NA,NA,NA,NA,NA,NA,43.09,"LFBD 062000Z AUTO 14003KT 4600 BR OVC003 07/07 Q1022 NOSIG"
"569","LFBD",2019-12-06 20:30:00,-0.6914,44.8306,44.6,44.6,100,150,5,0,30.18,NA,2.55,NA,"OVC",NA,NA,NA,200,NA,NA,NA,"BR",NA,NA,NA,NA,NA,NA,41.36,"LFBD 062030Z AUTO 15005KT 4100 BR OVC002 07/07 Q1022 NOSIG"
"570","LFBD",2019-12-06 21:00:00,-0.6914,44.8306,44.6,44.6,100,160,3,0,30.18,NA,2.17,NA,"OVC",NA,NA,NA,200,NA,NA,NA,"BR",NA,NA,NA,NA,NA,NA,43.09,"LFBD 062100Z AUTO 16003KT 3500 BR OVC002 07/07 Q1022 NOSIG"
"571","LFBD",2019-12-06 21:30:00,-0.6914,44.8306,44.6,44.6,100,160,4,0,30.18,NA,2.3,NA,"OVC",NA,NA,NA,200,NA,NA,NA,"BR",NA,NA,NA,NA,NA,NA,42.13,"LFBD 062130Z AUTO 16004KT 3700 BR OVC002 07/07 Q1022 NOSIG"
"572","LFBD",2019-12-06 22:00:00,-0.6914,44.8306,44.6,44.6,100,170,5,0,30.18,NA,0.99,NA,"VV ",NA,NA,NA,NA,NA,NA,NA,"BR",NA,NA,NA,NA,NA,NA,41.36,"LFBD 062200Z AUTO 17005KT 1600 1100 R23/P2300 R05/1400D R29/2000D BR VV/// 07/07 Q1022 TEMPO 3000 BR OVC002"
"573","LFBD",2019-12-06 22:30:00,-0.6914,44.8306,44.6,44.6,100,190,3,0,30.18,NA,0.5,NA,"VV ",NA,NA,NA,NA,NA,NA,NA,"FG",NA,NA,NA,NA,NA,NA,43.09,"LFBD 062230Z AUTO 19003KT 0800 0650 R23/1100D R05/0750N R29/1100U FG VV/// 07/07 Q1022 TEMPO 3000 BR OVC002"
"574","LFBD",2019-12-06 23:00:00,-0.6914,44.8306,44.6,44.6,100,160,4,0,30.18,NA,0.4,NA,"VV ",NA,NA,NA,NA,NA,NA,NA,"FG",NA,NA,NA,NA,NA,NA,42.13,"LFBD 062300Z AUTO 16004KT 0650 0550 R23/0800N R05/0650N R29/0800N FG VV/// 07/07 Q1022 TEMPO 0500 FG"
"575","LFBD",2019-12-06 23:30:00,-0.6914,44.8306,44.6,44.6,100,170,4,0,30.18,NA,0.93,NA,"VV ",NA,NA,NA,NA,NA,NA,NA,"BCFG",NA,NA,NA,NA,NA,NA,42.13,"LFBD 062330Z AUTO 17004KT 1500 0900 R23/1600N R05/2200U R29/1900U BCFG VV/// 07/07 Q1022 TEMPO 0400 FG"
"576","LFRB",2019-12-06 00:00:00,-4.4119,48.4442,51.8,46.4,81.74,230,14,0,30.09,NA,6.21,NA,"FEW","BKN","BKN",NA,1900,2400,3100,NA,NA,NA,NA,NA,NA,NA,NA,NA,"LFRB 060000Z AUTO 23014KT 9999 FEW019 BKN024 BKN031 11/08 Q1019"
"577","LFRB",2019-12-06 00:30:00,-4.4119,48.4442,51.8,46.4,81.74,230,16,0,30.09,NA,6.21,NA,"BKN","OVC",NA,NA,1700,2300,NA,NA,NA,NA,NA,NA,NA,NA,NA,NA,"LFRB 060030Z AUTO 23016KT 9999 BKN017 OVC023 11/08 Q1019 BECMG 23013G23KT"
"578","LFRB",2019-12-06 01:00:00,-4.4119,48.4442,51.8,46.4,81.74,230,14,0,30.09,NA,6.21,NA,"OVC",NA,NA,NA,1400,NA,NA,NA,NA,NA,NA,NA,NA,NA,NA,NA,"LFRB 060100Z AUTO 23014KT 9999 OVC014 11/08 Q1019 BECMG BKN015"
"579","LFRB",2019-12-06 01:30:00,-4.4119,48.4442,51.8,48.2,87.47,230,16,0,30.06,NA,6.21,NA,"OVC",NA,NA,NA,1100,NA,NA,NA,NA,NA,NA,NA,NA,NA,NA,NA,"LFRB 060130Z AUTO 23016KT 9999 OVC011 11/09 Q1018 TEMPO BKN015 BECMG 23013G23KT 3000 DZ"
"580","LFRB",2019-12-06 02:00:00,-4.4119,48.4442,51.8,48.2,87.47,230,15,0,30.06,NA,6.21,NA,"OVC",NA,NA,NA,1000,NA,NA,NA,NA,NA,NA,NA,NA,NA,NA,NA,"LFRB 060200Z AUTO 23015KT 9999 OVC010 11/09 Q1018 TEMPO BKN015 BECMG 23013G23KT 3000 DZ"
"581","LFRB",2019-12-06 02:30:00,-4.4119,48.4442,51.8,48.2,87.47,230,16,0,30.06,NA,6.21,NA,"BKN","OVC",NA,NA,1000,1400,NA,NA,NA,NA,NA,NA,NA,NA,NA,NA,"LFRB 060230Z AUTO 23016KT 9999 BKN010 OVC014 11/09 Q1018 BECMG 23013G23KT 3000 DZ OVC004"
"582","LFRB",2019-12-06 03:00:00,-4.4119,48.4442,51.8,50,93.55,220,18,0,30.06,NA,6.21,NA,"OVC",NA,NA,NA,900,NA,NA,NA,"-RA",NA,NA,NA,NA,NA,NA,NA,"LFRB 060300Z AUTO 22018KT 9999 -RA OVC009 11/10 Q1018 BECMG 23013G23KT 3000 DZ OVC004"
"583","LFRB",2019-12-06 03:30:00,-4.4119,48.4442,51.8,50,93.55,230,17,0,30.03,NA,6.21,NA,"OVC",NA,NA,NA,800,NA,NA,NA,NA,NA,NA,NA,NA,NA,NA,NA,"LFRB 060330Z AUTO 23017KT 9999 OVC008 11/10 Q1017 BECMG 23013G23KT 3000 DZ OVC004"
"584","LFRB",2019-12-06 04:00:00,-4.4119,48.4442,51.8,50,93.55,230,18,0,30.03,NA,6.21,NA,"OVC",NA,NA,NA,800,NA,NA,NA,NA,NA,NA,NA,NA,NA,NA,NA,"LFRB 060400Z AUTO 23018KT 9999 OVC008 11/10 Q1017 BECMG 23013G23KT 3000 DZ OVC004"
"585","LFRB",2019-12-06 04:30:00,-4.4119,48.4442,51.8,50,93.55,220,17,0,30,NA,6.21,NA,"OVC",NA,NA,NA,700,NA,NA,NA,NA,NA,NA,NA,NA,NA,NA,NA,"LFRB 060430Z AUTO 22017KT 9999 OVC007 11/10 Q1016 BECMG 23013G23KT 3000 DZ OVC004"
"586","LFRB",2019-12-06 05:00:00,-4.4119,48.4442,51.8,50,93.55,220,17,0,30,NA,6.21,NA,"OVC",NA,NA,NA,700,NA,NA,NA,NA,NA,NA,NA,NA,NA,NA,NA,"LFRB 060500Z AUTO 22017KT 9999 OVC007 11/10 Q1016 BECMG 23013G23KT 3000 DZ OVC004"
"587","LFRB",2019-12-06 05:30:00,-4.4119,48.4442,51.8,50,93.55,220,17,0,30,NA,6.21,NA,"OVC","///",NA,NA,700,NA,NA,NA,"-RA",NA,NA,NA,NA,NA,NA,NA,"LFRB 060530Z AUTO 22017KT 9999 -RA OVC007/// ///TCU 11/10 Q1016 BECMG 23013G23KT 3000 DZ OVC004"
"588","LFRB",2019-12-06 06:00:00,-4.4119,48.4442,51.8,50,93.55,230,18,0,30.03,NA,6.21,NA,"OVC",NA,NA,NA,700,NA,NA,NA,NA,NA,NA,NA,NA,NA,NA,NA,"LFRB 060600Z AUTO 23018KT 9999 OVC007 11/10 Q1017 TEMPO 3000 DZ OVC004 BECMG 22015G25KT"
"589","LFRB",2019-12-06 06:30:00,-4.4119,48.4442,51.8,50,93.55,230,18,0,30,NA,4.97,NA,"OVC",NA,NA,NA,700,NA,NA,NA,NA,NA,NA,NA,NA,NA,NA,NA,"LFRB 060630Z AUTO 23018KT 8000 OVC007 11/10 Q1016 TEMPO 3000 DZ OVC004 BECMG 22015G25KT"
"590","LFRB",2019-12-06 07:00:00,-4.4119,48.4442,51.8,51.8,100,220,16,0,30,NA,2.36,NA,"OVC",NA,NA,NA,500,NA,NA,NA,"BR",NA,NA,NA,NA,NA,NA,NA,"LFRB 060700Z AUTO 22016KT 3800 BR OVC005 11/11 Q1016 TEMPO DZ BECMG 22015G25KT"
"591","LFRB",2019-12-06 07:30:00,-4.4119,48.4442,51.8,51.8,100,220,17,0,30,NA,2.3,NA,"OVC",NA,NA,NA,400,NA,NA,NA,"BR",NA,NA,NA,NA,NA,NA,NA,"LFRB 060730Z AUTO 22017KT 3700 BR OVC004 11/11 Q1016 TEMPO 2000 RA BECMG 22015G25KT"
"592","LFRB",2019-12-06 08:00:00,-4.4119,48.4442,51.8,51.8,100,220,18,0,30,NA,1.93,NA,"OVC",NA,NA,NA,300,NA,NA,NA,"-RA BR",NA,NA,NA,NA,NA,NA,NA,"LFRB 060800Z AUTO 22018KT 3100 -RA BR OVC003 11/11 Q1016 TEMPO 2000 RA BECMG 22015G25KT"
"593","LFRB",2019-12-06 08:30:00,-4.4119,48.4442,51.8,51.8,100,220,17,0,29.97,NA,1.99,NA,"OVC",NA,NA,NA,300,NA,NA,NA,"-RA BR",NA,NA,NA,NA,NA,NA,NA,"LFRB 060830Z AUTO 22017KT 3200 -RA BR OVC003 11/11 Q1015 TEMPO 2000 RA BECMG 22015G25KT"
"594","LFRB",2019-12-06 09:00:00,-4.4119,48.4442,53.6,51.8,93.6,230,19,0,29.97,NA,1.68,NA,"OVC",NA,NA,NA,300,NA,NA,NA,"-RA BR",NA,NA,NA,NA,NA,NA,NA,"LFRB 060900Z AUTO 23019KT 2700 -RA BR OVC003 12/11 Q1015 TEMPO RA BECMG 22015G25KT"
"595","LFRB",2019-12-06 09:30:00,-4.4119,48.4442,53.6,51.8,93.6,230,19,0,29.97,NA,6.21,NA,"OVC",NA,NA,NA,400,NA,NA,NA,NA,NA,NA,NA,NA,NA,NA,NA,"LFRB 060930Z AUTO 23019KT 9999 OVC004 12/11 Q1015 TEMPO 2000 RA BECMG 22015G25KT"
"596","LFRB",2019-12-06 10:00:00,-4.4119,48.4442,53.6,51.8,93.6,230,20,0,29.97,NA,6.21,NA,"OVC",NA,NA,NA,400,NA,NA,NA,NA,NA,NA,NA,NA,NA,NA,NA,"LFRB 061000Z AUTO 23020KT 9999 4200 OVC004 12/11 Q1015 TEMPO 2000 RA BECMG 22015G25KT"
"597","LFRB",2019-12-06 10:30:00,-4.4119,48.4442,53.6,51.8,93.6,230,20,0,29.97,NA,1.68,NA,"OVC",NA,NA,NA,400,NA,NA,NA,"-RA BR",NA,NA,NA,NA,NA,NA,NA,"LFRB 061030Z AUTO 23020KT 2700 -RA BR OVC004 12/11 Q1015 TEMPO RA BECMG 22015G25KT"
"598","LFRB",2019-12-06 11:00:00,-4.4119,48.4442,53.6,51.8,93.6,230,20,0,29.97,NA,1.24,NA,"OVC",NA,NA,NA,400,NA,NA,NA,"-RA BR",NA,NA,NA,NA,NA,NA,NA,"LFRB 061100Z AUTO 23020KT 2000 -RA BR OVC004 12/11 Q1015 TEMPO RA BECMG 22015G25KT"
"599","LFRB",2019-12-06 11:30:00,-4.4119,48.4442,53.6,53.6,100,230,21,0,29.94,NA,1.49,31,"OVC",NA,NA,NA,500,NA,NA,NA,"-RA BR",NA,NA,NA,NA,NA,NA,NA,"LFRB 061130Z AUTO 23021G31KT 2400 -RA BR OVC005 12/12 Q1014 BECMG 9999 NSW"
"600","LFRB",2019-12-06 12:00:00,-4.4119,48.4442,53.6,53.6,100,230,25,0,29.91,NA,1.74,35,"OVC",NA,NA,NA,300,NA,NA,NA,"-RA BR",NA,NA,NA,NA,NA,NA,NA,"LFRB 061200Z AUTO 23025G35KT 2800 -RA BR OVC003 12/12 Q1013 TEMPO 22015G25KT"
"601","LFRB",2019-12-06 12:30:00,-4.4119,48.4442,53.6,53.6,100,240,21,0,29.91,NA,1.12,NA,"OVC",NA,NA,NA,400,NA,NA,NA,"-RA BR",NA,NA,NA,NA,NA,NA,NA,"LFRB 061230Z AUTO 24021KT 1800 -RA BR OVC004 12/12 Q1013 TEMPO 22015G25KT"
"602","LFRB",2019-12-06 13:00:00,-4.4119,48.4442,53.6,53.6,100,250,17,0,29.91,NA,1.3,NA,"OVC",NA,NA,NA,400,NA,NA,NA,"-RA BR",NA,NA,NA,NA,NA,NA,NA,"LFRB 061300Z AUTO 25017KT 230V290 2100 -RA BR OVC004 12/12 Q1013 TEMPO 22015G25KT"
"603","LFRB",2019-12-06 13:30:00,-4.4119,48.4442,53.6,53.6,100,260,17,0,29.91,NA,3.04,NA,"OVC",NA,NA,NA,500,NA,NA,NA,"-RA BR",NA,NA,NA,NA,NA,NA,NA,"LFRB 061330Z AUTO 26017KT 4900 -RA BR OVC005 12/12 Q1013 TEMPO 22015G25KT 2000 -RADZ"
"604","LFRB",2019-12-06 14:00:00,-4.4119,48.4442,53.6,51.8,93.6,260,14,0,29.91,NA,6.21,NA,"SCT","BKN","BKN",NA,1300,2700,3700,NA,NA,NA,NA,NA,NA,NA,NA,NA,"LFRB 061400Z AUTO 26014KT 9999 SCT013 BKN027 BKN037 12/11 Q1013 TEMPO 22015G25KT 2000 -RADZ OVC003"
"605","LFRB",2019-12-06 14:30:00,-4.4119,48.4442,53.6,51.8,93.6,270,14,0,29.91,NA,6.21,NA,"OVC",NA,NA,NA,1300,NA,NA,NA,NA,NA,NA,NA,NA,NA,NA,NA,"LFRB 061430Z AUTO 27014KT 230V290 9999 OVC013 12/11 Q1013 TEMPO 22015G25KT 2000 -RADZ OVC003"
"606","LFRB",2019-12-06 15:00:00,-4.4119,48.4442,53.6,50,87.56,270,13,0,29.91,NA,6.21,NA,"BKN","OVC",NA,NA,1300,1900,NA,NA,"-RA",NA,NA,NA,NA,NA,NA,NA,"LFRB 061500Z AUTO 27013KT 9999 -RA BKN013 OVC019 12/10 Q1013 TEMPO 22015G25KT 2000 -RADZ OVC003"
"607","LFRB",2019-12-06 15:30:00,-4.4119,48.4442,53.6,50,87.56,260,14,0,29.91,NA,6.21,NA,"BKN","BKN","OVC",NA,1300,1800,3800,NA,NA,NA,NA,NA,NA,NA,NA,NA,"LFRB 061530Z AUTO 26014KT 230V290 9999 BKN013 BKN018 OVC038 12/10 Q1013 TEMPO 22015G25KT 2000 -RADZ OVC003"
"608","LFRB",2019-12-06 16:00:00,-4.4119,48.4442,53.6,51.8,93.6,250,14,0,29.91,NA,6.21,NA,"BKN","OVC",NA,NA,1200,3800,NA,NA,"-RA",NA,NA,NA,NA,NA,NA,NA,"LFRB 061600Z AUTO 25014KT 9999 -RA BKN012 OVC038 12/11 Q1013 TEMPO 22015G25KT 2000 -RADZ OVC003"
"609","LFRB",2019-12-06 16:30:00,-4.4119,48.4442,53.6,50,87.56,260,13,0,29.91,NA,6.21,NA,"BKN","OVC",NA,NA,1100,2100,NA,NA,NA,NA,NA,NA,NA,NA,NA,NA,"LFRB 061630Z AUTO 26013KT 230V290 9999 BKN011 OVC021 12/10 Q1013 TEMPO 22015G25KT 2000 -RADZ OVC003"
"610","LFRB",2019-12-06 17:00:00,-4.4119,48.4442,51.8,50,93.55,260,10,0,29.94,NA,6.21,NA,"FEW","BKN",NA,NA,1200,4300,NA,NA,NA,NA,NA,NA,NA,NA,NA,NA,"LFRB 061700Z AUTO 26010KT 9999 FEW012 BKN043 11/10 Q1014 TEMPO 22015G25KT 2000 -RADZ BECMG SCT008 BKN012"
"611","LFRB",2019-12-06 17:30:00,-4.4119,48.4442,53.6,50,87.56,260,8,0,29.94,NA,6.21,NA,"SCT","BKN","OVC",NA,1600,2300,4200,NA,NA,NA,NA,NA,NA,NA,NA,NA,"LFRB 061730Z AUTO 26008KT 220V290 9999 SCT016 BKN023 OVC042 12/10 Q1014 BECMG SCT008 BKN012"
"612","LFRB",2019-12-06 18:00:00,-4.4119,48.4442,53.6,50,87.56,260,9,0,29.94,NA,6.21,NA,"SCT","BKN","BKN",NA,1500,2400,3300,NA,"-RADZ",NA,NA,NA,NA,NA,NA,NA,"LFRB 061800Z AUTO 26009KT 9999 -RADZ SCT015 BKN024 BKN033 12/10 Q1014 NOSIG"
"613","LFRB",2019-12-06 18:30:00,-4.4119,48.4442,51.8,50,93.55,260,10,0,29.94,NA,6.21,NA,"FEW","SCT","BKN",NA,1100,1700,2600,NA,NA,NA,NA,NA,NA,NA,NA,NA,"LFRB 061830Z AUTO 26010KT 9999 FEW011 SCT017 BKN026 11/10 Q1014 NOSIG"
"614","LFRB",2019-12-06 19:00:00,-4.4119,48.4442,51.8,50,93.55,290,12,0,29.97,NA,6.21,NA,"FEW","BKN","BKN",NA,600,1100,2800,NA,NA,NA,NA,NA,NA,NA,NA,NA,"LFRB 061900Z AUTO 29012KT 250V310 9999 FEW006 BKN011 BKN028 11/10 Q1015 BECMG FEW012 BKN025"
"615","LFRB",2019-12-06 19:30:00,-4.4119,48.4442,50,50,100,260,7,0,29.97,NA,6.21,NA,"FEW","OVC",NA,NA,1600,4300,NA,NA,NA,NA,NA,NA,NA,NA,NA,46.72,"LFRB 061930Z AUTO 26007KT 240V300 9999 FEW016 OVC043 10/10 Q1015 TEMPO 3000 BR SCT008 BKN011"
"616","LFRB",2019-12-06 20:00:00,-4.4119,48.4442,51.8,50,93.55,250,7,0,29.97,NA,6.21,NA,"FEW","BKN",NA,NA,1600,4000,NA,NA,NA,NA,NA,NA,NA,NA,NA,NA,"LFRB 062000Z AUTO 25007KT 230V290 9999 FEW016 BKN040 11/10 Q1015 TEMPO 3000 BR SCT008 BKN011"
"617","LFRB",2019-12-06 20:30:00,-4.4119,48.4442,51.8,48.2,87.47,280,9,0,29.97,NA,6.21,NA,"SCT","BKN","BKN",NA,1500,2600,4300,NA,NA,NA,NA,NA,NA,NA,NA,NA,"LFRB 062030Z AUTO 28009KT 250V310 9999 SCT015 BKN026 BKN043 11/09 Q1015 TEMPO 3000 BR SCT008 BKN011"
"618","LFRB",2019-12-06 21:00:00,-4.4119,48.4442,50,48.2,93.5,270,6,0,29.97,NA,6.21,NA,"BKN",NA,NA,NA,4500,NA,NA,NA,NA,NA,NA,NA,NA,NA,NA,47.21,"LFRB 062100Z AUTO 27006KT 9999 BKN045 10/09 Q1015 TEMPO 3000 BR SCT008 BKN011"
"619","LFRB",2019-12-06 21:30:00,-4.4119,48.4442,50,46.4,87.37,270,6,0,30,NA,6.21,NA,"FEW",NA,NA,NA,4500,NA,NA,NA,NA,NA,NA,NA,NA,NA,NA,47.21,"LFRB 062130Z AUTO 27006KT 9999 FEW045 10/08 Q1016 TEMPO 3000 BR SCT008 BKN011"
"620","LFRB",2019-12-06 22:00:00,-4.4119,48.4442,48.2,46.4,93.45,250,5,0,30,NA,6.21,NA,"SCT",NA,NA,NA,4700,NA,NA,NA,NA,NA,NA,NA,NA,NA,NA,45.63,"LFRB 062200Z AUTO 25005KT 9999 SCT047 09/08 Q1016 TEMPO 3000 BR SCT008 BKN011"
"621","LFRB",2019-12-06 22:30:00,-4.4119,48.4442,50,48.2,93.5,260,5,0,30,NA,6.21,NA,"BKN","OVC",NA,NA,4100,24000,NA,NA,NA,NA,NA,NA,NA,NA,NA,47.77,"LFRB 062230Z AUTO 26005KT 9999 BKN041 OVC240 10/09 Q1016 TEMPO 3000 BR SCT008 BKN011"
"622","LFRB",2019-12-06 23:00:00,-4.4119,48.4442,50,48.2,93.5,270,7,0,30,NA,6.21,NA,"FEW","SCT","OVC",NA,2000,3200,4000,NA,NA,NA,NA,NA,NA,NA,NA,46.72,"LFRB 062300Z AUTO 27007KT 240V300 9999 FEW020 SCT032 OVC040 10/09 Q1016 TEMPO 3000 BR SCT008 BKN011"
"623","LFRB",2019-12-06 23:30:00,-4.4119,48.4442,50,48.2,93.5,260,4,0,30,NA,6.21,NA,"FEW","SCT","OVC",NA,2100,3000,4100,NA,NA,NA,NA,NA,NA,NA,NA,48.44,"LFRB 062330Z AUTO 26004KT 230V290 9999 FEW021 SCT030 OVC041 10/09 Q1016 TEMPO 2500 BR BKN006"
"624","LFRK",2019-12-06 00:00:00,-0.4561,49.18,42.8,39.2,86.99,210,10,0,30.09,NA,6.21,NA,NA,NA,NA,NA,NA,NA,NA,NA,NA,NA,NA,NA,NA,NA,NA,36.51,"LFRK 060000Z AUTO 21010KT CAVOK 06/04 Q1019"
"625","LFRK",2019-12-06 00:30:00,-0.4561,49.18,42.8,39.2,86.99,210,11,0,30.06,NA,6.21,NA,NA,NA,NA,NA,NA,NA,NA,NA,NA,NA,NA,NA,NA,NA,NA,36.11,"LFRK 060030Z AUTO 21011KT CAVOK 06/04 Q1018"
"626","LFRK",2019-12-06 01:00:00,-0.4561,49.18,42.8,41,93.3,220,10,0,30.06,NA,6.21,NA,NA,NA,NA,NA,NA,NA,NA,NA,NA,NA,NA,NA,NA,NA,NA,36.51,"LFRK 060100Z AUTO 22010KT CAVOK 06/05 Q1018"
"627","LFRK",2019-12-06 01:30:00,-0.4561,49.18,42.8,41,93.3,210,11,0,30.06,NA,6.21,NA,NA,NA,NA,NA,NA,NA,NA,NA,NA,NA,NA,NA,NA,NA,NA,36.11,"LFRK 060130Z AUTO 21011KT CAVOK 06/05 Q1018"
"628","LFRK",2019-12-06 02:00:00,-0.4561,49.18,42.8,41,93.3,220,10,0,30.06,NA,6.21,NA,NA,NA,NA,NA,NA,NA,NA,NA,NA,NA,NA,NA,NA,NA,NA,36.51,"LFRK 060200Z AUTO 22010KT CAVOK 06/05 Q1018"
"629","LFRK",2019-12-06 02:30:00,-0.4561,49.18,42.8,41,93.3,210,10,0,30.03,NA,6.21,NA,NA,NA,NA,NA,NA,NA,NA,NA,NA,NA,NA,NA,NA,NA,NA,36.51,"LFRK 060230Z AUTO 21010KT CAVOK 06/05 Q1017"
"630","LFRK",2019-12-06 03:00:00,-0.4561,49.18,42.8,41,93.3,210,13,0,30.03,NA,6.21,NA,NA,NA,NA,NA,NA,NA,NA,NA,NA,NA,NA,NA,NA,NA,NA,35.4,"LFRK 060300Z AUTO 21013KT CAVOK 06/05 Q1017"
"631","LFRK",2019-12-06 03:30:00,-0.4561,49.18,44.6,41,87.09,210,11,0,30.03,NA,6.21,NA,"FEW","SCT","BKN",NA,1400,3000,7600,NA,NA,NA,NA,NA,NA,NA,NA,38.39,"LFRK 060330Z AUTO 21011KT 9999 FEW014 SCT030 BKN076 07/05 Q1017"
"632","LFRK",2019-12-06 04:00:00,-0.4561,49.18,44.6,41,87.09,200,12,0,30,NA,6.21,NA,"FEW","BKN","OVC",NA,1200,2600,11000,NA,NA,NA,NA,NA,NA,NA,NA,38.04,"LFRK 060400Z AUTO 20012KT 9999 FEW012 BKN026 OVC110 07/05 Q1016"
"633","LFRK",2019-12-06 04:30:00,-0.4561,49.18,44.6,42.8,93.35,210,11,0,30,NA,6.21,NA,"BKN","BKN","BKN",NA,1300,5200,7000,NA,"-RA",NA,NA,NA,NA,NA,NA,38.39,"LFRK 060430Z AUTO 21011KT 9999 -RA BKN013 BKN052 BKN070 07/06 Q1016"
"634","LFRK",2019-12-06 05:00:00,-0.4561,49.18,44.6,42.8,93.35,210,12,0,30,NA,5.59,NA,"SCT","SCT","OVC",NA,1500,4900,8600,NA,"-RA",NA,NA,NA,NA,NA,NA,38.04,"LFRK 060500Z AUTO 21012KT 9000 -RA SCT015 SCT049 OVC086 07/06 Q1016"
"635","LFRK",2019-12-06 05:30:00,-0.4561,49.18,44.6,42.8,93.35,210,12,0,30,NA,6.21,NA,"BKN","BKN","BKN","///",1400,2600,4500,NA,"-RA",NA,NA,NA,NA,NA,NA,38.04,"LFRK 060530Z AUTO 21012KT 9999 -RA BKN014/// BKN026/// BKN045/// ///TCU 07/06 Q1016"
"636","LFRK",2019-12-06 06:00:00,-0.4561,49.18,44.6,42.8,93.35,210,14,0,29.97,NA,6.21,NA,"FEW","SCT","BKN",NA,1600,4200,6200,NA,NA,NA,NA,NA,NA,NA,NA,37.4,"LFRK 060600Z AUTO 21014KT 9999 FEW016 SCT042 BKN062 07/06 Q1015"
"637","LFRK",2019-12-06 06:30:00,-0.4561,49.18,44.6,42.8,93.35,210,12,0,29.97,NA,6.21,NA,"SCT","BKN","BKN","///",1500,4100,6600,NA,"-RA",NA,NA,NA,NA,NA,NA,38.04,"LFRK 060630Z AUTO 21012KT 9999 -RA SCT015/// BKN041/// BKN066/// ///TCU 07/06 Q1015"
"638","LFRK",2019-12-06 07:00:00,-0.4561,49.18,44.6,44.6,100,210,13,0,29.97,NA,6.21,NA,"BKN","BKN","BKN","///",1200,2100,3700,NA,"-RA",NA,NA,NA,NA,NA,NA,37.71,"LFRK 060700Z AUTO 21013KT 9999 -RA BKN012/// BKN021/// BKN037/// ///TCU 07/07 Q1015"
"639","LFRK",2019-12-06 07:30:00,-0.4561,49.18,46.4,44.6,93.4,210,15,0,29.97,NA,6.21,NA,"FEW","BKN","OVC","///",1200,1900,7600,NA,NA,NA,NA,NA,NA,NA,NA,39.45,"LFRK 060730Z AUTO 21015KT 9999 FEW012/// BKN019/// OVC076/// ///TCU 08/07 Q1015"
"640","LFRK",2019-12-06 08:00:00,-0.4561,49.18,46.4,44.6,93.4,220,16,0,29.97,NA,6.21,NA,"BKN","OVC","///",NA,1200,1800,NA,NA,NA,NA,NA,NA,NA,NA,NA,39.19,"LFRK 060800Z AUTO 22016KT 9999 BKN012/// OVC018/// ///TCU 08/07 Q1015"
"641","LFRK",2019-12-06 08:30:00,-0.4561,49.18,48.2,44.6,87.28,220,18,0,29.94,NA,6.21,NA,"OVC",NA,NA,NA,1500,NA,NA,NA,"-RA",NA,NA,NA,NA,NA,NA,41.07,"LFRK 060830Z AUTO 22018KT 9999 -RA OVC015 09/07 Q1014 TEMPO 3000 RA BKN005 BECMG 20018G30KT"
"642","LFRK",2019-12-06 09:00:00,-0.4561,49.18,48.2,44.6,87.28,220,16,0,29.94,NA,6.21,NA,"BKN","BKN","OVC",NA,1200,1700,8600,NA,NA,NA,NA,NA,NA,NA,NA,41.53,"LFRK 060900Z AUTO 22016KT 9999 BKN012 BKN017 OVC086 09/07 Q1014 TEMPO 3000 RA BKN005 BECMG 20018G30KT"
"643","LFRK",2019-12-06 09:30:00,-0.4561,49.18,48.2,46.4,93.45,220,18,0,29.94,NA,6.21,NA,"OVC",NA,NA,NA,1300,NA,NA,NA,NA,NA,NA,NA,NA,NA,NA,41.07,"LFRK 060930Z AUTO 22018KT 9999 OVC013 09/08 Q1014 TEMPO 3000 RA BKN005 BECMG 20018G30KT"
"644","LFRK",2019-12-06 10:00:00,-0.4561,49.18,48.2,46.4,93.45,220,18,0,29.94,NA,6.21,NA,"BKN","OVC","///",NA,1300,2100,NA,NA,NA,NA,NA,NA,NA,NA,NA,41.07,"LFRK 061000Z AUTO 22018KT 9999 BKN013/// OVC021/// ///TCU 09/08 Q1014 TEMPO 3000 RA BKN005 BECMG 20018G30KT"
"645","LFRK",2019-12-06 10:30:00,-0.4561,49.18,50,46.4,87.37,210,18,0,29.94,NA,6.21,NA,"BKN","OVC",NA,NA,1200,1700,NA,NA,NA,NA,NA,NA,NA,NA,NA,43.44,"LFRK 061030Z AUTO 21018KT 9999 BKN012 OVC017 10/08 Q1014 TEMPO 3000 RA BKN005 BECMG 20018G30KT"
"646","LFRK",2019-12-06 11:00:00,-0.4561,49.18,50,46.4,87.37,220,19,0,29.91,NA,6.21,NA,"BKN","OVC",NA,NA,1400,2000,NA,NA,NA,NA,NA,NA,NA,NA,NA,43.24,"LFRK 061100Z AUTO 22019KT 9999 BKN014 OVC020 10/08 Q1013 TEMPO 3000 RA BKN005 BECMG 20018G30KT"
"647","LFRK",2019-12-06 11:30:00,-0.4561,49.18,50,46.4,87.37,210,20,0,29.88,NA,6.21,NA,"BKN","OVC",NA,NA,1400,2000,NA,NA,NA,NA,NA,NA,NA,NA,NA,43.05,"LFRK 061130Z AUTO 21020KT 9999 BKN014 OVC020 10/08 Q1012 TEMPO 3000 RA BKN005 BECMG 20020G35KT"
"648","LFRK",2019-12-06 12:00:00,-0.4561,49.18,51.8,48.2,87.47,220,21,0,29.88,NA,6.21,NA,"OVC",NA,NA,NA,1200,NA,NA,NA,NA,NA,NA,NA,NA,NA,NA,NA,"LFRK 061200Z AUTO 22021KT 9999 OVC012 11/09 Q1012 TEMPO 3000 RA BKN005 BECMG 20020G35KT"
"649","LFRK",2019-12-06 12:30:00,-0.4561,49.18,51.8,48.2,87.47,220,21,0,29.85,NA,6.21,NA,"OVC",NA,NA,NA,1300,NA,NA,NA,NA,NA,NA,NA,NA,NA,NA,NA,"LFRK 061230Z AUTO 22021KT 9999 OVC013 11/09 Q1011 TEMPO 3000 RA BKN005 BECMG 20020G35KT"
"650","LFRK",2019-12-06 13:00:00,-0.4561,49.18,51.8,48.2,87.47,210,20,0,29.85,NA,6.21,NA,"OVC",NA,NA,NA,1200,NA,NA,NA,NA,NA,NA,NA,NA,NA,NA,NA,"LFRK 061300Z AUTO 21020KT 9999 OVC012 11/09 Q1011 TEMPO 3000 RA BKN005 BECMG 20020G35KT"
"651","LFRK",2019-12-06 13:30:00,-0.4561,49.18,51.8,48.2,87.47,220,19,0,29.85,NA,6.21,NA,"OVC",NA,NA,NA,1100,NA,NA,NA,NA,NA,NA,NA,NA,NA,NA,NA,"LFRK 061330Z AUTO 22019KT 9999 OVC011 11/09 Q1011 TEMPO 3000 RA BKN005 BECMG 26020G35KT"
"652","LFRK",2019-12-06 14:00:00,-0.4561,49.18,50,48.2,93.5,220,18,0,29.85,NA,4.97,NA,"OVC",NA,NA,NA,1100,NA,NA,NA,"-RA",NA,NA,NA,NA,NA,NA,43.44,"LFRK 061400Z AUTO 22018KT 8000 -RA OVC011 10/09 Q1011 TEMPO 3000 RA BKN005 BECMG 26020G35KT"
"653","LFRK",2019-12-06 14:30:00,-0.4561,49.18,51.8,48.2,87.47,220,19,0,29.83,NA,6.21,NA,"BKN","BKN","OVC",NA,1000,1500,2000,NA,NA,NA,NA,NA,NA,NA,NA,NA,"LFRK 061430Z AUTO 22019KT 9999 BKN010 BKN015 OVC020 11/09 Q1010 TEMPO 3000 RA BECMG 26020G35KT"
"654","LFRK",2019-12-06 15:00:00,-0.4561,49.18,51.8,48.2,87.47,220,20,0,29.83,NA,6.21,NA,"OVC",NA,NA,NA,1600,NA,NA,NA,NA,NA,NA,NA,NA,NA,NA,NA,"LFRK 061500Z AUTO 22020KT 9999 OVC016 11/09 Q1010 TEMPO 3000 RA BKN005 BECMG 26020G35KT"
"655","LFRK",2019-12-06 15:30:00,-0.4561,49.18,51.8,50,93.55,220,18,0,29.83,NA,4.35,NA,"BKN","OVC",NA,NA,1000,1600,NA,NA,"-RA",NA,NA,NA,NA,NA,NA,NA,"LFRK 061530Z AUTO 22018KT 7000 -RA BKN010 OVC016 11/10 Q1010 TEMPO 3000 RA BECMG 26020G35KT"
"656","LFRK",2019-12-06 16:00:00,-0.4561,49.18,51.8,50,93.55,220,17,0,29.8,NA,5.59,NA,"BKN","OVC",NA,NA,900,1300,NA,NA,NA,NA,NA,NA,NA,NA,NA,NA,"LFRK 061600Z AUTO 22017KT 9000 BKN009 OVC013 11/10 Q1009 TEMPO 3000 RA BECMG 26020G35KT"
"657","LFRK",2019-12-06 16:30:00,-0.4561,49.18,51.8,50,93.55,220,16,0,29.8,NA,6.21,NA,"BKN","OVC",NA,NA,1100,1600,NA,NA,NA,NA,NA,NA,NA,NA,NA,NA,"LFRK 061630Z AUTO 22016KT 9999 BKN011 OVC016 11/10 Q1009 TEMPO 3000 RA BECMG 26020G35KT BKN030"
"658","LFRK",2019-12-06 17:00:00,-0.4561,49.18,51.8,51.8,100,240,17,0,29.83,NA,4.97,27,"OVC",NA,NA,NA,1100,NA,NA,NA,NA,NA,NA,NA,NA,NA,NA,NA,"LFRK 061700Z AUTO 24017G27KT 8000 OVC011 11/11 Q1010 TEMPO 3000 RA BECMG BKN030"
"659","LFRK",2019-12-06 17:30:00,-0.4561,49.18,53.6,50,87.56,260,18,0,29.83,NA,6.21,NA,"BKN","BKN","OVC",NA,1500,2200,3100,NA,NA,NA,NA,NA,NA,NA,NA,NA,"LFRK 061730Z AUTO 26018KT 9999 BKN015 BKN022 OVC031 12/10 Q1010 BECMG 26015G25KT"
"660","LFRK",2019-12-06 18:00:00,-0.4561,49.18,51.8,48.2,87.47,250,16,0,29.85,NA,6.21,NA,"SCT","OVC",NA,NA,1800,5000,NA,NA,NA,NA,NA,NA,NA,NA,NA,NA,"LFRK 061800Z AUTO 25016KT 9999 SCT018 OVC050 11/09 Q1011 BECMG 26015G25KT"
"661","LFRK",2019-12-06 18:30:00,-0.4561,49.18,51.8,48.2,87.47,250,18,0,29.85,NA,6.21,NA,"SCT","BKN","BKN",NA,1800,2700,3400,NA,NA,NA,NA,NA,NA,NA,NA,NA,"LFRK 061830Z AUTO 25018KT 9999 SCT018 BKN027 BKN034 11/09 Q1011 BECMG 26015G25KT"
"662","LFRK",2019-12-06 19:00:00,-0.4561,49.18,51.8,48.2,87.47,250,16,0,29.85,NA,6.21,NA,"BKN","BKN","BKN",NA,2000,2600,5000,NA,NA,NA,NA,NA,NA,NA,NA,NA,"LFRK 061900Z AUTO 25016KT 9999 BKN020 BKN026 BKN050 11/09 Q1011 BECMG 26015G25KT"
"663","LFRK",2019-12-06 19:30:00,-0.4561,49.18,51.8,48.2,87.47,260,14,0,29.88,NA,6.21,NA,"FEW","BKN","BKN",NA,1600,5200,14000,NA,NA,NA,NA,NA,NA,NA,NA,NA,"LFRK 061930Z AUTO 26014KT 9999 FEW016 BKN052 BKN140 11/09 Q1012 TEMPO 26015G25KT"
"664","LFRK",2019-12-06 20:00:00,-0.4561,49.18,51.8,48.2,87.47,250,14,0,29.88,NA,6.21,NA,"FEW","SCT","BKN",NA,1700,3900,5600,NA,NA,NA,NA,NA,NA,NA,NA,NA,"LFRK 062000Z AUTO 25014KT 9999 FEW017 SCT039 BKN056 11/09 Q1012 TEMPO 26015G25KT"
"665","LFRK",2019-12-06 20:30:00,-0.4561,49.18,51.8,50,93.55,260,13,0,29.88,NA,6.21,NA,"BKN","OVC",NA,NA,1500,2000,NA,NA,NA,NA,NA,NA,NA,NA,NA,NA,"LFRK 062030Z AUTO 26013KT 9999 BKN015 OVC020 11/10 Q1012 NOSIG"
"666","LFRK",2019-12-06 21:00:00,-0.4561,49.18,51.8,48.2,87.47,260,11,0,29.91,NA,6.21,NA,"FEW","SCT","OVC",NA,1500,2100,3100,NA,NA,NA,NA,NA,NA,NA,NA,NA,"LFRK 062100Z AUTO 26011KT 9999 FEW015 SCT021 OVC031 11/09 Q1013 NOSIG"
"667","LFRK",2019-12-06 21:30:00,-0.4561,49.18,51.8,48.2,87.47,260,13,0,29.91,NA,6.21,NA,"FEW","SCT","OVC",NA,1500,2900,5200,NA,NA,NA,NA,NA,NA,NA,NA,NA,"LFRK 062130Z AUTO 26013KT 9999 FEW015 SCT029 OVC052 11/09 Q1013"
"668","LFRK",2019-12-06 22:00:00,-0.4561,49.18,51.8,48.2,87.47,260,11,0,29.91,NA,6.21,NA,"BKN","OVC",NA,NA,1800,5400,NA,NA,NA,NA,NA,NA,NA,NA,NA,NA,"LFRK 062200Z AUTO 26011KT 9999 BKN018 OVC054 11/09 Q1013"
"669","LFRK",2019-12-06 22:30:00,-0.4561,49.18,51.8,48.2,87.47,260,11,0,29.91,NA,6.21,NA,"BKN","BKN","OVC",NA,1400,2200,3900,NA,NA,NA,NA,NA,NA,NA,NA,NA,"LFRK 062230Z AUTO 26011KT 9999 BKN014 BKN022 OVC039 11/09 Q1013"
"670","LFRK",2019-12-06 23:00:00,-0.4561,49.18,50,48.2,93.5,270,12,0,29.94,NA,6.21,NA,"SCT","BKN","BKN",NA,1600,4800,24000,NA,NA,NA,NA,NA,NA,NA,NA,44.91,"LFRK 062300Z AUTO 27012KT 9999 SCT016 BKN048 BKN240 10/09 Q1014"
"671","LFRK",2019-12-06 23:30:00,-0.4561,49.18,50,46.4,87.37,260,12,0,29.94,NA,6.21,NA,"FEW","BKN","BKN",NA,1500,4100,14000,NA,NA,NA,NA,NA,NA,NA,NA,44.91,"LFRK 062330Z AUTO 26012KT 9999 FEW015 BKN041 BKN140 10/08 Q1014"
"672","LFKC",2019-12-06 00:00:00,8.7911,42.5228,48.2,46.4,93.45,NA,2,0,30.18,NA,6.21,NA,"FEW",NA,NA,NA,8200,NA,NA,NA,NA,NA,NA,NA,NA,NA,NA,NA,"LFKC 060000Z AUTO VRB02KT 9999 FEW082 09/08 Q1022"
"673","LFKC",2019-12-06 00:30:00,8.7911,42.5228,51.8,46.4,81.74,200,6,0,30.18,NA,6.21,NA,"BKN",NA,NA,NA,8800,NA,NA,NA,NA,NA,NA,NA,NA,NA,NA,NA,"LFKC 060030Z AUTO 20006KT 9999 BKN088 11/08 Q1022"
"674","LFKC",2019-12-06 01:00:00,8.7911,42.5228,50,46.4,87.37,160,4,0,30.18,NA,6.21,NA,"FEW",NA,NA,NA,9000,NA,NA,NA,NA,NA,NA,NA,NA,NA,NA,48.44,"LFKC 060100Z AUTO 16004KT 9999 FEW090 10/08 Q1022"
"675","LFKC",2019-12-06 01:30:00,8.7911,42.5228,50,46.4,87.37,220,4,0,30.18,NA,6.21,NA,"BKN",NA,NA,NA,9000,NA,NA,NA,NA,NA,NA,NA,NA,NA,NA,48.44,"LFKC 060130Z AUTO 22004KT 9999 BKN090 10/08 Q1022"
"676","LFKC",2019-12-06 02:00:00,8.7911,42.5228,50,48.2,93.5,180,5,0,30.18,NA,6.21,NA,"OVC",NA,NA,NA,9000,NA,NA,NA,NA,NA,NA,NA,NA,NA,NA,47.77,"LFKC 060200Z AUTO 18005KT 9999 OVC090 10/09 Q1022"
"677","LFKC",2019-12-06 02:30:00,8.7911,42.5228,51.8,48.2,87.47,180,3,0,30.18,NA,6.21,NA,"OVC",NA,NA,NA,9000,NA,NA,NA,NA,NA,NA,NA,NA,NA,NA,NA,"LFKC 060230Z AUTO 18003KT 9999 OVC090 11/09 Q1022"
"678","LFKC",2019-12-06 03:00:00,8.7911,42.5228,51.8,48.2,87.47,NA,2,0,30.18,NA,6.21,NA,"FEW","SCT","OVC",NA,1600,7400,9600,NA,"-RA",NA,NA,NA,NA,NA,NA,NA,"LFKC 060300Z AUTO VRB02KT 9999 -RA FEW016 SCT074 OVC096 11/09 Q1022"
"679","LFKC",2019-12-06 03:30:00,8.7911,42.5228,51.8,48.2,87.47,NA,2,0,30.15,NA,6.21,NA,"FEW","BKN",NA,NA,1800,8400,NA,NA,NA,NA,NA,NA,NA,NA,NA,NA,"LFKC 060330Z AUTO VRB02KT 9999 FEW018 BKN084 11/09 Q1021"
"680","LFKC",2019-12-06 04:00:00,8.7911,42.5228,50,46.4,87.37,180,3,0,30.15,NA,6.21,NA,"FEW","SCT",NA,NA,7600,9200,NA,NA,NA,NA,NA,NA,NA,NA,NA,49.27,"LFKC 060400Z AUTO 18003KT 150V210 9999 FEW076 SCT092 10/08 Q1021"
"681","LFKC",2019-12-06 04:30:00,8.7911,42.5228,50,48.2,93.5,180,4,0,30.18,NA,6.21,NA,"FEW","BKN",NA,NA,7600,9400,NA,NA,NA,NA,NA,NA,NA,NA,NA,48.44,"LFKC 060430Z AUTO 18004KT 150V210 9999 FEW076 BKN094 10/09 Q1022"
"682","LFKC",2019-12-06 05:00:00,8.7911,42.5228,51.8,48.2,87.47,200,5,0,30.18,NA,6.21,NA,"FEW","OVC","///",NA,2900,9400,NA,NA,NA,NA,NA,NA,NA,NA,NA,NA,"LFKC 060500Z AUTO 20005KT 9999 FEW029/// OVC094/// ///TCU 11/09 Q1022"
"683","LFKC",2019-12-06 05:30:00,8.7911,42.5228,51.8,50,93.55,200,3,0,30.18,NA,6.21,NA,"FEW","BKN","BKN","///",3500,6800,9600,NA,NA,NA,NA,NA,NA,NA,NA,NA,"LFKC 060530Z AUTO 20003KT 9999 FEW035/// BKN068/// BKN096/// ///TCU 11/10 Q1022"
"684","LFKC",2019-12-06 06:00:00,8.7911,42.5228,51.8,50,93.55,180,4,0,30.18,NA,6.21,NA,"BKN","BKN","///",NA,6800,8800,NA,NA,NA,NA,NA,NA,NA,NA,NA,NA,"LFKC 060600Z AUTO 18004KT 9999 BKN068/// BKN088/// ///CB 11/10 Q1022"
"685","LFKC",2019-12-06 06:30:00,8.7911,42.5228,53.6,50,87.56,190,4,0,30.18,NA,6.21,NA,"FEW","BKN","BKN","///",6200,7800,9000,NA,NA,NA,NA,NA,NA,NA,NA,NA,"LFKC 060630Z AUTO 19004KT 9999 FEW062/// BKN078/// BKN090/// ///CB 12/10 Q1022"
"686","LFKC",2019-12-06 07:00:00,8.7911,42.5228,53.6,50,87.56,180,4,0,30.18,NA,6.21,NA,"FEW","SCT","BKN","///",3500,4300,6000,NA,NA,NA,NA,NA,NA,NA,NA,NA,"LFKC 060700Z AUTO 18004KT 150V210 9999 FEW035/// SCT043/// BKN060/// ///CB 12/10 Q1022"
"687","LFKC",2019-12-06 07:30:00,8.7911,42.5228,53.6,50,87.56,NA,2,0,30.18,NA,6.21,NA,"FEW","BKN","BKN","///",1700,4200,5600,NA,NA,NA,NA,NA,NA,NA,NA,NA,"LFKC 060730Z AUTO VRB02KT 9999 FEW017/// BKN042/// BKN056/// ///CB 12/10 Q1022"
"688","LFKC",2019-12-06 08:00:00,8.7911,42.5228,53.6,51.8,93.6,210,1,0,30.21,NA,6.21,NA,"FEW","SCT","OVC","///",1300,4400,6800,NA,"-RA",NA,NA,NA,NA,NA,NA,NA,"LFKC 060800Z AUTO 21001KT 9999 -RA FEW013/// SCT044/// OVC068/// ///CB 12/11 Q1023 TEMPO TSRA"
"689","LFKC",2019-12-06 08:30:00,8.7911,42.5228,55.4,51.8,87.65,0,0,0,30.21,NA,6.21,NA,"SCT","BKN","BKN","///",1000,3500,5200,NA,"-RADZ",NA,NA,NA,NA,NA,NA,NA,"LFKC 060830Z AUTO 00000KT 9999 -RADZ SCT010/// BKN035/// BKN052/// ///CB 13/11 Q1023 TEMPO TSRA"
"690","LFKC",2019-12-06 09:00:00,8.7911,42.5228,57.2,55.4,93.69,0,0,0,30.21,NA,6.21,NA,"SCT","BKN","BKN","///",1000,2000,6400,NA,NA,NA,NA,NA,NA,NA,NA,NA,"LFKC 060900Z AUTO 00000KT 9999 SCT010/// BKN020/// BKN064/// ///CB 14/13 Q1023 TEMPO TSRA"
"691","LFKC",2019-12-06 09:30:00,8.7911,42.5228,59,55.4,87.83,0,0,0,30.21,NA,6.21,NA,"FEW","SCT","OVC","///",900,5600,7200,NA,NA,NA,NA,NA,NA,NA,NA,NA,"LFKC 060930Z AUTO 00000KT 9999 FEW009/// SCT056/// OVC072/// ///CB 15/13 Q1023 TEMPO TSRA"
"692","LFKC",2019-12-06 10:00:00,8.7911,42.5228,59,55.4,87.83,NA,2,0,30.21,NA,6.21,NA,"FEW","OVC","///",NA,1500,5800,NA,NA,NA,NA,NA,NA,NA,NA,NA,NA,"LFKC 061000Z AUTO VRB02KT 9999 FEW015/// OVC058/// ///CB 15/13 Q1023 TEMPO TSRA"
"693","LFKC",2019-12-06 10:30:00,8.7911,42.5228,59,55.4,87.83,NA,1,0,30.18,NA,6.21,NA,"FEW","BKN","OVC","///",1400,6400,8200,NA,NA,NA,NA,NA,NA,NA,NA,NA,"LFKC 061030Z AUTO VRB01KT 9999 FEW014/// BKN064/// OVC082/// ///TCU 15/13 Q1022 TEMPO TSRA SCT020 FEW025CB BKN030"
"694","LFKC",2019-12-06 11:00:00,8.7911,42.5228,60.8,53.6,77.14,210,6,0,30.18,NA,6.21,NA,"FEW","BKN","OVC",NA,4500,6800,8400,NA,NA,NA,NA,NA,NA,NA,NA,NA,"LFKC 061100Z AUTO 21006KT 170V250 9999 FEW045 BKN068 OVC084 16/12 Q1022 TEMPO TSRA SCT020 FEW025CB BKN030"
"695","LFKC",2019-12-06 11:30:00,8.7911,42.5228,60.8,51.8,72.2,220,5,0,30.18,NA,6.21,NA,"FEW","BKN","OVC","///",3800,7200,9000,NA,NA,NA,NA,NA,NA,NA,NA,NA,"LFKC 061130Z AUTO 22005KT 9999 FEW038/// BKN072/// OVC090/// ///TCU 16/11 Q1022 TEMPO TSRA SCT020 FEW025CB BKN030"
"696","LFKC",2019-12-06 12:00:00,8.7911,42.5228,60.8,53.6,77.14,NA,2,0,30.15,NA,6.21,NA,"BKN","BKN","BKN","///",7000,8200,11000,NA,NA,NA,NA,NA,NA,NA,NA,NA,"LFKC 061200Z AUTO VRB02KT 9999 BKN070/// BKN082/// BKN110/// ///CB 16/12 Q1021 TEMPO TSRA"
"697","LFKC",2019-12-06 12:30:00,8.7911,42.5228,60.8,51.8,72.2,200,6,0,30.15,NA,6.21,NA,"FEW","OVC","///",NA,3100,7000,NA,NA,NA,NA,NA,NA,NA,NA,NA,NA,"LFKC 061230Z AUTO 20006KT 9999 FEW031/// OVC070/// ///TCU 16/11 Q1021 TEMPO TSRA SCT020 FEW025CB BKN030"
"698","LFKC",2019-12-06 13:00:00,8.7911,42.5228,60.8,51.8,72.2,NA,3,0,30.15,NA,6.21,NA,"BKN","BKN",NA,NA,7200,8600,NA,NA,NA,NA,NA,NA,NA,NA,NA,NA,"LFKC 061300Z AUTO VRB03KT 9999 BKN072 BKN086 16/11 Q1021 TEMPO TSRA SCT020 FEW025CB BKN030"
"699","LFKC",2019-12-06 13:30:00,8.7911,42.5228,62.6,50,63.38,200,6,0,30.12,NA,6.21,NA,"SCT","BKN","BKN",NA,7600,9200,17000,NA,NA,NA,NA,NA,NA,NA,NA,NA,"LFKC 061330Z AUTO 20006KT 9999 SCT076 BKN092 BKN170 17/10 Q1020 TEMPO TSRA SCT020 FEW025CB BKN030"
"700","LFKC",2019-12-06 14:00:00,8.7911,42.5228,62.6,50,63.38,220,4,0,30.12,NA,6.21,NA,"BKN","BKN","BKN",NA,6000,7200,17000,NA,NA,NA,NA,NA,NA,NA,NA,NA,"LFKC 061400Z AUTO 22004KT 190V250 9999 BKN060 BKN072 BKN170 17/10 Q1020 TEMPO TSRA SCT020 FEW025CB BKN030"
"701","LFKC",2019-12-06 14:30:00,8.7911,42.5228,60.8,51.8,72.2,NA,2,0,30.12,NA,6.21,NA,"FEW","BKN","BKN",NA,1300,5600,7400,NA,NA,NA,NA,NA,NA,NA,NA,NA,"LFKC 061430Z AUTO VRB02KT 9999 FEW013 BKN056 BKN074 16/11 Q1020 TEMPO TSRA SCT020 FEW025CB BKN030"
"702","LFKC",2019-12-06 15:00:00,8.7911,42.5228,60.8,53.6,77.14,NA,2,0,30.12,NA,6.21,NA,"FEW","SCT","BKN",NA,4400,5800,7000,NA,NA,NA,NA,NA,NA,NA,NA,NA,"LFKC 061500Z AUTO VRB02KT 9999 FEW044 SCT058 BKN070 16/12 Q1020 TEMPO TSRA SCT020 FEW025CB BKN030"
"703","LFKC",2019-12-06 15:30:00,8.7911,42.5228,60.8,51.8,72.2,NA,3,0,30.12,NA,6.21,NA,"SCT","OVC",NA,NA,5600,7000,NA,NA,NA,NA,NA,NA,NA,NA,NA,NA,"LFKC 061530Z AUTO VRB03KT 9999 SCT056 OVC070 16/11 Q1020 TEMPO TSRA SCT020 FEW025CB BKN030"
"704","LFKC",2019-12-06 16:00:00,8.7911,42.5228,59,51.8,76.98,NA,1,0,30.12,NA,6.21,NA,"FEW","SCT",NA,NA,6000,7400,NA,NA,NA,NA,NA,NA,NA,NA,NA,NA,"LFKC 061600Z AUTO VRB01KT 9999 FEW060 SCT074 15/11 Q1020 TEMPO TSRA SCT020 FEW025CB BKN030"
"705","LFKC",2019-12-06 16:30:00,8.7911,42.5228,55.4,50,81.99,160,4,0,30.12,NA,6.21,NA,"FEW",NA,NA,NA,5800,NA,NA,NA,NA,NA,NA,NA,NA,NA,NA,NA,"LFKC 061630Z AUTO 16004KT 9999 FEW058 13/10 Q1020 TEMPO TSRA SCT020 FEW025CB BKN030"
"706","LFKC",2019-12-06 17:00:00,8.7911,42.5228,55.4,50,81.99,NA,2,0,30.12,NA,6.21,NA,"FEW",NA,NA,NA,7000,NA,NA,NA,NA,NA,NA,NA,NA,NA,NA,NA,"LFKC 061700Z AUTO VRB02KT 9999 FEW070 13/10 Q1020 TEMPO TSRA SCT020 FEW025CB BKN030"
"707","LFKC",2019-12-06 17:30:00,8.7911,42.5228,53.6,48.2,81.87,NA,3,0,30.12,NA,6.21,NA,NA,NA,NA,NA,NA,NA,NA,NA,NA,NA,NA,NA,NA,NA,NA,NA,"LFKC 061730Z AUTO VRB03KT CAVOK 12/09 Q1020 TEMPO TSRA SCT020 FEW025CB BKN030"
"708","LFKC",2019-12-06 18:00:00,8.7911,42.5228,53.6,48.2,81.87,180,5,0,30.12,NA,6.21,NA,"FEW","SCT","///",NA,7000,8000,NA,NA,NA,NA,NA,NA,NA,NA,NA,NA,"LFKC 061800Z AUTO 18005KT 9999 FEW070/// SCT080/// ///CB 12/09 Q1020 TEMPO TSRA"
"709","LFKC",2019-12-06 18:30:00,8.7911,42.5228,51.8,48.2,87.47,NA,1,0,30.12,NA,6.21,NA,"FEW","BKN","///",NA,5600,8000,NA,NA,NA,NA,NA,NA,NA,NA,NA,NA,"LFKC 061830Z AUTO VRB01KT 9999 FEW056/// BKN080/// ///TCU 11/09 Q1020 TEMPO TSRA SCT020 FEW025CB BKN030"
"710","LFKC",2019-12-06 19:00:00,8.7911,42.5228,51.8,48.2,87.47,0,0,0,30.15,NA,6.21,NA,"FEW","SCT","BKN","///",5600,8400,13000,NA,NA,NA,NA,NA,NA,NA,NA,NA,"LFKC 061900Z AUTO 00000KT 9999 FEW056/// SCT084/// BKN130/// ///TCU 11/09 Q1021 TEMPO TSRA SCT020 FEW025CB BKN030"
"711","LFKC",2019-12-06 19:30:00,8.7911,42.5228,53.6,48.2,81.87,170,7,0,30.12,NA,6.21,NA,"FEW","///",NA,NA,8200,NA,NA,NA,NA,NA,NA,NA,NA,NA,NA,NA,"LFKC 061930Z AUTO 17007KT 9999 FEW082/// ///CB 12/09 Q1020"
"712","LFKC",2019-12-06 20:00:00,8.7911,42.5228,55.4,48.2,76.66,180,6,0,30.12,NA,6.21,NA,"FEW",NA,NA,NA,5000,NA,NA,NA,NA,NA,NA,NA,NA,NA,NA,NA,"LFKC 062000Z AUTO 18006KT 9999 FEW050 13/09 Q1020"
"713","LFKC",2019-12-06 20:30:00,8.7911,42.5228,51.8,46.4,81.74,NA,2,0,30.12,NA,6.21,NA,"SCT","BKN","///",NA,6000,7600,NA,NA,NA,NA,NA,NA,NA,NA,NA,NA,"LFKC 062030Z AUTO VRB02KT 9999 SCT060/// BKN076/// ///TCU 11/08 Q1020"
"714","LFKC",2019-12-06 21:00:00,8.7911,42.5228,51.8,46.4,81.74,NA,1,0,30.12,NA,6.21,NA,"FEW","BKN","///",NA,5000,7200,NA,NA,NA,NA,NA,NA,NA,NA,NA,NA,"LFKC 062100Z AUTO VRB01KT 9999 FEW050/// BKN072/// ///TCU 11/08 Q1020"
"715","LFKC",2019-12-06 21:30:00,8.7911,42.5228,55.4,48.2,76.66,160,5,0,30.12,NA,6.21,NA,"BKN","OVC",NA,NA,6400,7600,NA,NA,NA,NA,NA,NA,NA,NA,NA,NA,"LFKC 062130Z AUTO 16005KT 140V230 9999 BKN064 OVC076 13/09 Q1020"
"716","LFKC",2019-12-06 22:00:00,8.7911,42.5228,57.2,50,76.82,180,6,0,30.15,NA,6.21,NA,"OVC","///",NA,NA,6200,NA,NA,NA,NA,NA,NA,NA,NA,NA,NA,NA,"LFKC 062200Z AUTO 18006KT 9999 OVC062/// ///TCU 14/10 Q1021"
"717","LFKC",2019-12-06 22:30:00,8.7911,42.5228,55.4,48.2,76.66,NA,2,0,30.12,NA,6.21,NA,"FEW","BKN","BKN",NA,5000,6800,8600,NA,NA,NA,NA,NA,NA,NA,NA,NA,"LFKC 062230Z AUTO VRB02KT 9999 FEW050 BKN068 BKN086 13/09 Q1020"
"718","LFKC",2019-12-06 23:00:00,8.7911,42.5228,55.4,48.2,76.66,170,7,0,30.12,NA,6.21,NA,"FEW","BKN","BKN",NA,5000,7600,8600,NA,NA,NA,NA,NA,NA,NA,NA,NA,"LFKC 062300Z AUTO 17007KT 9999 FEW050 BKN076 BKN086 13/09 Q1020"
"719","LFKC",2019-12-06 23:30:00,8.7911,42.5228,55.4,48.2,76.66,170,6,0,30.12,NA,6.21,NA,"FEW","BKN",NA,NA,4900,7200,NA,NA,NA,NA,NA,NA,NA,NA,NA,NA,"LFKC 062330Z AUTO 17006KT 9999 FEW049 BKN072 13/09 Q1020"
"720","LFMD",2019-12-06 00:00:00,6.9539,43.5458,50,44.6,81.61,10,4,0,30.21,NA,6.21,NA,"BKN","OVC",NA,NA,4900,6200,NA,NA,NA,NA,NA,NA,NA,NA,NA,48.44,"LFMD 060000Z AUTO 01004KT 340V050 9999 BKN049 OVC062 10/07 Q1023"
"721","LFMD",2019-12-06 00:30:00,6.9539,43.5458,50,44.6,81.61,10,4,0,30.21,NA,6.21,NA,"OVC",NA,NA,NA,4800,NA,NA,NA,NA,NA,NA,NA,NA,NA,NA,48.44,"LFMD 060030Z AUTO 01004KT 340V060 9999 OVC048 10/07 Q1023"
"722","LFMD",2019-12-06 01:00:00,6.9539,43.5458,50,44.6,81.61,10,4,0,30.21,NA,6.21,NA,"FEW","OVC",NA,NA,3500,4400,NA,NA,NA,NA,NA,NA,NA,NA,NA,48.44,"LFMD 060100Z AUTO 01004KT 330V060 9999 FEW035 OVC044 10/07 Q1023"
"723","LFMD",2019-12-06 01:30:00,6.9539,43.5458,50,44.6,81.61,10,6,0,30.21,NA,6.21,NA,"OVC",NA,NA,NA,3700,NA,NA,NA,NA,NA,NA,NA,NA,NA,NA,47.21,"LFMD 060130Z AUTO 01006KT 340V040 9999 OVC037 10/07 Q1023"
"724","LFMD",2019-12-06 02:00:00,6.9539,43.5458,50,44.6,81.61,10,4,0,30.21,NA,6.21,NA,"OVC",NA,NA,NA,3700,NA,NA,NA,NA,NA,NA,NA,NA,NA,NA,48.44,"LFMD 060200Z AUTO 01004KT 330V040 9999 OVC037 10/07 Q1023"
"725","LFMD",2019-12-06 02:30:00,6.9539,43.5458,50,44.6,81.61,360,5,0,30.21,NA,6.21,NA,"BKN","OVC",NA,NA,4000,4700,NA,NA,NA,NA,NA,NA,NA,NA,NA,47.77,"LFMD 060230Z AUTO 36005KT 320V030 9999 BKN040 OVC047 10/07 Q1023 NOSIG"
"726","LFMD",2019-12-06 03:00:00,6.9539,43.5458,50,42.8,76.18,360,5,0,30.21,NA,6.21,NA,"OVC",NA,NA,NA,3600,NA,NA,NA,NA,NA,NA,NA,NA,NA,NA,47.77,"LFMD 060300Z AUTO 36005KT 9999 OVC036 10/06 Q1023 NOSIG"
"727","LFMD",2019-12-06 03:30:00,6.9539,43.5458,50,42.8,76.18,10,5,0,30.18,NA,6.21,NA,"OVC",NA,NA,NA,3700,NA,NA,NA,NA,NA,NA,NA,NA,NA,NA,47.77,"LFMD 060330Z AUTO 01005KT 310V040 9999 OVC037 10/06 Q1022 NOSIG"
"728","LFMD",2019-12-06 04:00:00,6.9539,43.5458,50,44.6,81.61,10,4,0,30.18,NA,6.21,NA,"BKN","BKN","OVC",NA,3800,4500,9600,NA,NA,NA,NA,NA,NA,NA,NA,48.44,"LFMD 060400Z AUTO 01004KT 330V050 9999 BKN038 BKN045 OVC096 10/07 Q1022 NOSIG"
"729","LFMD",2019-12-06 04:30:00,6.9539,43.5458,50,42.8,76.18,10,4,0,30.18,NA,6.21,NA,"FEW","OVC",NA,NA,3400,9600,NA,NA,NA,NA,NA,NA,NA,NA,NA,48.44,"LFMD 060430Z AUTO 01004KT 350V050 9999 FEW034 OVC096 10/06 Q1022 NOSIG"
"730","LFMD",2019-12-06 05:00:00,6.9539,43.5458,50,44.6,81.61,20,4,0,30.18,NA,6.21,NA,"BKN","OVC",NA,NA,4300,9600,NA,NA,NA,NA,NA,NA,NA,NA,NA,48.44,"LFMD 060500Z AUTO 02004KT 340V070 9999 BKN043 OVC096 10/07 Q1022 NOSIG"
"731","LFMD",2019-12-06 05:30:00,6.9539,43.5458,48.2,44.6,87.28,360,4,0,30.18,NA,6.21,NA,"OVC",NA,NA,NA,4500,NA,NA,NA,NA,NA,NA,NA,NA,NA,NA,46.34,"LFMD 060530Z AUTO 36004KT 320V050 9999 OVC045 09/07 Q1022 NOSIG"
"732","LFMD",2019-12-06 06:00:00,6.9539,43.5458,48.2,42.8,81.47,360,4,0,30.18,NA,6.21,NA,"SCT","OVC",NA,NA,4600,9400,NA,NA,NA,NA,NA,NA,NA,NA,NA,46.34,"LFMD 060600Z AUTO 36004KT 320V040 9999 SCT046 OVC094 09/06 Q1022 NOSIG"
"733","LFMD",2019-12-06 06:30:00,6.9539,43.5458,48.2,42.8,81.47,20,4,0,30.21,NA,6.21,NA,"OVC",NA,NA,NA,4200,NA,NA,NA,NA,NA,NA,NA,NA,NA,NA,46.34,"LFMD 060630Z AUTO 02004KT 350V060 9999 OVC042 09/06 Q1023 NOSIG"
"734","LFMD",2019-12-06 07:00:00,6.9539,43.5458,48.2,42.8,81.47,360,4,0,30.21,NA,6.21,NA,"BKN","OVC",NA,NA,3400,4100,NA,NA,NA,NA,NA,NA,NA,NA,NA,46.34,"LFMD 060700Z AUTO 36004KT 310V040 9999 BKN034 OVC041 09/06 Q1023 NOSIG"
"735","LFMD",2019-12-06 07:30:00,6.9539,43.5458,48.2,41,76.01,10,6,0,30.21,NA,6.21,NA,"BKN","OVC",NA,NA,3500,4800,NA,NA,NA,NA,NA,NA,NA,NA,NA,45.04,"LFMD 060730Z AUTO 01006KT 9999 BKN035 OVC048 09/05 Q1023 NOSIG"
"736","LFMD",2019-12-06 08:00:00,6.9539,43.5458,48.2,41,76.01,10,6,0,30.21,NA,6.21,NA,"OVC",NA,NA,NA,3500,NA,NA,NA,NA,NA,NA,NA,NA,NA,NA,45.04,"LFMD 060800Z AUTO 01006KT 330V050 9999 OVC035 09/05 Q1023 NOSIG"
"737","LFMD",2019-12-06 08:30:00,6.9539,43.5458,48.2,41,76.01,360,5,0,30.21,NA,6.21,NA,"BKN","OVC",NA,NA,3700,5000,NA,NA,NA,NA,NA,NA,NA,NA,NA,45.63,"LFMD 060830Z AUTO 36005KT 320V020 9999 BKN037 OVC050 09/05 Q1023 NOSIG"
"738","LFMD",2019-12-06 09:00:00,6.9539,43.5458,50,41,71.07,10,5,0,30.21,NA,6.21,NA,"OVC",NA,NA,NA,4900,NA,NA,NA,NA,NA,NA,NA,NA,NA,NA,47.77,"LFMD 060900Z AUTO 01005KT 330V040 9999 OVC049 10/05 Q1023 NOSIG"
"739","LFMD",2019-12-06 09:30:00,6.9539,43.5458,51.8,42.8,71.26,360,4,0,30.21,NA,6.21,NA,"OVC",NA,NA,NA,5000,NA,NA,NA,NA,NA,NA,NA,NA,NA,NA,NA,"LFMD 060930Z AUTO 36004KT 330V030 9999 OVC050 11/06 Q1023 TEMPO 16010KT"
"740","LFMD",2019-12-06 10:00:00,6.9539,43.5458,51.8,42.8,71.26,350,3,0,30.21,NA,6.21,NA,"SCT",NA,NA,NA,5600,NA,NA,NA,NA,NA,NA,NA,NA,NA,NA,NA,"LFMD 061000Z AUTO 35003KT 310V020 9999 SCT056 11/06 Q1023 TEMPO 16010KT"
"741","LFMD",2019-12-06 10:30:00,6.9539,43.5458,53.6,44.6,71.45,NA,3,0,30.21,NA,6.21,NA,"OVC",NA,NA,NA,5600,NA,NA,NA,NA,NA,NA,NA,NA,NA,NA,NA,"LFMD 061030Z AUTO VRB03KT 9999 OVC056 12/07 Q1023 NOSIG"
"742","LFMD",2019-12-06 11:00:00,6.9539,43.5458,53.6,44.6,71.45,NA,1,0,30.21,NA,6.21,NA,"OVC",NA,NA,NA,6000,NA,NA,NA,NA,NA,NA,NA,NA,NA,NA,NA,"LFMD 061100Z AUTO VRB01KT 9999 OVC060 12/07 Q1023 NOSIG"
"743","LFMD",2019-12-06 11:30:00,6.9539,43.5458,55.4,46.4,71.64,NA,3,0,30.18,NA,6.21,NA,"OVC",NA,NA,NA,5800,NA,NA,NA,NA,NA,NA,NA,NA,NA,NA,NA,"LFMD 061130Z AUTO VRB03KT 9999 OVC058 13/08 Q1022 NOSIG"
"744","LFMD",2019-12-06 12:00:00,6.9539,43.5458,57.2,46.4,67.12,NA,3,0,30.18,NA,6.21,NA,"OVC",NA,NA,NA,5600,NA,NA,NA,NA,NA,NA,NA,NA,NA,NA,NA,"LFMD 061200Z AUTO VRB03KT 9999 OVC056 14/08 Q1022 NOSIG"
"745","LFMD",2019-12-06 12:30:00,6.9539,43.5458,59,46.4,62.92,0,0,0,30.18,NA,6.21,NA,"BKN",NA,NA,NA,5400,NA,NA,NA,NA,NA,NA,NA,NA,NA,NA,NA,"LFMD 061230Z AUTO 00000KT 9999 BKN054 15/08 Q1022 TEMPO 16010KT"
"746","LFMD",2019-12-06 13:00:00,6.9539,43.5458,60.8,44.6,55.12,NA,2,0,30.15,NA,6.21,NA,NA,NA,NA,NA,NA,NA,NA,NA,NA,NA,NA,NA,NA,NA,NA,NA,"LFMD 061300Z AUTO VRB02KT CAVOK 16/07 Q1021 NOSIG"
"747","LFMD",2019-12-06 13:30:00,6.9539,43.5458,60.8,46.4,59.01,NA,3,0,30.15,NA,6.21,NA,"NSC",NA,NA,NA,NA,NA,NA,NA,NA,NA,NA,NA,NA,NA,NA,NA,"LFMD 061330Z AUTO VRB03KT 9999 3600 NSC 16/08 Q1021 NOSIG"
"748","LFMD",2019-12-06 14:00:00,6.9539,43.5458,60.8,46.4,59.01,190,4,0,30.15,NA,6.21,NA,NA,NA,NA,NA,NA,NA,NA,NA,NA,NA,NA,NA,NA,NA,NA,NA,"LFMD 061400Z AUTO 19004KT CAVOK 16/08 Q1021 NOSIG"
"749","LFMD",2019-12-06 14:30:00,6.9539,43.5458,60.8,48.2,63.15,NA,2,0,30.15,NA,6.21,NA,NA,NA,NA,NA,NA,NA,NA,NA,NA,NA,NA,NA,NA,NA,NA,NA,"LFMD 061430Z AUTO VRB02KT CAVOK 16/09 Q1021 NOSIG"
"750","LFMD",2019-12-06 15:00:00,6.9539,43.5458,59,48.2,67.33,190,3,0,30.12,NA,6.21,NA,NA,NA,NA,NA,NA,NA,NA,NA,NA,NA,NA,NA,NA,NA,NA,NA,"LFMD 061500Z AUTO 19003KT CAVOK 15/09 Q1020 NOSIG"
"751","LFMD",2019-12-06 15:30:00,6.9539,43.5458,57.2,48.2,71.83,190,1,0,30.12,NA,6.21,NA,NA,NA,NA,NA,NA,NA,NA,NA,NA,NA,NA,NA,NA,NA,NA,NA,"LFMD 061530Z AUTO 19001KT CAVOK 14/09 Q1020 NOSIG"
"752","LFMD",2019-12-06 16:00:00,6.9539,43.5458,53.6,46.4,76.5,0,0,0,30.12,NA,6.21,NA,NA,NA,NA,NA,NA,NA,NA,NA,NA,NA,NA,NA,NA,NA,NA,NA,"LFMD 061600Z AUTO 00000KT CAVOK 12/08 Q1020 NOSIG"
"753","LFMD",2019-12-06 16:30:00,6.9539,43.5458,51.8,46.4,81.74,NA,2,0,30.12,NA,6.21,NA,NA,NA,NA,NA,NA,NA,NA,NA,NA,NA,NA,NA,NA,NA,NA,NA,"LFMD 061630Z AUTO VRB02KT CAVOK 11/08 Q1020 NOSIG"
"754","LFMD",2019-12-06 17:00:00,6.9539,43.5458,50,46.4,87.37,10,3,0,30.12,NA,3.73,NA,"NSC",NA,NA,NA,NA,NA,NA,NA,NA,NA,NA,NA,NA,NA,NA,49.27,"LFMD 061700Z AUTO 01003KT 6000 NSC 10/08 Q1020 NOSIG"
"755","LFMD",2019-12-06 17:30:00,6.9539,43.5458,48.2,46.4,93.45,360,3,0,30.12,NA,5.59,NA,"NSC",NA,NA,NA,NA,NA,NA,NA,NA,NA,NA,NA,NA,NA,NA,47.21,"LFMD 061730Z AUTO 36003KT 310V030 9000 NSC 09/08 Q1020 NOSIG"
"756","LFMD",2019-12-06 18:00:00,6.9539,43.5458,48.2,46.4,93.45,NA,3,0,30.15,NA,3.73,NA,"NSC",NA,NA,NA,NA,NA,NA,NA,NA,NA,NA,NA,NA,NA,NA,47.21,"LFMD 061800Z AUTO VRB03KT 6000 NSC 09/08 Q1021 NOSIG"
"757","LFMD",2019-12-06 18:30:00,6.9539,43.5458,46.4,44.6,93.4,360,3,0,30.15,NA,5.59,NA,"NSC",NA,NA,NA,NA,NA,NA,NA,NA,NA,NA,NA,NA,NA,NA,45.15,"LFMD 061830Z AUTO 36003KT 310V040 9000 NSC 08/07 Q1021 NOSIG"
"758","LFMD",2019-12-06 19:00:00,6.9539,43.5458,46.4,44.6,93.4,10,3,0,30.15,NA,6.21,NA,NA,NA,NA,NA,NA,NA,NA,NA,NA,NA,NA,NA,NA,NA,NA,45.15,"LFMD 061900Z AUTO 01003KT 320V030 CAVOK 08/07 Q1021 NOSIG"
"759","LFMD",2019-12-06 19:30:00,6.9539,43.5458,46.4,44.6,93.4,360,4,0,30.15,NA,6.21,NA,NA,NA,NA,NA,NA,NA,NA,NA,NA,NA,NA,NA,NA,NA,NA,44.24,"LFMD 061930Z AUTO 36004KT 320V050 CAVOK 08/07 Q1021"
"760","LFMD",2019-12-06 20:00:00,6.9539,43.5458,44.6,44.6,100,360,3,0,30.15,NA,6.21,NA,NA,NA,NA,NA,NA,NA,NA,NA,NA,NA,NA,NA,NA,NA,NA,43.09,"LFMD 062000Z AUTO 36003KT CAVOK 07/07 Q1021"
"761","LFMD",2019-12-06 20:30:00,6.9539,43.5458,44.6,42.8,93.35,360,3,0,30.15,NA,6.21,NA,NA,NA,NA,NA,NA,NA,NA,NA,NA,NA,NA,NA,NA,NA,NA,43.09,"LFMD 062030Z AUTO 36003KT 320V030 CAVOK 07/06 Q1021"
"762","LFMD",2019-12-06 21:00:00,6.9539,43.5458,44.6,42.8,93.35,10,4,0,30.15,NA,6.21,NA,NA,NA,NA,NA,NA,NA,NA,NA,NA,NA,NA,NA,NA,NA,NA,42.13,"LFMD 062100Z AUTO 01004KT CAVOK 07/06 Q1021"
"763","LFMD",2019-12-06 21:30:00,6.9539,43.5458,44.6,42.8,93.35,10,5,0,30.15,NA,6.21,NA,NA,NA,NA,NA,NA,NA,NA,NA,NA,NA,NA,NA,NA,NA,NA,41.36,"LFMD 062130Z AUTO 01005KT 340V040 CAVOK 07/06 Q1021"
"764","LFMD",2019-12-06 22:00:00,6.9539,43.5458,42.8,42.8,100,360,3,0,30.15,NA,6.21,NA,NA,NA,NA,NA,NA,NA,NA,NA,NA,NA,NA,NA,NA,NA,NA,41.03,"LFMD 062200Z AUTO 36003KT 330V040 CAVOK 06/06 Q1021"
"765","LFMD",2019-12-06 22:30:00,6.9539,43.5458,42.8,41,93.3,360,4,0,30.12,NA,6.21,NA,NA,NA,NA,NA,NA,NA,NA,NA,NA,NA,NA,NA,NA,NA,NA,40.03,"LFMD 062230Z AUTO 36004KT CAVOK 06/05 Q1020"
"766","LFMD",2019-12-06 23:00:00,6.9539,43.5458,42.8,41,93.3,350,3,0,30.12,NA,6.21,NA,NA,NA,NA,NA,NA,NA,NA,NA,NA,NA,NA,NA,NA,NA,NA,41.03,"LFMD 062300Z AUTO 35003KT 310V030 CAVOK 06/05 Q1020"
"767","LFMD",2019-12-06 23:30:00,6.9539,43.5458,42.8,41,93.3,360,4,0,30.12,NA,6.21,NA,NA,NA,NA,NA,NA,NA,NA,NA,NA,NA,NA,NA,NA,NA,NA,40.03,"LFMD 062330Z AUTO 36004KT 330V030 CAVOK 06/05 Q1020"
"768","LFMK",2019-12-06 00:00:00,2.3063,43.216,42.8,41,93.3,NA,1,0,30.21,NA,6.21,NA,NA,NA,NA,NA,NA,NA,NA,NA,NA,NA,NA,NA,NA,NA,NA,NA,"LFMK 060000Z AUTO VRB01KT CAVOK 06/05 Q1023"
"769","LFMK",2019-12-06 00:30:00,2.3063,43.216,41,39.2,93.24,310,3,0,30.21,NA,4.97,NA,"NSC",NA,NA,NA,NA,NA,NA,NA,NA,NA,NA,NA,NA,NA,NA,38.98,"LFMK 060030Z AUTO 31003KT 8000 NSC 05/04 Q1023"
"770","LFMK",2019-12-06 01:00:00,2.3063,43.216,39.2,39.2,100,NA,2,0,30.21,NA,4.97,NA,"SCT",NA,NA,NA,7200,NA,NA,NA,NA,NA,NA,NA,NA,NA,NA,NA,"LFMK 060100Z AUTO VRB02KT 8000 SCT072 04/04 Q1023"
"771","LFMK",2019-12-06 01:30:00,2.3063,43.216,39.2,37.4,93.19,NA,2,0,30.21,NA,4.35,NA,"OVC",NA,NA,NA,7200,NA,NA,NA,NA,NA,NA,NA,NA,NA,NA,NA,"LFMK 060130Z AUTO VRB02KT 7000 OVC072 04/03 Q1023"
"772","LFMK",2019-12-06 02:00:00,2.3063,43.216,39.2,37.4,93.19,340,1,0,30.21,NA,3.73,NA,"FEW",NA,NA,NA,7000,NA,NA,NA,NA,NA,NA,NA,NA,NA,NA,NA,"LFMK 060200Z AUTO 34001KT 6000 FEW070 04/03 Q1023"
"773","LFMK",2019-12-06 02:30:00,2.3063,43.216,37.4,37.4,100,220,1,0,30.21,NA,3.11,NA,"NSC",NA,NA,NA,NA,NA,NA,NA,"BR",NA,NA,NA,NA,NA,NA,NA,"LFMK 060230Z AUTO 22001KT 5000 BR NSC 03/03 Q1023"
"774","LFMK",2019-12-06 03:00:00,2.3063,43.216,37.4,35.6,93.14,330,1,0,30.21,NA,3.73,NA,"NSC",NA,NA,NA,NA,NA,NA,NA,NA,NA,NA,NA,NA,NA,NA,NA,"LFMK 060300Z AUTO 33001KT 6000 NSC 03/02 Q1023"
"775","LFMK",2019-12-06 03:30:00,2.3063,43.216,37.4,37.4,100,230,2,0,30.21,NA,3.73,NA,"NSC",NA,NA,NA,NA,NA,NA,NA,NA,NA,NA,NA,NA,NA,NA,NA,"LFMK 060330Z AUTO 23002KT 6000 NSC 03/03 Q1023"
"776","LFMK",2019-12-06 04:00:00,2.3063,43.216,37.4,37.4,100,NA,2,0,30.21,NA,3.73,NA,"NSC",NA,NA,NA,NA,NA,NA,NA,NA,NA,NA,NA,NA,NA,NA,NA,"LFMK 060400Z AUTO VRB02KT 6000 NSC 03/03 Q1023"
"777","LFMK",2019-12-06 04:30:00,2.3063,43.216,35.6,35.6,100,290,3,0,30.21,NA,3.73,NA,"NSC",NA,NA,NA,NA,NA,NA,NA,NA,NA,NA,NA,NA,NA,NA,32.8,"LFMK 060430Z AUTO 29003KT 6000 NSC 02/02 Q1023"
"778","LFMK",2019-12-06 05:00:00,2.3063,43.216,35.6,35.6,100,280,1,0,30.21,NA,4.35,NA,"NSC",NA,NA,NA,NA,NA,NA,NA,NA,NA,NA,NA,NA,NA,NA,NA,"LFMK 060500Z AUTO 28001KT 7000 NSC 02/02 Q1023"
"779","LFMK",2019-12-06 05:30:00,2.3063,43.216,37.4,37.4,100,250,3,0,30.21,NA,4.35,NA,"NSC",NA,NA,NA,NA,NA,NA,NA,NA,NA,NA,NA,NA,NA,NA,34.86,"LFMK 060530Z AUTO 25003KT 7000 NSC 03/03 Q1023"
"780","LFMK",2019-12-06 06:00:00,2.3063,43.216,37.4,35.6,93.14,NA,2,0,30.21,NA,4.35,NA,"NSC",NA,NA,NA,NA,NA,NA,NA,NA,NA,NA,NA,NA,NA,NA,NA,"LFMK 060600Z AUTO VRB02KT 7000 NSC 03/02 Q1023"
"781","LFMK",2019-12-06 06:30:00,2.3063,43.216,35.6,35.6,100,NA,2,0,30.24,NA,3.11,NA,"NSC",NA,NA,NA,NA,NA,NA,NA,"BR",NA,NA,NA,NA,NA,NA,NA,"LFMK 060630Z AUTO VRB02KT 5000 BR NSC 02/02 Q1024"
"782","LFMK",2019-12-06 07:00:00,2.3063,43.216,35.6,35.6,100,NA,3,0,30.24,NA,4.97,NA,"NSC",NA,NA,NA,NA,NA,NA,NA,NA,NA,NA,NA,NA,NA,NA,32.8,"LFMK 060700Z AUTO VRB03KT 8000 NSC 02/02 Q1024 NOSIG"
"783","LFMK",2019-12-06 07:30:00,2.3063,43.216,37.4,35.6,93.14,NA,2,0,30.24,NA,3.73,NA,"NSC",NA,NA,NA,NA,NA,NA,NA,NA,NA,NA,NA,NA,NA,NA,NA,"LFMK 060730Z AUTO VRB02KT 6000 NSC 03/02 Q1024 NOSIG"
"784","LFMK",2019-12-06 08:00:00,2.3063,43.216,37.4,37.4,100,270,4,0,30.24,NA,6.21,NA,NA,NA,NA,NA,NA,NA,NA,NA,NA,NA,NA,NA,NA,NA,NA,33.73,"LFMK 060800Z AUTO 27004KT CAVOK 03/03 Q1024 NOSIG"
"785","LFMK",2019-12-06 08:30:00,2.3063,43.216,41,41,100,NA,2,0,30.27,NA,5.59,NA,"NSC",NA,NA,NA,NA,NA,NA,NA,NA,NA,NA,NA,NA,NA,NA,NA,"LFMK 060830Z AUTO VRB02KT 9000 NSC 05/05 Q1025 NOSIG"
"786","LFMK",2019-12-06 09:00:00,2.3063,43.216,42.8,42.8,100,0,0,0,30.27,NA,6.21,NA,NA,NA,NA,NA,NA,NA,NA,NA,NA,NA,NA,NA,NA,NA,NA,NA,"LFMK 060900Z AUTO 00000KT CAVOK 06/06 Q1025 NOSIG"
"787","LFMK",2019-12-06 09:30:00,2.3063,43.216,42.8,42.8,100,NA,2,0,30.27,NA,6.21,NA,NA,NA,NA,NA,NA,NA,NA,NA,NA,NA,NA,NA,NA,NA,NA,NA,"LFMK 060930Z AUTO VRB02KT CAVOK 06/06 Q1025 NOSIG"
"788","LFMK",2019-12-06 10:00:00,2.3063,43.216,46.4,42.8,87.19,NA,3,0,30.27,NA,6.21,NA,NA,NA,NA,NA,NA,NA,NA,NA,NA,NA,NA,NA,NA,NA,NA,45.15,"LFMK 061000Z AUTO VRB03KT CAVOK 08/06 Q1025 NOSIG"
"789","LFMK",2019-12-06 10:30:00,2.3063,43.216,48.2,44.6,87.28,270,3,0,30.27,NA,6.21,NA,NA,NA,NA,NA,NA,NA,NA,NA,NA,NA,NA,NA,NA,NA,NA,47.21,"LFMK 061030Z AUTO 27003KT 230V300 CAVOK 09/07 Q1025 NOSIG"
"790","LFMK",2019-12-06 11:00:00,2.3063,43.216,51.8,44.6,76.34,270,4,0,30.24,NA,6.21,NA,NA,NA,NA,NA,NA,NA,NA,NA,NA,NA,NA,NA,NA,NA,NA,NA,"LFMK 061100Z AUTO 27004KT 230V300 CAVOK 11/07 Q1024 NOSIG"
"791","LFMK",2019-12-06 11:30:00,2.3063,43.216,53.6,46.4,76.5,280,5,0,30.21,NA,6.21,NA,NA,NA,NA,NA,NA,NA,NA,NA,NA,NA,NA,NA,NA,NA,NA,NA,"LFMK 061130Z AUTO 28005KT 250V310 CAVOK 12/08 Q1023 NOSIG"
"792","LFMK",2019-12-06 12:00:00,2.3063,43.216,55.4,46.4,71.64,290,6,0,30.21,NA,6.21,NA,NA,NA,NA,NA,NA,NA,NA,NA,NA,NA,NA,NA,NA,NA,NA,NA,"LFMK 061200Z AUTO 29006KT CAVOK 13/08 Q1023 NOSIG"
"793","LFMK",2019-12-06 12:30:00,2.3063,43.216,55.4,46.4,71.64,280,7,0,30.21,NA,6.21,NA,NA,NA,NA,NA,NA,NA,NA,NA,NA,NA,NA,NA,NA,NA,NA,NA,"LFMK 061230Z AUTO 28007KT 240V310 CAVOK 13/08 Q1023 NOSIG"
"794","LFMK",2019-12-06 13:00:00,2.3063,43.216,57.2,44.6,62.69,270,5,0,30.18,NA,6.21,NA,NA,NA,NA,NA,NA,NA,NA,NA,NA,NA,NA,NA,NA,NA,NA,NA,"LFMK 061300Z AUTO 27005KT 220V300 CAVOK 14/07 Q1022 NOSIG"
"795","LFMK",2019-12-06 13:30:00,2.3063,43.216,57.2,44.6,62.69,270,5,0,30.18,NA,6.21,NA,NA,NA,NA,NA,NA,NA,NA,NA,NA,NA,NA,NA,NA,NA,NA,NA,"LFMK 061330Z AUTO 27005KT 220V300 CAVOK 14/07 Q1022 NOSIG"
"796","LFMK",2019-12-06 14:00:00,2.3063,43.216,57.2,44.6,62.69,280,4,0,30.15,NA,6.21,NA,NA,NA,NA,NA,NA,NA,NA,NA,NA,NA,NA,NA,NA,NA,NA,NA,"LFMK 061400Z AUTO 28004KT 230V310 CAVOK 14/07 Q1021 NOSIG"
"797","LFMK",2019-12-06 14:30:00,2.3063,43.216,59,42.8,54.86,NA,3,0,30.15,NA,6.21,NA,NA,NA,NA,NA,NA,NA,NA,NA,NA,NA,NA,NA,NA,NA,NA,NA,"LFMK 061430Z AUTO VRB03KT CAVOK 15/06 Q1021 NOSIG"
"798","LFMK",2019-12-06 15:00:00,2.3063,43.216,57.2,44.6,62.69,290,5,0,30.15,NA,6.21,NA,NA,NA,NA,NA,NA,NA,NA,NA,NA,NA,NA,NA,NA,NA,NA,NA,"LFMK 061500Z AUTO 29005KT CAVOK 14/07 Q1021 NOSIG"
"799","LFMK",2019-12-06 15:30:00,2.3063,43.216,55.4,42.8,62.46,280,3,0,30.15,NA,6.21,NA,NA,NA,NA,NA,NA,NA,NA,NA,NA,NA,NA,NA,NA,NA,NA,NA,"LFMK 061530Z AUTO 28003KT CAVOK 13/06 Q1021 NOSIG"
"800","LFMK",2019-12-06 16:00:00,2.3063,43.216,55.4,42.8,62.46,270,2,0,30.15,NA,6.21,NA,NA,NA,NA,NA,NA,NA,NA,NA,NA,NA,NA,NA,NA,NA,NA,NA,"LFMK 061600Z AUTO 27002KT CAVOK 13/06 Q1021 NOSIG"
"801","LFMK",2019-12-06 16:30:00,2.3063,43.216,50,42.8,76.18,NA,1,0,30.15,NA,6.21,NA,NA,NA,NA,NA,NA,NA,NA,NA,NA,NA,NA,NA,NA,NA,NA,NA,"LFMK 061630Z AUTO VRB01KT CAVOK 10/06 Q1021 NOSIG"
"802","LFMK",2019-12-06 17:00:00,2.3063,43.216,48.2,42.8,81.47,NA,3,0,30.15,NA,6.21,NA,NA,NA,NA,NA,NA,NA,NA,NA,NA,NA,NA,NA,NA,NA,NA,47.21,"LFMK 061700Z AUTO VRB03KT CAVOK 09/06 Q1021 NOSIG"
"803","LFMK",2019-12-06 17:30:00,2.3063,43.216,46.4,41,81.34,NA,3,0,30.15,NA,6.21,NA,NA,NA,NA,NA,NA,NA,NA,NA,NA,NA,NA,NA,NA,NA,NA,45.15,"LFMK 061730Z AUTO VRB03KT CAVOK 08/05 Q1021 NOSIG"
"804","LFMK",2019-12-06 18:00:00,2.3063,43.216,44.6,41,87.09,NA,1,0,30.15,NA,6.21,NA,NA,NA,NA,NA,NA,NA,NA,NA,NA,NA,NA,NA,NA,NA,NA,NA,"LFMK 061800Z AUTO VRB01KT CAVOK 07/05 Q1021 NOSIG"
"805","LFMK",2019-12-06 18:30:00,2.3063,43.216,42.8,41,93.3,250,1,0,30.18,NA,6.21,NA,NA,NA,NA,NA,NA,NA,NA,NA,NA,NA,NA,NA,NA,NA,NA,NA,"LFMK 061830Z AUTO 25001KT CAVOK 06/05 Q1022"
"806","LFMK",2019-12-06 19:00:00,2.3063,43.216,42.8,41,93.3,220,2,0,30.18,NA,6.21,NA,NA,NA,NA,NA,NA,NA,NA,NA,NA,NA,NA,NA,NA,NA,NA,NA,"LFMK 061900Z AUTO 22002KT CAVOK 06/05 Q1022"
"807","LFMK",2019-12-06 19:30:00,2.3063,43.216,41,39.2,93.24,NA,2,0,30.18,NA,6.21,NA,NA,NA,NA,NA,NA,NA,NA,NA,NA,NA,NA,NA,NA,NA,NA,NA,"LFMK 061930Z AUTO VRB02KT CAVOK 05/04 Q1022"
"808","LFMK",2019-12-06 20:00:00,2.3063,43.216,41,39.2,93.24,NA,2,0,30.18,NA,6.21,NA,NA,NA,NA,NA,NA,NA,NA,NA,NA,NA,NA,NA,NA,NA,NA,NA,"LFMK 062000Z AUTO VRB02KT CAVOK 05/04 Q1022"
"809","LFMK",2019-12-06 20:30:00,2.3063,43.216,39.2,39.2,100,290,2,0,30.18,NA,6.21,NA,NA,NA,NA,NA,NA,NA,NA,NA,NA,NA,NA,NA,NA,NA,NA,NA,"LFMK 062030Z AUTO 29002KT CAVOK 04/04 Q1022"
"810","LFMK",2019-12-06 21:00:00,2.3063,43.216,39.2,37.4,93.19,NA,1,0,30.18,NA,5.59,NA,"NSC",NA,NA,NA,NA,NA,NA,NA,NA,NA,NA,NA,NA,NA,NA,NA,"LFMK 062100Z AUTO VRB01KT 9000 NSC 04/03 Q1022"
"811","LFMK",2019-12-06 21:30:00,2.3063,43.216,39.2,37.4,93.19,NA,2,0,30.18,NA,6.21,NA,NA,NA,NA,NA,NA,NA,NA,NA,NA,NA,NA,NA,NA,NA,NA,NA,"LFMK 062130Z AUTO VRB02KT CAVOK 04/03 Q1022"
"812","LFMK",2019-12-06 22:00:00,2.3063,43.216,39.2,37.4,93.19,NA,2,0,30.18,NA,5.59,NA,"NSC",NA,NA,NA,NA,NA,NA,NA,NA,NA,NA,NA,NA,NA,NA,NA,"LFMK 062200Z AUTO VRB02KT 9000 NSC 04/03 Q1022"
"813","LFMK",2019-12-06 22:30:00,2.3063,43.216,37.4,37.4,100,0,0,0,30.21,NA,4.97,NA,"NSC",NA,NA,NA,NA,NA,NA,NA,NA,NA,NA,NA,NA,NA,NA,NA,"LFMK 062230Z AUTO 00000KT 8000 NSC 03/03 Q1023"
"814","LFMK",2019-12-06 23:00:00,2.3063,43.216,37.4,35.6,93.14,0,0,0,30.21,NA,4.35,NA,"NSC",NA,NA,NA,NA,NA,NA,NA,NA,NA,NA,NA,NA,NA,NA,NA,"LFMK 062300Z AUTO 00000KT 7000 NSC 03/02 Q1023"
"815","LFMK",2019-12-06 23:30:00,2.3063,43.216,37.4,35.6,93.14,NA,2,0,30.21,NA,4.97,NA,"NSC",NA,NA,NA,NA,NA,NA,NA,NA,NA,NA,NA,NA,NA,NA,NA,"LFMK 062330Z AUTO VRB02KT 8000 NSC 03/02 Q1023"
"816","LFCK",2019-12-06 00:00:00,2.2892,43.5562,41,39.2,93.24,10,5,0,30.24,NA,6.21,NA,NA,NA,NA,NA,NA,NA,NA,NA,NA,NA,NA,NA,NA,NA,NA,37.08,"LFCK 060000Z AUTO 01005KT CAVOK 05/04 Q1024"
"817","LFCK",2019-12-06 00:30:00,2.2892,43.5562,39.2,37.4,93.19,180,3,0,30.24,NA,6.21,NA,NA,NA,NA,NA,NA,NA,NA,NA,NA,NA,NA,NA,NA,NA,NA,36.92,"LFCK 060030Z AUTO 18003KT CAVOK 04/03 Q1024"
"818","LFCK",2019-12-06 01:00:00,2.2892,43.5562,37.4,37.4,100,130,3,0,30.24,NA,6.21,NA,NA,NA,NA,NA,NA,NA,NA,NA,NA,NA,NA,NA,NA,NA,NA,34.86,"LFCK 060100Z AUTO 13003KT CAVOK 03/03 Q1024"
"819","LFCK",2019-12-06 01:30:00,2.2892,43.5562,37.4,35.6,93.14,120,4,0,30.24,NA,6.21,NA,NA,NA,NA,NA,NA,NA,NA,NA,NA,NA,NA,NA,NA,NA,NA,33.73,"LFCK 060130Z AUTO 12004KT CAVOK 03/02 Q1024"
"820","LFCK",2019-12-06 02:00:00,2.2892,43.5562,37.4,35.6,93.14,100,3,0,30.24,NA,6.21,NA,NA,NA,NA,NA,NA,NA,NA,NA,NA,NA,NA,NA,NA,NA,NA,34.86,"LFCK 060200Z AUTO 10003KT CAVOK 03/02 Q1024"
"821","LFCK",2019-12-06 02:30:00,2.2892,43.5562,37.4,33.8,86.69,290,1,0,30.24,NA,6.21,NA,NA,NA,NA,NA,NA,NA,NA,NA,NA,NA,NA,NA,NA,NA,NA,NA,"LFCK 060230Z AUTO 29001KT CAVOK 03/01 Q1024"
"822","LFCK",2019-12-06 03:00:00,2.2892,43.5562,37.4,35.6,93.14,270,1,0,30.24,NA,6.21,NA,NA,NA,NA,NA,NA,NA,NA,NA,NA,NA,NA,NA,NA,NA,NA,NA,"LFCK 060300Z AUTO 27001KT CAVOK 03/02 Q1024"
"823","LFCK",2019-12-06 03:30:00,2.2892,43.5562,37.4,35.6,93.14,NA,2,0,30.24,NA,6.21,NA,NA,NA,NA,NA,NA,NA,NA,NA,NA,NA,NA,NA,NA,NA,NA,NA,"LFCK 060330Z AUTO VRB02KT CAVOK 03/02 Q1024"
"824","LFCK",2019-12-06 04:00:00,2.2892,43.5562,35.6,35.6,100,NA,3,0,30.24,NA,6.21,NA,NA,NA,NA,NA,NA,NA,NA,NA,NA,NA,NA,NA,NA,NA,NA,32.8,"LFCK 060400Z AUTO VRB03KT CAVOK 02/02 Q1024"
"825","LFCK",2019-12-06 04:30:00,2.2892,43.5562,35.6,33.8,93.08,150,1,0,30.24,NA,6.21,NA,NA,NA,NA,NA,NA,NA,NA,NA,NA,NA,NA,NA,NA,NA,NA,NA,"LFCK 060430Z AUTO 15001KT CAVOK 02/01 Q1024"
"826","LFCK",2019-12-06 05:00:00,2.2892,43.5562,37.4,35.6,93.14,110,2,0,30.24,NA,6.21,NA,NA,NA,NA,NA,NA,NA,NA,NA,NA,NA,NA,NA,NA,NA,NA,NA,"LFCK 060500Z AUTO 11002KT CAVOK 03/02 Q1024"
"827","LFCK",2019-12-06 05:30:00,2.2892,43.5562,35.6,33.8,93.08,130,1,0,30.24,NA,6.21,NA,NA,NA,NA,NA,NA,NA,NA,NA,NA,NA,NA,NA,NA,NA,NA,NA,"LFCK 060530Z AUTO 13001KT CAVOK 02/01 Q1024"
"828","LFCK",2019-12-06 06:00:00,2.2892,43.5562,33.8,33.8,100,NA,3,0,30.24,NA,6.21,NA,NA,NA,NA,NA,NA,NA,NA,NA,NA,NA,NA,NA,NA,NA,NA,30.75,"LFCK 060600Z AUTO VRB03KT CAVOK 01/01 Q1024"
"829","LFCK",2019-12-06 06:30:00,2.2892,43.5562,33.8,33.8,100,290,3,0,30.24,NA,6.21,NA,NA,NA,NA,NA,NA,NA,NA,NA,NA,NA,NA,NA,NA,NA,NA,30.75,"LFCK 060630Z AUTO 29003KT CAVOK 01/01 Q1024"
"830","LFCK",2019-12-06 07:00:00,2.2892,43.5562,33.8,32,93.03,0,0,0,30.27,NA,6.21,NA,NA,NA,NA,NA,NA,NA,NA,NA,NA,NA,NA,NA,NA,NA,NA,NA,"LFCK 060700Z AUTO 00000KT CAVOK 01/M00 Q1025"
"831","LFCK",2019-12-06 07:30:00,2.2892,43.5562,33.8,33.8,100,0,0,0,30.27,NA,6.21,NA,NA,NA,NA,NA,NA,NA,NA,NA,NA,NA,NA,NA,NA,NA,NA,NA,"LFCK 060730Z AUTO 00000KT CAVOK 01/01 Q1025 NOSIG"
"832","LFCK",2019-12-06 08:00:00,2.2892,43.5562,33.8,33.8,100,140,3,0,30.27,NA,5.59,NA,"NSC",NA,NA,NA,NA,NA,NA,NA,NA,NA,NA,NA,NA,NA,NA,30.75,"LFCK 060800Z AUTO 14003KT 9000 NSC 01/01 Q1025 NOSIG"
"833","LFCK",2019-12-06 08:30:00,2.2892,43.5562,39.2,37.4,93.19,NA,2,0,30.27,NA,6.21,NA,NA,NA,NA,NA,NA,NA,NA,NA,NA,NA,NA,NA,NA,NA,NA,NA,"LFCK 060830Z AUTO VRB02KT CAVOK 04/03 Q1025 NOSIG"
"834","LFCK",2019-12-06 09:00:00,2.2892,43.5562,41,39.2,93.24,160,2,0,30.27,NA,6.21,NA,NA,NA,NA,NA,NA,NA,NA,NA,NA,NA,NA,NA,NA,NA,NA,NA,"LFCK 060900Z AUTO 16002KT CAVOK 05/04 Q1025 NOSIG"
"835","LFCK",2019-12-06 09:30:00,2.2892,43.5562,42.8,39.2,86.99,NA,1,0,30.3,NA,6.21,NA,NA,NA,NA,NA,NA,NA,NA,NA,NA,NA,NA,NA,NA,NA,NA,NA,"LFCK 060930Z AUTO VRB01KT CAVOK 06/04 Q1026 NOSIG"
"836","LFCK",2019-12-06 10:00:00,2.2892,43.5562,44.6,41,87.09,NA,1,0,30.3,NA,6.21,NA,NA,NA,NA,NA,NA,NA,NA,NA,NA,NA,NA,NA,NA,NA,NA,NA,"LFCK 061000Z AUTO VRB01KT CAVOK 07/05 Q1026 NOSIG"
"837","LFCK",2019-12-06 10:30:00,2.2892,43.5562,48.2,41,76.01,NA,2,0,30.27,NA,6.21,NA,NA,NA,NA,NA,NA,NA,NA,NA,NA,NA,NA,NA,NA,NA,NA,NA,"LFCK 061030Z AUTO VRB02KT CAVOK 09/05 Q1025 NOSIG"
"838","LFCK",2019-12-06 11:00:00,2.2892,43.5562,48.2,41,76.01,290,3,0,30.27,NA,6.21,NA,NA,NA,NA,NA,NA,NA,NA,NA,NA,NA,NA,NA,NA,NA,NA,47.21,"LFCK 061100Z AUTO 29003KT 260V320 CAVOK 09/05 Q1025 NOSIG"
"839","LFCK",2019-12-06 11:30:00,2.2892,43.5562,50,37.4,61.76,260,3,0,30.27,NA,6.21,NA,NA,NA,NA,NA,NA,NA,NA,NA,NA,NA,NA,NA,NA,NA,NA,49.27,"LFCK 061130Z AUTO 26003KT 210V290 CAVOK 10/03 Q1025 NOSIG"
"840","LFCK",2019-12-06 12:00:00,2.2892,43.5562,51.8,39.2,61.99,NA,3,0,30.24,NA,6.21,NA,NA,NA,NA,NA,NA,NA,NA,NA,NA,NA,NA,NA,NA,NA,NA,NA,"LFCK 061200Z AUTO VRB03KT CAVOK 11/04 Q1024 NOSIG"
"841","LFCK",2019-12-06 12:30:00,2.2892,43.5562,53.6,39.2,58.02,NA,2,0,30.24,NA,6.21,NA,NA,NA,NA,NA,NA,NA,NA,NA,NA,NA,NA,NA,NA,NA,NA,NA,"LFCK 061230Z AUTO VRB02KT CAVOK 12/04 Q1024 NOSIG"
"842","LFCK",2019-12-06 13:00:00,2.2892,43.5562,55.4,39.2,54.34,NA,2,0,30.21,NA,6.21,NA,NA,NA,NA,NA,NA,NA,NA,NA,NA,NA,NA,NA,NA,NA,NA,NA,"LFCK 061300Z AUTO VRB02KT CAVOK 13/04 Q1023 NOSIG"
"843","LFCK",2019-12-06 13:30:00,2.2892,43.5562,55.4,39.2,54.34,NA,2,0,30.21,NA,6.21,NA,NA,NA,NA,NA,NA,NA,NA,NA,NA,NA,NA,NA,NA,NA,NA,NA,"LFCK 061330Z AUTO VRB02KT CAVOK 13/04 Q1023 NOSIG"
"844","LFCK",2019-12-06 14:00:00,2.2892,43.5562,55.4,37.4,50.64,300,4,0,30.18,NA,6.21,NA,NA,NA,NA,NA,NA,NA,NA,NA,NA,NA,NA,NA,NA,NA,NA,NA,"LFCK 061400Z AUTO 30004KT 270V330 CAVOK 13/03 Q1022 NOSIG"
"845","LFCK",2019-12-06 14:30:00,2.2892,43.5562,55.4,39.2,54.34,290,4,0,30.18,NA,4.35,NA,"NSC",NA,NA,NA,NA,NA,NA,NA,NA,NA,NA,NA,NA,NA,NA,NA,"LFCK 061430Z AUTO 29004KT 260V320 7000 3200 NSC 13/04 Q1022 NOSIG"
"846","LFCK",2019-12-06 15:00:00,2.2892,43.5562,55.4,39.2,54.34,280,5,0,30.18,NA,4.35,NA,"NSC",NA,NA,NA,NA,NA,NA,NA,NA,NA,NA,NA,NA,NA,NA,NA,"LFCK 061500Z AUTO 28005KT 7000 NSC 13/04 Q1022 NOSIG"
"847","LFCK",2019-12-06 15:30:00,2.2892,43.5562,53.6,41,62.23,280,3,0,30.18,NA,6.21,NA,NA,NA,NA,NA,NA,NA,NA,NA,NA,NA,NA,NA,NA,NA,NA,NA,"LFCK 061530Z AUTO 28003KT CAVOK 12/05 Q1022 NOSIG"
"848","LFCK",2019-12-06 16:00:00,2.2892,43.5562,51.8,41,66.48,0,0,0,30.18,NA,6.21,NA,NA,NA,NA,NA,NA,NA,NA,NA,NA,NA,NA,NA,NA,NA,NA,NA,"LFCK 061600Z AUTO 00000KT CAVOK 11/05 Q1022 NOSIG"
"849","LFCK",2019-12-06 16:30:00,2.2892,43.5562,50,41,71.07,130,2,0,30.18,NA,6.21,NA,NA,NA,NA,NA,NA,NA,NA,NA,NA,NA,NA,NA,NA,NA,NA,NA,"LFCK 061630Z AUTO 13002KT CAVOK 10/05 Q1022 NOSIG"
"850","LFCK",2019-12-06 17:00:00,2.2892,43.5562,44.6,39.2,81.2,130,4,0,30.18,NA,6.21,NA,NA,NA,NA,NA,NA,NA,NA,NA,NA,NA,NA,NA,NA,NA,NA,42.13,"LFCK 061700Z AUTO 13004KT CAVOK 07/04 Q1022 NOSIG"
"851","LFCK",2019-12-06 17:30:00,2.2892,43.5562,44.6,39.2,81.2,50,3,0,30.18,NA,6.21,NA,NA,NA,NA,NA,NA,NA,NA,NA,NA,NA,NA,NA,NA,NA,NA,43.09,"LFCK 061730Z AUTO 05003KT CAVOK 07/04 Q1022 NOSIG"
"852","LFCK",2019-12-06 18:00:00,2.2892,43.5562,42.8,39.2,86.99,170,2,0,30.18,NA,6.21,NA,NA,NA,NA,NA,NA,NA,NA,NA,NA,NA,NA,NA,NA,NA,NA,NA,"LFCK 061800Z AUTO 17002KT CAVOK 06/04 Q1022 TEMPO 0800 BCFG"
"853","LFCK",2019-12-06 18:30:00,2.2892,43.5562,41,37.4,86.89,150,5,0,30.21,NA,6.21,NA,NA,NA,NA,NA,NA,NA,NA,NA,NA,NA,NA,NA,NA,NA,NA,37.08,"LFCK 061830Z AUTO 15005KT CAVOK 05/03 Q1023 TEMPO 0800 BCFG"
"854","LFCK",2019-12-06 19:00:00,2.2892,43.5562,41,39.2,93.24,110,4,0,30.21,NA,6.21,NA,NA,NA,NA,NA,NA,NA,NA,NA,NA,NA,NA,NA,NA,NA,NA,37.93,"LFCK 061900Z AUTO 11004KT CAVOK 05/04 Q1023 TEMPO 0800 BCFG"
"855","LFCK",2019-12-06 19:30:00,2.2892,43.5562,41,37.4,86.89,NA,3,0,30.21,NA,6.21,NA,NA,NA,NA,NA,NA,NA,NA,NA,NA,NA,NA,NA,NA,NA,NA,38.98,"LFCK 061930Z AUTO VRB03KT CAVOK 05/03 Q1023 TEMPO 0800 BCFG"
"856","LFCK",2019-12-06 20:00:00,2.2892,43.5562,41,39.2,93.24,200,1,0,30.21,NA,6.21,NA,NA,NA,NA,NA,NA,NA,NA,NA,NA,NA,NA,NA,NA,NA,NA,NA,"LFCK 062000Z AUTO 20001KT CAVOK 05/04 Q1023 TEMPO 0800 BCFG"
"857","LFCK",2019-12-06 20:30:00,2.2892,43.5562,41,37.4,86.89,150,3,0,30.21,NA,6.21,NA,NA,NA,NA,NA,NA,NA,NA,NA,NA,NA,NA,NA,NA,NA,NA,38.98,"LFCK 062030Z AUTO 15003KT CAVOK 05/03 Q1023 TEMPO 0800 BCFG"
"858","LFCK",2019-12-06 21:00:00,2.2892,43.5562,39.2,37.4,93.19,110,4,0,30.21,NA,6.21,NA,NA,NA,NA,NA,NA,NA,NA,NA,NA,NA,NA,NA,NA,NA,NA,35.83,"LFCK 062100Z AUTO 11004KT CAVOK 04/03 Q1023 TEMPO 0800 BCFG"
"859","LFCK",2019-12-06 21:30:00,2.2892,43.5562,41,37.4,86.89,90,3,0,30.21,NA,4.97,NA,"NSC",NA,NA,NA,NA,NA,NA,NA,NA,NA,NA,NA,NA,NA,NA,38.98,"LFCK 062130Z AUTO 09003KT 8000 NSC 05/03 Q1023 TEMPO 0800 BCFG"
"860","LFCK",2019-12-06 22:00:00,2.2892,43.5562,42.8,37.4,81.07,120,2,0,30.21,NA,6.21,NA,NA,NA,NA,NA,NA,NA,NA,NA,NA,NA,NA,NA,NA,NA,NA,NA,"LFCK 062200Z AUTO 12002KT CAVOK 06/03 Q1023 TEMPO 0800 BCFG"
"861","LFCK",2019-12-06 22:30:00,2.2892,43.5562,41,37.4,86.89,110,2,0,30.24,NA,6.21,NA,NA,NA,NA,NA,NA,NA,NA,NA,NA,NA,NA,NA,NA,NA,NA,NA,"LFCK 062230Z AUTO 11002KT CAVOK 05/03 Q1024"
"862","LFCK",2019-12-06 23:00:00,2.2892,43.5562,39.2,37.4,93.19,0,0,0,30.24,NA,4.97,NA,"NSC",NA,NA,NA,NA,NA,NA,NA,NA,NA,NA,NA,NA,NA,NA,NA,"LFCK 062300Z AUTO 00000KT 8000 NSC 04/03 Q1024"
"863","LFCK",2019-12-06 23:30:00,2.2892,43.5562,37.4,33.8,86.69,140,3,0,30.24,NA,6.21,NA,NA,NA,NA,NA,NA,NA,NA,NA,NA,NA,NA,NA,NA,NA,NA,34.86,"LFCK 062330Z AUTO 14003KT CAVOK 03/01 Q1024"
"864","LFMV",2019-12-06 00:00:00,4.9018,43.9073,35.6,33.8,93.08,180,2,0,30.24,NA,3.11,NA,"NSC",NA,NA,NA,NA,NA,NA,NA,"BR",NA,NA,NA,NA,NA,NA,NA,"LFMV 060000Z AUTO 18002KT 5000 BR NSC 02/01 Q1024"
"865","LFMV",2019-12-06 00:30:00,4.9018,43.9073,35.6,35.6,100,20,1,0,30.24,NA,2.55,NA,"NSC",NA,NA,NA,NA,NA,NA,NA,"BR",NA,NA,NA,NA,NA,NA,NA,"LFMV 060030Z AUTO 02001KT 4100 BR NSC 02/02 Q1024"
"866","LFMV",2019-12-06 01:00:00,4.9018,43.9073,35.6,35.6,100,90,1,0,30.21,NA,2.42,NA,"NSC",NA,NA,NA,NA,NA,NA,NA,"BR",NA,NA,NA,NA,NA,NA,NA,"LFMV 060100Z AUTO 09001KT 3900 BR NSC 02/02 Q1023"
"867","LFMV",2019-12-06 01:30:00,4.9018,43.9073,37.4,35.6,93.14,310,2,0,30.24,NA,2.55,NA,"NSC",NA,NA,NA,NA,NA,NA,NA,"BR",NA,NA,NA,NA,NA,NA,NA,"LFMV 060130Z AUTO 31002KT 4100 BR NSC 03/02 Q1024"
"868","LFMV",2019-12-06 02:00:00,4.9018,43.9073,37.4,35.6,93.14,340,3,0,30.24,NA,2.55,NA,"NSC",NA,NA,NA,NA,NA,NA,NA,"BR",NA,NA,NA,NA,NA,NA,34.86,"LFMV 060200Z AUTO 34003KT 4100 BR NSC 03/02 Q1024"
"869","LFMV",2019-12-06 02:30:00,4.9018,43.9073,37.4,35.6,93.14,350,1,0,30.21,NA,2.36,NA,"NSC",NA,NA,NA,NA,NA,NA,NA,"BR",NA,NA,NA,NA,NA,NA,NA,"LFMV 060230Z AUTO 35001KT 3800 BR NSC 03/02 Q1023 TEMPO 0600 FG VV///"
"870","LFMV",2019-12-06 03:00:00,4.9018,43.9073,37.4,35.6,93.14,10,1,0,30.21,NA,2.61,NA,"NSC",NA,NA,NA,NA,NA,NA,NA,"BR",NA,NA,NA,NA,NA,NA,NA,"LFMV 060300Z AUTO 01001KT 4200 BR NSC 03/02 Q1023 TEMPO 0600 FG VV///"
"871","LFMV",2019-12-06 03:30:00,4.9018,43.9073,37.4,35.6,93.14,340,3,0,30.21,NA,2.86,NA,"NSC",NA,NA,NA,NA,NA,NA,NA,"BR",NA,NA,NA,NA,NA,NA,34.86,"LFMV 060330Z AUTO 34003KT 4600 BR NSC 03/02 Q1023 TEMPO 0600 FG VV///"
"872","LFMV",2019-12-06 04:00:00,4.9018,43.9073,37.4,35.6,93.14,360,3,0,30.21,NA,3.11,NA,"NSC",NA,NA,NA,NA,NA,NA,NA,"BR",NA,NA,NA,NA,NA,NA,34.86,"LFMV 060400Z AUTO 36003KT 5000 BR NSC 03/02 Q1023 TEMPO 0600 FG VV///"
"873","LFMV",2019-12-06 04:30:00,4.9018,43.9073,35.6,35.6,100,20,3,0,30.21,NA,2.8,NA,"NSC",NA,NA,NA,NA,NA,NA,NA,"BR",NA,NA,NA,NA,NA,NA,32.8,"LFMV 060430Z AUTO 02003KT 4500 BR NSC 02/02 Q1023 TEMPO 2000 BR VV///"
"874","LFMV",2019-12-06 05:00:00,4.9018,43.9073,35.6,33.8,93.08,NA,1,0,30.21,NA,2.36,NA,"NSC",NA,NA,NA,NA,NA,NA,NA,"BR",NA,NA,NA,NA,NA,NA,NA,"LFMV 060500Z AUTO VRB01KT 3800 BR NSC 02/01 Q1023 TEMPO 2000 BR VV///"
"875","LFMV",2019-12-06 05:30:00,4.9018,43.9073,32,32,100,0,0,0,30.21,NA,1.37,NA,"NSC",NA,NA,NA,NA,NA,NA,NA,"BR",NA,NA,NA,NA,NA,NA,NA,"LFMV 060530Z AUTO 00000KT 2200 BR NSC 00/M00 Q1023 BECMG 9999 NSW"
"876","LFMV",2019-12-06 06:00:00,4.9018,43.9073,32,32,100,NA,1,0,30.24,NA,2.42,NA,"NSC",NA,NA,NA,NA,NA,NA,NA,"BR",NA,NA,NA,NA,NA,NA,NA,"LFMV 060600Z AUTO VRB01KT 3900 BR NSC 00/M00 Q1024 BECMG 9999 NSW"
"877","LFMV",2019-12-06 06:30:00,4.9018,43.9073,32,32,100,0,0,0,30.24,NA,1.62,NA,"NSC",NA,NA,NA,NA,NA,NA,NA,"BR",NA,NA,NA,NA,NA,NA,NA,"LFMV 060630Z AUTO 00000KT 2600 1200 R17/2800U BR NSC 00/00 Q1024 BECMG 9999 NSW"
"878","LFMV",2019-12-06 07:00:00,4.9018,43.9073,32,30.2,92.97,90,2,0,30.24,NA,1.43,NA,"NSC",NA,NA,NA,NA,NA,NA,NA,"BR",NA,NA,NA,NA,NA,NA,NA,"LFMV 060700Z AUTO 09002KT 2300 BR NSC M00/M01 Q1024 BECMG 9999 NSW"
"879","LFMV",2019-12-06 07:30:00,4.9018,43.9073,30.2,30.2,100,0,0,0,30.24,NA,2.67,NA,"NSC",NA,NA,NA,NA,NA,NA,NA,"BR",NA,NA,NA,NA,NA,NA,NA,"LFMV 060730Z AUTO 00000KT 4300 BR NSC M01/M01 Q1024 BECMG 9999 NSW"
"880","LFMV",2019-12-06 08:00:00,4.9018,43.9073,33.8,32,93.03,NA,2,0,30.24,NA,2.11,NA,"NSC",NA,NA,NA,NA,NA,NA,NA,"BR",NA,NA,NA,NA,NA,NA,NA,"LFMV 060800Z AUTO VRB02KT 3400 BR NSC 01/00 Q1024 BECMG 9999 NSW"
"881","LFMV",2019-12-06 08:30:00,4.9018,43.9073,37.4,37.4,100,NA,3,0,30.24,NA,3.73,NA,"NSC",NA,NA,NA,NA,NA,NA,NA,NA,NA,NA,NA,NA,NA,NA,34.86,"LFMV 060830Z AUTO VRB03KT 6000 NSC 03/03 Q1024 NOSIG"
"882","LFMV",2019-12-06 09:00:00,4.9018,43.9073,39.2,37.4,93.19,350,3,0,30.24,NA,4.35,NA,"NSC",NA,NA,NA,NA,NA,NA,NA,NA,NA,NA,NA,NA,NA,NA,36.92,"LFMV 060900Z AUTO 35003KT 7000 NSC 04/03 Q1024 NOSIG"
"883","LFMV",2019-12-06 09:30:00,4.9018,43.9073,42.8,37.4,81.07,NA,3,0,30.27,NA,6.21,NA,NA,NA,NA,NA,NA,NA,NA,NA,NA,NA,NA,NA,NA,NA,NA,41.03,"LFMV 060930Z AUTO VRB03KT CAVOK 06/03 Q1025 NOSIG"
"884","LFMV",2019-12-06 10:00:00,4.9018,43.9073,44.6,37.4,75.68,NA,3,0,30.24,NA,6.21,NA,NA,NA,NA,NA,NA,NA,NA,NA,NA,NA,NA,NA,NA,NA,NA,43.09,"LFMV 061000Z AUTO VRB03KT CAVOK 07/03 Q1024 NOSIG"
"885","LFMV",2019-12-06 10:30:00,4.9018,43.9073,46.4,39.2,75.84,NA,2,0,30.24,NA,6.21,NA,NA,NA,NA,NA,NA,NA,NA,NA,NA,NA,NA,NA,NA,NA,NA,NA,"LFMV 061030Z AUTO VRB02KT CAVOK 08/04 Q1024 NOSIG"
"886","LFMV",2019-12-06 11:00:00,4.9018,43.9073,48.2,39.2,70.88,340,4,0,30.24,NA,6.21,NA,NA,NA,NA,NA,NA,NA,NA,NA,NA,NA,NA,NA,NA,NA,NA,46.34,"LFMV 061100Z AUTO 34004KT 290V020 CAVOK 09/04 Q1024 NOSIG"
"887","LFMV",2019-12-06 11:30:00,4.9018,43.9073,50,39.2,66.27,350,5,0,30.21,NA,6.21,NA,NA,NA,NA,NA,NA,NA,NA,NA,NA,NA,NA,NA,NA,NA,NA,47.77,"LFMV 061130Z AUTO 35005KT 320V020 CAVOK 10/04 Q1023 NOSIG"
"888","LFMV",2019-12-06 12:00:00,4.9018,43.9073,51.8,41,66.48,340,5,0,30.21,NA,6.21,NA,NA,NA,NA,NA,NA,NA,NA,NA,NA,NA,NA,NA,NA,NA,NA,NA,"LFMV 061200Z AUTO 34005KT CAVOK 11/05 Q1023 NOSIG"
"889","LFMV",2019-12-06 12:30:00,4.9018,43.9073,51.8,41,66.48,320,5,0,30.18,NA,6.21,NA,NA,NA,NA,NA,NA,NA,NA,NA,NA,NA,NA,NA,NA,NA,NA,NA,"LFMV 061230Z AUTO 32005KT CAVOK 11/05 Q1022 NOSIG"
"890","LFMV",2019-12-06 13:00:00,4.9018,43.9073,53.6,41,62.23,310,3,0,30.18,NA,6.21,NA,NA,NA,NA,NA,NA,NA,NA,NA,NA,NA,NA,NA,NA,NA,NA,NA,"LFMV 061300Z AUTO 31003KT 270V350 CAVOK 12/05 Q1022 NOSIG"
"891","LFMV",2019-12-06 13:30:00,4.9018,43.9073,55.4,41,58.27,320,3,0,30.18,NA,6.21,NA,NA,NA,NA,NA,NA,NA,NA,NA,NA,NA,NA,NA,NA,NA,NA,NA,"LFMV 061330Z AUTO 32003KT 290V360 CAVOK 13/05 Q1022 NOSIG"
"892","LFMV",2019-12-06 14:00:00,4.9018,43.9073,55.4,39.2,54.34,320,3,0,30.18,NA,6.21,NA,NA,NA,NA,NA,NA,NA,NA,NA,NA,NA,NA,NA,NA,NA,NA,NA,"LFMV 061400Z AUTO 32003KT CAVOK 13/04 Q1022 NOSIG"
"893","LFMV",2019-12-06 14:30:00,4.9018,43.9073,57.2,41,54.6,0,0,0,30.15,NA,6.21,NA,NA,NA,NA,NA,NA,NA,NA,NA,NA,NA,NA,NA,NA,NA,NA,NA,"LFMV 061430Z AUTO 00000KT CAVOK 14/05 Q1021 NOSIG"
"894","LFMV",2019-12-06 15:00:00,4.9018,43.9073,55.4,41,58.27,300,2,0,30.15,NA,6.21,NA,NA,NA,NA,NA,NA,NA,NA,NA,NA,NA,NA,NA,NA,NA,NA,NA,"LFMV 061500Z AUTO 30002KT CAVOK 13/05 Q1021 NOSIG"
"895","LFMV",2019-12-06 15:30:00,4.9018,43.9073,53.6,42.8,66.7,320,2,0,30.15,NA,6.21,NA,NA,NA,NA,NA,NA,NA,NA,NA,NA,NA,NA,NA,NA,NA,NA,NA,"LFMV 061530Z AUTO 32002KT CAVOK 12/06 Q1021 NOSIG"
"896","LFMV",2019-12-06 16:00:00,4.9018,43.9073,50,39.2,66.27,0,0,0,30.15,NA,6.21,NA,NA,NA,NA,NA,NA,NA,NA,NA,NA,NA,NA,NA,NA,NA,NA,NA,"LFMV 061600Z AUTO 00000KT CAVOK 10/04 Q1021 NOSIG"
"897","LFMV",2019-12-06 16:30:00,4.9018,43.9073,44.6,39.2,81.2,90,3,0,30.15,NA,6.21,NA,NA,NA,NA,NA,NA,NA,NA,NA,NA,NA,NA,NA,NA,NA,NA,43.09,"LFMV 061630Z AUTO 09003KT CAVOK 07/04 Q1021 NOSIG"
"898","LFMV",2019-12-06 17:00:00,4.9018,43.9073,41,37.4,86.89,NA,2,0,30.15,NA,6.21,NA,NA,NA,NA,NA,NA,NA,NA,NA,NA,NA,NA,NA,NA,NA,NA,NA,"LFMV 061700Z AUTO VRB02KT CAVOK 05/03 Q1021 NOSIG"
"899","LFMV",2019-12-06 17:30:00,4.9018,43.9073,41,37.4,86.89,110,3,0,30.15,NA,6.21,NA,NA,NA,NA,NA,NA,NA,NA,NA,NA,NA,NA,NA,NA,NA,NA,38.98,"LFMV 061730Z AUTO 11003KT CAVOK 05/03 Q1021 NOSIG"
"900","LFMV",2019-12-06 18:00:00,4.9018,43.9073,37.4,35.6,93.14,110,2,0,30.15,NA,6.21,NA,NA,NA,NA,NA,NA,NA,NA,NA,NA,NA,NA,NA,NA,NA,NA,NA,"LFMV 061800Z AUTO 11002KT CAVOK 03/02 Q1021 NOSIG"
"901","LFMV",2019-12-06 18:30:00,4.9018,43.9073,37.4,35.6,93.14,10,2,0,30.15,NA,6.21,NA,NA,NA,NA,NA,NA,NA,NA,NA,NA,NA,NA,NA,NA,NA,NA,NA,"LFMV 061830Z AUTO 01002KT CAVOK 03/02 Q1021 NOSIG"
"902","LFMV",2019-12-06 19:00:00,4.9018,43.9073,35.6,33.8,93.08,70,2,0,30.18,NA,4.97,NA,"NSC",NA,NA,NA,NA,NA,NA,NA,NA,NA,NA,NA,NA,NA,NA,NA,"LFMV 061900Z AUTO 07002KT 8000 NSC 02/01 Q1022 NOSIG"
"903","LFMV",2019-12-06 19:30:00,4.9018,43.9073,35.6,33.8,93.08,120,2,0,30.18,NA,4.35,NA,"NSC",NA,NA,NA,NA,NA,NA,NA,NA,NA,NA,NA,NA,NA,NA,NA,"LFMV 061930Z AUTO 12002KT 7000 NSC 02/01 Q1022 NOSIG"
"904","LFMV",2019-12-06 20:00:00,4.9018,43.9073,35.6,33.8,93.08,0,0,0,30.18,NA,4.35,NA,"NSC",NA,NA,NA,NA,NA,NA,NA,NA,NA,NA,NA,NA,NA,NA,NA,"LFMV 062000Z AUTO 00000KT 7000 NSC 02/01 Q1022 NOSIG"
"905","LFMV",2019-12-06 20:30:00,4.9018,43.9073,35.6,33.8,93.08,NA,2,0,30.18,NA,3.73,NA,"NSC",NA,NA,NA,NA,NA,NA,NA,NA,NA,NA,NA,NA,NA,NA,NA,"LFMV 062030Z AUTO VRB02KT 6000 NSC 02/01 Q1022"
"906","LFMV",2019-12-06 21:00:00,4.9018,43.9073,33.8,32,93.03,0,0,0,30.18,NA,3.73,NA,"NSC",NA,NA,NA,NA,NA,NA,NA,NA,NA,NA,NA,NA,NA,NA,NA,"LFMV 062100Z AUTO 00000KT 6000 NSC 01/M00 Q1022"
"907","LFMV",2019-12-06 21:30:00,4.9018,43.9073,33.8,33.8,100,NA,1,0,30.18,NA,3.73,NA,"NSC",NA,NA,NA,NA,NA,NA,NA,NA,NA,NA,NA,NA,NA,NA,NA,"LFMV 062130Z AUTO VRB01KT 6000 NSC 01/01 Q1022"
"908","LFMV",2019-12-06 22:00:00,4.9018,43.9073,33.8,32,93.03,NA,1,0,30.18,NA,3.73,NA,"NSC",NA,NA,NA,NA,NA,NA,NA,NA,NA,NA,NA,NA,NA,NA,NA,"LFMV 062200Z AUTO VRB01KT 6000 NSC 01/00 Q1022"
"909","LFMV",2019-12-06 22:30:00,4.9018,43.9073,35.6,35.6,100,NA,2,0,30.18,NA,5.59,NA,"NSC",NA,NA,NA,NA,NA,NA,NA,NA,NA,NA,NA,NA,NA,NA,NA,"LFMV 062230Z AUTO VRB02KT 9000 NSC 02/02 Q1022"
"910","LFMV",2019-12-06 23:00:00,4.9018,43.9073,33.8,32,93.03,320,4,0,30.18,NA,4.35,NA,"NSC",NA,NA,NA,NA,NA,NA,NA,NA,NA,NA,NA,NA,NA,NA,29.52,"LFMV 062300Z AUTO 32004KT 290V350 7000 NSC 01/00 Q1022"
"911","LFMV",2019-12-06 23:30:00,4.9018,43.9073,33.8,33.8,100,360,4,0,30.18,NA,2.11,NA,"NSC",NA,NA,NA,NA,NA,NA,NA,"BR",NA,NA,NA,NA,NA,NA,29.52,"LFMV 062330Z AUTO 36004KT 320V030 3400 BR NSC 01/01 Q1022"
"912","LFBC",2019-12-06 00:00:00,-1.125,44.5333,39.2,39.2,100,30,2,0,30.24,NA,0.31,NA,"VV ",NA,NA,NA,NA,NA,NA,NA,"FG",NA,NA,NA,NA,NA,NA,NA,"LFBC 060000Z AUTO 03002KT 0500 0400 R24/0450U FG VV/// 04/04 Q1024"
"913","LFBC",2019-12-06 00:30:00,-1.125,44.5333,37.4,35.6,93.14,90,2,0,30.24,NA,0.5,NA,"VV ",NA,NA,NA,NA,NA,NA,NA,"FG",NA,NA,NA,NA,NA,NA,NA,"LFBC 060030Z AUTO 09002KT 0800 R24/0900U FG VV/// 03/02 Q1024"
"914","LFBC",2019-12-06 01:00:00,-1.125,44.5333,35.6,35.6,100,90,2,0,30.24,NA,0.47,NA,"VV ",NA,NA,NA,NA,NA,NA,NA,"FG",NA,NA,NA,NA,NA,NA,NA,"LFBC 060100Z AUTO 09002KT 0750 R24/0800D FG VV/// 02/02 Q1024"
"915","LFBC",2019-12-06 01:30:00,-1.125,44.5333,35.6,35.6,100,NA,1,0,30.24,NA,0.4,NA,"VV ",NA,NA,NA,NA,NA,NA,NA,"FG",NA,NA,NA,NA,NA,NA,NA,"LFBC 060130Z AUTO VRB01KT 0650 0550 R24/0650N FG VV/// 02/02 Q1024"
"916","LFBC",2019-12-06 02:00:00,-1.125,44.5333,37.4,37.4,100,0,0,0,30.24,NA,0.47,NA,"VV ",NA,NA,NA,NA,NA,NA,NA,"FG",NA,NA,NA,NA,NA,NA,NA,"LFBC 060200Z AUTO 00000KT 0750 0650 R24/1100U FG VV/// 03/03 Q1024"
"917","LFBC",2019-12-06 02:30:00,-1.125,44.5333,35.6,35.6,100,130,3,0,30.24,NA,0.47,NA,"VV ",NA,NA,NA,NA,NA,NA,NA,"FG",NA,NA,NA,NA,NA,NA,32.8,"LFBC 060230Z AUTO 13003KT 0750 0700 R24/1000D FG VV/// 02/02 Q1024"
"918","LFBC",2019-12-06 03:00:00,-1.125,44.5333,33.8,33.8,100,240,2,0,30.24,NA,0.99,NA,"OVC",NA,NA,NA,300,NA,NA,NA,"BR",NA,NA,NA,NA,NA,NA,NA,"LFBC 060300Z AUTO 24002KT 1600 BR OVC003 01/01 Q1024"
"919","LFBC",2019-12-06 03:30:00,-1.125,44.5333,35.6,35.6,100,0,0,0,30.24,NA,3.73,NA,"OVC",NA,NA,NA,200,NA,NA,NA,NA,NA,NA,NA,NA,NA,NA,NA,"LFBC 060330Z AUTO 00000KT 6000 1400 R24/1500D OVC002 02/02 Q1024"
"920","LFBC",2019-12-06 04:00:00,-1.125,44.5333,37.4,37.4,100,140,2,0,30.24,NA,1.99,NA,"VV ",NA,NA,NA,NA,NA,NA,NA,"BCFG",NA,NA,NA,NA,NA,NA,NA,"LFBC 060400Z AUTO 14002KT 3200 0650 R24/0750N BCFG VV/// 03/03 Q1024"
"921","LFBC",2019-12-06 04:30:00,-1.125,44.5333,37.4,37.4,100,0,0,0,30.21,NA,0.34,NA,"VV ",NA,NA,NA,NA,NA,NA,NA,"FG",NA,NA,NA,NA,NA,NA,NA,"LFBC 060430Z AUTO 00000KT 0550 R24/0650N FG VV/// 03/03 Q1023"
"922","LFBC",2019-12-06 05:00:00,-1.125,44.5333,37.4,37.4,100,130,3,0,30.24,NA,0.31,NA,NA,NA,NA,NA,NA,NA,NA,NA,"FG",NA,NA,NA,NA,NA,NA,34.86,"LFBC 060500Z AUTO 13003KT 0500 0400 R24/0450N FG ////// 03/03 Q1024"
"923","LFBC",2019-12-06 05:30:00,-1.125,44.5333,37.4,37.4,100,150,3,0,30.24,NA,0.5,NA,NA,NA,NA,NA,NA,NA,NA,NA,"FG",NA,NA,NA,NA,NA,NA,34.86,"LFBC 060530Z AUTO 15003KT 0800 0600 R24/0700N FG ////// 03/03 Q1024"
"924","LFBC",2019-12-06 06:00:00,-1.125,44.5333,37.4,37.4,100,130,4,0,30.24,NA,0.43,NA,NA,NA,NA,NA,NA,NA,NA,NA,"FG",NA,NA,NA,NA,NA,NA,33.73,"LFBC 060600Z AUTO 13004KT 0700 0600 R24/0700N FG ////// 03/03 Q1024"
"925","LFBC",2019-12-06 06:30:00,-1.125,44.5333,37.4,37.4,100,110,3,0,30.24,NA,0.56,NA,"VV ",NA,NA,NA,NA,NA,NA,NA,"FG",NA,NA,NA,NA,NA,NA,34.86,"LFBC 060630Z AUTO 11003KT 0900 0750 R24/0900D FG VV/// 03/03 Q1024 TEMPO 0300 BECMG OVC001"
"926","LFBC",2019-12-06 07:00:00,-1.125,44.5333,37.4,37.4,100,110,3,0,30.24,NA,1.55,NA,"BKN","OVC",NA,NA,300,1200,NA,NA,"BR",NA,NA,NA,NA,NA,NA,34.86,"LFBC 060700Z AUTO 11003KT 090V150 2500 R24/1200U BR BKN003 OVC012 03/03 Q1024 TEMPO VV/// BECMG 0900 FG"
"927","LFBC",2019-12-06 07:30:00,-1.125,44.5333,37.4,37.4,100,0,0,0,30.21,NA,4.97,NA,"BKN","OVC",NA,NA,200,1100,NA,NA,NA,NA,NA,NA,NA,NA,NA,NA,"LFBC 060730Z AUTO 00000KT 8000 BKN002 OVC011 03/03 Q1023 BECMG 0900 FG"
"928","LFBC",2019-12-06 08:00:00,-1.125,44.5333,39.2,39.2,100,NA,2,0,30.21,NA,5.59,NA,"FEW","OVC",NA,NA,200,1000,NA,NA,NA,NA,NA,NA,NA,NA,NA,NA,"LFBC 060800Z AUTO VRB02KT 9000 FEW002 OVC010 04/04 Q1023"
"929","LFBC",2019-12-06 08:30:00,-1.125,44.5333,41,41,100,140,4,0,30.24,NA,4.35,NA,"OVC",NA,NA,NA,900,NA,NA,NA,NA,NA,NA,NA,NA,NA,NA,37.93,"LFBC 060830Z AUTO 14004KT 7000 OVC009 05/05 Q1024 TEMPO 1000 BR BECMG BKN004"
"930","LFBC",2019-12-06 09:00:00,-1.125,44.5333,41,41,100,140,4,0,30.24,NA,3.73,NA,"OVC",NA,NA,NA,900,NA,NA,NA,NA,NA,NA,NA,NA,NA,NA,37.93,"LFBC 060900Z AUTO 14004KT 6000 OVC009 05/05 Q1024 TEMPO 1000 BR BECMG BKN004"
"931","LFBC",2019-12-06 09:30:00,-1.125,44.5333,41,41,100,NA,1,0,30.24,NA,4.35,NA,"BKN","OVC",NA,NA,400,1000,NA,NA,NA,NA,NA,NA,NA,NA,NA,NA,"LFBC 060930Z AUTO VRB01KT 7000 BKN004 OVC010 05/05 Q1024 NOSIG"
"932","LFBC",2019-12-06 10:00:00,-1.125,44.5333,42.8,42.8,100,0,0,0,30.24,NA,3.73,NA,"OVC",NA,NA,NA,400,NA,NA,NA,NA,NA,NA,NA,NA,NA,NA,NA,"LFBC 061000Z AUTO 00000KT 6000 OVC004 06/06 Q1024 NOSIG"
"933","LFBC",2019-12-06 10:30:00,-1.125,44.5333,42.8,42.8,100,NA,2,0,30.24,NA,4.35,NA,"OVC",NA,NA,NA,400,NA,NA,NA,NA,NA,NA,NA,NA,NA,NA,NA,"LFBC 061030Z AUTO VRB02KT 7000 OVC004 06/06 Q1024 BECMG SCT005"
"934","LFBC",2019-12-06 11:00:00,-1.125,44.5333,44.6,44.6,100,NA,2,0,30.24,NA,2.3,NA,"OVC",NA,NA,NA,300,NA,NA,NA,"BR",NA,NA,NA,NA,NA,NA,NA,"LFBC 061100Z AUTO VRB02KT 3700 BR OVC003 07/07 Q1024 BECMG 6000 NSW SCT005"
"935","LFBC",2019-12-06 11:30:00,-1.125,44.5333,44.6,44.6,100,130,5,0,30.21,NA,4.35,NA,"OVC",NA,NA,NA,300,NA,NA,NA,NA,NA,NA,NA,NA,NA,NA,41.36,"LFBC 061130Z AUTO 13005KT 090V170 7000 OVC003 07/07 Q1023 BECMG SCT005 BKN010"
"936","LFBC",2019-12-06 12:00:00,-1.125,44.5333,46.4,44.6,93.4,NA,2,0,30.21,NA,6.21,NA,"OVC",NA,NA,NA,300,NA,NA,NA,NA,NA,NA,NA,NA,NA,NA,NA,"LFBC 061200Z AUTO VRB02KT 9999 OVC003 08/07 Q1023 BECMG SCT005 BKN010"
"937","LFBC",2019-12-06 12:30:00,-1.125,44.5333,46.4,44.6,93.4,NA,1,0,30.18,NA,6.21,NA,"OVC",NA,NA,NA,500,NA,NA,NA,NA,NA,NA,NA,NA,NA,NA,NA,"LFBC 061230Z AUTO VRB01KT 9999 OVC005 08/07 Q1022 BECMG SCT005 BKN010"
"938","LFBC",2019-12-06 13:00:00,-1.125,44.5333,48.2,46.4,93.45,150,5,0,30.18,NA,6.21,NA,"OVC",NA,NA,NA,500,NA,NA,NA,NA,NA,NA,NA,NA,NA,NA,45.63,"LFBC 061300Z AUTO 15005KT 110V180 9999 OVC005 09/08 Q1022 BECMG SCT005 BKN010"
"939","LFBC",2019-12-06 13:30:00,-1.125,44.5333,48.2,44.6,87.28,NA,3,0,30.18,NA,6.21,NA,"BKN",NA,NA,NA,700,NA,NA,NA,NA,NA,NA,NA,NA,NA,NA,47.21,"LFBC 061330Z AUTO VRB03KT 9999 BKN007 09/07 Q1022 BECMG SCT005 BKN010"
"940","LFBC",2019-12-06 14:00:00,-1.125,44.5333,48.2,46.4,93.45,170,4,0,30.15,NA,6.21,NA,"BKN","BKN","BKN",NA,700,18000,21000,NA,NA,NA,NA,NA,NA,NA,NA,46.34,"LFBC 061400Z AUTO 17004KT 9999 BKN007 BKN180 BKN210 09/08 Q1021 BECMG SCT005 BKN010"
"941","LFBC",2019-12-06 14:30:00,-1.125,44.5333,48.2,46.4,93.45,140,6,0,30.15,NA,6.21,NA,"SCT","BKN",NA,NA,700,17000,NA,NA,NA,NA,NA,NA,NA,NA,NA,45.04,"LFBC 061430Z AUTO 14006KT 9999 SCT007 BKN170 09/08 Q1021 BECMG SCT005 BKN010"
"942","LFBC",2019-12-06 15:00:00,-1.125,44.5333,48.2,46.4,93.45,140,4,0,30.15,NA,6.21,NA,"BKN","OVC",NA,NA,600,15000,NA,NA,NA,NA,NA,NA,NA,NA,NA,46.34,"LFBC 061500Z AUTO 14004KT 110V170 9999 BKN006 OVC150 09/08 Q1021 BECMG SCT007 BKN180"
"943","LFBC",2019-12-06 15:30:00,-1.125,44.5333,48.2,46.4,93.45,NA,2,0,30.15,NA,6.21,NA,"BKN","OVC",NA,NA,600,15000,NA,NA,NA,NA,NA,NA,NA,NA,NA,NA,"LFBC 061530Z AUTO VRB02KT 9999 BKN006 OVC150 09/08 Q1021"
"944","LFBC",2019-12-06 16:00:00,-1.125,44.5333,48.2,46.4,93.45,120,4,0,30.15,NA,6.21,NA,"OVC",NA,NA,NA,500,NA,NA,NA,NA,NA,NA,NA,NA,NA,NA,46.34,"LFBC 061600Z AUTO 12004KT 9999 OVC005 09/08 Q1021"
"945","LFBC",2019-12-06 16:30:00,-1.125,44.5333,44.6,44.6,100,140,3,0,30.15,NA,5.59,NA,"FEW","OVC",NA,NA,400,14000,NA,NA,"-RA",NA,NA,NA,NA,NA,NA,43.09,"LFBC 061630Z AUTO 14003KT 9000 -RA FEW004 OVC140 07/07 Q1021"
"946","LFBC",2019-12-06 17:00:00,-1.125,44.5333,44.6,44.6,100,130,2,0,30.15,NA,3.73,NA,"NSC",NA,NA,NA,NA,NA,NA,NA,NA,NA,NA,NA,NA,NA,NA,NA,"LFBC 061700Z AUTO 13002KT 6000 NSC 07/07 Q1021"
"947","LFBC",2019-12-06 17:30:00,-1.125,44.5333,44.6,44.6,100,150,3,0,30.15,NA,3.73,NA,"NSC",NA,NA,NA,NA,NA,NA,NA,NA,NA,NA,NA,NA,NA,NA,43.09,"LFBC 061730Z AUTO 15003KT 6000 NSC 07/07 Q1021"
"948","LFBC",2019-12-06 18:00:00,-1.125,44.5333,44.6,44.6,100,310,2,0,30.15,NA,4.97,NA,"NSC",NA,NA,NA,NA,NA,NA,NA,NA,NA,NA,NA,NA,NA,NA,NA,"LFBC 061800Z AUTO 31002KT 8000 NSC 07/07 Q1021"
"949","LFBC",2019-12-06 18:30:00,-1.125,44.5333,44.6,44.6,100,0,0,0,30.15,NA,4.97,NA,"NSC",NA,NA,NA,NA,NA,NA,NA,NA,NA,NA,NA,NA,NA,NA,NA,"LFBC 061830Z AUTO 00000KT 8000 NSC 07/07 Q1021"
"950","LFBC",2019-12-06 19:00:00,-1.125,44.5333,42.8,42.8,100,0,0,0,30.15,NA,1.24,NA,"NSC",NA,NA,NA,NA,NA,NA,NA,"BCFG",NA,NA,NA,NA,NA,NA,NA,"LFBC 061900Z AUTO 00000KT 2000 0700 R24/1100D BCFG NSC 06/06 Q1021"
"951","LFBC",2019-12-06 19:30:00,-1.125,44.5333,42.8,42.8,100,0,0,0,30.18,NA,3.11,NA,"FEW","OVC",NA,NA,300,10000,NA,NA,"BR",NA,NA,NA,NA,NA,NA,NA,"LFBC 061930Z AUTO 00000KT 5000 BR FEW003 OVC100 06/06 Q1022"
"952","LFBC",2019-12-06 20:00:00,-1.125,44.5333,44.6,44.6,100,10,3,0,30.18,NA,3.73,NA,"SCT","BKN",NA,NA,1500,10000,NA,NA,NA,NA,NA,NA,NA,NA,NA,43.09,"LFBC 062000Z AUTO 01003KT 6000 SCT015 BKN100 07/07 Q1022"
"953","LFBC",2019-12-06 20:30:00,-1.125,44.5333,42.8,42.8,100,150,1,0,30.18,NA,4.35,NA,"NSC",NA,NA,NA,NA,NA,NA,NA,NA,NA,NA,NA,NA,NA,NA,NA,"LFBC 062030Z AUTO 15001KT 7000 NSC 06/06 Q1022"
"954","LFBC",2019-12-06 21:00:00,-1.125,44.5333,42.8,42.8,100,160,3,0,30.18,NA,4.35,NA,"FEW","OVC",NA,NA,1600,10000,NA,NA,NA,NA,NA,NA,NA,NA,NA,41.03,"LFBC 062100Z AUTO 16003KT 7000 FEW016 OVC100 06/06 Q1022"
"955","LFBC",2019-12-06 21:30:00,-1.125,44.5333,44.6,44.6,100,180,4,0,30.18,NA,4.35,NA,"NSC",NA,NA,NA,NA,NA,NA,NA,NA,NA,NA,NA,NA,NA,NA,42.13,"LFBC 062130Z AUTO 18004KT 7000 NSC 07/07 Q1022"
"956","LFBC",2019-12-06 22:00:00,-1.125,44.5333,44.6,44.6,100,190,6,0,30.18,NA,3.73,NA,"NSC",NA,NA,NA,NA,NA,NA,NA,NA,NA,NA,NA,NA,NA,NA,40.71,"LFBC 062200Z AUTO 19006KT 6000 NSC 07/07 Q1022"
"957","LFBC",2019-12-06 22:30:00,-1.125,44.5333,44.6,42.8,93.35,200,7,0,30.18,NA,3.04,NA,"NSC",NA,NA,NA,NA,NA,NA,NA,"BR",NA,NA,NA,NA,NA,NA,40.14,"LFBC 062230Z AUTO 20007KT 4900 BR NSC 07/06 Q1022"
"958","LFBC",2019-12-06 23:00:00,-1.125,44.5333,44.6,44.6,100,180,5,0,30.18,NA,1.8,NA,"FEW",NA,NA,NA,1700,NA,NA,NA,"BCFG",NA,NA,NA,NA,NA,NA,41.36,"LFBC 062300Z AUTO 18005KT 2900 0700 R24/0900D BCFG FEW017 07/07 Q1022"
"959","LFBC",2019-12-06 23:30:00,-1.125,44.5333,44.6,44.6,100,190,3,0,30.18,NA,1.43,NA,"NSC",NA,NA,NA,NA,NA,NA,NA,"BCFG",NA,NA,NA,NA,NA,NA,43.09,"LFBC 062330Z AUTO 19003KT 2300 0800 R24/1000U BCFG NSC 07/07 Q1022"
"960","LFOK",2019-12-06 00:00:00,4.1908,48.7805,32,32,100,200,9,0,30.18,NA,1.12,NA,"VV ",NA,NA,NA,NA,NA,NA,NA,"BR",NA,NA,NA,NA,NA,NA,23.51,"LFOK 060000Z AUTO 20009KT 1800 1400 R10/2000D R28/2700D BR VV/// M00/M00 Q1022 TEMPO 0300 FZFG"
"961","LFOK",2019-12-06 00:30:00,4.1908,48.7805,32,32,100,200,10,0,30.15,NA,0.56,NA,"VV ",NA,NA,NA,NA,NA,NA,NA,"FZFG",NA,NA,NA,NA,NA,NA,22.97,"LFOK 060030Z AUTO 20010KT 0900 0700 R10/1000D R28/1400D FZFG VV/// M00/M00 Q1021 TEMPO 0300 FZFG"
"962","LFOK",2019-12-06 01:00:00,4.1908,48.7805,32,32,100,200,11,0,30.15,NA,0.43,NA,"VV ",NA,NA,NA,NA,NA,NA,NA,"FZFG",NA,NA,NA,NA,NA,NA,22.47,"LFOK 060100Z AUTO 20011KT 0700 0650 R10/0750N R28/0800N FZFG VV/// M00/M00 Q1021 TEMPO 0300 FZFG"
"963","LFOK",2019-12-06 01:30:00,4.1908,48.7805,32,32,100,200,10,0,30.15,NA,0.34,NA,"VV ",NA,NA,NA,NA,NA,NA,NA,"FZFG",NA,NA,NA,NA,NA,NA,22.97,"LFOK 060130Z AUTO 20010KT 0550 0500 R10/0600N R28/0650N FZFG VV/// M00/M00 Q1021 TEMPO 0300 FZFG"
"964","LFOK",2019-12-06 02:00:00,4.1908,48.7805,32,32,100,210,8,0,30.15,NA,0.37,NA,"VV ",NA,NA,NA,NA,NA,NA,NA,"FG",NA,NA,NA,NA,NA,NA,24.11,"LFOK 060200Z AUTO 21008KT 0600 R10/0700N R28/0750N FG VV/// 00/00 Q1021 TEMPO 0300 FZFG"
"965","LFOK",2019-12-06 02:30:00,4.1908,48.7805,32,32,100,200,9,0,30.12,NA,0.34,NA,"VV ",NA,NA,NA,NA,NA,NA,NA,"FG",NA,NA,NA,NA,NA,NA,23.51,"LFOK 060230Z AUTO 20009KT 0550 0500 R10/0600N R28/0700N FG VV/// 00/00 Q1020 TEMPO 0300 FZFG"
"966","LFOK",2019-12-06 03:00:00,4.1908,48.7805,32,32,100,190,10,0,30.12,NA,0.34,NA,"VV ",NA,NA,NA,NA,NA,NA,NA,"FG",NA,NA,NA,NA,NA,NA,22.97,"LFOK 060300Z AUTO 19010KT 0550 R10/0650N R28/0700N FG VV/// 00/00 Q1020 TEMPO 0300 FZFG"
"967","LFOK",2019-12-06 03:30:00,4.1908,48.7805,32,32,100,190,13,0,30.09,NA,0.34,NA,"VV ",NA,NA,NA,NA,NA,NA,NA,"FG",NA,NA,NA,NA,NA,NA,21.57,"LFOK 060330Z AUTO 19013KT 0550 0500 R10/0650N R28/0650N FG VV/// 00/00 Q1019 TEMPO 0300 FZFG"
"968","LFOK",2019-12-06 04:00:00,4.1908,48.7805,33.8,33.8,100,190,12,0,30.12,NA,0.31,NA,"VV ",NA,NA,NA,NA,NA,NA,NA,"FG",NA,NA,NA,NA,NA,NA,24.29,"LFOK 060400Z AUTO 19012KT 0500 R10/0600N R28/0650N FG VV/// 01/01 Q1020 TEMPO 0300 FZFG"
"969","LFOK",2019-12-06 04:30:00,4.1908,48.7805,33.8,33.8,100,200,10,0,30.09,NA,1.43,NA,"VV ",NA,NA,NA,NA,NA,NA,NA,"BR",NA,NA,NA,NA,NA,NA,25.23,"LFOK 060430Z AUTO 20010KT 2300 BR VV/// 01/01 Q1019 TEMPO 0300 FZFG"
"970","LFOK",2019-12-06 05:00:00,4.1908,48.7805,33.8,33.8,100,210,10,0,30.09,NA,2.11,NA,"OVC",NA,NA,NA,200,NA,NA,NA,"BR",NA,NA,NA,NA,NA,NA,25.23,"LFOK 060500Z AUTO 21010KT 3400 BR OVC002 01/01 Q1019 TEMPO 0300 FZFG VV///"
"971","LFOK",2019-12-06 05:30:00,4.1908,48.7805,33.8,33.8,100,190,11,0,30.09,NA,2.55,NA,"SCT","OVC",NA,NA,200,600,NA,NA,"BR",NA,NA,NA,NA,NA,NA,24.74,"LFOK 060530Z AUTO 19011KT 4100 BR SCT002 OVC006 01/01 Q1019 TEMPO 0300 FZFG VV///"
"972","LFOK",2019-12-06 06:00:00,4.1908,48.7805,33.8,33.8,100,190,13,0,30.09,NA,2.98,NA,"OVC",NA,NA,NA,700,NA,NA,NA,"BR",NA,NA,NA,NA,NA,NA,23.87,"LFOK 060600Z AUTO 19013KT 4800 BR OVC007 01/01 Q1019 TEMPO 0300 FZFG VV///"
"973","LFOK",2019-12-06 06:30:00,4.1908,48.7805,33.8,33.8,100,190,12,0,30.09,NA,2.8,NA,"OVC",NA,NA,NA,800,NA,NA,NA,"BR",NA,NA,NA,NA,NA,NA,24.29,"LFOK 060630Z AUTO 19012KT 4500 BR OVC008 01/01 Q1019 NOSIG"
"974","LFOK",2019-12-06 07:00:00,4.1908,48.7805,33.8,33.8,100,200,13,0,30.09,NA,2.86,NA,"OVC",NA,NA,NA,600,NA,NA,NA,"BR",NA,NA,NA,NA,NA,NA,23.87,"LFOK 060700Z AUTO 20013KT 4600 BR OVC006 01/01 Q1019 NOSIG"
"975","LFOK",2019-12-06 07:30:00,4.1908,48.7805,33.8,33.8,100,200,13,0,30.09,NA,2.49,NA,"OVC",NA,NA,NA,400,NA,NA,NA,"BR",NA,NA,NA,NA,NA,NA,23.87,"LFOK 060730Z AUTO 20013KT 4000 BR OVC004 01/01 Q1019 BECMG OVC008"
"976","LFOK",2019-12-06 08:00:00,4.1908,48.7805,35.6,35.6,100,200,12,0,30.09,NA,2.36,NA,"OVC",NA,NA,NA,400,NA,NA,NA,"BR",NA,NA,NA,NA,NA,NA,26.58,"LFOK 060800Z AUTO 20012KT 3800 BR OVC004 02/02 Q1019 BECMG OVC008"
"977","LFOK",2019-12-06 08:30:00,4.1908,48.7805,35.6,35.6,100,200,10,0,30.09,NA,1.99,NA,"OVC",NA,NA,NA,300,NA,NA,NA,"BR",NA,NA,NA,NA,NA,NA,27.48,"LFOK 060830Z AUTO 20010KT 3200 BR OVC003 02/02 Q1019 TEMPO 1200 DZRA OVC008"
"978","LFOK",2019-12-06 09:00:00,4.1908,48.7805,35.6,35.6,100,200,13,0,30.09,NA,0.93,NA,"OVC",NA,NA,NA,200,NA,NA,NA,"BR",NA,NA,NA,NA,NA,NA,26.18,"LFOK 060900Z AUTO 20013KT 1500 1100 R10/1900N R28/3200D BR OVC002 02/02 Q1019 TEMPO 3000 BR"
"979","LFOK",2019-12-06 09:30:00,4.1908,48.7805,35.6,35.6,100,190,13,0,30.09,NA,1.68,NA,"OVC",NA,NA,NA,300,NA,NA,NA,"BR",NA,NA,NA,NA,NA,NA,26.18,"LFOK 060930Z AUTO 19013KT 2700 BR OVC003 02/02 Q1019 TEMPO 1200 RADZ"
"980","LFOK",2019-12-06 10:00:00,4.1908,48.7805,35.6,35.6,100,200,11,0,30.09,NA,2.05,NA,"OVC",NA,NA,NA,400,NA,NA,NA,"BR",NA,NA,NA,NA,NA,NA,27.02,"LFOK 061000Z AUTO 20011KT 3300 BR OVC004 02/02 Q1019 TEMPO 1200 RADZ"
"981","LFOK",2019-12-06 10:30:00,4.1908,48.7805,35.6,35.6,100,200,13,0,30.06,NA,0.81,NA,"OVC",NA,NA,NA,200,NA,NA,NA,"BR",NA,NA,NA,NA,NA,NA,26.18,"LFOK 061030Z AUTO 20013KT 1300 1200 R10/2100D R28/1900D BR OVC002 02/02 Q1018 TEMPO RADZ"
"982","LFOK",2019-12-06 11:00:00,4.1908,48.7805,37.4,37.4,100,210,14,0,30.06,NA,0.68,NA,"VV ","///",NA,NA,NA,NA,NA,NA,"BCFG",NA,NA,NA,NA,NA,NA,28.12,"LFOK 061100Z AUTO 21014KT 1100 0900 R10/1600D R28/1600U BCFG VV/// ///CB 03/03 Q1018 TEMPO RADZ OVC003"
"983","LFOK",2019-12-06 11:30:00,4.1908,48.7805,37.4,37.4,100,200,14,0,30.03,NA,0.87,NA,"VV ",NA,NA,NA,NA,NA,NA,NA,"BR",NA,NA,NA,NA,NA,NA,28.12,"LFOK 061130Z AUTO 20014KT 1400 1100 R10/2400N R28/2400U BR VV/// 03/03 Q1017 TEMPO RADZ OVC003"
"984","LFOK",2019-12-06 12:00:00,4.1908,48.7805,37.4,37.4,100,210,15,0,30.03,NA,1.24,NA,"OVC",NA,NA,NA,200,NA,NA,NA,"BR",NA,NA,NA,NA,NA,NA,27.78,"LFOK 061200Z AUTO 21015KT 2000 BR OVC002 03/03 Q1017 TEMPO 0900 FG VV///"
"985","LFOK",2019-12-06 12:30:00,4.1908,48.7805,37.4,37.4,100,200,15,0,30,NA,1.8,NA,"OVC","///",NA,NA,300,NA,NA,NA,"BR",NA,NA,NA,NA,NA,NA,27.78,"LFOK 061230Z AUTO 20015KT 2900 BR OVC003/// ///TCU 03/03 Q1016 TEMPO 22017G27KT 0900 FG OVC003"
"986","LFOK",2019-12-06 13:00:00,4.1908,48.7805,39.2,39.2,100,200,16,0,30,NA,1.62,NA,"OVC","///",NA,NA,300,NA,NA,NA,"-RA BR",NA,NA,NA,NA,NA,NA,29.8,"LFOK 061300Z AUTO 20016KT 2600 -RA BR OVC003/// ///TCU 04/04 Q1016 TEMPO 22017G27KT 6000 NSW OVC003"
"987","LFOK",2019-12-06 13:30:00,4.1908,48.7805,39.2,39.2,100,210,13,0,30,NA,1.86,NA,"OVC","///",NA,NA,300,NA,NA,NA,"-RA BR",NA,NA,NA,NA,NA,NA,30.79,"LFOK 061330Z AUTO 21013KT 3000 -RA BR OVC003/// ///CB 04/04 Q1016 TEMPO 22017G27KT RADZ OVC003"
"988","LFOK",2019-12-06 14:00:00,4.1908,48.7805,39.2,39.2,100,210,16,0,30,NA,2.42,NA,"OVC","///",NA,NA,400,NA,NA,NA,"-RA BR",NA,NA,NA,NA,NA,NA,29.8,"LFOK 061400Z AUTO 21016KT 3900 -RA BR OVC004/// ///CB 04/04 Q1016 TEMPO 22017G27KT 2000 RADZ OVC003"
"989","LFOK",2019-12-06 14:30:00,4.1908,48.7805,41,41,100,210,17,0,29.97,NA,3.11,NA,"OVC","///",NA,NA,500,NA,NA,NA,"-RA BR",NA,NA,NA,NA,NA,NA,31.87,"LFOK 061430Z AUTO 21017KT 5000 -RA BR OVC005/// ///TCU 05/05 Q1015 TEMPO 22017G27KT 2000 RADZ OVC003"
"990","LFOK",2019-12-06 15:00:00,4.1908,48.7805,41,41,100,210,18,0,29.97,NA,3.73,NA,"OVC","///",NA,NA,500,NA,NA,NA,NA,NA,NA,NA,NA,NA,NA,31.6,"LFOK 061500Z AUTO 21018KT 6000 OVC005/// ///TCU 05/05 Q1015 TEMPO 22017G27KT 2000 RADZ OVC003"
"991","LFOK",2019-12-06 15:30:00,4.1908,48.7805,41,41,100,200,16,0,29.94,NA,3.11,NA,"OVC",NA,NA,NA,600,NA,NA,NA,"BR",NA,NA,NA,NA,NA,NA,32.15,"LFOK 061530Z AUTO 20016KT 5000 BR OVC006 05/05 Q1014 TEMPO 22017G27KT 2000 RADZ OVC003"
"992","LFOK",2019-12-06 16:00:00,4.1908,48.7805,41,41,100,200,17,0,29.94,NA,3.73,NA,"OVC",NA,NA,NA,700,NA,NA,NA,NA,NA,NA,NA,NA,NA,NA,31.87,"LFOK 061600Z AUTO 20017KT 6000 OVC007 05/05 Q1014 TEMPO 22017G27KT 2000 RADZ OVC003"
"993","LFOK",2019-12-06 16:30:00,4.1908,48.7805,41,41,100,210,17,0,29.94,NA,3.73,NA,"BKN","OVC","///",NA,700,1200,NA,NA,NA,NA,NA,NA,NA,NA,NA,31.87,"LFOK 061630Z AUTO 21017KT 6000 BKN007/// OVC012/// ///TCU 05/05 Q1014 TEMPO 22017G27KT 2000 RADZ OVC003"
"994","LFOK",2019-12-06 17:00:00,4.1908,48.7805,41,41,100,200,18,0,29.94,NA,2.8,NA,"BKN","OVC","///",NA,700,1100,NA,NA,"-RA BR",NA,NA,NA,NA,NA,NA,31.6,"LFOK 061700Z AUTO 20018KT 4500 -RA BR BKN007/// OVC011/// ///TCU 05/05 Q1014 TEMPO 22017G27KT 2000 RADZ OVC003"
"995","LFOK",2019-12-06 17:30:00,4.1908,48.7805,41,41,100,200,19,0,29.94,NA,3.11,NA,"BKN","BKN","OVC",NA,700,1200,4300,NA,"-RA BR",NA,NA,NA,NA,NA,NA,31.34,"LFOK 061730Z AUTO 20019KT 5000 -RA BR BKN007 BKN012 OVC043 05/05 Q1014 TEMPO 22017G27KT 2000 RADZ OVC003"
"996","LFOK",2019-12-06 18:00:00,4.1908,48.7805,41,41,100,200,19,0,29.94,NA,4.35,NA,"BKN","OVC",NA,NA,500,1000,NA,NA,NA,NA,NA,NA,NA,NA,NA,31.34,"LFOK 061800Z AUTO 20019KT 7000 BKN005 OVC010 05/05 Q1014 TEMPO 22017G27KT 2000 RADZ"
"997","LFOK",2019-12-06 18:30:00,4.1908,48.7805,41,41,100,200,18,0,29.91,NA,4.35,NA,"BKN","OVC",NA,NA,700,1100,NA,NA,NA,NA,NA,NA,NA,NA,NA,31.6,"LFOK 061830Z AUTO 20018KT 7000 BKN007 OVC011 05/05 Q1013 TEMPO 22017G27KT 2000 RADZ OVC003"
"998","LFOK",2019-12-06 19:00:00,4.1908,48.7805,42.8,42.8,100,200,18,0,29.91,NA,2.92,NA,"OVC",NA,NA,NA,700,NA,NA,NA,"-RADZ BR",NA,NA,NA,NA,NA,NA,33.97,"LFOK 061900Z AUTO 20018KT 4700 -RADZ BR OVC007 06/06 Q1013 TEMPO 22017G27KT 2000 RADZ OVC003"
"999","LFOK",2019-12-06 19:30:00,4.1908,48.7805,42.8,42.8,100,210,19,0,29.91,NA,3.11,NA,"OVC",NA,NA,NA,500,NA,NA,NA,"-RA BR",NA,NA,NA,NA,NA,NA,33.72,"LFOK 061930Z AUTO 21019KT 5000 -RA BR OVC005 06/06 Q1013 TEMPO 22017G27KT 2000 RADZ"
"1000","LFOK",2019-12-06 20:00:00,4.1908,48.7805,42.8,42.8,100,210,18,0,29.91,NA,2.67,NA,"OVC",NA,NA,NA,400,NA,NA,NA,"-RA BR",NA,NA,NA,NA,NA,NA,33.97,"LFOK 062000Z AUTO 21018KT 4300 -RA BR OVC004 06/06 Q1013 TEMPO 22017G27KT 2000 RADZ"
"1001","LFOK",2019-12-06 20:30:00,4.1908,48.7805,44.6,44.6,100,220,18,0,29.91,NA,3.73,NA,"OVC",NA,NA,NA,400,NA,NA,NA,NA,NA,NA,NA,NA,NA,NA,36.34,"LFOK 062030Z AUTO 22018KT 6000 OVC004 07/07 Q1013 TEMPO 22017G27KT 2000 RADZ"
"1002","LFOK",2019-12-06 21:00:00,4.1908,48.7805,44.6,44.6,100,220,19,0,29.91,NA,6.21,NA,"OVC",NA,NA,NA,400,NA,NA,NA,NA,NA,NA,NA,NA,NA,NA,36.1,"LFOK 062100Z AUTO 22019KT 9999 OVC004 07/07 Q1013 TEMPO 22017G27KT 2000 RADZ"
"1003","LFOK",2019-12-06 21:30:00,4.1908,48.7805,46.4,46.4,100,220,19,0,29.91,NA,5.59,NA,"OVC",NA,NA,NA,500,NA,NA,NA,NA,NA,NA,NA,NA,NA,NA,38.48,"LFOK 062130Z AUTO 22019KT 9000 OVC005 08/08 Q1013 TEMPO 22017G27KT 2000 RADZ"
"1004","LFOK",2019-12-06 22:00:00,4.1908,48.7805,46.4,46.4,100,220,17,0,29.91,NA,4.35,NA,"OVC",NA,NA,NA,500,NA,NA,NA,NA,NA,NA,NA,NA,NA,NA,38.94,"LFOK 062200Z AUTO 22017KT 7000 OVC005 08/08 Q1013 TEMPO 22017G27KT 2000 RADZ"
"1005","LFOK",2019-12-06 22:30:00,4.1908,48.7805,46.4,46.4,100,230,17,0,29.94,NA,6.21,NA,"OVC",NA,NA,NA,600,NA,NA,NA,NA,NA,NA,NA,NA,NA,NA,38.94,"LFOK 062230Z AUTO 23017KT 9999 OVC006 08/08 Q1014 TEMPO 22017G27KT 0800 DZ FG OVC001"
"1006","LFOK",2019-12-06 23:00:00,4.1908,48.7805,46.4,46.4,100,230,19,0,29.94,NA,6.21,NA,"OVC",NA,NA,NA,600,NA,NA,NA,"-RA",NA,NA,NA,NA,NA,NA,38.48,"LFOK 062300Z AUTO 23019KT 9999 4000 -RA OVC006 08/08 Q1014 TEMPO 22017G27KT 0800 DZ FG OVC001"
"1007","LFOK",2019-12-06 23:30:00,4.1908,48.7805,46.4,46.4,100,230,18,0,29.94,NA,6.21,NA,"OVC",NA,NA,NA,600,NA,NA,NA,NA,NA,NA,NA,NA,NA,NA,38.7,"LFOK 062330Z AUTO 23018KT 9999 OVC006 08/08 Q1014 TEMPO 1200 BR OVC002"
"1008","LFLB",2019-12-06 00:00:00,5.8831,45.6367,33.8,32,93.03,NA,NA,0,30.27,NA,1.24,NA,"OVC",NA,NA,NA,200,NA,NA,NA,NA,NA,NA,NA,NA,NA,NA,NA,"LFLB 060000Z AUTO /////KT 2000 // OVC002 01/00 Q1025"
"1009","LFLB",2019-12-06 00:30:00,5.8831,45.6367,33.8,32,93.03,NA,NA,0,30.27,NA,1.12,NA,"VV ",NA,NA,NA,NA,NA,NA,NA,NA,NA,NA,NA,NA,NA,NA,NA,"LFLB 060030Z AUTO /////KT 1800 // VV/// 01/00 Q1025"
"1010","LFLB",2019-12-06 01:00:00,5.8831,45.6367,33.8,32,93.03,NA,NA,0,30.27,NA,0.87,NA,"VV ",NA,NA,NA,NA,NA,NA,NA,NA,NA,NA,NA,NA,NA,NA,NA,"LFLB 060100Z AUTO /////KT 1400 R18/2100U R36/1700D // VV/// 01/00 Q1025"
"1011","LFLB",2019-12-06 01:30:00,5.8831,45.6367,32,32,100,NA,NA,0,30.27,NA,1.99,NA,"OVC",NA,NA,NA,300,NA,NA,NA,NA,NA,NA,NA,NA,NA,NA,NA,"LFLB 060130Z AUTO /////KT 3200 // OVC003 00/00 Q1025"
"1012","LFLB",2019-12-06 02:00:00,5.8831,45.6367,32,32,100,NA,NA,0,30.27,NA,2.55,NA,"OVC",NA,NA,NA,300,NA,NA,NA,NA,NA,NA,NA,NA,NA,NA,NA,"LFLB 060200Z AUTO /////KT 4100 // OVC003 00/M00 Q1025"
"1013","LFLB",2019-12-06 02:30:00,5.8831,45.6367,32,32,100,NA,NA,0,30.27,NA,2.42,NA,"OVC",NA,NA,NA,300,NA,NA,NA,NA,NA,NA,NA,NA,NA,NA,NA,"LFLB 060230Z AUTO /////KT 3900 // OVC003 00/M00 Q1025"
"1014","LFLB",2019-12-06 03:00:00,5.8831,45.6367,32,32,100,NA,NA,0,30.27,NA,2.3,NA,"OVC",NA,NA,NA,300,NA,NA,NA,NA,NA,NA,NA,NA,NA,NA,NA,"LFLB 060300Z AUTO /////KT 3700 // OVC003 00/M00 Q1025"
"1015","LFLB",2019-12-06 03:30:00,5.8831,45.6367,32,32,100,NA,NA,0,30.27,NA,1.74,NA,"OVC",NA,NA,NA,200,NA,NA,NA,NA,NA,NA,NA,NA,NA,NA,NA,"LFLB 060330Z AUTO /////KT 2800 // OVC002 00/M00 Q1025"
"1016","LFLB",2019-12-06 04:00:00,5.8831,45.6367,32,32,100,NA,NA,0,30.27,NA,1.18,NA,"OVC",NA,NA,NA,200,NA,NA,NA,NA,NA,NA,NA,NA,NA,NA,NA,"LFLB 060400Z AUTO /////KT 1900 // OVC002 00/M00 Q1025"
"1017","LFLB",2019-12-06 04:30:00,5.8831,45.6367,32,32,100,NA,NA,0,30.27,NA,1.06,NA,"VV ",NA,NA,NA,NA,NA,NA,NA,NA,NA,NA,NA,NA,NA,NA,NA,"LFLB 060430Z AUTO /////KT 1700 // VV/// 00/M00 Q1025"
"1018","LFLB",2019-12-06 05:00:00,5.8831,45.6367,32,32,100,NA,NA,0,30.27,NA,1.55,NA,"VV ",NA,NA,NA,NA,NA,NA,NA,NA,NA,NA,NA,NA,NA,NA,NA,"LFLB 060500Z AUTO /////KT 2500 // VV/// M00/M00 Q1025"
"1019","LFLB",2019-12-06 05:30:00,5.8831,45.6367,32,30.2,92.97,NA,NA,0,30.27,NA,1.8,NA,"VV ",NA,NA,NA,NA,NA,NA,NA,NA,NA,NA,NA,NA,NA,NA,NA,"LFLB 060530Z AUTO /////KT 2900 // VV/// M00/M01 Q1025"
"1020","LFLB",2019-12-06 06:00:00,5.8831,45.6367,32,32,100,NA,NA,0,30.27,NA,1.62,NA,"OVC",NA,NA,NA,200,NA,NA,NA,NA,NA,NA,NA,NA,NA,NA,NA,"LFLB 060600Z AUTO /////KT 2600 // OVC002 M00/M00 Q1025"
"1021","LFLB",2019-12-06 06:30:00,5.8831,45.6367,32,32,100,NA,NA,0,30.27,NA,2.42,NA,"OVC",NA,NA,NA,200,NA,NA,NA,NA,NA,NA,NA,NA,NA,NA,NA,"LFLB 060630Z AUTO /////KT 3900 // OVC002 M00/M00 Q1025"
"1022","LFLB",2019-12-06 07:00:00,5.8831,45.6367,32,30.2,92.97,NA,NA,0,30.27,NA,2.8,NA,"OVC",NA,NA,NA,300,NA,NA,NA,NA,NA,NA,NA,NA,NA,NA,NA,"LFLB 060700Z AUTO /////KT 4500 // OVC003 M00/M01 Q1025"
"1023","LFLB",2019-12-06 07:30:00,5.8831,45.6367,32,30.2,92.97,NA,NA,0,30.27,NA,1.24,NA,"OVC",NA,NA,NA,200,NA,NA,NA,NA,NA,NA,NA,NA,NA,NA,NA,"LFLB 060730Z AUTO /////KT 2000 // OVC002 M00/M01 Q1025"
"1024","LFLB",2019-12-06 08:00:00,5.8831,45.6367,32,30.2,92.97,NA,NA,0,30.27,NA,2.05,NA,"OVC",NA,NA,NA,200,NA,NA,NA,NA,NA,NA,NA,NA,NA,NA,NA,"LFLB 060800Z AUTO /////KT 3300 // OVC002 M00/M01 Q1025"
"1025","LFLB",2019-12-06 08:30:00,5.8831,45.6367,32,30.2,92.97,NA,NA,0,30.27,NA,2.3,NA,"OVC",NA,NA,NA,300,NA,NA,NA,NA,NA,NA,NA,NA,NA,NA,NA,"LFLB 060830Z AUTO /////KT 3700 // OVC003 M00/M01 Q1025"
"1026","LFLB",2019-12-06 09:00:00,5.8831,45.6367,32,30.2,92.97,NA,NA,0,30.27,NA,2.55,NA,"OVC",NA,NA,NA,300,NA,NA,NA,NA,NA,NA,NA,NA,NA,NA,NA,"LFLB 060900Z AUTO /////KT 4100 // OVC003 M00/M01 Q1025"
"1027","LFLB",2019-12-06 09:30:00,5.8831,45.6367,32,30.2,92.97,NA,2,0,30.27,NA,2.42,NA,"OVC",NA,NA,NA,400,NA,NA,NA,"BR",NA,NA,NA,NA,NA,NA,NA,"LFLB 060930Z AUTO VRB02KT 3900 BR OVC004 M00/M01 Q1025 BECMG 7000 NSW NSC"
"1028","LFLB",2019-12-06 10:00:00,5.8831,45.6367,32,32,100,NA,2,0,30.27,NA,2.8,NA,"OVC",NA,NA,NA,500,NA,NA,NA,"BR",NA,NA,NA,NA,NA,NA,NA,"LFLB 061000Z AUTO VRB02KT 4500 BR OVC005 00/M00 Q1025 BECMG 7000 NSW NSC"
"1029","LFLB",2019-12-06 10:30:00,5.8831,45.6367,33.8,32,93.03,NA,3,0,30.27,NA,2.98,NA,"OVC",NA,NA,NA,500,NA,NA,NA,"BR",NA,NA,NA,NA,NA,NA,30.75,"LFLB 061030Z AUTO VRB03KT 4800 BR OVC005 01/00 Q1025 BECMG 8000 NSW NSC"
"1030","LFLB",2019-12-06 11:00:00,5.8831,45.6367,35.6,33.8,93.08,190,3,0,30.24,NA,3.73,NA,"BKN",NA,NA,NA,600,NA,NA,NA,NA,NA,NA,NA,NA,NA,NA,32.8,"LFLB 061100Z AUTO 19003KT 140V230 6000 BKN006 02/01 Q1024 BECMG NSC"
"1031","LFLB",2019-12-06 11:30:00,5.8831,45.6367,35.6,33.8,93.08,NA,3,0,30.24,NA,4.35,NA,"FEW",NA,NA,NA,800,NA,NA,NA,NA,NA,NA,NA,NA,NA,NA,32.8,"LFLB 061130Z AUTO VRB03KT 7000 FEW008 02/01 Q1024 NOSIG"
"1032","LFLB",2019-12-06 12:00:00,5.8831,45.6367,39.2,35.6,86.79,NA,2,0,30.21,NA,5.59,NA,"NSC",NA,NA,NA,NA,NA,NA,NA,NA,NA,NA,NA,NA,NA,NA,NA,"LFLB 061200Z AUTO VRB02KT 9000 NSC 04/02 Q1023 NOSIG"
"1033","LFLB",2019-12-06 12:30:00,5.8831,45.6367,41,35.6,80.93,NA,2,0,30.21,NA,6.21,NA,NA,NA,NA,NA,NA,NA,NA,NA,NA,NA,NA,NA,NA,NA,NA,NA,"LFLB 061230Z AUTO VRB02KT CAVOK 05/02 Q1023 NOSIG"
"1034","LFLB",2019-12-06 13:00:00,5.8831,45.6367,41,33.8,75.33,330,4,0,30.18,NA,6.21,NA,NA,NA,NA,NA,NA,NA,NA,NA,NA,NA,NA,NA,NA,NA,NA,37.93,"LFLB 061300Z AUTO 33004KT 300V010 CAVOK 05/01 Q1022 NOSIG"
"1035","LFLB",2019-12-06 13:30:00,5.8831,45.6367,41,33.8,75.33,350,4,0,30.18,NA,5.59,NA,"NSC",NA,NA,NA,NA,NA,NA,NA,NA,NA,NA,NA,NA,NA,NA,37.93,"LFLB 061330Z AUTO 35004KT 9000 NSC 05/01 Q1022 NOSIG"
"1036","LFLB",2019-12-06 14:00:00,5.8831,45.6367,41,33.8,75.33,340,3,0,30.15,NA,5.59,NA,"NSC",NA,NA,NA,NA,NA,NA,NA,NA,NA,NA,NA,NA,NA,NA,38.98,"LFLB 061400Z AUTO 34003KT 9000 NSC 05/01 Q1021 NOSIG"
"1037","LFLB",2019-12-06 14:30:00,5.8831,45.6367,41,33.8,75.33,360,4,0,30.15,NA,6.21,NA,NA,NA,NA,NA,NA,NA,NA,NA,NA,NA,NA,NA,NA,NA,NA,37.93,"LFLB 061430Z AUTO 36004KT CAVOK 05/01 Q1021 NOSIG"
"1038","LFLB",2019-12-06 15:00:00,5.8831,45.6367,41,33.8,75.33,330,3,0,30.15,NA,6.21,NA,NA,NA,NA,NA,NA,NA,NA,NA,NA,NA,NA,NA,NA,NA,NA,38.98,"LFLB 061500Z AUTO 33003KT 300V360 CAVOK 05/01 Q1021 NOSIG"
"1039","LFLB",2019-12-06 15:30:00,5.8831,45.6367,39.2,32,75.16,270,1,0,30.15,NA,4.35,NA,"NSC",NA,NA,NA,NA,NA,NA,NA,NA,NA,NA,NA,NA,NA,NA,NA,"LFLB 061530Z AUTO 27001KT 7000 NSC 04/00 Q1021 NOSIG"
"1040","LFLB",2019-12-06 16:00:00,5.8831,45.6367,37.4,32,80.65,190,3,0,30.15,NA,4.35,NA,"NSC",NA,NA,NA,NA,NA,NA,NA,NA,NA,NA,NA,NA,NA,NA,34.86,"LFLB 061600Z AUTO 19003KT 7000 NSC 03/M00 Q1021 NOSIG"
"1041","LFLB",2019-12-06 16:30:00,5.8831,45.6367,35.6,32,86.59,NA,2,0,30.15,NA,4.35,NA,"NSC",NA,NA,NA,NA,NA,NA,NA,NA,NA,NA,NA,NA,NA,NA,NA,"LFLB 061630Z AUTO VRB02KT 7000 NSC 02/M00 Q1021 NOSIG"
"1042","LFLB",2019-12-06 17:00:00,5.8831,45.6367,35.6,32,86.59,0,0,0,30.15,NA,3.73,NA,"NSC",NA,NA,NA,NA,NA,NA,NA,NA,NA,NA,NA,NA,NA,NA,NA,"LFLB 061700Z AUTO 00000KT 6000 NSC 02/M00 Q1021 NOSIG"
"1043","LFLB",2019-12-06 17:30:00,5.8831,45.6367,33.8,30.2,86.49,NA,2,0,30.15,NA,3.73,NA,"NSC",NA,NA,NA,NA,NA,NA,NA,NA,NA,NA,NA,NA,NA,NA,NA,"LFLB 061730Z AUTO VRB02KT 6000 NSC 01/M01 Q1021 NOSIG"
"1044","LFLB",2019-12-06 18:00:00,5.8831,45.6367,33.8,30.2,86.49,170,3,0,30.15,NA,3.73,NA,"NSC",NA,NA,NA,NA,NA,NA,NA,NA,NA,NA,NA,NA,NA,NA,30.75,"LFLB 061800Z AUTO 17003KT 6000 NSC 01/M01 Q1021 TEMPO 0500 FG BKN006"
"1045","LFLB",2019-12-06 18:30:00,5.8831,45.6367,33.8,30.2,86.49,NA,1,0,30.15,NA,3.73,NA,"NSC",NA,NA,NA,NA,NA,NA,NA,NA,NA,NA,NA,NA,NA,NA,NA,"LFLB 061830Z AUTO VRB01KT 6000 NSC 01/M01 Q1021 TEMPO 0500 FG BKN006"
"1046","LFLB",2019-12-06 19:00:00,5.8831,45.6367,33.8,32,93.03,220,1,0,30.15,NA,3.11,NA,"NSC",NA,NA,NA,NA,NA,NA,NA,"BR",NA,NA,NA,NA,NA,NA,NA,"LFLB 061900Z AUTO 22001KT 5000 BR NSC 01/M00 Q1021 TEMPO 0500 FG BKN006"
"1047","LFLB",2019-12-06 19:30:00,5.8831,45.6367,33.8,32,93.03,180,2,0,30.15,NA,3.73,NA,"NSC",NA,NA,NA,NA,NA,NA,NA,NA,NA,NA,NA,NA,NA,NA,NA,"LFLB 061930Z AUTO 18002KT 6000 NSC 01/M00 Q1021 TEMPO 0500 FG BKN006"
"1048","LFLB",2019-12-06 20:00:00,5.8831,45.6367,33.8,32,93.03,180,2,0,30.15,NA,4.35,NA,"NSC",NA,NA,NA,NA,NA,NA,NA,NA,NA,NA,NA,NA,NA,NA,NA,"LFLB 062000Z AUTO 18002KT 7000 NSC 01/M00 Q1021 TEMPO 0500 FG BKN006"
"1049","LFLB",2019-12-06 20:30:00,5.8831,45.6367,33.8,32,93.03,0,0,0,30.15,NA,4.35,NA,"NSC",NA,NA,NA,NA,NA,NA,NA,NA,NA,NA,NA,NA,NA,NA,NA,"LFLB 062030Z AUTO 00000KT 7000 NSC 01/M00 Q1021 TEMPO 0500 FG BKN006"
"1050","LFLB",2019-12-06 21:00:00,5.8831,45.6367,33.8,32,93.03,160,2,0,30.18,NA,3.73,NA,"NSC",NA,NA,NA,NA,NA,NA,NA,NA,NA,NA,NA,NA,NA,NA,NA,"LFLB 062100Z AUTO 16002KT 6000 NSC 01/M00 Q1022 TEMPO 0500 FG BKN006"
"1051","LFLB",2019-12-06 21:30:00,5.8831,45.6367,33.8,32,93.03,NA,2,0,30.18,NA,3.73,NA,"NSC",NA,NA,NA,NA,NA,NA,NA,NA,NA,NA,NA,NA,NA,NA,NA,"LFLB 062130Z AUTO VRB02KT 6000 NSC 01/00 Q1022 NOSIG"
"1052","LFLB",2019-12-06 22:00:00,5.8831,45.6367,35.6,33.8,93.08,120,2,0,30.18,NA,3.73,NA,"NSC",NA,NA,NA,NA,NA,NA,NA,NA,NA,NA,NA,NA,NA,NA,NA,"LFLB 062200Z AUTO 12002KT 6000 NSC 02/01 Q1022 NOSIG"
"1053","LFLB",2019-12-06 22:30:00,5.8831,45.6367,35.6,33.8,93.08,270,1,0,30.18,NA,3.73,NA,"NSC",NA,NA,NA,NA,NA,NA,NA,NA,NA,NA,NA,NA,NA,NA,NA,"LFLB 062230Z AUTO 27001KT 6000 NSC 02/01 Q1022"
"1054","LFLB",2019-12-06 23:00:00,5.8831,45.6367,35.6,33.8,93.08,0,0,0,30.18,NA,3.73,NA,"NSC",NA,NA,NA,NA,NA,NA,NA,NA,NA,NA,NA,NA,NA,NA,NA,"LFLB 062300Z AUTO 00000KT 6000 NSC 02/01 Q1022"
"1055","LFLB",2019-12-06 23:30:00,5.8831,45.6367,35.6,35.6,100,NA,2,0,30.18,NA,4.97,NA,"NSC",NA,NA,NA,NA,NA,NA,NA,NA,NA,NA,NA,NA,NA,NA,NA,"LFLB 062330Z AUTO VRB02KT 8000 NSC 02/02 Q1022"
"1056","LFPG",2019-12-06 00:00:00,2.5344,49.0153,32,30.2,92.97,190,9,0,30.15,NA,0.31,NA,"VV ",NA,NA,NA,NA,NA,NA,NA,"FZFG",NA,NA,NA,NA,NA,NA,23.51,"LFPG 060000Z 19009KT 0500 R27L/0600N R09R/0700N R26R/0600N R08L/0450N R26L/0700N R08R/0550N R27R/0600N R09L/0550N FZFG VV/// M00/M01 Q1021 NOSIG"
"1057","LFPG",2019-12-06 00:30:00,2.5344,49.0153,32,30.2,92.97,190,8,0,30.15,NA,0.31,NA,"VV ",NA,NA,NA,NA,NA,NA,NA,"FZFG",NA,NA,NA,NA,NA,NA,24.11,"LFPG 060030Z 19008KT 0500 R27L/0600N R09R/0800N R26R/0550N R08L/0550N R26L/0700N R08R/0650N R27R/0550N R09L/0550N FZFG VV/// M00/M01 Q1021 NOSIG"
"1058","LFPG",2019-12-06 01:00:00,2.5344,49.0153,32,30.2,92.97,190,10,0,30.12,NA,0.31,NA,"VV ",NA,NA,NA,NA,NA,NA,NA,"FZFG",NA,NA,NA,NA,NA,NA,22.97,"LFPG 060100Z 19010KT 0500 R27L/0700N R09R/0900U R26R/0700N R08L/0650N R26L/0800N R08R/0650N R27R/0650N R09L/0700N FZFG VV/// M00/M01 Q1020 NOSIG"
"1059","LFPG",2019-12-06 01:30:00,2.5344,49.0153,32,30.2,92.97,190,9,0,30.12,NA,0.56,NA,"VV ",NA,NA,NA,NA,NA,NA,NA,"FZFG",NA,NA,NA,NA,NA,NA,23.51,"LFPG 060130Z 19009KT 0900 R27L/1200U R09R/1800U R26R/1200U R08L/1400N R26L/1200U R08R/1300N R27R/1100U R09L/1200U FZFG VV/// M00/M01 Q1020 BECMG 2000 BR BKN002"
"1060","LFPG",2019-12-06 02:00:00,2.5344,49.0153,32,30.2,92.97,210,6,0,30.12,NA,1.24,NA,"BKN",NA,NA,NA,200,NA,NA,NA,"BR",NA,NA,NA,NA,NA,NA,25.53,"LFPG 060200Z 21006KT 170V240 2000 BR BKN002 M00/M01 Q1020 BECMG 4000 BR"
"1061","LFPG",2019-12-06 02:30:00,2.5344,49.0153,32,30.2,92.97,190,10,0,30.12,NA,1.86,NA,"BKN",NA,NA,NA,200,NA,NA,NA,"BR",NA,NA,NA,NA,NA,NA,22.97,"LFPG 060230Z 19010KT 3000 BR BKN002 M00/M01 Q1020 BECMG BKN005"
"1062","LFPG",2019-12-06 03:00:00,2.5344,49.0153,32,32,100,190,9,0,30.09,NA,2.3,NA,"BKN",NA,NA,NA,300,NA,NA,NA,"BR",NA,NA,NA,NA,NA,NA,23.51,"LFPG 060300Z 19009KT 3700 BR BKN003 M00/M00 Q1019 BECMG BKN005"
"1063","LFPG",2019-12-06 03:30:00,2.5344,49.0153,32,32,100,180,8,0,30.09,NA,2.3,NA,"BKN",NA,NA,NA,300,NA,NA,NA,"BR",NA,NA,NA,NA,NA,NA,24.11,"LFPG 060330Z 18008KT 3700 BR BKN003 00/M00 Q1019 BECMG 5000 BR BKN005"
"1064","LFPG",2019-12-06 04:00:00,2.5344,49.0153,33.8,32,93.03,180,9,0,30.06,NA,2.3,NA,"BKN",NA,NA,NA,300,NA,NA,NA,"BR",NA,NA,NA,NA,NA,NA,25.75,"LFPG 060400Z 18009KT 3700 BR BKN003 01/00 Q1018 BECMG 5000 BR BKN005"
"1065","LFPG",2019-12-06 04:30:00,2.5344,49.0153,33.8,32,93.03,200,7,0,30.06,NA,3.11,NA,"BKN","BKN",NA,NA,400,9000,NA,NA,"BR",NA,NA,NA,NA,NA,NA,26.97,"LFPG 060430Z 20007KT 5000 BR BKN004 BKN090 01/00 Q1018 BECMG 6000 NSW BKN005"
"1066","LFPG",2019-12-06 05:00:00,2.5344,49.0153,33.8,32,93.03,190,9,0,30.06,NA,3.73,NA,"SCT","BKN",NA,NA,500,9000,NA,NA,NA,NA,NA,NA,NA,NA,NA,25.75,"LFPG 060500Z 19009KT 6000 SCT005 BKN090 01/00 Q1018 TEMPO BKN006"
"1067","LFPG",2019-12-06 05:30:00,2.5344,49.0153,33.8,32,93.03,190,10,0,30.06,NA,4.35,NA,"FEW","BKN",NA,NA,500,10000,NA,NA,NA,NA,NA,NA,NA,NA,NA,25.23,"LFPG 060530Z 19010KT 7000 FEW005 BKN100 01/M00 Q1018 TEMPO BKN006"
"1068","LFPG",2019-12-06 06:00:00,2.5344,49.0153,33.8,32,93.03,190,11,0,30.06,NA,4.35,NA,"NSC",NA,NA,NA,NA,NA,NA,NA,"-RA",NA,NA,NA,NA,NA,NA,24.74,"LFPG 060600Z 19011KT 7000 -RA NSC 01/M00 Q1018 TEMPO BKN008"
"1069","LFPG",2019-12-06 06:30:00,2.5344,49.0153,33.8,32,93.03,180,11,0,30.06,NA,4.35,NA,"NSC",NA,NA,NA,NA,NA,NA,NA,NA,NA,NA,NA,NA,NA,NA,24.74,"LFPG 060630Z 18011KT 7000 NSC 01/M00 Q1018 TEMPO BKN008"
"1070","LFPG",2019-12-06 07:00:00,2.5344,49.0153,33.8,32,93.03,190,10,0,30.06,NA,4.35,NA,"NSC",NA,NA,NA,NA,NA,NA,NA,NA,NA,NA,NA,NA,NA,NA,25.23,"LFPG 060700Z 19010KT 7000 NSC 01/00 Q1018 TEMPO BKN008"
"1071","LFPG",2019-12-06 07:30:00,2.5344,49.0153,35.6,32,86.59,190,11,0,30.06,NA,4.35,NA,"NSC",NA,NA,NA,NA,NA,NA,NA,NA,NA,NA,NA,NA,NA,NA,27.02,"LFPG 060730Z 19011KT 7000 NSC 02/M00 Q1018 TEMPO BKN008"
"1072","LFPG",2019-12-06 08:00:00,2.5344,49.0153,35.6,32,86.59,190,11,0,30.03,NA,4.35,NA,"FEW","BKN","BKN",NA,900,6000,11000,NA,NA,NA,NA,NA,NA,NA,NA,27.02,"LFPG 060800Z 19011KT 7000 FEW009 BKN060 BKN110 02/00 Q1017 TEMPO BKN008"
"1073","LFPG",2019-12-06 08:30:00,2.5344,49.0153,35.6,33.8,93.08,200,11,0,30.03,NA,4.35,NA,"BKN","BKN","BKN",NA,800,6600,8300,NA,"-RA",NA,NA,NA,NA,NA,NA,27.02,"LFPG 060830Z 20011KT 7000 -RA BKN008 BKN066 BKN083 02/01 Q1017 NOSIG"
"1074","LFPG",2019-12-06 09:00:00,2.5344,49.0153,37.4,33.8,86.69,190,12,0,30.06,NA,2.8,NA,"BKN","BKN",NA,NA,800,6600,NA,NA,"-RA",NA,NA,NA,NA,NA,NA,28.87,"LFPG 060900Z 19012KT 4500 -RA BKN008 BKN066 03/01 Q1018 NOSIG"
"1075","LFPG",2019-12-06 09:30:00,2.5344,49.0153,37.4,35.6,93.14,190,13,0,30.06,NA,2.8,NA,"BKN",NA,NA,NA,700,NA,NA,NA,"-RA",NA,NA,NA,NA,NA,NA,28.49,"LFPG 060930Z 19013KT 4500 -RA BKN007 03/02 Q1018 NOSIG"
"1076","LFPG",2019-12-06 10:00:00,2.5344,49.0153,37.4,35.6,93.14,190,10,0,30.03,NA,2.8,NA,"BKN",NA,NA,NA,600,NA,NA,NA,"-RA",NA,NA,NA,NA,NA,NA,29.74,"LFPG 061000Z 19010KT 170V320 4500 -RA BKN006 03/02 Q1017 TEMPO 20015G30KT"
"1077","LFPG",2019-12-06 10:30:00,2.5344,49.0153,37.4,35.6,93.14,200,14,0,30.03,NA,2.49,NA,"BKN",NA,NA,NA,500,NA,NA,NA,"-RA",NA,NA,NA,NA,NA,NA,28.12,"LFPG 061030Z 20014KT 4000 -RA BKN005 03/02 Q1017 TEMPO 20015G30KT"
"1078","LFPG",2019-12-06 11:00:00,2.5344,49.0153,37.4,35.6,93.14,200,13,0,30.03,NA,1.86,NA,"OVC",NA,NA,NA,500,NA,NA,NA,"-RA",NA,NA,NA,NA,NA,NA,28.49,"LFPG 061100Z 20013KT 3000 -RA OVC005 03/02 Q1017 TEMPO 20015G30KT"
"1079","LFPG",2019-12-06 11:30:00,2.5344,49.0153,37.4,35.6,93.14,200,15,0,30,NA,1.55,NA,"OVC",NA,NA,NA,500,NA,NA,NA,"-RA",NA,NA,NA,NA,NA,NA,27.78,"LFPG 061130Z 20015KT 2500 -RA OVC005 03/02 Q1016 TEMPO 20015G30KT"
"1080","LFPG",2019-12-06 12:00:00,2.5344,49.0153,37.4,37.4,100,200,14,0,30,NA,1.49,NA,"BKN","BKN",NA,NA,400,500,NA,NA,"-RA",NA,NA,NA,NA,NA,NA,28.12,"LFPG 061200Z 20014KT 2400 -RA BKN004 BKN005 03/03 Q1016 TEMPO 20015G30KT"
"1081","LFPG",2019-12-06 12:30:00,2.5344,49.0153,37.4,37.4,100,200,12,0,29.97,NA,1.86,NA,"BKN","BKN",NA,NA,400,500,NA,NA,"-RA",NA,NA,NA,NA,NA,NA,28.87,"LFPG 061230Z 20012KT 3000 -RA BKN004 BKN005 03/03 Q1015 TEMPO 20015G30KT"
"1082","LFPG",2019-12-06 13:00:00,2.5344,49.0153,39.2,37.4,93.19,200,14,0,29.97,NA,2.8,NA,"BKN","BKN",NA,NA,500,1000,NA,NA,"-RA BR",NA,NA,NA,NA,NA,NA,30.44,"LFPG 061300Z 20014KT 4500 -RA BR BKN005 BKN010 04/03 Q1015 TEMPO 20015G30KT"
"1083","LFPG",2019-12-06 13:30:00,2.5344,49.0153,39.2,37.4,93.19,200,14,0,29.94,NA,2.49,NA,"BKN","BKN",NA,NA,500,1000,NA,NA,"-RA BR",NA,NA,NA,NA,NA,NA,30.44,"LFPG 061330Z 20014KT 4000 -RA BR BKN005 BKN010 04/03 Q1014 TEMPO 20015G30KT"
"1084","LFPG",2019-12-06 14:00:00,2.5344,49.0153,39.2,37.4,93.19,200,17,0,29.91,NA,3.73,NA,"BKN",NA,NA,NA,500,NA,NA,NA,NA,NA,NA,NA,NA,NA,NA,29.51,"LFPG 061400Z 20017KT 6000 BKN005 04/03 Q1013 TEMPO 20015G30KT"
"1085","LFPG",2019-12-06 14:30:00,2.5344,49.0153,39.2,37.4,93.19,200,15,0,29.91,NA,4.97,NA,"BKN",NA,NA,NA,500,NA,NA,NA,NA,NA,NA,NA,NA,NA,NA,30.11,"LFPG 061430Z 20015KT 8000 BKN005 04/03 Q1013 TEMPO 20015G30KT"
"1086","LFPG",2019-12-06 15:00:00,2.5344,49.0153,41,39.2,93.24,210,17,0,29.91,NA,4.35,NA,"BKN",NA,NA,NA,500,NA,NA,NA,NA,NA,NA,NA,NA,NA,NA,31.87,"LFPG 061500Z 21017KT 7000 BKN005 05/04 Q1013 TEMPO 20015G30KT"
"1087","LFPG",2019-12-06 15:30:00,2.5344,49.0153,42.8,41,93.3,210,16,0,29.91,NA,4.35,NA,"BKN",NA,NA,NA,600,NA,NA,NA,NA,NA,NA,NA,NA,NA,NA,34.5,"LFPG 061530Z 21016KT 7000 BKN006 06/05 Q1013 TEMPO 20015G30KT"
"1088","LFPG",2019-12-06 16:00:00,2.5344,49.0153,42.8,41,93.3,210,14,0,29.91,NA,3.73,NA,"BKN",NA,NA,NA,600,NA,NA,NA,NA,NA,NA,NA,NA,NA,NA,35.08,"LFPG 061600Z 21014KT 190V270 6000 BKN006 06/05 Q1013 TEMPO 20015G30KT"
"1089","LFPG",2019-12-06 16:30:00,2.5344,49.0153,42.8,41,93.3,210,17,0,29.88,NA,3.73,NA,"BKN",NA,NA,NA,700,NA,NA,NA,NA,NA,NA,NA,NA,NA,NA,34.22,"LFPG 061630Z 21017KT 6000 BKN007 06/05 Q1012 TEMPO 20015G30KT"
"1090","LFPG",2019-12-06 17:00:00,2.5344,49.0153,44.6,42.8,93.35,210,18,0,29.88,NA,2.49,NA,"BKN",NA,NA,NA,700,NA,NA,NA,"-DZRA",NA,NA,NA,NA,NA,NA,36.34,"LFPG 061700Z 21018KT 4000 -DZRA BKN007 07/06 Q1012 TEMPO 20015G30KT"
"1091","LFPG",2019-12-06 17:30:00,2.5344,49.0153,44.6,42.8,93.35,200,15,0,29.88,NA,2.17,NA,"BKN",NA,NA,NA,500,NA,NA,NA,"-DZ BR",NA,NA,NA,NA,NA,NA,37.11,"LFPG 061730Z 20015KT 3500 -DZ BR BKN005 07/06 Q1012 TEMPO 20015G30KT"
"1092","LFPG",2019-12-06 18:00:00,2.5344,49.0153,46.4,44.6,93.4,210,16,0,29.88,NA,1.86,NA,"BKN",NA,NA,NA,500,NA,NA,NA,"DZ BR",NA,NA,NA,NA,NA,NA,39.19,"LFPG 061800Z 21016KT 3000 DZ BR BKN005 08/07 Q1012 TEMPO 20015G30KT"
"1093","LFPG",2019-12-06 18:30:00,2.5344,49.0153,46.4,44.6,93.4,210,15,0,29.88,NA,2.49,NA,"BKN",NA,NA,NA,600,NA,NA,NA,"-DZ BR",NA,NA,NA,NA,NA,NA,39.45,"LFPG 061830Z 21015KT 4000 -DZ BR BKN006 08/07 Q1012 TEMPO 20015G30KT"
"1094","LFPG",2019-12-06 19:00:00,2.5344,49.0153,46.4,44.6,93.4,210,14,0,29.88,NA,2.49,NA,"BKN",NA,NA,NA,700,NA,NA,NA,"-DZ BR",NA,NA,NA,NA,NA,NA,39.72,"LFPG 061900Z 21014KT 4000 -DZ BR BKN007 08/07 Q1012 TEMPO 20015G25KT"
"1095","LFPG",2019-12-06 19:30:00,2.5344,49.0153,48.2,46.4,93.45,220,14,0,29.88,NA,3.11,NA,"BKN",NA,NA,NA,900,NA,NA,NA,"-DZ BR",NA,NA,NA,NA,NA,NA,42.04,"LFPG 061930Z 22014KT 5000 -DZ BR BKN009 09/08 Q1012 TEMPO 20015G25KT"
"1096","LFPG",2019-12-06 20:00:00,2.5344,49.0153,48.2,46.4,93.45,220,15,0,29.88,NA,3.11,NA,"BKN",NA,NA,NA,900,NA,NA,NA,"-DZ BR",NA,NA,NA,NA,NA,NA,41.78,"LFPG 062000Z 22015KT 5000 -DZ BR BKN009 09/08 Q1012 TEMPO 20015G25KT"
"1097","LFPG",2019-12-06 20:30:00,2.5344,49.0153,48.2,46.4,93.45,210,17,0,29.88,NA,3.73,NA,"BKN",NA,NA,NA,900,NA,NA,NA,NA,NA,NA,NA,NA,NA,NA,41.3,"LFPG 062030Z 21017KT 6000 BKN009 09/08 Q1012 TEMPO 20015G25KT"
"1098","LFPG",2019-12-06 21:00:00,2.5344,49.0153,48.2,46.4,93.45,220,12,0,29.88,NA,6.21,NA,"BKN",NA,NA,NA,1000,NA,NA,NA,NA,NA,NA,NA,NA,NA,NA,42.62,"LFPG 062100Z 22012KT 9999 BKN010 09/08 Q1012 TEMPO 20015G25KT"
"1099","LFPG",2019-12-06 21:30:00,2.5344,49.0153,48.2,46.4,93.45,230,15,0,29.88,NA,6.21,NA,"BKN","BKN","BKN",NA,1300,2600,5300,NA,NA,NA,NA,NA,NA,NA,NA,41.78,"LFPG 062130Z 23015KT 9999 BKN013 BKN026 BKN053 09/08 Q1012 TEMPO 20015G25KT"
"1100","LFPG",2019-12-06 22:00:00,2.5344,49.0153,50,46.4,87.37,240,16,0,29.91,NA,6.21,NA,"FEW","BKN",NA,NA,1800,4500,NA,NA,NA,NA,NA,NA,NA,NA,NA,43.88,"LFPG 062200Z 24016KT 9999 FEW018 BKN045 10/08 Q1013 TEMPO 20015G25KT"
"1101","LFPG",2019-12-06 22:30:00,2.5344,49.0153,50,46.4,87.37,240,14,0,29.91,NA,6.21,NA,"FEW","BKN","BKN",NA,2000,2600,4800,NA,NA,NA,NA,NA,NA,NA,NA,44.36,"LFPG 062230Z 24014KT 9999 FEW020 BKN026 BKN048 10/08 Q1013 TEMPO 20015G25KT"
"1102","LFPG",2019-12-06 23:00:00,2.5344,49.0153,50,46.4,87.37,240,12,0,29.94,NA,6.21,NA,"BKN","SCT","BKN",NA,1800,2600,5300,NA,NA,NA,NA,NA,NA,NA,NA,44.91,"LFPG 062300Z 24012KT 9999 BKN018 SCT026 BKN053 10/08 Q1014 NOSIG"
"1103","LFPG",2019-12-06 23:30:00,2.5344,49.0153,50,46.4,87.37,240,13,0,29.91,NA,6.21,NA,"BKN","SCT","BKN",NA,1700,2600,5300,NA,NA,NA,NA,NA,NA,NA,NA,44.63,"LFPG 062330Z 24013KT 9999 BKN017 SCT026 BKN053 10/08 Q1013 NOSIG"
"1104","LFOC",2019-12-06 00:00:00,1.3767,48.0617,30.2,30.2,100,NA,3,0,30.18,NA,0.28,NA,NA,NA,NA,NA,NA,NA,NA,NA,"FZFG",NA,NA,NA,NA,NA,NA,26.63,"LFOC 060000Z AUTO VRB03KT 0450 0400 R28/0450N FZFG ////// M01/M01 Q1022"
"1105","LFOC",2019-12-06 00:30:00,1.3767,48.0617,28.4,28.4,100,270,3,0,30.18,NA,0.31,NA,NA,NA,NA,NA,NA,NA,NA,NA,"FZFG",NA,NA,NA,NA,NA,NA,24.57,"LFOC 060030Z AUTO 27003KT 0500 0450 R28/0550N FZFG ////// M02/M02 Q1022"
"1106","LFOC",2019-12-06 01:00:00,1.3767,48.0617,28.4,28.4,100,280,3,0,30.15,NA,0.37,NA,NA,NA,NA,NA,NA,NA,NA,NA,"FZFG",NA,NA,NA,NA,NA,NA,24.57,"LFOC 060100Z AUTO 28003KT 0600 0450 R28/0600U FZFG ////// M02/M02 Q1021"
"1107","LFOC",2019-12-06 01:30:00,1.3767,48.0617,28.4,28.4,100,NA,2,0,30.15,NA,0.4,NA,NA,NA,NA,NA,NA,NA,NA,NA,"FZFG",NA,NA,NA,NA,NA,NA,NA,"LFOC 060130Z AUTO VRB02KT 0650 0600 R28/0800N FZFG ////// M02/M02 Q1021"
"1108","LFOC",2019-12-06 02:00:00,1.3767,48.0617,28.4,28.4,100,190,3,0,30.15,NA,0.43,NA,NA,NA,NA,NA,NA,NA,NA,NA,"FZFG",NA,NA,NA,NA,NA,NA,24.57,"LFOC 060200Z AUTO 19003KT 0700 0550 R28/0650N FZFG ////// M02/M02 Q1021"
"1109","LFOC",2019-12-06 02:30:00,1.3767,48.0617,28.4,28.4,100,210,4,0,30.12,NA,0.43,NA,NA,NA,NA,NA,NA,NA,NA,NA,"FZFG",NA,NA,NA,NA,NA,NA,23.22,"LFOC 060230Z AUTO 21004KT 0700 R28/0800N FZFG ////// M02/M02 Q1020"
"1110","LFOC",2019-12-06 03:00:00,1.3767,48.0617,28.4,28.4,100,190,3,0,30.12,NA,2.49,NA,NA,NA,NA,NA,NA,NA,NA,NA,"BR",NA,NA,NA,NA,NA,NA,24.57,"LFOC 060300Z AUTO 19003KT 4000 BR ////// M02/M02 Q1020"
"1111","LFOC",2019-12-06 03:30:00,1.3767,48.0617,30.2,30.2,100,NA,3,0,30.12,NA,2.42,NA,NA,NA,NA,NA,NA,NA,NA,NA,"BR",NA,NA,NA,NA,NA,NA,26.63,"LFOC 060330Z AUTO VRB03KT 3900 BR ////// M01/M01 Q1020"
"1112","LFOC",2019-12-06 04:00:00,1.3767,48.0617,30.2,30.2,100,180,5,0,30.12,NA,0.75,NA,NA,NA,NA,NA,NA,NA,NA,NA,"BCFG",NA,NA,NA,NA,NA,NA,24.26,"LFOC 060400Z AUTO 18005KT 1200 0900 R28/1100D BCFG ////// M01/M01 Q1020"
"1113","LFOC",2019-12-06 04:30:00,1.3767,48.0617,30.2,30.2,100,190,7,0,30.12,NA,0.56,NA,NA,NA,NA,NA,NA,NA,NA,NA,"FZFG",NA,NA,NA,NA,NA,NA,22.59,"LFOC 060430Z AUTO 19007KT 0900 0800 R28/1000U FZFG ////// M01/M01 Q1020"
"1114","LFOC",2019-12-06 05:00:00,1.3767,48.0617,30.2,30.2,100,190,7,0,30.12,NA,0.56,NA,NA,NA,NA,NA,NA,NA,NA,NA,"FZFG",NA,NA,NA,NA,NA,NA,22.59,"LFOC 060500Z AUTO 19007KT 0900 0800 R28/1000D FZFG ////// M01/M01 Q1020"
"1115","LFOC",2019-12-06 05:30:00,1.3767,48.0617,30.2,30.2,100,200,8,0,30.12,NA,0.81,NA,NA,NA,NA,NA,NA,NA,NA,NA,"BR",NA,NA,NA,NA,NA,NA,21.9,"LFOC 060530Z AUTO 20008KT 1300 1000 R28/1300U BR ////// M01/M01 Q1020"
"1116","LFOC",2019-12-06 06:00:00,1.3767,48.0617,30.2,30.2,100,200,8,0,30.12,NA,1.55,NA,NA,NA,NA,NA,NA,NA,NA,NA,"BR",NA,NA,NA,NA,NA,NA,21.9,"LFOC 060600Z AUTO 20008KT 2500 BR ////// M01/M01 Q1020"
"1117","LFOC",2019-12-06 06:30:00,1.3767,48.0617,30.2,30.2,100,210,9,0,30.12,NA,2.05,NA,NA,NA,NA,NA,NA,NA,NA,NA,"BR",NA,NA,NA,NA,NA,NA,21.28,"LFOC 060630Z AUTO 21009KT 3300 BR ////// M01/M01 Q1020"
"1118","LFOC",2019-12-06 07:00:00,1.3767,48.0617,30.2,30.2,100,210,7,0,30.12,NA,2.49,NA,NA,NA,NA,NA,NA,NA,NA,NA,"BR",NA,NA,NA,NA,NA,NA,22.59,"LFOC 060700Z AUTO 21007KT 4000 BR ////// M01/M01 Q1020"
"1119","LFOC",2019-12-06 07:30:00,1.3767,48.0617,32,32,100,190,11,0,30.09,NA,1.99,NA,NA,NA,NA,NA,NA,NA,NA,NA,"BR",NA,NA,NA,NA,NA,NA,22.47,"LFOC 060730Z AUTO 19011KT 3200 BR ////// M00/M00 Q1019"
"1120","LFOC",2019-12-06 08:00:00,1.3767,48.0617,32,32,100,210,10,0,30.09,NA,1.49,NA,NA,NA,NA,NA,NA,NA,NA,NA,"BR",NA,NA,NA,NA,NA,NA,22.97,"LFOC 060800Z AUTO 21010KT 2400 BR ////// M00/M00 Q1019"
"1121","LFOC",2019-12-06 08:30:00,1.3767,48.0617,32,32,100,200,10,0,30.12,NA,2.11,NA,NA,NA,NA,NA,NA,NA,NA,NA,"BR",NA,NA,NA,NA,NA,NA,22.97,"LFOC 060830Z AUTO 20010KT 3400 BR ////// M00/M00 Q1020"
"1122","LFOC",2019-12-06 09:00:00,1.3767,48.0617,32,32,100,200,9,0,30.12,NA,1.93,NA,NA,NA,NA,NA,NA,NA,NA,NA,"BR",NA,NA,NA,NA,NA,NA,23.51,"LFOC 060900Z AUTO 20009KT 3100 BR ////// M00/M00 Q1020"
"1123","LFOC",2019-12-06 09:30:00,1.3767,48.0617,32,32,100,200,10,0,30.12,NA,1.93,NA,NA,NA,NA,NA,NA,NA,NA,NA,"BR",NA,NA,NA,NA,NA,NA,22.97,"LFOC 060930Z AUTO 20010KT 3100 BR ////// 00/00 Q1020"
"1124","LFOC",2019-12-06 10:00:00,1.3767,48.0617,33.8,33.8,100,200,11,0,30.12,NA,1.93,NA,NA,NA,NA,NA,NA,NA,NA,NA,"BR",NA,NA,NA,NA,NA,NA,24.74,"LFOC 061000Z AUTO 20011KT 3100 BR ////// 01/01 Q1020"
"1125","LFOC",2019-12-06 10:30:00,1.3767,48.0617,33.8,33.8,100,200,12,0,30.09,NA,2.11,NA,NA,NA,NA,NA,NA,NA,NA,NA,"BR",NA,NA,NA,NA,NA,NA,24.29,"LFOC 061030Z AUTO 20012KT 3400 BR ////// 01/01 Q1019"
"1126","LFOC",2019-12-06 11:00:00,1.3767,48.0617,35.6,35.6,100,190,13,0,30.09,NA,0.93,NA,NA,NA,NA,NA,NA,NA,NA,NA,"-DZ BR",NA,NA,NA,NA,NA,NA,26.18,"LFOC 061100Z AUTO 19013KT 1500 1300 R28/1900D -DZ BR ////// 02/02 Q1019"
"1127","LFOC",2019-12-06 11:30:00,1.3767,48.0617,35.6,35.6,100,190,10,0,30.06,NA,0.99,NA,NA,NA,NA,NA,NA,NA,NA,NA,"BR",NA,NA,NA,NA,NA,NA,27.48,"LFOC 061130Z AUTO 19010KT 1600 BR ////// 02/02 Q1018"
"1128","LFOC",2019-12-06 12:00:00,1.3767,48.0617,37.4,37.4,100,200,12,0,30.06,NA,1.55,NA,NA,NA,NA,NA,NA,NA,NA,NA,"BR",NA,NA,NA,NA,NA,NA,28.87,"LFOC 061200Z AUTO 20012KT 2500 BR ////// 03/03 Q1018"
"1129","LFOC",2019-12-06 12:30:00,1.3767,48.0617,39.2,39.2,100,190,12,0,30.03,NA,2.05,NA,NA,NA,NA,NA,NA,NA,NA,NA,"BR",NA,NA,NA,NA,NA,NA,31.17,"LFOC 061230Z AUTO 19012KT 3300 BR ////// 04/04 Q1017"
"1130","LFOC",2019-12-06 13:00:00,1.3767,48.0617,41,41,100,200,16,0,30,NA,2.3,NA,NA,NA,NA,NA,NA,NA,NA,NA,"BR",NA,NA,NA,NA,NA,NA,32.15,"LFOC 061300Z AUTO 20016KT 3700 BR ////// 05/05 Q1016"
"1131","LFOC",2019-12-06 13:30:00,1.3767,48.0617,41,41,100,200,15,0,30,NA,2.92,NA,NA,NA,NA,NA,NA,NA,NA,NA,"-DZ BR",NA,NA,NA,NA,NA,NA,32.45,"LFOC 061330Z AUTO 20015KT 4700 -DZ BR ////// 05/05 Q1016"
"1132","LFOC",2019-12-06 14:00:00,1.3767,48.0617,42.8,42.8,100,200,16,0,29.97,NA,3.11,NA,NA,NA,NA,NA,NA,NA,NA,NA,"BR",NA,NA,NA,NA,NA,NA,34.5,"LFOC 061400Z AUTO 20016KT 5000 BR ////// 06/06 Q1015"
"1133","LFOC",2019-12-06 14:30:00,1.3767,48.0617,42.8,42.8,100,200,15,0,29.97,NA,2.3,NA,NA,NA,NA,NA,NA,NA,NA,NA,"-RA BR",NA,NA,NA,NA,NA,NA,34.78,"LFOC 061430Z AUTO 20015KT 3700 -RA BR ////// 06/06 Q1015"
"1134","LFOC",2019-12-06 15:00:00,1.3767,48.0617,44.6,44.6,100,210,15,0,29.97,NA,3.11,NA,NA,NA,NA,NA,NA,NA,NA,NA,"BR",NA,NA,NA,NA,NA,NA,37.11,"LFOC 061500Z AUTO 21015KT 5000 BR ////// 07/07 Q1015"
"1135","LFOC",2019-12-06 15:30:00,1.3767,48.0617,44.6,44.6,100,210,14,0,29.97,NA,3.11,NA,NA,NA,NA,NA,NA,NA,NA,NA,"BR",NA,NA,NA,NA,NA,NA,37.4,"LFOC 061530Z AUTO 21014KT 5000 BR ////// 07/07 Q1015"
"1136","LFOC",2019-12-06 16:00:00,1.3767,48.0617,44.6,44.6,100,200,13,0,29.97,NA,3.11,NA,NA,NA,NA,NA,NA,NA,NA,NA,"BR",NA,NA,NA,NA,NA,NA,37.71,"LFOC 061600Z AUTO 20013KT 5000 BR ////// 07/07 Q1015"
"1137","LFOC",2019-12-06 16:30:00,1.3767,48.0617,46.4,46.4,100,210,14,0,29.97,NA,4.35,NA,NA,NA,NA,NA,NA,NA,NA,NA,NA,NA,NA,NA,NA,NA,NA,39.72,"LFOC 061630Z AUTO 21014KT 7000 ////// 08/08 Q1015"
"1138","LFOC",2019-12-06 17:00:00,1.3767,48.0617,46.4,46.4,100,200,16,0,29.94,NA,4.97,NA,NA,NA,NA,NA,NA,NA,NA,NA,NA,NA,NA,NA,NA,NA,NA,39.19,"LFOC 061700Z AUTO 20016KT 8000 ////// 08/08 Q1014"
"1139","LFOC",2019-12-06 17:30:00,1.3767,48.0617,48.2,46.4,93.45,220,14,0,29.94,NA,6.21,NA,NA,NA,NA,NA,NA,NA,NA,NA,NA,NA,NA,NA,NA,NA,NA,42.04,"LFOC 061730Z AUTO 22014KT 9999 ////// 09/08 Q1014"
"1140","LFOC",2019-12-06 18:00:00,1.3767,48.0617,48.2,46.4,93.45,210,17,0,29.94,NA,6.21,NA,NA,NA,NA,NA,NA,NA,NA,NA,NA,NA,NA,NA,NA,NA,NA,41.3,"LFOC 061800Z AUTO 21017KT 9999 ////// 09/08 Q1014"
"1141","LFOC",2019-12-06 18:30:00,1.3767,48.0617,48.2,48.2,100,220,16,0,29.94,NA,4.97,NA,NA,NA,NA,NA,NA,NA,NA,NA,NA,NA,NA,NA,NA,NA,NA,41.53,"LFOC 061830Z AUTO 22016KT 8000 ////// 09/09 Q1014"
"1142","LFOC",2019-12-06 19:00:00,1.3767,48.0617,48.2,48.2,100,220,16,0,29.94,NA,4.97,NA,NA,NA,NA,NA,NA,NA,NA,NA,NA,NA,NA,NA,NA,NA,NA,41.53,"LFOC 061900Z AUTO 22016KT 8000 ////// 09/09 Q1014"
"1143","LFOC",2019-12-06 19:30:00,1.3767,48.0617,50,48.2,93.5,220,16,0,29.94,NA,5.59,NA,NA,NA,NA,NA,NA,NA,NA,NA,NA,NA,NA,NA,NA,NA,NA,43.88,"LFOC 061930Z AUTO 22016KT 9000 ////// 10/09 Q1014"
"1144","LFOC",2019-12-06 20:00:00,1.3767,48.0617,50,48.2,93.5,220,18,0,29.94,NA,6.21,NA,NA,NA,NA,NA,NA,NA,NA,NA,NA,NA,NA,NA,NA,NA,NA,43.44,"LFOC 062000Z AUTO 22018KT 9999 ////// 10/09 Q1014"
"1145","LFOC",2019-12-06 20:30:00,1.3767,48.0617,50,48.2,93.5,220,16,0,29.97,NA,3.73,NA,NA,NA,NA,NA,NA,NA,NA,NA,"-RADZ",NA,NA,NA,NA,NA,NA,43.88,"LFOC 062030Z AUTO 22016KT 6000 -RADZ ////// 10/09 Q1015"
"1146","LFOC",2019-12-06 21:00:00,1.3767,48.0617,50,48.2,93.5,230,13,0,29.97,NA,6.21,NA,NA,NA,NA,NA,NA,NA,NA,NA,"-DZ",NA,NA,NA,NA,NA,NA,44.63,"LFOC 062100Z AUTO 23013KT 9999 -DZ ////// 10/09 Q1015"
"1147","LFOC",2019-12-06 21:30:00,1.3767,48.0617,50,48.2,93.5,230,15,0,29.97,NA,4.97,NA,NA,NA,NA,NA,NA,NA,NA,NA,"-RADZ",NA,NA,NA,NA,NA,NA,44.12,"LFOC 062130Z AUTO 23015KT 8000 -RADZ ////// 10/09 Q1015"
"1148","LFOC",2019-12-06 22:00:00,1.3767,48.0617,50,48.2,93.5,220,11,0,29.97,NA,6.21,NA,NA,NA,NA,NA,NA,NA,NA,NA,NA,NA,NA,NA,NA,NA,NA,45.21,"LFOC 062200Z AUTO 22011KT 9999 ////// 10/09 Q1015"
"1149","LFOC",2019-12-06 22:30:00,1.3767,48.0617,50,48.2,93.5,230,13,0,29.97,NA,6.21,NA,NA,NA,NA,NA,NA,NA,NA,NA,NA,NA,NA,NA,NA,NA,NA,44.63,"LFOC 062230Z AUTO 23013KT 9999 ////// 10/09 Q1015"
"1150","LFOC",2019-12-06 23:00:00,1.3767,48.0617,50,48.2,93.5,230,10,0,30,NA,6.21,NA,NA,NA,NA,NA,NA,NA,NA,NA,NA,NA,NA,NA,NA,NA,NA,45.54,"LFOC 062300Z AUTO 23010KT 9999 ////// 10/09 Q1016"
"1151","LFOC",2019-12-06 23:30:00,1.3767,48.0617,50,48.2,93.5,220,12,0,30,NA,6.21,NA,NA,NA,NA,NA,NA,NA,NA,NA,NA,NA,NA,NA,NA,NA,NA,44.91,"LFOC 062330Z AUTO 22012KT 9999 ////// 10/09 Q1016"
"1152","LFLX",2019-12-06 00:00:00,1.7411,46.8697,30.2,30.2,100,90,2,0,30.18,NA,3.11,NA,"NSC",NA,NA,NA,NA,NA,NA,NA,"BR",NA,NA,NA,NA,NA,NA,NA,"LFLX 060000Z AUTO 09002KT 5000 BR NSC M01/M01 Q1022"
"1153","LFLX",2019-12-06 00:30:00,1.7411,46.8697,30.2,30.2,100,310,1,0,30.18,NA,2.36,NA,"BKN",NA,NA,NA,300,NA,NA,NA,"BR",NA,NA,NA,NA,NA,NA,NA,"LFLX 060030Z AUTO 31001KT 3800 R21/0800D BR BKN003 M01/M01 Q1022"
"1154","LFLX",2019-12-06 01:00:00,1.7411,46.8697,30.2,30.2,100,0,0,0,30.18,NA,3.11,NA,"VV ",NA,NA,NA,NA,NA,NA,NA,"BR",NA,NA,NA,NA,NA,NA,NA,"LFLX 060100Z AUTO 00000KT 5000 1500 BR VV/// M01/M01 Q1022"
"1155","LFLX",2019-12-06 01:30:00,1.7411,46.8697,30.2,28.4,92.92,180,4,0,30.18,NA,0.31,NA,"VV ",NA,NA,NA,NA,NA,NA,NA,"FZFG",NA,NA,NA,NA,NA,NA,25.32,"LFLX 060130Z AUTO 18004KT 0500 R21/0650N FZFG VV/// M01/M02 Q1022"
"1156","LFLX",2019-12-06 02:00:00,1.7411,46.8697,30.2,28.4,92.92,220,3,0,30.18,NA,0.28,NA,"VV ",NA,NA,NA,NA,NA,NA,NA,"FZFG",NA,NA,NA,NA,NA,NA,26.63,"LFLX 060200Z AUTO 22003KT 190V250 0450 R21/0325D FZFG VV/// M01/M02 Q1022"
"1157","LFLX",2019-12-06 02:30:00,1.7411,46.8697,32,32,100,220,4,0,30.18,NA,0.22,NA,"VV ",NA,NA,NA,NA,NA,NA,NA,"FZFG",NA,NA,NA,NA,NA,NA,27.42,"LFLX 060230Z AUTO 22004KT 0350 0250 R21/0300N FZFG VV/// M00/M00 Q1022"
"1158","LFLX",2019-12-06 03:00:00,1.7411,46.8697,32,32,100,230,6,0,30.18,NA,0.28,NA,"VV ",NA,NA,NA,NA,NA,NA,NA,"FG",NA,NA,NA,NA,NA,NA,25.53,"LFLX 060300Z AUTO 23006KT 0450 R21/0550N FG VV/// 00/00 Q1022"
"1159","LFLX",2019-12-06 03:30:00,1.7411,46.8697,32,32,100,240,6,0,30.18,NA,0.31,NA,"VV ",NA,NA,NA,NA,NA,NA,NA,"FG",NA,NA,NA,NA,NA,NA,25.53,"LFLX 060330Z AUTO 24006KT 0500 R21/0600N FG VV/// 00/00 Q1022"
"1160","LFLX",2019-12-06 04:00:00,1.7411,46.8697,32,32,100,250,8,0,30.18,NA,0.37,NA,"VV ",NA,NA,NA,NA,NA,NA,NA,"FG",NA,NA,NA,NA,NA,NA,24.11,"LFLX 060400Z AUTO 25008KT 0600 0550 R21/0700N FG VV/// 00/00 Q1022"
"1161","LFLX",2019-12-06 04:30:00,1.7411,46.8697,32,32,100,230,8,0,30.18,NA,0.4,NA,"VV ",NA,NA,NA,NA,NA,NA,NA,"FG",NA,NA,NA,NA,NA,NA,24.11,"LFLX 060430Z AUTO 23008KT 0650 R21/0800N FG VV/// 00/00 Q1022"
"1162","LFLX",2019-12-06 05:00:00,1.7411,46.8697,33.8,33.8,100,230,9,0,30.15,NA,0.4,NA,"VV ",NA,NA,NA,NA,NA,NA,NA,"FG",NA,NA,NA,NA,NA,NA,25.75,"LFLX 060500Z AUTO 23009KT 0650 R21/0800N FG VV/// 01/01 Q1021"
"1163","LFLX",2019-12-06 05:30:00,1.7411,46.8697,33.8,33.8,100,220,10,0,30.15,NA,0.47,NA,"VV ",NA,NA,NA,NA,NA,NA,NA,"FG",NA,NA,NA,NA,NA,NA,25.23,"LFLX 060530Z AUTO 22010KT 0750 0700 R21/0900N FG VV/// 01/01 Q1021"
"1164","LFLX",2019-12-06 06:00:00,1.7411,46.8697,35.6,35.6,100,220,12,0,30.15,NA,0.81,NA,"VV ",NA,NA,NA,NA,NA,NA,NA,"BR",NA,NA,NA,NA,NA,NA,26.58,"LFLX 060600Z AUTO 22012KT 1300 1200 R21/1500U BR VV/// 02/02 Q1021"
"1165","LFLX",2019-12-06 06:30:00,1.7411,46.8697,35.6,35.6,100,250,9,0,30.18,NA,0.62,NA,"VV ",NA,NA,NA,NA,NA,NA,NA,"BR",NA,NA,NA,NA,NA,NA,27.99,"LFLX 060630Z AUTO 25009KT 1000 R21/1200D BR VV/// 02/02 Q1022"
"1166","LFLX",2019-12-06 07:00:00,1.7411,46.8697,35.6,35.6,100,250,8,0,30.18,NA,0.5,NA,"VV ",NA,NA,NA,NA,NA,NA,NA,"FG",NA,NA,NA,NA,NA,NA,28.55,"LFLX 060700Z AUTO 25008KT 0800 R21/1000D FG VV/// 02/02 Q1022 NOSIG"
"1167","LFLX",2019-12-06 07:30:00,1.7411,46.8697,35.6,35.6,100,230,9,0,30.15,NA,0.81,NA,"VV ",NA,NA,NA,NA,NA,NA,NA,"BR",NA,NA,NA,NA,NA,NA,27.99,"LFLX 060730Z AUTO 23009KT 1300 1100 R21/1400U BR VV/// 02/02 Q1021 NOSIG"
"1168","LFLX",2019-12-06 08:00:00,1.7411,46.8697,35.6,35.6,100,230,10,0,30.15,NA,3.11,NA,"OVC",NA,NA,NA,200,NA,NA,NA,"BR",NA,NA,NA,NA,NA,NA,27.48,"LFLX 060800Z AUTO 23010KT 5000 BR OVC002 02/02 Q1021 TEMPO 0800 FG VV///"
"1169","LFLX",2019-12-06 08:30:00,1.7411,46.8697,35.6,35.6,100,240,10,0,30.18,NA,4.97,NA,"OVC",NA,NA,NA,300,NA,NA,NA,NA,NA,NA,NA,NA,NA,NA,27.48,"LFLX 060830Z AUTO 24010KT 8000 OVC003 02/02 Q1022 TEMPO 0800 FG VV///"
"1170","LFLX",2019-12-06 09:00:00,1.7411,46.8697,35.6,35.6,100,230,11,0,30.18,NA,6.21,NA,"OVC",NA,NA,NA,300,NA,NA,NA,NA,NA,NA,NA,NA,NA,NA,27.02,"LFLX 060900Z AUTO 23011KT 9999 OVC003 02/02 Q1022 TEMPO 0800 FG VV///"
"1171","LFLX",2019-12-06 09:30:00,1.7411,46.8697,37.4,37.4,100,240,10,0,30.18,NA,6.21,NA,"OVC",NA,NA,NA,300,NA,NA,NA,NA,NA,NA,NA,NA,NA,NA,29.74,"LFLX 060930Z AUTO 24010KT 9999 OVC003 03/03 Q1022 BECMG NSC"
"1172","LFLX",2019-12-06 10:00:00,1.7411,46.8697,37.4,37.4,100,230,11,0,30.18,NA,5.59,NA,"OVC",NA,NA,NA,300,NA,NA,NA,NA,NA,NA,NA,NA,NA,NA,29.29,"LFLX 061000Z AUTO 23011KT 9000 OVC003 03/03 Q1022 NOSIG"
"1173","LFLX",2019-12-06 10:30:00,1.7411,46.8697,37.4,37.4,100,230,13,0,30.18,NA,6.21,NA,"OVC",NA,NA,NA,300,NA,NA,NA,NA,NA,NA,NA,NA,NA,NA,28.49,"LFLX 061030Z AUTO 23013KT 9999 OVC003 03/03 Q1022 BECMG NSC"
"1174","LFLX",2019-12-06 11:00:00,1.7411,46.8697,39.2,37.4,93.19,220,10,0,30.15,NA,6.21,NA,"OVC",NA,NA,NA,400,NA,NA,NA,NA,NA,NA,NA,NA,NA,NA,32,"LFLX 061100Z AUTO 22010KT 9999 OVC004 04/03 Q1021 BECMG NSC"
"1175","LFLX",2019-12-06 11:30:00,1.7411,46.8697,41,39.2,93.24,220,10,0,30.15,NA,6.21,NA,"OVC",NA,NA,NA,400,NA,NA,NA,NA,NA,NA,NA,NA,NA,NA,34.25,"LFLX 061130Z AUTO 22010KT 9999 OVC004 05/04 Q1021 BECMG NSC"
"1176","LFLX",2019-12-06 12:00:00,1.7411,46.8697,41,39.2,93.24,240,13,0,30.12,NA,6.21,NA,"OVC",NA,NA,NA,500,NA,NA,NA,NA,NA,NA,NA,NA,NA,NA,33.1,"LFLX 061200Z AUTO 24013KT 9999 OVC005 05/04 Q1020 BECMG BKN014"
"1177","LFLX",2019-12-06 12:30:00,1.7411,46.8697,41,41,100,240,13,0,30.12,NA,6.21,NA,"OVC",NA,NA,NA,500,NA,NA,NA,NA,NA,NA,NA,NA,NA,NA,33.1,"LFLX 061230Z AUTO 24013KT 9999 OVC005 05/05 Q1020 TEMPO 4000 BR"
"1178","LFLX",2019-12-06 13:00:00,1.7411,46.8697,42.8,41,93.3,240,10,0,30.12,NA,6.21,NA,"OVC",NA,NA,NA,800,NA,NA,NA,NA,NA,NA,NA,NA,NA,NA,36.51,"LFLX 061300Z AUTO 24010KT 9999 OVC008 06/05 Q1020 TEMPO 4000 BR BKN003"
"1179","LFLX",2019-12-06 13:30:00,1.7411,46.8697,44.6,41,87.09,230,13,0,30.09,NA,6.21,NA,"OVC",NA,NA,NA,800,NA,NA,NA,NA,NA,NA,NA,NA,NA,NA,37.71,"LFLX 061330Z AUTO 23013KT 9999 OVC008 07/05 Q1019 TEMPO 4000 BR BKN003"
"1180","LFLX",2019-12-06 14:00:00,1.7411,46.8697,44.6,42.8,93.35,230,13,0,30.09,NA,6.21,NA,"OVC",NA,NA,NA,800,NA,NA,NA,NA,NA,NA,NA,NA,NA,NA,37.71,"LFLX 061400Z AUTO 23013KT 9999 OVC008 07/06 Q1019 TEMPO 4000 BR BKN003"
"1181","LFLX",2019-12-06 14:30:00,1.7411,46.8697,44.6,42.8,93.35,230,14,0,30.09,NA,6.21,NA,"OVC",NA,NA,NA,800,NA,NA,NA,NA,NA,NA,NA,NA,NA,NA,37.4,"LFLX 061430Z AUTO 23014KT 9999 OVC008 07/06 Q1019 TEMPO 4000 BR BKN003"
"1182","LFLX",2019-12-06 15:00:00,1.7411,46.8697,44.6,42.8,93.35,220,14,0,30.09,NA,6.21,NA,"OVC",NA,NA,NA,800,NA,NA,NA,NA,NA,NA,NA,NA,NA,NA,37.4,"LFLX 061500Z AUTO 22014KT 9999 OVC008 07/06 Q1019 TEMPO 4000 BR BKN003"
"1183","LFLX",2019-12-06 15:30:00,1.7411,46.8697,44.6,42.8,93.35,210,14,0,30.06,NA,6.21,NA,"OVC",NA,NA,NA,800,NA,NA,NA,NA,NA,NA,NA,NA,NA,NA,37.4,"LFLX 061530Z AUTO 21014KT 9999 OVC008 07/06 Q1018 TEMPO 4000 BR BKN003"
"1184","LFLX",2019-12-06 16:00:00,1.7411,46.8697,44.6,42.8,93.35,200,15,0,30.06,NA,6.21,NA,"OVC","///",NA,NA,700,NA,NA,NA,NA,NA,NA,NA,NA,NA,NA,37.11,"LFLX 061600Z AUTO 20015KT 9999 OVC007/// ///TCU 07/06 Q1018 TEMPO 22013G25KT 4000 BR BKN003"
"1185","LFLX",2019-12-06 16:30:00,1.7411,46.8697,44.6,44.6,100,210,14,0,30.06,NA,5.59,NA,"OVC","///",NA,NA,700,NA,NA,NA,"-RA",NA,NA,NA,NA,NA,NA,37.4,"LFLX 061630Z AUTO 21014KT 9000 -RA OVC007/// ///TCU 07/07 Q1018 TEMPO 4000 BR BKN003"
"1186","LFLX",2019-12-06 17:00:00,1.7411,46.8697,46.4,44.6,93.4,220,13,0,30.06,NA,6.21,NA,"OVC",NA,NA,NA,900,NA,NA,NA,NA,NA,NA,NA,NA,NA,NA,40.02,"LFLX 061700Z AUTO 22013KT 9999 OVC009 08/07 Q1018 TEMPO 4000 BR BKN003"
"1187","LFLX",2019-12-06 17:30:00,1.7411,46.8697,46.4,44.6,93.4,200,13,0,30.06,NA,6.21,NA,"OVC",NA,NA,NA,1100,NA,NA,NA,NA,NA,NA,NA,NA,NA,NA,40.02,"LFLX 061730Z AUTO 20013KT 9999 OVC011 08/07 Q1018 TEMPO 4000 BR BKN003"
"1188","LFLX",2019-12-06 18:00:00,1.7411,46.8697,46.4,44.6,93.4,220,13,0,30.09,NA,6.21,NA,"OVC","///",NA,NA,1100,NA,NA,NA,NA,NA,NA,NA,NA,NA,NA,40.02,"LFLX 061800Z AUTO 22013KT 9999 OVC011/// ///TCU 08/07 Q1019 TEMPO 4000 BR BKN004"
"1189","LFLX",2019-12-06 18:30:00,1.7411,46.8697,46.4,44.6,93.4,210,14,0,30.06,NA,6.21,NA,"BKN","OVC",NA,NA,1100,5800,NA,NA,NA,NA,NA,NA,NA,NA,NA,39.72,"LFLX 061830Z AUTO 21014KT 9999 BKN011 OVC058 08/07 Q1018 TEMPO 4000 BR BKN004"
"1190","LFLX",2019-12-06 19:00:00,1.7411,46.8697,46.4,44.6,93.4,210,14,0,30.06,NA,6.21,NA,"BKN","BKN","BKN","///",1100,4900,8800,NA,NA,NA,NA,NA,NA,NA,NA,39.72,"LFLX 061900Z AUTO 21014KT 9999 BKN011/// BKN049/// BKN088/// ///TCU 08/07 Q1018 TEMPO 4000 BR BKN004"
"1191","LFLX",2019-12-06 19:30:00,1.7411,46.8697,46.4,44.6,93.4,210,12,0,30.06,NA,6.21,NA,"BKN","OVC",NA,NA,1100,5400,NA,NA,NA,NA,NA,NA,NA,NA,NA,40.33,"LFLX 061930Z AUTO 21012KT 9999 BKN011 OVC054 08/07 Q1018 TEMPO 4000 BR BKN004"
"1192","LFLX",2019-12-06 20:00:00,1.7411,46.8697,46.4,44.6,93.4,230,11,0,30.06,NA,6.21,NA,"OVC",NA,NA,NA,1100,NA,NA,NA,NA,NA,NA,NA,NA,NA,NA,40.66,"LFLX 062000Z AUTO 23011KT 9999 OVC011 08/07 Q1018 TEMPO 4000 BR BKN004"
"1193","LFLX",2019-12-06 20:30:00,1.7411,46.8697,48.2,44.6,87.28,230,11,0,30.06,NA,6.21,NA,"OVC",NA,NA,NA,1100,NA,NA,NA,NA,NA,NA,NA,NA,NA,NA,42.94,"LFLX 062030Z AUTO 23011KT 9999 OVC011 09/07 Q1018 TEMPO 4000 BR BKN004"
"1194","LFLX",2019-12-06 21:00:00,1.7411,46.8697,48.2,44.6,87.28,210,12,0,30.06,NA,6.21,NA,"OVC",NA,NA,NA,1100,NA,NA,NA,NA,NA,NA,NA,NA,NA,NA,42.62,"LFLX 062100Z AUTO 21012KT 9999 OVC011 09/07 Q1018 TEMPO 4000 BR BKN004"
"1195","LFLX",2019-12-06 21:30:00,1.7411,46.8697,48.2,44.6,87.28,220,14,0,30.06,NA,6.21,NA,"OVC",NA,NA,NA,1100,NA,NA,NA,NA,NA,NA,NA,NA,NA,NA,42.04,"LFLX 062130Z AUTO 22014KT 9999 OVC011 09/07 Q1018 TEMPO 4000 BR BKN004"
"1196","LFLX",2019-12-06 22:00:00,1.7411,46.8697,48.2,46.4,93.45,220,14,0,30.06,NA,6.21,NA,"OVC",NA,NA,NA,1000,NA,NA,NA,NA,NA,NA,NA,NA,NA,NA,42.04,"LFLX 062200Z AUTO 22014KT 9999 OVC010 09/08 Q1018 TEMPO 4000 BR BKN004"
"1197","LFLX",2019-12-06 22:30:00,1.7411,46.8697,48.2,46.4,93.45,230,12,0,30.06,NA,3.73,NA,"OVC",NA,NA,NA,800,NA,NA,NA,"-RA",NA,NA,NA,NA,NA,NA,42.62,"LFLX 062230Z AUTO 23012KT 6000 -RA OVC008 09/08 Q1018 TEMPO 4000 BR BKN004"
"1198","LFLX",2019-12-06 23:00:00,1.7411,46.8697,48.2,46.4,93.45,220,11,0,30.06,NA,3.11,NA,"OVC",NA,NA,NA,700,NA,NA,NA,"-DZ BR",NA,NA,NA,NA,NA,NA,42.94,"LFLX 062300Z AUTO 22011KT 5000 -DZ BR OVC007 09/08 Q1018 TEMPO BKN004"
"1199","LFLX",2019-12-06 23:30:00,1.7411,46.8697,46.4,46.4,100,210,14,0,30.06,NA,3.11,NA,"OVC",NA,NA,NA,500,NA,NA,NA,"-DZ BR",NA,NA,NA,NA,NA,NA,39.72,"LFLX 062330Z AUTO 21014KT 5000 -DZ BR OVC005 08/08 Q1018 TEMPO 2500 DZ"
"1200","LFRC",2019-12-06 00:00:00,-1.4781,49.6475,48.2,44.6,87.28,230,15,0,30.03,NA,6.21,NA,"BKN","OVC",NA,NA,1100,1600,NA,NA,NA,NA,NA,NA,NA,NA,NA,41.78,"LFRC 060000Z AUTO 23015KT 9999 BKN011 OVC016 09/07 Q1017"
"1201","LFRC",2019-12-06 00:30:00,-1.4781,49.6475,48.2,46.4,93.45,220,17,0,30,NA,6.21,NA,"OVC",NA,NA,NA,1000,NA,NA,NA,NA,NA,NA,NA,NA,NA,NA,41.3,"LFRC 060030Z AUTO 22017KT 9999 OVC010 09/08 Q1016"
"1202","LFRC",2019-12-06 01:00:00,-1.4781,49.6475,48.2,46.4,93.45,230,17,0,30,NA,6.21,27,"OVC",NA,NA,NA,900,NA,NA,NA,NA,NA,NA,NA,NA,NA,NA,41.3,"LFRC 060100Z AUTO 23017G27KT 9999 OVC009 09/08 Q1016"
"1203","LFRC",2019-12-06 01:30:00,-1.4781,49.6475,48.2,46.4,93.45,230,17,0,29.97,NA,4.35,NA,"OVC",NA,NA,NA,800,NA,NA,NA,NA,NA,NA,NA,NA,NA,NA,41.3,"LFRC 060130Z AUTO 23017KT 7000 OVC008 09/08 Q1015"
"1204","LFRC",2019-12-06 02:00:00,-1.4781,49.6475,48.2,46.4,93.45,230,18,0,29.97,NA,6.21,NA,"OVC",NA,NA,NA,700,NA,NA,NA,"-RA",NA,NA,NA,NA,NA,NA,41.07,"LFRC 060200Z AUTO 23018KT 9999 -RA OVC007 09/08 Q1015"
"1205","LFRC",2019-12-06 02:30:00,-1.4781,49.6475,48.2,48.2,100,230,17,0,29.97,NA,6.21,NA,"OVC","///",NA,NA,700,NA,NA,NA,NA,NA,NA,NA,NA,NA,NA,41.3,"LFRC 060230Z AUTO 23017KT 9999 OVC007/// ///TCU 09/09 Q1015"
"1206","LFRC",2019-12-06 03:00:00,-1.4781,49.6475,50,46.4,87.37,230,20,0,29.94,NA,6.21,NA,"OVC","///",NA,NA,700,NA,NA,NA,NA,NA,NA,NA,NA,NA,NA,43.05,"LFRC 060300Z AUTO 23020KT 9999 OVC007/// ///TCU 10/08 Q1014"
"1207","LFRC",2019-12-06 03:30:00,-1.4781,49.6475,48.2,46.4,93.45,230,22,0,29.94,NA,6.21,NA,"OVC","///",NA,NA,800,NA,NA,NA,NA,NA,NA,NA,NA,NA,NA,40.27,"LFRC 060330Z AUTO 23022KT 9999 OVC008/// ///TCU 09/08 Q1014"
"1208","LFRC",2019-12-06 04:00:00,-1.4781,49.6475,48.2,46.4,93.45,230,21,0,29.94,NA,6.21,NA,"OVC","///",NA,NA,800,NA,NA,NA,"-DZ",NA,NA,NA,NA,NA,NA,40.46,"LFRC 060400Z AUTO 23021KT 9999 -DZ OVC008/// ///TCU 09/08 Q1014"
"1209","LFRC",2019-12-06 04:30:00,-1.4781,49.6475,50,46.4,87.37,230,21,0,29.94,NA,6.21,NA,"OVC",NA,NA,NA,800,NA,NA,NA,NA,NA,NA,NA,NA,NA,NA,42.86,"LFRC 060430Z AUTO 23021KT 9999 OVC008 10/08 Q1014"
"1210","LFRC",2019-12-06 05:00:00,-1.4781,49.6475,48.2,48.2,100,230,21,0,29.91,NA,3.11,NA,"OVC",NA,NA,NA,700,NA,NA,NA,"-DZ BR",NA,NA,NA,NA,NA,NA,40.46,"LFRC 060500Z AUTO 23021KT 5000 -DZ BR OVC007 09/09 Q1013"
"1211","LFRC",2019-12-06 05:30:00,-1.4781,49.6475,50,48.2,93.5,230,23,0,29.91,NA,3.11,NA,"OVC",NA,NA,NA,600,NA,NA,NA,"-DZ BR",NA,NA,NA,NA,NA,NA,42.51,"LFRC 060530Z AUTO 23023KT 5000 -DZ BR OVC006 10/09 Q1013"
"1212","LFRC",2019-12-06 06:00:00,-1.4781,49.6475,50,48.2,93.5,230,18,0,29.91,NA,1.99,NA,"OVC",NA,NA,NA,500,NA,NA,NA,"-DZ BR",NA,NA,NA,NA,NA,NA,43.44,"LFRC 060600Z AUTO 23018KT 3200 -DZ BR OVC005 10/09 Q1013"
"1213","LFRC",2019-12-06 06:30:00,-1.4781,49.6475,50,48.2,93.5,220,18,0,29.91,NA,2.98,29,"OVC","///",NA,NA,500,NA,NA,NA,"-DZ BR",NA,NA,NA,NA,NA,NA,43.44,"LFRC 060630Z AUTO 22018G29KT 4800 -DZ BR OVC005/// ///TCU 10/09 Q1013"
"1214","LFRC",2019-12-06 07:00:00,-1.4781,49.6475,50,48.2,93.5,230,20,0,29.91,NA,3.73,30,"OVC","///",NA,NA,500,NA,NA,NA,"-RA",NA,NA,NA,NA,NA,NA,43.05,"LFRC 060700Z AUTO 23020G30KT 6000 -RA OVC005/// ///CB 10/09 Q1013"
"1215","LFRC",2019-12-06 07:30:00,-1.4781,49.6475,50,48.2,93.5,220,19,0,29.88,NA,6.21,NA,"OVC","///",NA,NA,700,NA,NA,NA,"-RA",NA,NA,NA,NA,NA,NA,43.24,"LFRC 060730Z AUTO 22019KT 9999 -RA OVC007/// ///CB 10/09 Q1012"
"1216","LFRC",2019-12-06 08:00:00,-1.4781,49.6475,50,48.2,93.5,220,17,0,29.88,NA,2.17,NA,"OVC",NA,NA,NA,500,NA,NA,NA,"-DZ BR",NA,NA,NA,NA,NA,NA,43.66,"LFRC 060800Z AUTO 22017KT 3500 -DZ BR OVC005 10/09 Q1012"
"1217","LFRC",2019-12-06 08:30:00,-1.4781,49.6475,50,48.2,93.5,210,17,0,29.88,NA,2.42,NA,"OVC","///",NA,NA,400,NA,NA,NA,"-RA BR",NA,NA,NA,NA,NA,NA,43.66,"LFRC 060830Z AUTO 21017KT 3900 -RA BR OVC004/// ///TCU 10/09 Q1012 TEMPO RA BKN005 BECMG 23020G33KT"
"1218","LFRC",2019-12-06 09:00:00,-1.4781,49.6475,50,48.2,93.5,220,19,0,29.88,NA,2.61,NA,"OVC","///",NA,NA,500,NA,NA,NA,"-DZ BR",NA,NA,NA,NA,NA,NA,43.24,"LFRC 060900Z AUTO 22019KT 4200 -DZ BR OVC005/// ///TCU 10/09 Q1012 TEMPO 2000 RA BKN004 BECMG 23020G33KT"
"1219","LFRC",2019-12-06 09:30:00,-1.4781,49.6475,50,48.2,93.5,210,21,0,29.85,NA,3.11,NA,"OVC","///",NA,NA,500,NA,NA,NA,"-RA BR",NA,NA,NA,NA,NA,NA,42.86,"LFRC 060930Z AUTO 21021KT 5000 -RA BR OVC005/// ///TCU 10/09 Q1011 TEMPO 2000 RA BKN004 BECMG 23020G33KT"
"1220","LFRC",2019-12-06 10:00:00,-1.4781,49.6475,50,50,100,220,20,0,29.85,NA,1.43,NA,"OVC",NA,NA,NA,400,NA,NA,NA,"-RA BR",NA,NA,NA,NA,NA,NA,43.05,"LFRC 061000Z AUTO 22020KT 2300 -RA BR OVC004 10/10 Q1011 TEMPO RA BECMG 23020G33KT"
"1221","LFRC",2019-12-06 10:30:00,-1.4781,49.6475,50,50,100,220,19,0,29.85,NA,1.12,NA,"OVC",NA,NA,NA,400,NA,NA,NA,"-RA BR",NA,NA,NA,NA,NA,NA,43.24,"LFRC 061030Z AUTO 22019KT 1800 -RA BR OVC004 10/10 Q1011 TEMPO RA BECMG 23020G33KT"
"1222","LFRC",2019-12-06 11:00:00,-1.4781,49.6475,50,50,100,220,20,0,29.83,NA,1.43,31,"OVC",NA,NA,NA,400,NA,NA,NA,"-RA BR",NA,NA,NA,NA,NA,NA,43.05,"LFRC 061100Z AUTO 22020G31KT 2300 -RA BR OVC004 10/10 Q1010 TEMPO RA"
"1223","LFRC",2019-12-06 11:30:00,-1.4781,49.6475,51.8,50,93.55,220,21,0,29.83,NA,1.24,NA,"OVC",NA,NA,NA,400,NA,NA,NA,"-RA BR",NA,NA,NA,NA,NA,NA,NA,"LFRC 061130Z AUTO 22021KT 2000 -RA BR OVC004 11/10 Q1010 TEMPO RA BECMG 26020G35KT"
"1224","LFRC",2019-12-06 12:00:00,-1.4781,49.6475,51.8,50,93.55,230,22,0,29.83,NA,1.12,NA,"OVC",NA,NA,NA,400,NA,NA,NA,"-RA BR",NA,NA,NA,NA,NA,NA,NA,"LFRC 061200Z AUTO 23022KT 1800 -RA BR OVC004 11/10 Q1010 TEMPO RA BECMG 26020G35KT"
"1225","LFRC",2019-12-06 12:30:00,-1.4781,49.6475,51.8,50,93.55,230,22,0,29.8,NA,1.12,34,"OVC",NA,NA,NA,500,NA,NA,NA,"+DZ BR",NA,NA,NA,NA,NA,NA,NA,"LFRC 061230Z AUTO 23022G34KT 1800 1300 R28/P2000 +DZ BR OVC005 11/10 Q1009 BECMG 9999 NSW BKN030"
"1226","LFRC",2019-12-06 13:00:00,-1.4781,49.6475,51.8,51.8,100,230,21,0,29.8,NA,1.62,NA,"OVC",NA,NA,NA,600,NA,NA,NA,"-RA BR",NA,NA,NA,NA,NA,NA,NA,"LFRC 061300Z AUTO 23021KT 2600 -RA BR OVC006 11/11 Q1009 BECMG 26020G35KT 9999 NSW BKN030"
"1227","LFRC",2019-12-06 13:30:00,-1.4781,49.6475,51.8,51.8,100,230,20,0,29.77,NA,2.05,30,"OVC",NA,NA,NA,600,NA,NA,NA,"-DZ BR",NA,NA,NA,NA,NA,NA,NA,"LFRC 061330Z AUTO 23020G30KT 3300 -DZ BR OVC006 11/11 Q1008 BECMG 28025G40KT 9999 NSW BKN030"
"1228","LFRC",2019-12-06 14:00:00,-1.4781,49.6475,51.8,51.8,100,240,21,0,29.77,NA,1.68,NA,"OVC",NA,NA,NA,500,NA,NA,NA,"-DZ BR",NA,NA,NA,NA,NA,NA,NA,"LFRC 061400Z AUTO 24021KT 2700 -DZ BR OVC005 11/11 Q1008 BECMG 28025G40KT 9999 NSW BKN030"
"1229","LFRC",2019-12-06 14:30:00,-1.4781,49.6475,53.6,51.8,93.6,250,23,0,29.77,NA,2.49,33,"OVC",NA,NA,NA,600,NA,NA,NA,"-DZ BR",NA,NA,NA,NA,NA,NA,NA,"LFRC 061430Z AUTO 25023G33KT 4000 -DZ BR OVC006 12/11 Q1008 TEMPO RA"
"1230","LFRC",2019-12-06 15:00:00,-1.4781,49.6475,51.8,51.8,100,260,24,0,29.77,NA,3.11,36,"OVC",NA,NA,NA,600,NA,NA,NA,"-DZ BR",NA,NA,NA,NA,NA,NA,NA,"LFRC 061500Z AUTO 26024G36KT 5000 -DZ BR OVC006 11/11 Q1008 TEMPO RA"
"1231","LFRC",2019-12-06 15:30:00,-1.4781,49.6475,51.8,51.8,100,270,20,0,29.77,NA,6.21,NA,"OVC",NA,NA,NA,700,NA,NA,NA,NA,NA,NA,NA,NA,NA,NA,NA,"LFRC 061530Z AUTO 27020KT 9999 OVC007 11/11 Q1008 TEMPO 4000 RA BECMG 24020G35KT BKN015"
"1232","LFRC",2019-12-06 16:00:00,-1.4781,49.6475,50,48.2,93.5,260,25,0,29.77,NA,2.11,NA,"BKN","BKN","OVC",NA,800,1300,2300,NA,"-RA BR",NA,NA,NA,NA,NA,NA,42.18,"LFRC 061600Z AUTO 26025KT 3400 -RA BR BKN008 BKN013 OVC023 10/09 Q1008 BECMG 24020G35KT 9999 NSW BKN015"
"1233","LFRC",2019-12-06 16:30:00,-1.4781,49.6475,51.8,50,93.55,260,24,0,29.77,NA,6.21,NA,"BKN","BKN","BKN",NA,1000,1500,2900,NA,NA,NA,NA,NA,NA,NA,NA,NA,"LFRC 061630Z AUTO 26024KT 9999 BKN010 BKN015 BKN029 11/10 Q1008 BECMG 26015G25KT BKN015"
"1234","LFRC",2019-12-06 17:00:00,-1.4781,49.6475,51.8,50,93.55,260,21,0,29.77,NA,5.59,31,"OVC",NA,NA,NA,1000,NA,NA,NA,NA,NA,NA,NA,NA,NA,NA,NA,"LFRC 061700Z AUTO 26021G31KT 9000 OVC010 11/10 Q1008 BECMG BKN015"
"1235","LFRC",2019-12-06 17:30:00,-1.4781,49.6475,51.8,50,93.55,270,21,0,29.8,NA,6.21,NA,"BKN","OVC",NA,NA,1000,1800,NA,NA,NA,NA,NA,NA,NA,NA,NA,NA,"LFRC 061730Z AUTO 27021KT 9999 BKN010 OVC018 11/10 Q1009 BECMG 26015G25KT BKN015"
"1236","LFRC",2019-12-06 18:00:00,-1.4781,49.6475,51.8,48.2,87.47,270,21,0,29.8,NA,6.21,NA,"BKN","BKN","BKN",NA,1500,2200,2800,NA,NA,NA,NA,NA,NA,NA,NA,NA,"LFRC 061800Z AUTO 27021KT 9999 BKN015 BKN022 BKN028 11/09 Q1009 BECMG 26015G25KT"
"1237","LFRC",2019-12-06 18:30:00,-1.4781,49.6475,51.8,48.2,87.47,270,16,0,29.83,NA,6.21,NA,"BKN","BKN","BKN",NA,1500,2200,4800,NA,NA,NA,NA,NA,NA,NA,NA,NA,"LFRC 061830Z AUTO 27016KT 9999 BKN015 BKN022 BKN048 11/09 Q1010 BECMG 26015G25KT"
"1238","LFRC",2019-12-06 19:00:00,-1.4781,49.6475,51.8,50,93.55,270,15,0,29.83,NA,6.21,NA,"BKN","BKN","OVC",NA,1300,1800,2400,NA,NA,NA,NA,NA,NA,NA,NA,NA,"LFRC 061900Z AUTO 27015KT 9999 BKN013 BKN018 OVC024 11/10 Q1010"
"1239","LFRC",2019-12-06 19:30:00,-1.4781,49.6475,50,46.4,87.37,270,15,0,29.85,NA,6.21,NA,"BKN",NA,NA,NA,1900,NA,NA,NA,NA,NA,NA,NA,NA,NA,NA,44.12,"LFRC 061930Z AUTO 27015KT 9999 BKN019 10/08 Q1011"
"1240","LFRC",2019-12-06 20:00:00,-1.4781,49.6475,50,46.4,87.37,270,14,0,29.85,NA,6.21,NA,"FEW","BKN","BKN",NA,1700,2300,4200,NA,NA,NA,NA,NA,NA,NA,NA,44.36,"LFRC 062000Z AUTO 27014KT 9999 FEW017 BKN023 BKN042 10/08 Q1011"
"1241","LFRC",2019-12-06 20:30:00,-1.4781,49.6475,50,46.4,87.37,280,15,0,29.88,NA,6.21,NA,"BKN","BKN","BKN",NA,1800,2400,4500,NA,NA,NA,NA,NA,NA,NA,NA,44.12,"LFRC 062030Z AUTO 28015KT 9999 BKN018 BKN024 BKN045 10/08 Q1012"
"1242","LFRC",2019-12-06 21:00:00,-1.4781,49.6475,50,46.4,87.37,280,14,0,29.88,NA,6.21,NA,"SCT","BKN","BKN",NA,1700,3000,3900,NA,NA,NA,NA,NA,NA,NA,NA,44.36,"LFRC 062100Z AUTO 28014KT 9999 SCT017 BKN030 BKN039 10/08 Q1012"
"1243","LFRC",2019-12-06 21:30:00,-1.4781,49.6475,48.2,46.4,93.45,280,12,0,29.88,NA,6.21,NA,"FEW",NA,NA,NA,1900,NA,NA,NA,NA,NA,NA,NA,NA,NA,NA,42.62,"LFRC 062130Z AUTO 28012KT 9999 FEW019 09/08 Q1012"
"1244","LFRC",2019-12-06 22:00:00,-1.4781,49.6475,48.2,46.4,93.45,270,11,0,29.91,NA,6.21,NA,"FEW","SCT","BKN",NA,1900,2700,3800,NA,NA,NA,NA,NA,NA,NA,NA,42.94,"LFRC 062200Z AUTO 27011KT 9999 FEW019 SCT027 BKN038 09/08 Q1013"
"1245","LFRC",2019-12-06 22:30:00,-1.4781,49.6475,48.2,44.6,87.28,270,10,0,29.91,NA,6.21,NA,"FEW","BKN",NA,NA,1800,23000,NA,NA,NA,NA,NA,NA,NA,NA,NA,43.28,"LFRC 062230Z AUTO 27010KT 9999 FEW018 BKN230 09/07 Q1013"
"1246","LFRC",2019-12-06 23:00:00,-1.4781,49.6475,48.2,44.6,87.28,270,10,0,29.91,NA,6.21,NA,"FEW",NA,NA,NA,1700,NA,NA,NA,NA,NA,NA,NA,NA,NA,NA,43.28,"LFRC 062300Z AUTO 27010KT 9999 FEW017 09/07 Q1013"
"1247","LFRC",2019-12-06 23:30:00,-1.4781,49.6475,48.2,44.6,87.28,270,11,0,29.91,NA,6.21,NA,"FEW","SCT",NA,NA,2000,4400,NA,NA,NA,NA,NA,NA,NA,NA,NA,42.94,"LFRC 062330Z AUTO 27011KT 9999 FEW020 SCT044 09/07 Q1013"
"1248","LFLC",2019-12-06 00:00:00,3.1494,45.7869,33.8,32,93.03,210,4,0,30.21,NA,6.21,NA,NA,NA,NA,NA,NA,NA,NA,NA,NA,NA,NA,NA,NA,NA,NA,29.52,"LFLC 060000Z AUTO 21004KT 160V270 CAVOK 01/00 Q1023 TEMPO 1500 MIFG"
"1249","LFLC",2019-12-06 00:30:00,3.1494,45.7869,33.8,32,93.03,NA,3,0,30.18,NA,6.21,NA,NA,NA,NA,NA,NA,NA,NA,NA,NA,NA,NA,NA,NA,NA,NA,30.75,"LFLC 060030Z AUTO VRB03KT CAVOK 01/M00 Q1022 TEMPO 1500 MIFG"
"1250","LFLC",2019-12-06 01:00:00,3.1494,45.7869,33.8,32,93.03,NA,2,0,30.18,NA,6.21,NA,NA,NA,NA,NA,NA,NA,NA,NA,NA,NA,NA,NA,NA,NA,NA,NA,"LFLC 060100Z AUTO VRB02KT CAVOK 01/M00 Q1022 TEMPO 1500 MIFG"
"1251","LFLC",2019-12-06 01:30:00,3.1494,45.7869,32,28.4,86.39,NA,2,0,30.18,NA,6.21,NA,NA,NA,NA,NA,NA,NA,NA,NA,NA,NA,NA,NA,NA,NA,NA,NA,"LFLC 060130Z AUTO VRB02KT CAVOK M00/M02 Q1022 TEMPO 1500 MIFG"
"1252","LFLC",2019-12-06 02:00:00,3.1494,45.7869,33.8,30.2,86.49,NA,2,0,30.18,NA,6.21,NA,NA,NA,NA,NA,NA,NA,NA,NA,NA,NA,NA,NA,NA,NA,NA,NA,"LFLC 060200Z AUTO VRB02KT CAVOK 01/M01 Q1022 TEMPO 1500 MIFG"
"1253","LFLC",2019-12-06 02:30:00,3.1494,45.7869,33.8,30.2,86.49,NA,3,0,30.18,NA,6.21,NA,NA,NA,NA,NA,NA,NA,NA,NA,NA,NA,NA,NA,NA,NA,NA,30.75,"LFLC 060230Z AUTO VRB03KT CAVOK 01/M01 Q1022 TEMPO 1500 MIFG"
"1254","LFLC",2019-12-06 03:00:00,3.1494,45.7869,33.8,30.2,86.49,350,3,0,30.18,NA,6.21,NA,NA,NA,NA,NA,NA,NA,NA,NA,NA,NA,NA,NA,NA,NA,NA,30.75,"LFLC 060300Z AUTO 35003KT CAVOK 01/M01 Q1022 TEMPO 1500 MIFG"
"1255","LFLC",2019-12-06 03:30:00,3.1494,45.7869,35.6,30.2,80.51,350,5,0,30.18,NA,6.21,NA,NA,NA,NA,NA,NA,NA,NA,NA,NA,NA,NA,NA,NA,NA,NA,30.67,"LFLC 060330Z AUTO 35005KT CAVOK 02/M01 Q1022 TEMPO 1500 MIFG"
"1256","LFLC",2019-12-06 04:00:00,3.1494,45.7869,35.6,30.2,80.51,350,7,0,30.18,NA,6.21,NA,NA,NA,NA,NA,NA,NA,NA,NA,NA,NA,NA,NA,NA,NA,NA,29.17,"LFLC 060400Z AUTO 35007KT CAVOK 02/M01 Q1022 TEMPO 1500 MIFG"
"1257","LFLC",2019-12-06 04:30:00,3.1494,45.7869,35.6,30.2,80.51,10,3,0,30.18,NA,6.21,NA,NA,NA,NA,NA,NA,NA,NA,NA,NA,NA,NA,NA,NA,NA,NA,32.8,"LFLC 060430Z AUTO 01003KT CAVOK 02/M01 Q1022 TEMPO 1500 MIFG"
"1258","LFLC",2019-12-06 05:00:00,3.1494,45.7869,33.8,30.2,86.49,360,5,0,30.18,NA,6.21,NA,NA,NA,NA,NA,NA,NA,NA,NA,NA,NA,NA,NA,NA,NA,NA,28.53,"LFLC 060500Z AUTO 36005KT CAVOK 01/M01 Q1022 TEMPO 1500 MIFG"
"1259","LFLC",2019-12-06 05:30:00,3.1494,45.7869,33.8,30.2,86.49,NA,3,0,30.18,NA,6.21,NA,NA,NA,NA,NA,NA,NA,NA,NA,NA,NA,NA,NA,NA,NA,NA,30.75,"LFLC 060530Z AUTO VRB03KT CAVOK 01/M01 Q1022 TEMPO 1500 MIFG"
"1260","LFLC",2019-12-06 06:00:00,3.1494,45.7869,33.8,30.2,86.49,350,4,0,30.18,NA,6.21,NA,NA,NA,NA,NA,NA,NA,NA,NA,NA,NA,NA,NA,NA,NA,NA,29.52,"LFLC 060600Z AUTO 35004KT CAVOK 01/M01 Q1022 TEMPO 1500 MIFG"
"1261","LFLC",2019-12-06 06:30:00,3.1494,45.7869,33.8,30.2,86.49,350,5,0,30.18,NA,6.21,NA,NA,NA,NA,NA,NA,NA,NA,NA,NA,NA,NA,NA,NA,NA,NA,28.53,"LFLC 060630Z AUTO 35005KT 320V020 CAVOK 01/M01 Q1022 TEMPO 1500 MIFG"
"1262","LFLC",2019-12-06 07:00:00,3.1494,45.7869,33.8,28.4,80.36,NA,2,0,30.18,NA,6.21,NA,NA,NA,NA,NA,NA,NA,NA,NA,NA,NA,NA,NA,NA,NA,NA,NA,"LFLC 060700Z AUTO VRB02KT CAVOK 01/M02 Q1022 TEMPO 1500 MIFG"
"1263","LFLC",2019-12-06 07:30:00,3.1494,45.7869,35.6,30.2,80.51,360,4,0,30.18,NA,6.21,NA,NA,NA,NA,NA,NA,NA,NA,NA,NA,NA,NA,NA,NA,NA,NA,31.62,"LFLC 060730Z AUTO 36004KT 330V030 CAVOK 02/M01 Q1022 NOSIG"
"1264","LFLC",2019-12-06 08:00:00,3.1494,45.7869,35.6,30.2,80.51,20,3,0,30.18,NA,6.21,NA,NA,NA,NA,NA,NA,NA,NA,NA,NA,NA,NA,NA,NA,NA,NA,32.8,"LFLC 060800Z AUTO 02003KT 340V120 CAVOK 02/M01 Q1022 NOSIG"
"1265","LFLC",2019-12-06 08:30:00,3.1494,45.7869,33.8,30.2,86.49,350,5,0,30.21,NA,6.21,NA,NA,NA,NA,NA,NA,NA,NA,NA,NA,NA,NA,NA,NA,NA,NA,28.53,"LFLC 060830Z AUTO 35005KT CAVOK 01/M01 Q1023 NOSIG"
"1266","LFLC",2019-12-06 09:00:00,3.1494,45.7869,37.4,32,80.65,NA,3,0,30.21,NA,6.21,NA,NA,NA,NA,NA,NA,NA,NA,NA,NA,NA,NA,NA,NA,NA,NA,34.86,"LFLC 060900Z AUTO VRB03KT CAVOK 03/00 Q1023 NOSIG"
"1267","LFLC",2019-12-06 09:30:00,3.1494,45.7869,39.2,33.8,80.79,190,8,0,30.18,NA,6.21,NA,NA,NA,NA,NA,NA,NA,NA,NA,NA,NA,NA,NA,NA,NA,NA,32.98,"LFLC 060930Z AUTO 19008KT CAVOK 04/01 Q1022 NOSIG"
"1268","LFLC",2019-12-06 10:00:00,3.1494,45.7869,44.6,33.8,65.61,170,5,0,30.18,NA,6.21,NA,NA,NA,NA,NA,NA,NA,NA,NA,NA,NA,NA,NA,NA,NA,NA,41.36,"LFLC 061000Z AUTO 17005KT 120V230 CAVOK 07/01 Q1022 NOSIG"
"1269","LFLC",2019-12-06 10:30:00,3.1494,45.7869,46.4,33.8,61.28,170,7,0,30.18,NA,6.21,NA,NA,NA,NA,NA,NA,NA,NA,NA,NA,NA,NA,NA,NA,NA,NA,42.33,"LFLC 061030Z AUTO 17007KT 120V210 CAVOK 08/01 Q1022 NOSIG"
"1270","LFLC",2019-12-06 11:00:00,3.1494,45.7869,46.4,33.8,61.28,170,5,0,30.15,NA,6.21,NA,NA,NA,NA,NA,NA,NA,NA,NA,NA,NA,NA,NA,NA,NA,NA,43.5,"LFLC 061100Z AUTO 17005KT 110V210 CAVOK 08/01 Q1021 NOSIG"
"1271","LFLC",2019-12-06 11:30:00,3.1494,45.7869,50,33.8,53.54,NA,3,0,30.15,NA,6.21,NA,NA,NA,NA,NA,NA,NA,NA,NA,NA,NA,NA,NA,NA,NA,NA,49.27,"LFLC 061130Z AUTO VRB03KT CAVOK 10/01 Q1021 NOSIG"
"1272","LFLC",2019-12-06 12:00:00,3.1494,45.7869,50,33.8,53.54,190,5,0,30.15,NA,6.21,NA,NA,NA,NA,NA,NA,NA,NA,NA,NA,NA,NA,NA,NA,NA,NA,47.77,"LFLC 061200Z AUTO 19005KT CAVOK 10/01 Q1021 NOSIG"
"1273","LFLC",2019-12-06 12:30:00,3.1494,45.7869,51.8,35.6,53.81,200,7,0,30.12,NA,6.21,NA,NA,NA,NA,NA,NA,NA,NA,NA,NA,NA,NA,NA,NA,NA,NA,NA,"LFLC 061230Z AUTO 20007KT CAVOK 11/02 Q1020 NOSIG"
"1274","LFLC",2019-12-06 13:00:00,3.1494,45.7869,53.6,37.4,54.07,200,4,0,30.12,NA,6.21,NA,NA,NA,NA,NA,NA,NA,NA,NA,NA,NA,NA,NA,NA,NA,NA,NA,"LFLC 061300Z AUTO 20004KT CAVOK 12/03 Q1020 NOSIG"
"1275","LFLC",2019-12-06 13:30:00,3.1494,45.7869,53.6,37.4,54.07,190,5,0,30.09,NA,6.21,NA,NA,NA,NA,NA,NA,NA,NA,NA,NA,NA,NA,NA,NA,NA,NA,NA,"LFLC 061330Z AUTO 19005KT CAVOK 12/03 Q1019 NOSIG"
"1276","LFLC",2019-12-06 14:00:00,3.1494,45.7869,51.8,39.2,61.99,190,5,0,30.09,NA,6.21,NA,NA,NA,NA,NA,NA,NA,NA,NA,NA,NA,NA,NA,NA,NA,NA,NA,"LFLC 061400Z AUTO 19005KT CAVOK 11/04 Q1019 NOSIG"
"1277","LFLC",2019-12-06 14:30:00,3.1494,45.7869,53.6,39.2,58.02,NA,3,0,30.09,NA,6.21,NA,NA,NA,NA,NA,NA,NA,NA,NA,NA,NA,NA,NA,NA,NA,NA,NA,"LFLC 061430Z AUTO VRB03KT CAVOK 12/04 Q1019 NOSIG"
"1278","LFLC",2019-12-06 15:00:00,3.1494,45.7869,51.8,39.2,61.99,150,4,0,30.09,NA,6.21,NA,NA,NA,NA,NA,NA,NA,NA,NA,NA,NA,NA,NA,NA,NA,NA,NA,"LFLC 061500Z AUTO 15004KT CAVOK 11/04 Q1019 NOSIG"
"1279","LFLC",2019-12-06 15:30:00,3.1494,45.7869,50,39.2,66.27,0,0,0,30.09,NA,6.21,NA,"FEW","BKN",NA,NA,1000,21000,NA,NA,NA,NA,NA,NA,NA,NA,NA,NA,"LFLC 061530Z AUTO 00000KT 9999 FEW010 BKN210 10/04 Q1019 NOSIG"
"1280","LFLC",2019-12-06 16:00:00,3.1494,45.7869,50,39.2,66.27,190,4,0,30.09,NA,6.21,NA,NA,NA,NA,NA,NA,NA,NA,NA,NA,NA,NA,NA,NA,NA,NA,48.44,"LFLC 061600Z AUTO 19004KT 140V220 CAVOK 10/04 Q1019 NOSIG"
"1281","LFLC",2019-12-06 16:30:00,3.1494,45.7869,48.2,39.2,70.88,230,3,0,30.09,NA,6.21,NA,NA,NA,NA,NA,NA,NA,NA,NA,NA,NA,NA,NA,NA,NA,NA,47.21,"LFLC 061630Z AUTO 23003KT 160V290 CAVOK 09/04 Q1019 NOSIG"
"1282","LFLC",2019-12-06 17:00:00,3.1494,45.7869,48.2,39.2,70.88,NA,3,0,30.09,NA,6.21,NA,NA,NA,NA,NA,NA,NA,NA,NA,NA,NA,NA,NA,NA,NA,NA,47.21,"LFLC 061700Z AUTO VRB03KT CAVOK 09/04 Q1019 NOSIG"
"1283","LFLC",2019-12-06 17:30:00,3.1494,45.7869,48.2,39.2,70.88,NA,2,0,30.06,NA,6.21,NA,NA,NA,NA,NA,NA,NA,NA,NA,NA,NA,NA,NA,NA,NA,NA,NA,"LFLC 061730Z AUTO VRB02KT CAVOK 09/04 Q1018 NOSIG"
"1284","LFLC",2019-12-06 18:00:00,3.1494,45.7869,48.2,37.4,66.05,NA,1,0,30.09,NA,6.21,NA,NA,NA,NA,NA,NA,NA,NA,NA,NA,NA,NA,NA,NA,NA,NA,NA,"LFLC 061800Z AUTO VRB01KT CAVOK 09/03 Q1019 NOSIG"
"1285","LFLC",2019-12-06 18:30:00,3.1494,45.7869,50,35.6,57.52,NA,2,0,30.09,NA,6.21,NA,NA,NA,NA,NA,NA,NA,NA,NA,NA,NA,NA,NA,NA,NA,NA,NA,"LFLC 061830Z AUTO VRB02KT CAVOK 10/02 Q1019 NOSIG"
"1286","LFLC",2019-12-06 19:00:00,3.1494,45.7869,51.8,35.6,53.81,190,8,0,30.09,NA,6.21,NA,NA,NA,NA,NA,NA,NA,NA,NA,NA,NA,NA,NA,NA,NA,NA,NA,"LFLC 061900Z AUTO 19008KT CAVOK 11/02 Q1019 NOSIG"
"1287","LFLC",2019-12-06 19:30:00,3.1494,45.7869,50,35.6,57.52,180,10,0,30.09,NA,6.21,NA,NA,NA,NA,NA,NA,NA,NA,NA,NA,NA,NA,NA,NA,NA,NA,45.54,"LFLC 061930Z AUTO 18010KT CAVOK 10/02 Q1019 NOSIG"
"1288","LFLC",2019-12-06 20:00:00,3.1494,45.7869,50,35.6,57.52,NA,5,0,30.12,NA,6.21,NA,NA,NA,NA,NA,NA,NA,NA,NA,NA,NA,NA,NA,NA,NA,NA,47.77,"LFLC 062000Z AUTO VRB05KT CAVOK 10/02 Q1020 NOSIG"
"1289","LFLC",2019-12-06 20:30:00,3.1494,45.7869,46.4,37.4,70.68,40,3,0,30.12,NA,6.21,NA,"FEW","BKN","OVC","///",5600,8400,11000,NA,NA,NA,NA,NA,NA,NA,NA,45.15,"LFLC 062030Z AUTO 04003KT 010V110 9999 FEW056/// BKN084/// OVC110/// ///TCU 08/03 Q1020 BECMG NSC"
"1290","LFLC",2019-12-06 21:00:00,3.1494,45.7869,46.4,39.2,75.84,140,5,0,30.12,NA,6.21,NA,"FEW","OVC","///",NA,6000,9000,NA,NA,NA,NA,NA,NA,NA,NA,NA,43.5,"LFLC 062100Z AUTO 14005KT 110V180 9999 FEW060/// OVC090/// ///TCU 08/04 Q1020 BECMG NSC"
"1291","LFLC",2019-12-06 21:30:00,3.1494,45.7869,48.2,37.4,66.05,170,10,0,30.09,NA,6.21,NA,"FEW","OVC","///",NA,5600,8200,NA,NA,NA,NA,NA,NA,NA,NA,NA,43.28,"LFLC 062130Z AUTO 17010KT 9999 FEW056/// OVC082/// ///TCU 09/03 Q1019 BECMG NSC"
"1292","LFLC",2019-12-06 22:00:00,3.1494,45.7869,48.2,35.6,61.52,170,12,0,30.09,NA,6.21,NA,NA,NA,NA,NA,NA,NA,NA,NA,NA,NA,NA,NA,NA,NA,NA,42.62,"LFLC 062200Z AUTO 17012KT CAVOK 09/02 Q1019 NOSIG"
"1293","LFLC",2019-12-06 22:30:00,3.1494,45.7869,46.4,35.6,65.83,200,6,0,30.09,NA,6.21,NA,NA,NA,NA,NA,NA,NA,NA,NA,NA,NA,NA,NA,NA,NA,NA,42.87,"LFLC 062230Z AUTO 20006KT 160V250 CAVOK 08/02 Q1019 NOSIG"
"1294","LFLC",2019-12-06 23:00:00,3.1494,45.7869,48.2,35.6,61.52,NA,3,0,30.12,NA,6.21,NA,NA,NA,NA,NA,NA,NA,NA,NA,NA,NA,NA,NA,NA,NA,NA,47.21,"LFLC 062300Z AUTO VRB03KT CAVOK 09/02 Q1020 NOSIG"
"1295","LFLC",2019-12-06 23:30:00,3.1494,45.7869,48.2,37.4,66.05,170,4,0,30.12,NA,6.21,NA,NA,NA,NA,NA,NA,NA,NA,NA,NA,NA,NA,NA,NA,NA,NA,46.34,"LFLC 062330Z AUTO 17004KT 060V220 CAVOK 09/03 Q1020 NOSIG"
"1296","LFBG",2019-12-06 00:00:00,-0.3167,45.6667,37.4,37.4,100,120,2,0,30.24,NA,0.28,NA,"VV ",NA,NA,NA,NA,NA,NA,NA,"FG",NA,NA,NA,NA,NA,NA,NA,"LFBG 060000Z AUTO 12002KT 0450 0400 R23/0450N FG VV/// 03/03 Q1024"
"1297","LFBG",2019-12-06 00:30:00,-0.3167,45.6667,37.4,37.4,100,120,4,0,30.24,NA,0.37,NA,"VV ",NA,NA,NA,NA,NA,NA,NA,"FG",NA,NA,NA,NA,NA,NA,33.73,"LFBG 060030Z AUTO 12004KT 0600 0550 R23/0650N FG VV/// 03/03 Q1024"
"1298","LFBG",2019-12-06 01:00:00,-0.3167,45.6667,37.4,37.4,100,120,3,0,30.24,NA,0.5,NA,"VV ",NA,NA,NA,NA,NA,NA,NA,"FG",NA,NA,NA,NA,NA,NA,34.86,"LFBG 060100Z AUTO 12003KT 0800 0750 R23/0900D FG VV/// 03/03 Q1024"
"1299","LFBG",2019-12-06 01:30:00,-0.3167,45.6667,37.4,37.4,100,NA,2,0,30.24,NA,0.68,NA,"BKN","OVC",NA,NA,300,700,NA,NA,"BCFG",NA,NA,NA,NA,NA,NA,NA,"LFBG 060130Z AUTO VRB02KT 1100 0900 R23/1200U BCFG BKN003 OVC007 03/03 Q1024"
"1300","LFBG",2019-12-06 02:00:00,-0.3167,45.6667,37.4,37.4,100,100,2,0,30.24,NA,1.93,NA,"OVC",NA,NA,NA,700,NA,NA,NA,"BR",NA,NA,NA,NA,NA,NA,NA,"LFBG 060200Z AUTO 10002KT 3100 BR OVC007 03/03 Q1024"
"1301","LFBG",2019-12-06 02:30:00,-0.3167,45.6667,37.4,37.4,100,100,2,0,30.24,NA,2.24,NA,"OVC",NA,NA,NA,1100,NA,NA,NA,"BR",NA,NA,NA,NA,NA,NA,NA,"LFBG 060230Z AUTO 10002KT 3600 BR OVC011 03/03 Q1024"
"1302","LFBG",2019-12-06 03:00:00,-0.3167,45.6667,35.6,35.6,100,110,4,0,30.24,NA,0.37,NA,"VV ",NA,NA,NA,NA,NA,NA,NA,"FG",NA,NA,NA,NA,NA,NA,31.62,"LFBG 060300Z AUTO 11004KT 0600 R23/0750D FG VV/// 02/02 Q1024"
"1303","LFBG",2019-12-06 03:30:00,-0.3167,45.6667,35.6,35.6,100,100,3,0,30.21,NA,0.22,NA,"VV ",NA,NA,NA,NA,NA,NA,NA,"FG",NA,NA,NA,NA,NA,NA,32.8,"LFBG 060330Z AUTO 10003KT 0350 0300 R23/0325N FG VV/// 02/02 Q1023"
"1304","LFBG",2019-12-06 04:00:00,-0.3167,45.6667,35.6,35.6,100,NA,2,0,30.21,NA,0.22,NA,"VV ",NA,NA,NA,NA,NA,NA,NA,"FG",NA,NA,NA,NA,NA,NA,NA,"LFBG 060400Z AUTO VRB02KT 0350 0300 R23/0350N FG VV/// 02/02 Q1023"
"1305","LFBG",2019-12-06 04:30:00,-0.3167,45.6667,33.8,33.8,100,60,3,0,30.21,NA,0.16,NA,"VV ",NA,NA,NA,NA,NA,NA,NA,"FG",NA,NA,NA,NA,NA,NA,30.75,"LFBG 060430Z AUTO 06003KT 0250 R23/0300N FG VV/// 01/01 Q1023"
"1306","LFBG",2019-12-06 05:00:00,-0.3167,45.6667,33.8,33.8,100,70,3,0,30.21,NA,0.22,NA,"VV ",NA,NA,NA,NA,NA,NA,NA,"FG",NA,NA,NA,NA,NA,NA,30.75,"LFBG 060500Z AUTO 07003KT 0350 0300 R23/0350N FG VV/// 01/01 Q1023"
"1307","LFBG",2019-12-06 05:30:00,-0.3167,45.6667,33.8,33.8,100,0,0,0,30.21,NA,0.31,NA,"VV ",NA,NA,NA,NA,NA,NA,NA,"FG",NA,NA,NA,NA,NA,NA,NA,"LFBG 060530Z AUTO 00000KT 0500 0450 R23/0550N FG VV/// 01/01 Q1023"
"1308","LFBG",2019-12-06 06:00:00,-0.3167,45.6667,33.8,33.8,100,80,3,0,30.21,NA,0.47,NA,"VV ",NA,NA,NA,NA,NA,NA,NA,"FG",NA,NA,NA,NA,NA,NA,30.75,"LFBG 060600Z AUTO 08003KT 060V120 0750 0600 R23/0800U FG VV/// 01/01 Q1023"
"1309","LFBG",2019-12-06 06:30:00,-0.3167,45.6667,35.6,35.6,100,100,4,0,30.21,NA,1.86,NA,"OVC",NA,NA,NA,1000,NA,NA,NA,"BR",NA,NA,NA,NA,NA,NA,31.62,"LFBG 060630Z AUTO 10004KT 3000 BR OVC010 02/02 Q1023 BECMG 0500 FG VV///"
"1310","LFBG",2019-12-06 07:00:00,-0.3167,45.6667,37.4,37.4,100,40,3,0,30.21,NA,2.73,NA,"OVC",NA,NA,NA,900,NA,NA,NA,"BR",NA,NA,NA,NA,NA,NA,34.86,"LFBG 060700Z AUTO 04003KT 4400 BR OVC009 03/03 Q1023 TEMPO 0500 FG VV///"
"1311","LFBG",2019-12-06 07:30:00,-0.3167,45.6667,37.4,37.4,100,60,3,0,30.21,NA,3.11,NA,"OVC",NA,NA,NA,800,NA,NA,NA,"BR",NA,NA,NA,NA,NA,NA,34.86,"LFBG 060730Z AUTO 06003KT 5000 BR OVC008 03/03 Q1023 TEMPO 0500 FG VV///"
"1312","LFBG",2019-12-06 08:00:00,-0.3167,45.6667,39.2,39.2,100,80,4,0,30.21,NA,2.8,NA,"OVC",NA,NA,NA,700,NA,NA,NA,"BR",NA,NA,NA,NA,NA,NA,35.83,"LFBG 060800Z AUTO 08004KT 4500 BR OVC007 04/04 Q1023 TEMPO 0500 FG VV///"
"1313","LFBG",2019-12-06 08:30:00,-0.3167,45.6667,39.2,39.2,100,NA,2,0,30.21,NA,2.92,NA,"OVC",NA,NA,NA,600,NA,NA,NA,"BR",NA,NA,NA,NA,NA,NA,NA,"LFBG 060830Z AUTO VRB02KT 4700 BR OVC006 04/04 Q1023 TEMPO VV/// BECMG 8000 NSW"
"1314","LFBG",2019-12-06 09:00:00,-0.3167,45.6667,41,41,100,130,3,0,30.21,NA,2.42,NA,"OVC",NA,NA,NA,600,NA,NA,NA,"BR",NA,NA,NA,NA,NA,NA,38.98,"LFBG 060900Z AUTO 13003KT 3900 BR OVC006 05/05 Q1023 TEMPO VV/// BECMG 8000 NSW"
"1315","LFBG",2019-12-06 09:30:00,-0.3167,45.6667,42.8,42.8,100,130,3,0,30.24,NA,1.8,NA,"OVC",NA,NA,NA,400,NA,NA,NA,"BR",NA,NA,NA,NA,NA,NA,41.03,"LFBG 060930Z AUTO 13003KT 100V160 2900 BR OVC004 06/06 Q1024 BECMG 8000 NSW OVC007"
"1316","LFBG",2019-12-06 10:00:00,-0.3167,45.6667,44.6,44.6,100,160,5,0,30.24,NA,2.05,NA,"OVC",NA,NA,NA,200,NA,NA,NA,"BR",NA,NA,NA,NA,NA,NA,41.36,"LFBG 061000Z AUTO 16005KT 3300 BR OVC002 07/07 Q1024 BECMG 8000 NSW OVC007"
"1317","LFBG",2019-12-06 10:30:00,-0.3167,45.6667,44.6,44.6,100,160,7,0,30.24,NA,2.11,NA,"OVC",NA,NA,NA,200,NA,NA,NA,"BR",NA,NA,NA,NA,NA,NA,40.14,"LFBG 061030Z AUTO 16007KT 3400 BR OVC002 07/07 Q1024 BECMG 8000 NSW OVC007"
"1318","LFBG",2019-12-06 11:00:00,-0.3167,45.6667,46.4,46.4,100,150,7,0,30.21,NA,2.98,NA,"OVC",NA,NA,NA,300,NA,NA,NA,"BR",NA,NA,NA,NA,NA,NA,42.33,"LFBG 061100Z AUTO 15007KT 4800 BR OVC003 08/08 Q1023 BECMG 8000 NSW OVC007"
"1319","LFBG",2019-12-06 11:30:00,-0.3167,45.6667,46.4,46.4,100,160,9,0,30.21,NA,3.73,NA,"BKN","OVC",NA,NA,400,1300,NA,NA,NA,NA,NA,NA,NA,NA,NA,41.42,"LFBG 061130Z AUTO 16009KT 6000 BKN004 OVC013 08/08 Q1023 BECMG OVC007"
"1320","LFBG",2019-12-06 12:00:00,-0.3167,45.6667,46.4,46.4,100,170,9,0,30.18,NA,6.21,NA,"BKN","OVC",NA,NA,600,1200,NA,NA,NA,NA,NA,NA,NA,NA,NA,41.42,"LFBG 061200Z AUTO 17009KT 9999 BKN006 OVC012 08/08 Q1022 NOSIG"
"1321","LFBG",2019-12-06 12:30:00,-0.3167,45.6667,46.4,44.6,93.4,180,11,0,30.18,NA,4.97,NA,"OVC",NA,NA,NA,500,NA,NA,NA,NA,NA,NA,NA,NA,NA,NA,40.66,"LFBG 061230Z AUTO 18011KT 8000 OVC005 08/07 Q1022 NOSIG"
"1322","LFBG",2019-12-06 13:00:00,-0.3167,45.6667,46.4,44.6,93.4,180,10,0,30.15,NA,4.35,NA,"OVC",NA,NA,NA,500,NA,NA,NA,NA,NA,NA,NA,NA,NA,NA,41.03,"LFBG 061300Z AUTO 18010KT 7000 OVC005 08/07 Q1021 NOSIG"
"1323","LFBG",2019-12-06 13:30:00,-0.3167,45.6667,46.4,44.6,93.4,170,10,0,30.15,NA,4.97,NA,"OVC",NA,NA,NA,500,NA,NA,NA,NA,NA,NA,NA,NA,NA,NA,41.03,"LFBG 061330Z AUTO 17010KT 8000 OVC005 08/07 Q1021 NOSIG"
"1324","LFBG",2019-12-06 14:00:00,-0.3167,45.6667,46.4,44.6,93.4,190,8,0,30.15,NA,3.73,NA,"OVC",NA,NA,NA,400,NA,NA,NA,NA,NA,NA,NA,NA,NA,NA,41.85,"LFBG 061400Z AUTO 19008KT 6000 OVC004 08/07 Q1021 BECMG OVC007"
"1325","LFBG",2019-12-06 14:30:00,-0.3167,45.6667,46.4,44.6,93.4,180,8,0,30.15,NA,3.73,NA,"OVC",NA,NA,NA,400,NA,NA,NA,NA,NA,NA,NA,NA,NA,NA,41.85,"LFBG 061430Z AUTO 18008KT 6000 OVC004 08/07 Q1021 BECMG OVC007"
"1326","LFBG",2019-12-06 15:00:00,-0.3167,45.6667,46.4,44.6,93.4,160,8,0,30.15,NA,3.73,NA,"OVC",NA,NA,NA,300,NA,NA,NA,NA,NA,NA,NA,NA,NA,NA,41.85,"LFBG 061500Z AUTO 16008KT 6000 OVC003 08/07 Q1021 NOSIG"
"1327","LFBG",2019-12-06 15:30:00,-0.3167,45.6667,46.4,44.6,93.4,170,7,0,30.15,NA,4.97,NA,"OVC",NA,NA,NA,500,NA,NA,NA,NA,NA,NA,NA,NA,NA,NA,42.33,"LFBG 061530Z AUTO 17007KT 8000 OVC005 08/07 Q1021 NOSIG"
"1328","LFBG",2019-12-06 16:00:00,-0.3167,45.6667,46.4,44.6,93.4,160,8,0,30.12,NA,4.97,NA,"OVC",NA,NA,NA,500,NA,NA,NA,NA,NA,NA,NA,NA,NA,NA,41.85,"LFBG 061600Z AUTO 16008KT 8000 OVC005 08/07 Q1020"
"1329","LFBG",2019-12-06 16:30:00,-0.3167,45.6667,46.4,44.6,93.4,170,8,0,30.12,NA,4.97,NA,"OVC",NA,NA,NA,600,NA,NA,NA,NA,NA,NA,NA,NA,NA,NA,41.85,"LFBG 061630Z AUTO 17008KT 8000 OVC006 08/07 Q1020"
"1330","LFBG",2019-12-06 17:00:00,-0.3167,45.6667,46.4,44.6,93.4,170,4,0,30.12,NA,4.35,NA,"BKN","OVC",NA,NA,700,1100,NA,NA,NA,NA,NA,NA,NA,NA,NA,44.24,"LFBG 061700Z AUTO 17004KT 150V210 7000 BKN007 OVC011 08/07 Q1020"
"1331","LFBG",2019-12-06 17:30:00,-0.3167,45.6667,44.6,42.8,93.35,180,6,0,30.15,NA,3.73,NA,"OVC",NA,NA,NA,900,NA,NA,NA,NA,NA,NA,NA,NA,NA,NA,40.71,"LFBG 061730Z AUTO 18006KT 6000 OVC009 07/06 Q1021"
"1332","LFBG",2019-12-06 18:00:00,-0.3167,45.6667,44.6,42.8,93.35,170,6,0,30.15,NA,3.73,NA,"OVC",NA,NA,NA,1000,NA,NA,NA,NA,NA,NA,NA,NA,NA,NA,40.71,"LFBG 061800Z AUTO 17006KT 6000 OVC010 07/06 Q1021"
"1333","LFBG",2019-12-06 18:30:00,-0.3167,45.6667,44.6,42.8,93.35,180,6,0,30.15,NA,3.73,NA,"OVC",NA,NA,NA,1000,NA,NA,NA,NA,NA,NA,NA,NA,NA,NA,40.71,"LFBG 061830Z AUTO 18006KT 6000 OVC010 07/06 Q1021"
"1334","LFBG",2019-12-06 19:00:00,-0.3167,45.6667,44.6,42.8,93.35,170,5,0,30.15,NA,3.73,NA,"OVC",NA,NA,NA,1100,NA,NA,NA,NA,NA,NA,NA,NA,NA,NA,41.36,"LFBG 061900Z AUTO 17005KT 6000 OVC011 07/06 Q1021"
"1335","LFBG",2019-12-06 19:30:00,-0.3167,45.6667,44.6,42.8,93.35,160,6,0,30.15,NA,3.11,NA,"OVC",NA,NA,NA,1000,NA,NA,NA,"BR",NA,NA,NA,NA,NA,NA,40.71,"LFBG 061930Z AUTO 16006KT 5000 BR OVC010 07/06 Q1021"
"1336","LFBG",2019-12-06 20:00:00,-0.3167,45.6667,44.6,42.8,93.35,170,6,0,30.15,NA,3.04,NA,"BKN","OVC",NA,NA,500,1000,NA,NA,"BR",NA,NA,NA,NA,NA,NA,40.71,"LFBG 062000Z AUTO 17006KT 4900 BR BKN005 OVC010 07/06 Q1021"
"1337","LFBG",2019-12-06 20:30:00,-0.3167,45.6667,44.6,42.8,93.35,160,5,0,30.15,NA,2.92,NA,"OVC",NA,NA,NA,500,NA,NA,NA,"BR",NA,NA,NA,NA,NA,NA,41.36,"LFBG 062030Z AUTO 16005KT 4700 BR OVC005 07/06 Q1021"
"1338","LFBG",2019-12-06 21:00:00,-0.3167,45.6667,44.6,42.8,93.35,170,6,0,30.15,NA,3.11,NA,"OVC",NA,NA,NA,500,NA,NA,NA,"BR",NA,NA,NA,NA,NA,NA,40.71,"LFBG 062100Z AUTO 17006KT 120V210 5000 BR OVC005 07/06 Q1021"
"1339","LFBG",2019-12-06 21:30:00,-0.3167,45.6667,42.8,41,93.3,170,10,0,30.15,NA,3.11,NA,"BKN","BKN",NA,NA,500,900,NA,NA,"BR",NA,NA,NA,NA,NA,NA,36.51,"LFBG 062130Z AUTO 17010KT 5000 BR BKN005 BKN009 06/05 Q1021"
"1340","LFBG",2019-12-06 22:00:00,-0.3167,45.6667,42.8,42.8,100,NA,1,0,30.15,NA,3.11,NA,"OVC",NA,NA,NA,400,NA,NA,NA,"BR",NA,NA,NA,NA,NA,NA,NA,"LFBG 062200Z AUTO VRB01KT 5000 BR OVC004 06/06 Q1021"
"1341","LFBG",2019-12-06 22:30:00,-0.3167,45.6667,44.6,42.8,93.35,NA,3,0,30.15,NA,3.04,NA,"OVC",NA,NA,NA,400,NA,NA,NA,"BR",NA,NA,NA,NA,NA,NA,43.09,"LFBG 062230Z AUTO VRB03KT 4900 BR OVC004 07/06 Q1021"
"1342","LFBG",2019-12-06 23:00:00,-0.3167,45.6667,44.6,42.8,93.35,160,4,0,30.15,NA,3.11,NA,"OVC",NA,NA,NA,400,NA,NA,NA,"BR",NA,NA,NA,NA,NA,NA,42.13,"LFBG 062300Z AUTO 16004KT 120V190 5000 BR OVC004 07/06 Q1021"
"1343","LFBG",2019-12-06 23:30:00,-0.3167,45.6667,44.6,44.6,100,180,4,0,30.15,NA,3.11,NA,"OVC",NA,NA,NA,400,NA,NA,NA,"BR",NA,NA,NA,NA,NA,NA,42.13,"LFBG 062330Z AUTO 18004KT 140V220 5000 BR OVC004 07/07 Q1021"
"1344","LFBY",2019-12-06 00:00:00,-1.07,43.6897,41,41,100,NA,1,0,30.24,NA,0.03,NA,"OVC",NA,NA,NA,500,NA,NA,NA,NA,NA,NA,NA,NA,NA,NA,NA,"LFBY 060000Z AUTO VRB01KT 0050 // OVC005 05/05 Q1024"
"1345","LFBY",2019-12-06 01:00:00,-1.07,43.6897,39.2,39.2,100,0,0,0,30.24,NA,0.03,NA,"BKN","BKN","OVC",NA,400,900,1300,NA,NA,NA,NA,NA,NA,NA,NA,NA,"LFBY 060100Z AUTO 00000KT 0050 // BKN004 BKN009 OVC013 04/04 Q1024"
"1346","LFBY",2019-12-06 01:30:00,-1.07,43.6897,41,41,100,0,0,0,30.24,NA,0.03,NA,"BKN","OVC",NA,NA,400,900,NA,NA,NA,NA,NA,NA,NA,NA,NA,NA,"LFBY 060130Z AUTO 00000KT 0050 // BKN004 OVC009 05/05 Q1024"
"1347","LFBY",2019-12-06 02:00:00,-1.07,43.6897,39.2,39.2,100,140,2,0,30.24,NA,0.09,NA,"FEW","BKN","OVC",NA,500,1000,1500,NA,NA,NA,NA,NA,NA,NA,NA,NA,"LFBY 060200Z AUTO 14002KT 0150 // FEW005 BKN010 OVC015 04/04 Q1024"
"1348","LFBY",2019-12-06 02:30:00,-1.07,43.6897,39.2,39.2,100,NA,1,0,30.24,NA,0.03,NA,NA,NA,NA,NA,NA,NA,NA,NA,NA,NA,NA,NA,NA,NA,NA,NA,"LFBY 060230Z AUTO VRB01KT 0050 // ////// 04/04 Q1024"
"1349","LFBY",2019-12-06 03:00:00,-1.07,43.6897,39.2,39.2,100,350,3,0,30.24,NA,0.03,NA,NA,NA,NA,NA,NA,NA,NA,NA,NA,NA,NA,NA,NA,NA,NA,36.92,"LFBY 060300Z AUTO 35003KT 0050 // ////// 04/04 Q1024"
"1350","LFBY",2019-12-06 04:30:00,-1.07,43.6897,37.4,37.4,100,NA,2,0,30.24,NA,0.09,NA,"OVC",NA,NA,NA,700,NA,NA,NA,NA,NA,NA,NA,NA,NA,NA,NA,"LFBY 060430Z AUTO VRB02KT 0150 // OVC007 03/03 Q1024"
"1351","LFBY",2019-12-06 05:00:00,-1.07,43.6897,37.4,37.4,100,NA,2,0,30.24,NA,0.12,NA,"OVC",NA,NA,NA,800,NA,NA,NA,NA,NA,NA,NA,NA,NA,NA,NA,"LFBY 060500Z AUTO VRB02KT 0200 // OVC008 03/03 Q1024"
"1352","LFBY",2019-12-06 05:30:00,-1.07,43.6897,37.4,37.4,100,130,2,0,30.24,NA,0.09,NA,"OVC",NA,NA,NA,700,NA,NA,NA,NA,NA,NA,NA,NA,NA,NA,NA,"LFBY 060530Z AUTO 13002KT 0150 // OVC007 03/03 Q1024"
"1353","LFBY",2019-12-06 06:00:00,-1.07,43.6897,37.4,37.4,100,0,0,0,30.24,NA,0.03,NA,"OVC",NA,NA,NA,900,NA,NA,NA,NA,NA,NA,NA,NA,NA,NA,NA,"LFBY 060600Z AUTO 00000KT 0050 // OVC009 03/03 Q1024"
"1354","LFBY",2019-12-06 06:09:00,-1.07,43.6897,37.4,37.4,100,0,0,0,30.24,NA,0.09,NA,"VV ",NA,NA,NA,NA,NA,NA,NA,"FG",NA,NA,NA,NA,NA,NA,NA,"LFBY 060609Z 00000KT 0150 FG VV/// 03/03 Q1024 RMK M3"
"1355","LFBY",2019-12-06 07:00:00,-1.07,43.6897,37.4,37.4,100,100,3,0,30.24,NA,0.93,NA,"BKN",NA,NA,NA,500,NA,NA,NA,"BR",NA,NA,NA,NA,NA,NA,34.86,"LFBY 060700Z 10003KT 1500 BR BKN005 03/03 Q1024"
"1356","LFBY",2019-12-06 08:30:00,-1.07,43.6897,39.2,39.2,100,130,3,0,30.24,NA,0.93,NA,"SCT",NA,NA,NA,500,NA,NA,NA,"BR",NA,NA,NA,NA,NA,NA,36.92,"LFBY 060830Z 13003KT 1500 BR SCT005 04/04 Q1024"
"1357","LFBY",2019-12-06 10:00:00,-1.07,43.6897,46.4,44.6,93.4,NA,2,0,30.24,NA,1.86,NA,"SCT","BKN",NA,NA,500,25000,NA,NA,"BR",NA,NA,NA,NA,NA,NA,NA,"LFBY 061000Z VRB02KT 3000 BR SCT005 BKN250 08/07 Q1024"
"1358","LFBY",2019-12-06 11:00:00,-1.07,43.6897,50,48.2,93.5,90,3,0,30.21,NA,3.11,NA,"FEW","BKN",NA,NA,500,25000,NA,NA,"BR",NA,NA,NA,NA,NA,NA,49.27,"LFBY 061100Z 09003KT 030V130 5000 BR FEW005 BKN250 10/09 Q1023"
"1359","LFBY",2019-12-06 12:00:00,-1.07,43.6897,55.4,48.2,76.66,NA,3,0,30.18,NA,4.97,NA,"NSC",NA,NA,NA,NA,NA,NA,NA,NA,NA,NA,NA,NA,NA,NA,NA,"LFBY 061200Z VRB03KT 8000 NSC 13/09 Q1022"
"1360","LFBY",2019-12-06 13:00:00,-1.07,43.6897,59,48.2,67.33,NA,3,0,30.15,NA,4.97,NA,"NSC",NA,NA,NA,NA,NA,NA,NA,NA,NA,NA,NA,NA,NA,NA,NA,"LFBY 061300Z VRB03KT 8000 NSC 15/09 Q1021"
"1361","LFBY",2019-12-06 14:00:00,-1.07,43.6897,59,48.2,67.33,50,3,0,30.15,NA,6.21,NA,NA,NA,NA,NA,NA,NA,NA,NA,NA,NA,NA,NA,NA,NA,NA,NA,"LFBY 061400Z 05003KT 010V080 CAVOK 15/09 Q1021"
"1362","LFBY",2019-12-06 15:00:00,-1.07,43.6897,59,48.2,67.33,NA,3,0,30.12,NA,6.21,NA,NA,NA,NA,NA,NA,NA,NA,NA,NA,NA,NA,NA,NA,NA,NA,NA,"LFBY 061500Z VRB03KT CAVOK 15/09 Q1020"
"1363","LFBY",2019-12-06 16:00:00,-1.07,43.6897,57.2,48.2,71.83,0,0,0,30.12,NA,6.21,NA,NA,NA,NA,NA,NA,NA,NA,NA,NA,NA,NA,NA,NA,NA,NA,NA,"LFBY 061600Z 00000KT CAVOK 14/09 Q1020"
"1364","LFBY",2019-12-06 16:30:00,-1.07,43.6897,55.4,48.2,76.66,330,2,0,30.15,NA,5.59,NA,NA,NA,NA,NA,NA,NA,NA,NA,NA,NA,NA,NA,NA,NA,NA,NA,"LFBY 061630Z AUTO 33002KT 9000 // ////// 13/09 Q1021"
"1365","LFBY",2019-12-06 17:00:00,-1.07,43.6897,53.6,46.4,76.5,NA,2,0,30.15,NA,4.97,NA,NA,NA,NA,NA,NA,NA,NA,NA,NA,NA,NA,NA,NA,NA,NA,NA,"LFBY 061700Z AUTO VRB02KT 8000 // ////// 12/08 Q1021"
"1366","LFBY",2019-12-06 17:30:00,-1.07,43.6897,50,46.4,87.37,0,0,0,30.15,NA,3.73,NA,NA,NA,NA,NA,NA,NA,NA,NA,NA,NA,NA,NA,NA,NA,NA,NA,"LFBY 061730Z AUTO 00000KT 6000 // ////// 10/08 Q1021"
"1367","LFBY",2019-12-06 18:00:00,-1.07,43.6897,50,46.4,87.37,310,2,0,30.15,NA,1.8,NA,NA,NA,NA,NA,NA,NA,NA,NA,NA,NA,NA,NA,NA,NA,NA,NA,"LFBY 061800Z AUTO 31002KT 2900 // ////// 10/08 Q1021"
"1368","LFBY",2019-12-06 18:30:00,-1.07,43.6897,48.2,46.4,93.45,0,0,0,30.15,NA,1.74,NA,NA,NA,NA,NA,NA,NA,NA,NA,NA,NA,NA,NA,NA,NA,NA,NA,"LFBY 061830Z AUTO 00000KT 2800 // ////// 09/08 Q1021"
"1369","LFBY",2019-12-06 19:00:00,-1.07,43.6897,46.4,44.6,93.4,NA,1,0,30.15,NA,1.62,NA,NA,NA,NA,NA,NA,NA,NA,NA,NA,NA,NA,NA,NA,NA,NA,NA,"LFBY 061900Z AUTO VRB01KT 2600 // ////// 08/07 Q1021"
"1370","LFBY",2019-12-06 19:30:00,-1.07,43.6897,46.4,44.6,93.4,290,4,0,30.18,NA,1.43,NA,"NSC",NA,NA,NA,NA,NA,NA,NA,NA,NA,NA,NA,NA,NA,NA,44.24,"LFBY 061930Z AUTO 29004KT 2300 // NSC 08/07 Q1022"
"1371","LFBY",2019-12-06 20:00:00,-1.07,43.6897,46.4,46.4,100,NA,2,0,30.18,NA,1.86,NA,"NSC",NA,NA,NA,NA,NA,NA,NA,NA,NA,NA,NA,NA,NA,NA,NA,"LFBY 062000Z AUTO VRB02KT 3000 // NSC 08/08 Q1022"
"1372","LFBY",2019-12-06 20:30:00,-1.07,43.6897,46.4,44.6,93.4,0,0,0,30.18,NA,1.86,NA,"NSC",NA,NA,NA,NA,NA,NA,NA,NA,NA,NA,NA,NA,NA,NA,NA,"LFBY 062030Z AUTO 00000KT 3000 // NSC 08/07 Q1022"
"1373","LFBY",2019-12-06 21:00:00,-1.07,43.6897,46.4,44.6,93.4,0,0,0,30.18,NA,1.74,NA,"NSC",NA,NA,NA,NA,NA,NA,NA,NA,NA,NA,NA,NA,NA,NA,NA,"LFBY 062100Z AUTO 00000KT 2800 // NSC 08/07 Q1022"
"1374","LFBY",2019-12-06 21:30:00,-1.07,43.6897,46.4,46.4,100,320,1,0,30.21,NA,1.74,NA,"NSC",NA,NA,NA,NA,NA,NA,NA,NA,NA,NA,NA,NA,NA,NA,NA,"LFBY 062130Z AUTO 32001KT 2800 // NSC 08/08 Q1023"
"1375","LFBY",2019-12-06 22:00:00,-1.07,43.6897,46.4,46.4,100,0,0,0,30.21,NA,1.74,NA,"FEW",NA,NA,NA,1600,NA,NA,NA,NA,NA,NA,NA,NA,NA,NA,NA,"LFBY 062200Z AUTO 00000KT 2800 // FEW016 08/08 Q1023"
"1376","LFBY",2019-12-06 22:30:00,-1.07,43.6897,46.4,44.6,93.4,NA,2,0,30.21,NA,1.24,NA,NA,NA,NA,NA,NA,NA,NA,NA,NA,NA,NA,NA,NA,NA,NA,NA,"LFBY 062230Z AUTO VRB02KT 2000 // ////// 08/07 Q1023"
"1377","LFBY",2019-12-06 23:00:00,-1.07,43.6897,46.4,46.4,100,0,0,0,30.21,NA,1.37,NA,"NSC",NA,NA,NA,NA,NA,NA,NA,NA,NA,NA,NA,NA,NA,NA,NA,"LFBY 062300Z AUTO 00000KT 2200 // NSC 08/08 Q1023"
"1378","LFBY",2019-12-06 23:30:00,-1.07,43.6897,48.2,48.2,100,200,4,0,30.21,NA,1.68,NA,NA,NA,NA,NA,NA,NA,NA,NA,NA,NA,NA,NA,NA,NA,NA,46.34,"LFBY 062330Z AUTO 20004KT 2700 // ////// 09/09 Q1023"
"1379","LFSD",2019-12-06 00:00:00,5.0883,47.2778,30.2,30.2,100,210,4,0,30.24,NA,0.31,NA,"VV ",NA,NA,NA,NA,NA,NA,NA,"FZFG",NA,NA,NA,NA,NA,NA,25.32,"LFSD 060000Z AUTO 21004KT 0500 0450 R35/0550N FZFG VV/// M01/M01 Q1024"
"1380","LFSD",2019-12-06 00:30:00,5.0883,47.2778,30.2,30.2,100,210,4,0,30.21,NA,0.31,NA,"VV ",NA,NA,NA,NA,NA,NA,NA,"FZFG",NA,NA,NA,NA,NA,NA,25.32,"LFSD 060030Z AUTO 21004KT 0500 R35/0550N FZFG VV/// M01/M01 Q1023"
"1381","LFSD",2019-12-06 01:00:00,5.0883,47.2778,30.2,30.2,100,230,3,0,30.21,NA,0.34,NA,"VV ",NA,NA,NA,NA,NA,NA,NA,"FZFG",NA,NA,NA,NA,NA,NA,26.63,"LFSD 060100Z AUTO 23003KT 0550 0500 R35/0600N FZFG VV/// M01/M01 Q1023"
"1382","LFSD",2019-12-06 01:30:00,5.0883,47.2778,30.2,30.2,100,200,4,0,30.21,NA,0.31,NA,"VV ",NA,NA,NA,NA,NA,NA,NA,"FZFG",NA,NA,NA,NA,NA,NA,25.32,"LFSD 060130Z AUTO 20004KT 0500 0450 R35/0550N FZFG VV/// M01/M01 Q1023"
"1383","LFSD",2019-12-06 02:00:00,5.0883,47.2778,30.2,30.2,100,250,2,0,30.21,NA,0.28,NA,"VV ",NA,NA,NA,NA,NA,NA,NA,"FZFG",NA,NA,NA,NA,NA,NA,NA,"LFSD 060200Z AUTO 25002KT 0450 R35/0550N FZFG VV/// M01/M01 Q1023"
"1384","LFSD",2019-12-06 02:30:00,5.0883,47.2778,30.2,30.2,100,NA,2,0,30.21,NA,0.28,NA,"VV ",NA,NA,NA,NA,NA,NA,NA,"FZFG",NA,NA,NA,NA,NA,NA,NA,"LFSD 060230Z AUTO VRB02KT 0450 R35/0550N FZFG VV/// M01/M01 Q1023"
"1385","LFSD",2019-12-06 03:00:00,5.0883,47.2778,30.2,30.2,100,NA,2,0,30.21,NA,0.28,NA,"VV ",NA,NA,NA,NA,NA,NA,NA,"FZFG",NA,NA,NA,NA,NA,NA,NA,"LFSD 060300Z AUTO VRB02KT 0450 R35/0550N FZFG VV/// M01/M01 Q1023"
"1386","LFSD",2019-12-06 03:30:00,5.0883,47.2778,30.2,30.2,100,280,3,0,30.21,NA,0.31,NA,"VV ",NA,NA,NA,NA,NA,NA,NA,"FZFG",NA,NA,NA,NA,NA,NA,26.63,"LFSD 060330Z AUTO 28003KT 0500 R35/0650N FZFG VV/// M01/M01 Q1023"
"1387","LFSD",2019-12-06 04:00:00,5.0883,47.2778,30.2,30.2,100,250,1,0,30.21,NA,0.31,NA,"VV ",NA,NA,NA,NA,NA,NA,NA,"FZFG",NA,NA,NA,NA,NA,NA,NA,"LFSD 060400Z AUTO 25001KT 0500 0450 R35/0600N FZFG VV/// M01/M01 Q1023"
"1388","LFSD",2019-12-06 04:30:00,5.0883,47.2778,30.2,30.2,100,0,0,0,30.18,NA,0.31,NA,"VV ",NA,NA,NA,NA,NA,NA,NA,"FZFG",NA,NA,NA,NA,NA,NA,NA,"LFSD 060430Z AUTO 00000KT 0500 R35/0600N FZFG VV/// M01/M01 Q1022"
"1389","LFSD",2019-12-06 05:00:00,5.0883,47.2778,30.2,30.2,100,0,0,0,30.18,NA,0.34,NA,"VV ",NA,NA,NA,NA,NA,NA,NA,"FZFG",NA,NA,NA,NA,NA,NA,NA,"LFSD 060500Z AUTO 00000KT 0550 0500 R35/0650U FZFG VV/// M01/M01 Q1022"
"1390","LFSD",2019-12-06 05:30:00,5.0883,47.2778,30.2,30.2,100,0,0,0,30.18,NA,0.34,NA,"VV ",NA,NA,NA,NA,NA,NA,NA,"FZFG",NA,NA,NA,NA,NA,NA,NA,"LFSD 060530Z AUTO 00000KT 0550 R35/0650N FZFG VV/// M01/M01 Q1022"
"1391","LFSD",2019-12-06 06:00:00,5.0883,47.2778,30.2,30.2,100,0,0,0,30.18,NA,0.4,NA,"VV ",NA,NA,NA,NA,NA,NA,NA,"FZFG",NA,NA,NA,NA,NA,NA,NA,"LFSD 060600Z AUTO 00000KT 0650 R35/0800N FZFG VV/// M01/M01 Q1022"
"1392","LFSD",2019-12-06 06:30:00,5.0883,47.2778,30.2,30.2,100,0,0,0,30.18,NA,0.37,NA,"VV ",NA,NA,NA,NA,NA,NA,NA,"FZFG",NA,NA,NA,NA,NA,NA,NA,"LFSD 060630Z AUTO 00000KT 0600 0550 R35/0700N FZFG VV/// M01/M01 Q1022"
"1393","LFSD",2019-12-06 07:00:00,5.0883,47.2778,30.2,30.2,100,0,0,0,30.18,NA,0.34,NA,"VV ",NA,NA,NA,NA,NA,NA,NA,"FZFG",NA,NA,NA,NA,NA,NA,NA,"LFSD 060700Z AUTO 00000KT 0550 R35/0700N FZFG VV/// M01/M01 Q1022"
"1394","LFSD",2019-12-06 07:30:00,5.0883,47.2778,30.2,30.2,100,0,0,0,30.18,NA,0.34,NA,"VV ",NA,NA,NA,NA,NA,NA,NA,"FZFG",NA,NA,NA,NA,NA,NA,NA,"LFSD 060730Z AUTO 00000KT 0550 0500 R35/0650N FZFG VV/// M01/M01 Q1022"
"1395","LFSD",2019-12-06 08:00:00,5.0883,47.2778,30.2,30.2,100,0,0,0,30.18,NA,0.31,NA,"VV ",NA,NA,NA,NA,NA,NA,NA,"FZFG",NA,NA,NA,NA,NA,NA,NA,"LFSD 060800Z AUTO 00000KT 0500 R35/0650N FZFG VV/// M01/M01 Q1022"
"1396","LFSD",2019-12-06 08:30:00,5.0883,47.2778,30.2,30.2,100,0,0,0,30.18,NA,0.31,NA,"VV ",NA,NA,NA,NA,NA,NA,NA,"FZFG",NA,NA,NA,NA,NA,NA,NA,"LFSD 060830Z AUTO 00000KT 0500 R35/0650N FZFG VV/// M01/M01 Q1022"
"1397","LFSD",2019-12-06 09:00:00,5.0883,47.2778,30.2,30.2,100,0,0,0,30.18,NA,0.31,NA,"VV ",NA,NA,NA,NA,NA,NA,NA,"FZFG",NA,NA,NA,NA,NA,NA,NA,"LFSD 060900Z AUTO 00000KT 0500 0450 R35/0600N FZFG VV/// M01/M01 Q1022"
"1398","LFSD",2019-12-06 09:30:00,5.0883,47.2778,30.2,30.2,100,0,0,0,30.18,NA,0.28,NA,"VV ",NA,NA,NA,NA,NA,NA,NA,"FZFG",NA,NA,NA,NA,NA,NA,NA,"LFSD 060930Z AUTO 00000KT 0450 R35/0650N FZFG VV/// M01/M01 Q1022"
"1399","LFSD",2019-12-06 10:00:00,5.0883,47.2778,30.2,30.2,100,0,0,0,30.18,NA,0.31,NA,"VV ",NA,NA,NA,NA,NA,NA,NA,"FZFG",NA,NA,NA,NA,NA,NA,NA,"LFSD 061000Z AUTO 00000KT 0500 R35/0800U FZFG VV/// M01/M01 Q1022"
"1400","LFSD",2019-12-06 10:30:00,5.0883,47.2778,32,32,100,0,0,0,30.18,NA,0.43,NA,"VV ",NA,NA,NA,NA,NA,NA,NA,"FZFG",NA,NA,NA,NA,NA,NA,NA,"LFSD 061030Z AUTO 00000KT 0700 0650 R35/1400U FZFG VV/// M00/M00 Q1022"
"1401","LFSD",2019-12-06 11:00:00,5.0883,47.2778,32,32,100,0,0,0,30.15,NA,0.62,NA,"OVC",NA,NA,NA,200,NA,NA,NA,"BR",NA,NA,NA,NA,NA,NA,NA,"LFSD 061100Z AUTO 00000KT 1000 R35/1500D BR OVC002 M00/M00 Q1021"
"1402","LFSD",2019-12-06 11:30:00,5.0883,47.2778,32,32,100,0,0,0,30.15,NA,1.3,NA,"OVC",NA,NA,NA,200,NA,NA,NA,"BR",NA,NA,NA,NA,NA,NA,NA,"LFSD 061130Z AUTO 00000KT 2100 BR OVC002 00/00 Q1021"
"1403","LFSD",2019-12-06 12:00:00,5.0883,47.2778,33.8,33.8,100,0,0,0,30.15,NA,1.24,NA,"OVC",NA,NA,NA,200,NA,NA,NA,"BR",NA,NA,NA,NA,NA,NA,NA,"LFSD 061200Z AUTO 00000KT 2000 BR OVC002 01/01 Q1021"
"1404","LFSD",2019-12-06 12:30:00,5.0883,47.2778,33.8,33.8,100,200,5,0,30.12,NA,1.8,NA,"OVC",NA,NA,NA,300,NA,NA,NA,"BR",NA,NA,NA,NA,NA,NA,28.53,"LFSD 061230Z AUTO 20005KT 2900 BR OVC003 01/01 Q1020"
"1405","LFSD",2019-12-06 13:00:00,5.0883,47.2778,33.8,33.8,100,200,6,0,30.12,NA,2.17,NA,"OVC",NA,NA,NA,300,NA,NA,NA,"BR",NA,NA,NA,NA,NA,NA,27.7,"LFSD 061300Z AUTO 20006KT 3500 BR OVC003 01/01 Q1020"
"1406","LFSD",2019-12-06 13:30:00,5.0883,47.2778,33.8,33.8,100,190,6,0,30.09,NA,2.05,NA,"OVC",NA,NA,NA,300,NA,NA,NA,"BR",NA,NA,NA,NA,NA,NA,27.7,"LFSD 061330Z AUTO 19006KT 3300 BR OVC003 01/01 Q1019"
"1407","LFSD",2019-12-06 14:00:00,5.0883,47.2778,35.6,35.6,100,190,8,0,30.09,NA,2.11,NA,"OVC",NA,NA,NA,300,NA,NA,NA,"BR",NA,NA,NA,NA,NA,NA,28.55,"LFSD 061400Z AUTO 19008KT 3400 BR OVC003 02/02 Q1019"
"1408","LFSD",2019-12-06 14:30:00,5.0883,47.2778,35.6,35.6,100,210,6,0,30.09,NA,2.36,NA,"BKN",NA,NA,NA,300,NA,NA,NA,"BR",NA,NA,NA,NA,NA,NA,29.87,"LFSD 061430Z AUTO 21006KT 3800 BR BKN003 02/02 Q1019"
"1409","LFSD",2019-12-06 15:00:00,5.0883,47.2778,35.6,35.6,100,190,5,0,30.09,NA,2.49,NA,"FEW",NA,NA,NA,400,NA,NA,NA,"BR",NA,NA,NA,NA,NA,NA,30.67,"LFSD 061500Z AUTO 19005KT 4000 BR FEW004 02/02 Q1019"
"1410","LFSD",2019-12-06 15:30:00,5.0883,47.2778,35.6,35.6,100,200,6,0,30.06,NA,2.05,NA,"FEW","BKN","BKN",NA,400,16000,18000,NA,"BR",NA,NA,NA,NA,NA,NA,29.87,"LFSD 061530Z AUTO 20006KT 3300 BR FEW004 BKN160 BKN180 02/02 Q1018"
"1411","LFSD",2019-12-06 16:00:00,5.0883,47.2778,35.6,35.6,100,180,6,0,30.06,NA,2.55,NA,"NSC",NA,NA,NA,NA,NA,NA,NA,"BR",NA,NA,NA,NA,NA,NA,29.87,"LFSD 061600Z AUTO 18006KT 4100 BR NSC 02/02 Q1018"
"1412","LFSD",2019-12-06 16:30:00,5.0883,47.2778,35.6,35.6,100,170,3,0,30.06,NA,3.04,NA,"NSC",NA,NA,NA,NA,NA,NA,NA,"BR",NA,NA,NA,NA,NA,NA,32.8,"LFSD 061630Z AUTO 17003KT 140V210 4900 BR NSC 02/02 Q1018"
"1413","LFSD",2019-12-06 17:00:00,5.0883,47.2778,35.6,35.6,100,180,6,0,30.06,NA,3.11,NA,"NSC",NA,NA,NA,NA,NA,NA,NA,"BR",NA,NA,NA,NA,NA,NA,29.87,"LFSD 061700Z AUTO 18006KT 5000 BR NSC 02/02 Q1018"
"1414","LFSD",2019-12-06 17:30:00,5.0883,47.2778,37.4,37.4,100,190,6,0,30.06,NA,3.73,NA,"NSC",NA,NA,NA,NA,NA,NA,NA,NA,NA,NA,NA,NA,NA,NA,32.03,"LFSD 061730Z AUTO 19006KT 6000 NSC 03/03 Q1018"
"1415","LFSD",2019-12-06 18:00:00,5.0883,47.2778,37.4,37.4,100,200,7,0,30.06,NA,5.59,NA,"NSC",NA,NA,NA,NA,NA,NA,NA,NA,NA,NA,NA,NA,NA,NA,31.36,"LFSD 061800Z AUTO 20007KT 9000 NSC 03/03 Q1018"
"1416","LFSD",2019-12-06 18:30:00,5.0883,47.2778,39.2,37.4,93.19,180,5,0,30.06,NA,5.59,NA,"NSC",NA,NA,NA,NA,NA,NA,NA,NA,NA,NA,NA,NA,NA,NA,34.95,"LFSD 061830Z AUTO 18005KT 9000 NSC 04/03 Q1018"
"1417","LFSD",2019-12-06 19:00:00,5.0883,47.2778,39.2,37.4,93.19,200,6,0,30.06,NA,5.59,NA,"NSC",NA,NA,NA,NA,NA,NA,NA,NA,NA,NA,NA,NA,NA,NA,34.2,"LFSD 061900Z AUTO 20006KT 9000 NSC 04/03 Q1018"
"1418","LFSD",2019-12-06 19:30:00,5.0883,47.2778,39.2,39.2,100,190,6,0,30.06,NA,5.59,NA,"///",NA,NA,NA,NA,NA,NA,NA,NA,NA,NA,NA,NA,NA,NA,34.2,"LFSD 061930Z AUTO 19006KT 9000 ///TCU 04/04 Q1018"
"1419","LFSD",2019-12-06 20:00:00,5.0883,47.2778,39.2,39.2,100,160,5,0,30.06,NA,6.21,NA,"///",NA,NA,NA,NA,NA,NA,NA,"-RA",NA,NA,NA,NA,NA,NA,34.95,"LFSD 062000Z AUTO 16005KT 9999 -RA ///TCU 04/04 Q1018"
"1420","LFSD",2019-12-06 20:30:00,5.0883,47.2778,41,39.2,93.24,180,10,0,30.03,NA,6.21,NA,NA,NA,NA,NA,NA,NA,NA,NA,NA,NA,NA,NA,NA,NA,NA,34.25,"LFSD 062030Z AUTO 18010KT CAVOK 05/04 Q1017"
"1421","LFSD",2019-12-06 21:00:00,5.0883,47.2778,41,39.2,93.24,200,10,0,30.06,NA,6.21,NA,NA,NA,NA,NA,NA,NA,NA,NA,NA,NA,NA,NA,NA,NA,NA,34.25,"LFSD 062100Z AUTO 20010KT CAVOK 05/04 Q1018"
"1422","LFSD",2019-12-06 21:30:00,5.0883,47.2778,42.8,39.2,86.99,200,12,0,30.06,NA,6.21,NA,NA,NA,NA,NA,NA,NA,NA,NA,NA,NA,NA,NA,NA,NA,NA,35.75,"LFSD 062130Z AUTO 20012KT CAVOK 06/04 Q1018"
"1423","LFSD",2019-12-06 22:00:00,5.0883,47.2778,42.8,39.2,86.99,200,12,0,30.06,NA,6.21,NA,NA,NA,NA,NA,NA,NA,NA,NA,NA,NA,NA,NA,NA,NA,NA,35.75,"LFSD 062200Z AUTO 20012KT CAVOK 06/04 Q1018"
"1424","LFSD",2019-12-06 22:30:00,5.0883,47.2778,44.6,39.2,81.2,200,11,0,30.06,NA,6.21,NA,NA,NA,NA,NA,NA,NA,NA,NA,NA,NA,NA,NA,NA,NA,NA,38.39,"LFSD 062230Z AUTO 20011KT CAVOK 07/04 Q1018"
"1425","LFSD",2019-12-06 23:00:00,5.0883,47.2778,44.6,39.2,81.2,200,11,0,30.06,NA,6.21,NA,NA,NA,NA,NA,NA,NA,NA,NA,NA,NA,NA,NA,NA,NA,NA,38.39,"LFSD 062300Z AUTO 20011KT CAVOK 07/04 Q1018"
"1426","LFSD",2019-12-06 23:30:00,5.0883,47.2778,44.6,39.2,81.2,200,12,0,30.06,NA,6.21,NA,NA,NA,NA,NA,NA,NA,NA,NA,NA,NA,NA,NA,NA,NA,NA,38.04,"LFSD 062330Z AUTO 20012KT CAVOK 07/04 Q1018"
"1427","LFRD",2019-12-06 00:00:00,-2.0748,48.5889,42.8,41,93.3,200,9,0,30.12,NA,5.59,NA,"NSC",NA,NA,NA,NA,NA,NA,NA,NA,NA,NA,NA,NA,NA,NA,36.94,"LFRD 060000Z AUTO 20009KT 9000 NSC 06/05 Q1020"
"1428","LFRD",2019-12-06 00:30:00,-2.0748,48.5889,42.8,41,93.3,200,9,0,30.12,NA,5.59,NA,"NSC",NA,NA,NA,NA,NA,NA,NA,NA,NA,NA,NA,NA,NA,NA,36.94,"LFRD 060030Z AUTO 20009KT 9000 NSC 06/05 Q1020"
"1429","LFRD",2019-12-06 01:00:00,-2.0748,48.5889,42.8,41,93.3,200,11,0,30.09,NA,5.59,NA,"NSC",NA,NA,NA,NA,NA,NA,NA,NA,NA,NA,NA,NA,NA,NA,36.11,"LFRD 060100Z AUTO 20011KT 9000 NSC 06/05 Q1019"
"1430","LFRD",2019-12-06 01:30:00,-2.0748,48.5889,44.6,42.8,93.35,200,10,0,30.09,NA,5.59,NA,"NSC",NA,NA,NA,NA,NA,NA,NA,NA,NA,NA,NA,NA,NA,NA,38.77,"LFRD 060130Z AUTO 20010KT 9000 NSC 07/06 Q1019"
"1431","LFRD",2019-12-06 02:00:00,-2.0748,48.5889,44.6,42.8,93.35,200,9,0,30.09,NA,5.59,NA,"NSC",NA,NA,NA,NA,NA,NA,NA,NA,NA,NA,NA,NA,NA,NA,39.18,"LFRD 060200Z AUTO 20009KT 9000 NSC 07/06 Q1019"
"1432","LFRD",2019-12-06 02:30:00,-2.0748,48.5889,44.6,42.8,93.35,190,9,0,30.06,NA,4.97,NA,"NSC",NA,NA,NA,NA,NA,NA,NA,NA,NA,NA,NA,NA,NA,NA,39.18,"LFRD 060230Z AUTO 19009KT 8000 NSC 07/06 Q1018"
"1433","LFRD",2019-12-06 03:00:00,-2.0748,48.5889,44.6,42.8,93.35,200,10,0,30.06,NA,4.97,NA,"NSC",NA,NA,NA,NA,NA,NA,NA,NA,NA,NA,NA,NA,NA,NA,38.77,"LFRD 060300Z AUTO 20010KT 8000 NSC 07/06 Q1018"
"1434","LFRD",2019-12-06 03:30:00,-2.0748,48.5889,44.6,42.8,93.35,200,12,0,30.06,NA,4.35,NA,"NSC",NA,NA,NA,NA,NA,NA,NA,NA,NA,NA,NA,NA,NA,NA,38.04,"LFRD 060330Z AUTO 20012KT 7000 NSC 07/06 Q1018"
"1435","LFRD",2019-12-06 04:00:00,-2.0748,48.5889,44.6,44.6,100,210,11,0,30.03,NA,4.97,NA,"NSC",NA,NA,NA,NA,NA,NA,NA,NA,NA,NA,NA,NA,NA,NA,38.39,"LFRD 060400Z AUTO 21011KT 8000 NSC 07/07 Q1017"
"1436","LFRD",2019-12-06 04:30:00,-2.0748,48.5889,44.6,44.6,100,200,13,0,30.03,NA,4.97,NA,"///",NA,NA,NA,NA,NA,NA,NA,NA,NA,NA,NA,NA,NA,NA,37.71,"LFRD 060430Z AUTO 20013KT 8000 ///TCU 07/07 Q1017"
"1437","LFRD",2019-12-06 05:00:00,-2.0748,48.5889,46.4,44.6,93.4,200,14,0,30.03,NA,5.59,NA,"FEW","BKN","OVC","///",2000,4900,9200,NA,NA,NA,NA,NA,NA,NA,NA,39.72,"LFRD 060500Z AUTO 20014KT 9000 FEW020/// BKN049/// OVC092/// ///TCU 08/07 Q1017"
"1438","LFRD",2019-12-06 05:30:00,-2.0748,48.5889,46.4,44.6,93.4,200,15,0,30,NA,4.35,NA,"FEW","BKN","OVC","///",900,1900,6600,NA,"-RA",NA,NA,NA,NA,NA,NA,39.45,"LFRD 060530Z AUTO 20015KT 7000 -RA FEW009/// BKN019/// OVC066/// ///CB 08/07 Q1016"
"1439","LFRD",2019-12-06 06:00:00,-2.0748,48.5889,46.4,44.6,93.4,200,14,0,30,NA,4.35,NA,"OVC","///",NA,NA,1600,NA,NA,NA,"-RA",NA,NA,NA,NA,NA,NA,39.72,"LFRD 060600Z AUTO 20014KT 7000 -RA OVC016/// ///CB 08/07 Q1016"
"1440","LFRD",2019-12-06 06:30:00,-2.0748,48.5889,46.4,46.4,100,200,12,0,30.03,NA,4.35,NA,"FEW","OVC","///",NA,900,1500,NA,NA,"-RA",NA,NA,NA,NA,NA,NA,40.33,"LFRD 060630Z AUTO 20012KT 7000 -RA FEW009/// OVC015/// ///CB 08/08 Q1017"
"1441","LFRD",2019-12-06 07:00:00,-2.0748,48.5889,46.4,46.4,100,210,10,0,30.03,NA,4.35,NA,"SCT","OVC","///",NA,900,1400,NA,NA,"-RA",NA,NA,NA,NA,NA,NA,41.03,"LFRD 060700Z AUTO 21010KT 7000 -RA SCT009/// OVC014/// ///CB 08/08 Q1017"
"1442","LFRD",2019-12-06 07:30:00,-2.0748,48.5889,46.4,46.4,100,200,11,0,30,NA,4.97,NA,"FEW","OVC","///",NA,800,1500,NA,NA,"-RA",NA,NA,NA,NA,NA,NA,40.66,"LFRD 060730Z AUTO 20011KT 8000 -RA FEW008/// OVC015/// ///TCU 08/08 Q1016"
"1443","LFRD",2019-12-06 08:00:00,-2.0748,48.5889,48.2,46.4,93.45,200,13,0,30,NA,6.21,NA,"OVC","///",NA,NA,1500,NA,NA,NA,"-RA",NA,NA,NA,NA,NA,NA,42.32,"LFRD 060800Z AUTO 20013KT 9999 -RA OVC015/// ///TCU 09/08 Q1016"
"1444","LFRD",2019-12-06 08:30:00,-2.0748,48.5889,48.2,48.2,100,210,11,0,30,NA,6.21,NA,"OVC",NA,NA,NA,1200,NA,NA,NA,NA,NA,NA,NA,NA,NA,NA,42.94,"LFRD 060830Z AUTO 21011KT 9999 OVC012 09/09 Q1016 TEMPO 3000 RA BKN005 BECMG 20015G27KT"
"1445","LFRD",2019-12-06 09:00:00,-2.0748,48.5889,50,48.2,93.5,210,14,0,30,NA,6.21,NA,"OVC",NA,NA,NA,1200,NA,NA,NA,NA,NA,NA,NA,NA,NA,NA,44.36,"LFRD 060900Z AUTO 21014KT 9999 OVC012 10/09 Q1016 TEMPO 3000 RA BKN005 BECMG 20015G27KT"
"1446","LFRD",2019-12-06 09:30:00,-2.0748,48.5889,50,48.2,93.5,210,15,0,30,NA,6.21,NA,"OVC",NA,NA,NA,1200,NA,NA,NA,NA,NA,NA,NA,NA,NA,NA,44.12,"LFRD 060930Z AUTO 21015KT 9999 OVC012 10/09 Q1016 TEMPO 3000 RA BKN005 BECMG 20015G27KT"
"1447","LFRD",2019-12-06 10:00:00,-2.0748,48.5889,50,48.2,93.5,220,14,0,30,NA,6.21,NA,"OVC",NA,NA,NA,1100,NA,NA,NA,NA,NA,NA,NA,NA,NA,NA,44.36,"LFRD 061000Z AUTO 22014KT 9999 OVC011 10/09 Q1016 TEMPO 3000 RA BKN005 BECMG 20015G27KT"
"1448","LFRD",2019-12-06 10:30:00,-2.0748,48.5889,51.8,50,93.55,210,14,0,29.97,NA,6.21,NA,"OVC",NA,NA,NA,1100,NA,NA,NA,NA,NA,NA,NA,NA,NA,NA,NA,"LFRD 061030Z AUTO 21014KT 9999 OVC011 11/10 Q1015 TEMPO 3000 RA BKN005 BECMG 20015G27KT"
"1449","LFRD",2019-12-06 11:00:00,-2.0748,48.5889,51.8,50,93.55,210,16,0,29.97,NA,6.21,NA,"OVC",NA,NA,NA,1100,NA,NA,NA,NA,NA,NA,NA,NA,NA,NA,NA,"LFRD 061100Z AUTO 21016KT 9999 OVC011 11/10 Q1015 TEMPO 3000 RA BKN005 BECMG 20015G27KT"
"1450","LFRD",2019-12-06 11:30:00,-2.0748,48.5889,51.8,50,93.55,210,16,0,29.94,NA,6.21,NA,"OVC",NA,NA,NA,1100,NA,NA,NA,NA,NA,NA,NA,NA,NA,NA,NA,"LFRD 061130Z AUTO 21016KT 9999 OVC011 11/10 Q1014 TEMPO 3000 RA BKN005 BECMG 25015G25KT"
"1451","LFRD",2019-12-06 12:00:00,-2.0748,48.5889,53.6,50,87.56,210,19,0,29.91,NA,6.21,NA,"OVC",NA,NA,NA,1200,NA,NA,NA,NA,NA,NA,NA,NA,NA,NA,NA,"LFRD 061200Z AUTO 21019KT 9999 OVC012 12/10 Q1013 TEMPO 3000 RA BKN005 BECMG 25015G25KT"
"1452","LFRD",2019-12-06 12:30:00,-2.0748,48.5889,53.6,51.8,93.6,220,20,0,29.88,NA,6.21,NA,"BKN","OVC",NA,NA,1300,1900,NA,NA,NA,NA,NA,NA,NA,NA,NA,NA,"LFRD 061230Z AUTO 22020KT 9999 BKN013 OVC019 12/11 Q1012 TEMPO 3000 RA BKN005 BECMG 25015G25KT"
"1453","LFRD",2019-12-06 13:00:00,-2.0748,48.5889,53.6,50,87.56,220,15,0,29.88,NA,6.21,NA,"BKN","OVC",NA,NA,1300,1800,NA,NA,NA,NA,NA,NA,NA,NA,NA,NA,"LFRD 061300Z AUTO 22015KT 9999 BKN013 OVC018 12/10 Q1012 TEMPO 3000 RA BKN005 BECMG 25015G25KT"
"1454","LFRD",2019-12-06 13:30:00,-2.0748,48.5889,53.6,51.8,93.6,220,16,0,29.88,NA,6.21,NA,"OVC",NA,NA,NA,1300,NA,NA,NA,NA,NA,NA,NA,NA,NA,NA,NA,"LFRD 061330Z AUTO 22016KT 9999 OVC013 12/11 Q1012 TEMPO 3000 RA BECMG 25015G25KT BKN030"
"1455","LFRD",2019-12-06 14:00:00,-2.0748,48.5889,53.6,51.8,93.6,240,17,0,29.88,NA,2.55,NA,"OVC",NA,NA,NA,1400,NA,NA,NA,"-RA BR",NA,NA,NA,NA,NA,NA,NA,"LFRD 061400Z AUTO 24017KT 4100 1800 -RA BR OVC014 12/11 Q1012 BECMG 25015G25KT 9999 NSW BKN030"
"1456","LFRD",2019-12-06 14:30:00,-2.0748,48.5889,53.6,51.8,93.6,220,16,0,29.88,NA,6.21,NA,"FEW","BKN","OVC",NA,1000,1500,2100,NA,NA,NA,NA,NA,NA,NA,NA,NA,"LFRD 061430Z AUTO 22016KT 9999 FEW010 BKN015 OVC021 12/11 Q1012 BECMG 25015G25KT"
"1457","LFRD",2019-12-06 15:00:00,-2.0748,48.5889,53.6,51.8,93.6,220,17,0,29.85,NA,6.21,NA,"BKN","OVC",NA,NA,1400,2500,NA,NA,NA,NA,NA,NA,NA,NA,NA,NA,"LFRD 061500Z AUTO 22017KT 9999 BKN014 OVC025 12/11 Q1011 BECMG 25015G25KT BKN030"
"1458","LFRD",2019-12-06 15:30:00,-2.0748,48.5889,53.6,51.8,93.6,230,16,0,29.88,NA,6.21,NA,"BKN","OVC",NA,NA,1500,2000,NA,NA,NA,NA,NA,NA,NA,NA,NA,NA,"LFRD 061530Z AUTO 23016KT 9999 BKN015 OVC020 12/11 Q1012 BECMG 25015G25KT"
"1459","LFRD",2019-12-06 16:00:00,-2.0748,48.5889,53.6,51.8,93.6,230,14,0,29.88,NA,6.21,NA,"OVC",NA,NA,NA,1300,NA,NA,NA,"-RADZ",NA,NA,NA,NA,NA,NA,NA,"LFRD 061600Z AUTO 23014KT 9999 4300 -RADZ OVC013 12/11 Q1012 BECMG 25015G25KT BKN030"
"1460","LFRD",2019-12-06 16:30:00,-2.0748,48.5889,53.6,51.8,93.6,260,11,0,29.88,NA,6.21,NA,"FEW","BKN","BKN",NA,600,1000,1700,NA,"-RA",NA,NA,NA,NA,NA,NA,NA,"LFRD 061630Z AUTO 26011KT 9999 -RA FEW006 BKN010 BKN017 12/11 Q1012 TEMPO 25015G25KT BECMG BKN030"
"1461","LFRD",2019-12-06 17:00:00,-2.0748,48.5889,53.6,50,87.56,250,9,0,29.91,NA,6.21,NA,"FEW","SCT","OVC",NA,1300,3900,4500,NA,NA,NA,NA,NA,NA,NA,NA,NA,"LFRD 061700Z AUTO 25009KT 9999 FEW013 SCT039 OVC045 12/10 Q1013 TEMPO 25015G25KT"
"1462","LFRD",2019-12-06 17:30:00,-2.0748,48.5889,51.8,50,93.55,260,8,0,29.91,NA,6.21,NA,"BKN","OVC",NA,NA,3000,3800,NA,NA,NA,NA,NA,NA,NA,NA,NA,NA,"LFRD 061730Z AUTO 26008KT 9999 BKN030 OVC038 11/10 Q1013 TEMPO 4000 SHRA BKN010"
"1463","LFRD",2019-12-06 18:00:00,-2.0748,48.5889,53.6,48.2,81.87,260,11,0,29.91,NA,6.21,NA,"SCT","OVC",NA,NA,2600,3200,NA,NA,NA,NA,NA,NA,NA,NA,NA,NA,"LFRD 061800Z AUTO 26011KT 9999 SCT026 OVC032 12/09 Q1013 TEMPO 4000 SHRA BKN010"
"1464","LFRD",2019-12-06 18:30:00,-2.0748,48.5889,51.8,48.2,87.47,250,10,0,29.91,NA,6.21,NA,"FEW","OVC",NA,NA,3400,4500,NA,NA,NA,NA,NA,NA,NA,NA,NA,NA,"LFRD 061830Z AUTO 25010KT 9999 FEW034 OVC045 11/09 Q1013 TEMPO 4000 SHRA BKN010"
"1465","LFRD",2019-12-06 19:00:00,-2.0748,48.5889,51.8,48.2,87.47,230,10,0,29.91,NA,6.21,NA,"OVC",NA,NA,NA,4800,NA,NA,NA,NA,NA,NA,NA,NA,NA,NA,NA,"LFRD 061900Z AUTO 23010KT 9999 OVC048 11/09 Q1013 TEMPO 4000 SHRA BKN010"
"1466","LFRD",2019-12-06 19:30:00,-2.0748,48.5889,51.8,48.2,87.47,230,11,0,29.94,NA,6.21,NA,"OVC",NA,NA,NA,4700,NA,NA,NA,NA,NA,NA,NA,NA,NA,NA,NA,"LFRD 061930Z AUTO 23011KT 9999 OVC047 11/09 Q1014 TEMPO 4000 SHRA BKN010"
"1467","LFRD",2019-12-06 20:00:00,-2.0748,48.5889,51.8,48.2,87.47,240,9,0,29.94,NA,6.21,NA,"OVC",NA,NA,NA,4500,NA,NA,NA,NA,NA,NA,NA,NA,NA,NA,NA,"LFRD 062000Z AUTO 24009KT 9999 OVC045 11/09 Q1014 TEMPO 4000 SHRA BKN010"
"1468","LFRD",2019-12-06 20:30:00,-2.0748,48.5889,51.8,48.2,87.47,250,7,0,29.97,NA,6.21,NA,"FEW","OVC",NA,NA,2300,4600,NA,NA,NA,NA,NA,NA,NA,NA,NA,NA,"LFRD 062030Z AUTO 25007KT 9999 FEW023 OVC046 11/09 Q1015 NOSIG"
"1469","LFRD",2019-12-06 21:00:00,-2.0748,48.5889,51.8,48.2,87.47,250,9,0,29.97,NA,6.21,NA,"BKN","OVC",NA,NA,2500,3000,NA,NA,NA,NA,NA,NA,NA,NA,NA,NA,"LFRD 062100Z AUTO 25009KT 9999 BKN025 OVC030 11/09 Q1015 NOSIG"
"1470","LFRD",2019-12-06 21:30:00,-2.0748,48.5889,51.8,50,93.55,250,10,0,29.97,NA,6.21,NA,"BKN","BKN","OVC",NA,1900,2500,3300,NA,"-RADZ",NA,NA,NA,NA,NA,NA,NA,"LFRD 062130Z AUTO 25010KT 9999 -RADZ BKN019 BKN025 OVC033 11/10 Q1015 NOSIG"
"1471","LFRD",2019-12-06 22:00:00,-2.0748,48.5889,50,50,100,270,6,0,29.97,NA,4.97,NA,"BKN","BKN","BKN",NA,1900,2600,4200,NA,"DZ",NA,NA,NA,NA,NA,NA,47.21,"LFRD 062200Z AUTO 27006KT 8000 DZ BKN019 BKN026 BKN042 10/10 Q1015 BECMG NSW"
"1472","LFRD",2019-12-06 22:30:00,-2.0748,48.5889,50,50,100,220,5,0,29.97,NA,6.21,NA,"BKN","BKN","OVC",NA,1900,2400,2900,NA,NA,NA,NA,NA,NA,NA,NA,47.77,"LFRD 062230Z AUTO 22005KT 9999 BKN019 BKN024 OVC029 10/10 Q1015 NOSIG"
"1473","LFRD",2019-12-06 23:00:00,-2.0748,48.5889,50,50,100,220,6,0,30,NA,5.59,NA,"BKN","OVC",NA,NA,1700,2700,NA,NA,"-RADZ",NA,NA,NA,NA,NA,NA,47.21,"LFRD 062300Z AUTO 22006KT 9000 -RADZ BKN017 OVC027 10/10 Q1016 NOSIG"
"1474","LFRD",2019-12-06 23:30:00,-2.0748,48.5889,50,48.2,93.5,240,7,0,30,NA,6.21,NA,"FEW","OVC",NA,NA,2600,4200,NA,NA,NA,NA,NA,NA,NA,NA,NA,46.72,"LFRD 062330Z AUTO 24007KT 9999 FEW026 OVC042 10/09 Q1016 NOSIG"
"1475","LFGJ",2019-12-06 00:00:00,5.4272,47.0439,30.2,30.2,100,NA,3,0,30.24,NA,0.34,NA,"VV ",NA,NA,NA,NA,NA,NA,NA,"FZFG",NA,NA,NA,NA,NA,NA,26.63,"LFGJ 060000Z AUTO VRB03KT 0550 0500 R05/0750N FZFG VV/// M01/M01 Q1024"
"1476","LFGJ",2019-12-06 00:30:00,5.4272,47.0439,30.2,30.2,100,210,3,0,30.24,NA,0.34,NA,"VV ",NA,NA,NA,NA,NA,NA,NA,"FZFG",NA,NA,NA,NA,NA,NA,26.63,"LFGJ 060030Z AUTO 21003KT 140V240 0550 0500 R05/0700N FZFG VV/// M01/M01 Q1024"
"1477","LFGJ",2019-12-06 01:00:00,5.4272,47.0439,30.2,30.2,100,160,4,0,30.24,NA,0.34,NA,"VV ",NA,NA,NA,NA,NA,NA,NA,"FZFG",NA,NA,NA,NA,NA,NA,25.32,"LFGJ 060100Z AUTO 16004KT 140V200 0550 R05/0700N FZFG VV/// M01/M01 Q1024"
"1478","LFGJ",2019-12-06 01:30:00,5.4272,47.0439,30.2,30.2,100,180,4,0,30.21,NA,0.37,NA,"VV ",NA,NA,NA,NA,NA,NA,NA,"FZFG",NA,NA,NA,NA,NA,NA,25.32,"LFGJ 060130Z AUTO 18004KT 0600 R05/0750N FZFG VV/// M01/M01 Q1023"
"1479","LFGJ",2019-12-06 02:00:00,5.4272,47.0439,30.2,30.2,100,210,4,0,30.24,NA,0.4,NA,"VV ",NA,NA,NA,NA,NA,NA,NA,"FZFG",NA,NA,NA,NA,NA,NA,25.32,"LFGJ 060200Z AUTO 21004KT 170V230 0650 R05/0800N FZFG VV/// M01/M01 Q1024"
"1480","LFGJ",2019-12-06 02:30:00,5.4272,47.0439,30.2,30.2,100,180,4,0,30.21,NA,0.4,NA,"VV ",NA,NA,NA,NA,NA,NA,NA,"FZFG",NA,NA,NA,NA,NA,NA,25.32,"LFGJ 060230Z AUTO 18004KT 150V210 0650 0600 R05/0800U FZFG VV/// M01/M01 Q1023"
"1481","LFGJ",2019-12-06 03:00:00,5.4272,47.0439,30.2,30.2,100,190,5,0,30.21,NA,0.37,NA,"VV ",NA,NA,NA,NA,NA,NA,NA,"FZFG",NA,NA,NA,NA,NA,NA,24.26,"LFGJ 060300Z AUTO 19005KT 0600 0550 R05/0800N FZFG VV/// M01/M01 Q1023"
"1482","LFGJ",2019-12-06 03:30:00,5.4272,47.0439,30.2,30.2,100,NA,2,0,30.21,NA,0.31,NA,"VV ",NA,NA,NA,NA,NA,NA,NA,"FZFG",NA,NA,NA,NA,NA,NA,NA,"LFGJ 060330Z AUTO VRB02KT 0500 R05/0600N FZFG VV/// M01/M01 Q1023"
"1483","LFGJ",2019-12-06 04:00:00,5.4272,47.0439,30.2,30.2,100,NA,1,0,30.21,NA,0.34,NA,"VV ",NA,NA,NA,NA,NA,NA,NA,"FZFG",NA,NA,NA,NA,NA,NA,NA,"LFGJ 060400Z AUTO VRB01KT 0550 0500 R05/0650N FZFG VV/// M01/M01 Q1023"
"1484","LFGJ",2019-12-06 04:30:00,5.4272,47.0439,30.2,30.2,100,NA,2,0,30.21,NA,0.31,NA,"VV ",NA,NA,NA,NA,NA,NA,NA,"FZFG",NA,NA,NA,NA,NA,NA,NA,"LFGJ 060430Z AUTO VRB02KT 0500 0450 R05/0650N FZFG VV/// M01/M01 Q1023"
"1485","LFGJ",2019-12-06 05:00:00,5.4272,47.0439,30.2,30.2,100,230,3,0,30.21,NA,0.28,NA,"VV ",NA,NA,NA,NA,NA,NA,NA,"FZFG",NA,NA,NA,NA,NA,NA,26.63,"LFGJ 060500Z AUTO 23003KT 0450 R05/0550N FZFG VV/// M01/M01 Q1023"
"1486","LFGJ",2019-12-06 05:30:00,5.4272,47.0439,30.2,30.2,100,200,5,0,30.21,NA,0.34,NA,"VV ",NA,NA,NA,NA,NA,NA,NA,"FZFG",NA,NA,NA,NA,NA,NA,24.26,"LFGJ 060530Z AUTO 20005KT 0550 0500 R05/0750N FZFG VV/// M01/M01 Q1023"
"1487","LFGJ",2019-12-06 06:00:00,5.4272,47.0439,32,32,100,200,5,0,30.21,NA,0.31,NA,"VV ",NA,NA,NA,NA,NA,NA,NA,"FZFG",NA,NA,NA,NA,NA,NA,26.4,"LFGJ 060600Z AUTO 20005KT 0500 0450 R05/0650N FZFG VV/// M00/M00 Q1023"
"1488","LFGJ",2019-12-06 06:30:00,5.4272,47.0439,32,32,100,190,6,0,30.21,NA,0.4,NA,"VV ",NA,NA,NA,NA,NA,NA,NA,"FZFG",NA,NA,NA,NA,NA,NA,25.53,"LFGJ 060630Z AUTO 19006KT 0650 0600 R05/0800N FZFG VV/// M00/M00 Q1023 BECMG 0400 FZFG"
"1489","LFGJ",2019-12-06 07:00:00,5.4272,47.0439,32,32,100,190,6,0,30.21,NA,0.4,NA,"VV ",NA,NA,NA,NA,NA,NA,NA,"FZFG",NA,NA,NA,NA,NA,NA,25.53,"LFGJ 060700Z AUTO 19006KT 0650 R05/0800U FZFG VV/// M00/M00 Q1023 BECMG 0400 FZFG"
"1490","LFGJ",2019-12-06 07:30:00,5.4272,47.0439,32,32,100,200,5,0,30.21,NA,0.31,NA,"VV ",NA,NA,NA,NA,NA,NA,NA,"FZFG",NA,NA,NA,NA,NA,NA,26.4,"LFGJ 060730Z AUTO 20005KT 0500 R05/0700N FZFG VV/// M00/M00 Q1023 NOSIG"
"1491","LFGJ",2019-12-06 08:00:00,5.4272,47.0439,32,32,100,200,4,0,30.21,NA,0.28,NA,"VV ",NA,NA,NA,NA,NA,NA,NA,"FZFG",NA,NA,NA,NA,NA,NA,27.42,"LFGJ 060800Z AUTO 20004KT 180V240 0450 R05/0650N FZFG VV/// M00/M00 Q1023 NOSIG"
"1492","LFGJ",2019-12-06 08:30:00,5.4272,47.0439,32,32,100,180,7,0,30.21,NA,0.31,NA,"VV ",NA,NA,NA,NA,NA,NA,NA,"FZFG",NA,NA,NA,NA,NA,NA,24.78,"LFGJ 060830Z AUTO 18007KT 0500 0450 R05/0700N FZFG VV/// M00/M00 Q1023 BECMG 4000 BR SCT004"
"1493","LFGJ",2019-12-06 09:00:00,5.4272,47.0439,32,32,100,180,7,0,30.21,NA,0.28,NA,"VV ",NA,NA,NA,NA,NA,NA,NA,"FZFG",NA,NA,NA,NA,NA,NA,24.78,"LFGJ 060900Z AUTO 18007KT 0450 R05/0700N FZFG VV/// M00/M00 Q1023 BECMG 4000 BR SCT004"
"1494","LFGJ",2019-12-06 09:30:00,5.4272,47.0439,32,32,100,200,6,0,30.21,NA,1.06,NA,"VV ",NA,NA,NA,NA,NA,NA,NA,"BR",NA,NA,NA,NA,NA,NA,25.53,"LFGJ 060930Z AUTO 20006KT 1700 BR VV/// 00/00 Q1023 BECMG CAVOK"
"1495","LFGJ",2019-12-06 10:30:00,5.4272,47.0439,35.6,35.6,100,220,8,0,30.18,NA,3.11,NA,"BKN",NA,NA,NA,400,NA,NA,NA,"BR",NA,NA,NA,NA,NA,NA,28.55,"LFGJ 061030Z AUTO 22008KT 5000 BR BKN004 02/02 Q1022 BECMG NSC"
"1496","LFGJ",2019-12-06 11:00:00,5.4272,47.0439,35.6,35.6,100,230,7,0,30.18,NA,3.73,NA,"BKN",NA,NA,NA,500,NA,NA,NA,NA,NA,NA,NA,NA,NA,NA,29.17,"LFGJ 061100Z AUTO 23007KT 6000 BKN005 02/02 Q1022 BECMG NSC"
"1497","LFGJ",2019-12-06 11:30:00,5.4272,47.0439,37.4,37.4,100,210,9,0,30.15,NA,5.59,NA,"FEW",NA,NA,NA,500,NA,NA,NA,NA,NA,NA,NA,NA,NA,NA,30.23,"LFGJ 061130Z AUTO 21009KT 9000 FEW005 03/03 Q1021 NOSIG"
"1498","LFGJ",2019-12-06 12:00:00,5.4272,47.0439,39.2,37.4,93.19,210,9,0,30.15,NA,5.59,NA,"NSC",NA,NA,NA,NA,NA,NA,NA,NA,NA,NA,NA,NA,NA,NA,32.47,"LFGJ 061200Z AUTO 21009KT 9000 NSC 04/03 Q1021 NOSIG"
"1499","LFGJ",2019-12-06 12:30:00,5.4272,47.0439,39.2,39.2,100,230,7,0,30.12,NA,5.59,NA,"NSC",NA,NA,NA,NA,NA,NA,NA,NA,NA,NA,NA,NA,NA,NA,33.56,"LFGJ 061230Z AUTO 23007KT 9000 NSC 04/04 Q1020 NOSIG"
"1500","LFGJ",2019-12-06 13:00:00,5.4272,47.0439,42.8,41,93.3,220,8,0,30.12,NA,6.21,NA,NA,NA,NA,NA,NA,NA,NA,NA,NA,NA,NA,NA,NA,NA,NA,37.42,"LFGJ 061300Z AUTO 22008KT CAVOK 06/05 Q1020 NOSIG"
"1501","LFGJ",2019-12-06 13:30:00,5.4272,47.0439,44.6,41,87.09,220,8,0,30.12,NA,6.21,NA,NA,NA,NA,NA,NA,NA,NA,NA,NA,NA,NA,NA,NA,NA,NA,39.63,"LFGJ 061330Z AUTO 22008KT CAVOK 07/05 Q1020 NOSIG"
"1502","LFGJ",2019-12-06 14:00:00,5.4272,47.0439,44.6,41,87.09,220,9,0,30.09,NA,6.21,NA,NA,NA,NA,NA,NA,NA,NA,NA,NA,NA,NA,NA,NA,NA,NA,39.18,"LFGJ 061400Z AUTO 22009KT CAVOK 07/05 Q1019 NOSIG"
"1503","LFGJ",2019-12-06 14:30:00,5.4272,47.0439,44.6,41,87.09,210,7,0,30.09,NA,6.21,NA,NA,NA,NA,NA,NA,NA,NA,NA,NA,NA,NA,NA,NA,NA,NA,40.14,"LFGJ 061430Z AUTO 21007KT CAVOK 07/05 Q1019 NOSIG"
"1504","LFGJ",2019-12-06 15:00:00,5.4272,47.0439,44.6,41,87.09,210,5,0,30.09,NA,6.21,NA,NA,NA,NA,NA,NA,NA,NA,NA,NA,NA,NA,NA,NA,NA,NA,41.36,"LFGJ 061500Z AUTO 21005KT CAVOK 07/05 Q1019 NOSIG"
"1505","LFGJ",2019-12-06 15:30:00,5.4272,47.0439,41,39.2,93.24,190,4,0,30.09,NA,6.21,NA,NA,NA,NA,NA,NA,NA,NA,NA,NA,NA,NA,NA,NA,NA,NA,37.93,"LFGJ 061530Z AUTO 19004KT CAVOK 05/04 Q1019 NOSIG"
"1506","LFGJ",2019-12-06 17:00:00,5.4272,47.0439,41,39.2,93.24,190,6,0,30.09,NA,6.21,NA,NA,NA,NA,NA,NA,NA,NA,NA,NA,NA,NA,NA,NA,NA,NA,36.37,"LFGJ 061700Z AUTO 19006KT CAVOK 05/04 Q1019 NOSIG"
"1507","LFGJ",2019-12-06 17:30:00,5.4272,47.0439,42.8,39.2,86.99,210,6,0,30.09,NA,6.21,NA,"FEW","SCT","BKN",NA,4300,5400,13000,NA,NA,NA,NA,NA,NA,NA,NA,38.54,"LFGJ 061730Z AUTO 21006KT 180V240 9999 FEW043 SCT054 BKN130 06/04 Q1019 NOSIG"
"1508","LFGJ",2019-12-06 18:00:00,5.4272,47.0439,42.8,39.2,86.99,NA,3,0,30.09,NA,6.21,NA,"SCT","OVC",NA,NA,4400,13000,NA,NA,NA,NA,NA,NA,NA,NA,NA,41.03,"LFGJ 061800Z AUTO VRB03KT 9999 SCT044 OVC130 06/04 Q1019 NOSIG"
"1509","LFGJ",2019-12-06 18:30:00,5.4272,47.0439,42.8,39.2,86.99,NA,1,0,30.09,NA,6.21,NA,NA,NA,NA,NA,NA,NA,NA,NA,NA,NA,NA,NA,NA,NA,NA,NA,"LFGJ 061830Z AUTO VRB01KT CAVOK 06/04 Q1019"
"1510","LFGJ",2019-12-06 19:00:00,5.4272,47.0439,42.8,39.2,86.99,230,4,0,30.09,NA,6.21,NA,"NCD",NA,NA,NA,NA,NA,NA,NA,NA,NA,NA,NA,NA,NA,NA,40.03,"LFGJ 061900Z AUTO 23004KT 9999 NCD 06/04 Q1019"
"1511","LFGJ",2019-12-06 19:30:00,5.4272,47.0439,42.8,39.2,86.99,260,5,0,30.09,NA,6.21,NA,NA,NA,NA,NA,NA,NA,NA,NA,NA,NA,NA,NA,NA,NA,NA,39.22,"LFGJ 061930Z AUTO 26005KT CAVOK 06/04 Q1019"
"1512","LFGJ",2019-12-06 20:00:00,5.4272,47.0439,42.8,39.2,86.99,200,7,0,30.09,NA,6.21,NA,"NCD",NA,NA,NA,NA,NA,NA,NA,NA,NA,NA,NA,NA,NA,NA,37.94,"LFGJ 062000Z AUTO 20007KT 9999 NCD 06/04 Q1019"
"1513","LFGJ",2019-12-06 20:30:00,5.4272,47.0439,42.8,39.2,86.99,210,4,0,30.09,NA,6.21,NA,NA,NA,NA,NA,NA,NA,NA,NA,NA,NA,NA,NA,NA,NA,NA,40.03,"LFGJ 062030Z AUTO 21004KT CAVOK 06/04 Q1019"
"1514","LFGJ",2019-12-06 21:00:00,5.4272,47.0439,44.6,39.2,81.2,190,8,0,30.09,NA,6.21,NA,"///",NA,NA,NA,NA,NA,NA,NA,"-RA",NA,NA,NA,NA,NA,NA,39.63,"LFGJ 062100Z AUTO 19008KT 9999 -RA ///TCU 07/04 Q1019"
"1515","LFGJ",2019-12-06 21:30:00,5.4272,47.0439,44.6,37.4,75.68,170,14,0,30.06,NA,6.21,NA,"NSC",NA,NA,NA,NA,NA,NA,NA,"-RA",NA,NA,NA,NA,NA,NA,37.4,"LFGJ 062130Z AUTO 17014KT 9999 -RA NSC 07/03 Q1018"
"1516","LFGJ",2019-12-06 22:00:00,5.4272,47.0439,44.6,37.4,75.68,210,12,0,30.09,NA,6.21,NA,NA,NA,NA,NA,NA,NA,NA,NA,NA,NA,NA,NA,NA,NA,NA,38.04,"LFGJ 062200Z AUTO 21012KT CAVOK 07/03 Q1019"
"1517","LFGJ",2019-12-06 22:30:00,5.4272,47.0439,44.6,37.4,75.68,190,10,0,30.09,NA,6.21,NA,NA,NA,NA,NA,NA,NA,NA,NA,NA,NA,NA,NA,NA,NA,NA,38.77,"LFGJ 062230Z AUTO 19010KT CAVOK 07/03 Q1019"
"1518","LFGJ",2019-12-06 23:00:00,5.4272,47.0439,44.6,37.4,75.68,190,12,0,30.09,NA,6.21,NA,NA,NA,NA,NA,NA,NA,NA,NA,NA,NA,NA,NA,NA,NA,NA,38.04,"LFGJ 062300Z AUTO 19012KT CAVOK 07/03 Q1019"
"1519","LFGJ",2019-12-06 23:30:00,5.4272,47.0439,44.6,37.4,75.68,200,10,0,30.09,NA,6.21,NA,NA,NA,NA,NA,NA,NA,NA,NA,NA,NA,NA,NA,NA,NA,NA,38.77,"LFGJ 062330Z AUTO 20010KT CAVOK 07/03 Q1019"
"1520","LFSG",2019-12-06 00:00:00,6.07,48.325,26.6,26.6,100,210,6,0,30.18,NA,5.59,NA,"OVC",NA,NA,NA,400,NA,NA,NA,NA,NA,NA,NA,NA,NA,NA,19.03,"LFSG 060000Z AUTO 21006KT 9000 OVC004 M03/M03 Q1022"
"1521","LFSG",2019-12-06 00:30:00,6.07,48.325,28.4,26.6,92.86,210,7,0,30.18,NA,4.35,NA,"OVC",NA,NA,NA,300,NA,NA,NA,NA,NA,NA,NA,NA,NA,NA,20.39,"LFSG 060030Z AUTO 21007KT 7000 OVC003 M02/M03 Q1022"
"1522","LFSG",2019-12-06 01:00:00,6.07,48.325,28.4,26.6,92.86,200,7,0,30.18,NA,3.11,NA,"OVC",NA,NA,NA,300,NA,NA,NA,"BR",NA,NA,NA,NA,NA,NA,20.39,"LFSG 060100Z AUTO 20007KT 5000 BR OVC003 M02/M03 Q1022"
"1523","LFSG",2019-12-06 01:30:00,6.07,48.325,28.4,26.6,92.86,200,7,0,30.18,NA,3.11,NA,"OVC",NA,NA,NA,300,NA,NA,NA,"BR",NA,NA,NA,NA,NA,NA,20.39,"LFSG 060130Z AUTO 20007KT 5000 BR OVC003 M02/M03 Q1022"
"1524","LFSG",2019-12-06 02:00:00,6.07,48.325,28.4,26.6,92.86,200,7,0,30.18,NA,4.35,NA,"OVC",NA,NA,NA,300,NA,NA,NA,NA,NA,NA,NA,NA,NA,NA,20.39,"LFSG 060200Z AUTO 20007KT 7000 OVC003 M02/M03 Q1022"
"1525","LFSG",2019-12-06 02:30:00,6.07,48.325,28.4,26.6,92.86,200,8,0,30.18,NA,3.73,NA,"OVC",NA,NA,NA,300,NA,NA,NA,NA,NA,NA,NA,NA,NA,NA,19.68,"LFSG 060230Z AUTO 20008KT 6000 OVC003 M02/M03 Q1022"
"1526","LFSG",2019-12-06 03:00:00,6.07,48.325,28.4,26.6,92.86,190,7,0,30.15,NA,4.35,NA,"OVC",NA,NA,NA,300,NA,NA,NA,NA,NA,NA,NA,NA,NA,NA,20.39,"LFSG 060300Z AUTO 19007KT 7000 OVC003 M02/M03 Q1021"
"1527","LFSG",2019-12-06 03:30:00,6.07,48.325,28.4,26.6,92.86,190,9,0,30.15,NA,2.49,NA,"OVC",NA,NA,NA,300,NA,NA,NA,"BR",NA,NA,NA,NA,NA,NA,19.04,"LFSG 060330Z AUTO 19009KT 4000 BR OVC003 M02/M03 Q1021"
"1528","LFSG",2019-12-06 04:00:00,6.07,48.325,28.4,28.4,100,210,4,0,30.15,NA,3.04,NA,"OVC",NA,NA,NA,200,NA,NA,NA,"BR",NA,NA,NA,NA,NA,NA,23.22,"LFSG 060400Z AUTO 21004KT 4900 BR OVC002 M02/M02 Q1021"
"1529","LFSG",2019-12-06 04:30:00,6.07,48.325,28.4,28.4,100,200,10,0,30.15,NA,1.18,NA,"OVC",NA,NA,NA,200,NA,NA,NA,"BR",NA,NA,NA,NA,NA,NA,18.45,"LFSG 060430Z AUTO 20010KT 1900 BR OVC002 M02/M02 Q1021"
"1530","LFSG",2019-12-06 05:00:00,6.07,48.325,28.4,28.4,100,200,9,0,30.15,NA,1.37,NA,"OVC",NA,NA,NA,200,NA,NA,NA,"BR",NA,NA,NA,NA,NA,NA,19.04,"LFSG 060500Z AUTO 20009KT 2200 BR OVC002 M02/M02 Q1021"
"1531","LFSG",2019-12-06 05:30:00,6.07,48.325,28.4,28.4,100,200,10,0,30.15,NA,1.43,NA,"OVC",NA,NA,NA,200,NA,NA,NA,"BR",NA,NA,NA,NA,NA,NA,18.45,"LFSG 060530Z AUTO 20010KT 2300 BR OVC002 M02/M02 Q1021"
"1532","LFSG",2019-12-06 06:00:00,6.07,48.325,28.4,28.4,100,180,9,0,30.15,NA,1.49,NA,"OVC",NA,NA,NA,200,NA,NA,NA,"BR",NA,NA,NA,NA,NA,NA,19.04,"LFSG 060600Z AUTO 18009KT 2400 BR OVC002 M02/M02 Q1021"
"1533","LFSG",2019-12-06 06:30:00,6.07,48.325,28.4,28.4,100,190,7,0,30.15,NA,2.67,NA,"OVC",NA,NA,NA,200,NA,NA,NA,"BR",NA,NA,NA,NA,NA,NA,20.39,"LFSG 060630Z AUTO 19007KT 160V220 4300 BR OVC002 M02/M02 Q1021"
"1534","LFSG",2019-12-06 07:00:00,6.07,48.325,30.2,28.4,92.92,200,8,0,30.12,NA,1.8,NA,"OVC",NA,NA,NA,200,NA,NA,NA,"BR",NA,NA,NA,NA,NA,NA,21.9,"LFSG 060700Z AUTO 20008KT 2900 BR OVC002 M01/M02 Q1020"
"1535","LFSG",2019-12-06 07:30:00,6.07,48.325,30.2,28.4,92.92,190,10,0,30.12,NA,1.37,NA,"OVC",NA,NA,NA,200,NA,NA,NA,"BR",NA,NA,NA,NA,NA,NA,20.71,"LFSG 060730Z AUTO 19010KT 2200 BR OVC002 M01/M02 Q1020"
"1536","LFSG",2019-12-06 08:00:00,6.07,48.325,30.2,28.4,92.92,200,10,0,30.12,NA,2.42,NA,"OVC",NA,NA,NA,300,NA,NA,NA,"BR",NA,NA,NA,NA,NA,NA,20.71,"LFSG 060800Z AUTO 20010KT 3900 BR OVC003 M01/M02 Q1020"
"1537","LFSG",2019-12-06 08:30:00,6.07,48.325,30.2,30.2,100,190,10,0,30.12,NA,0.5,NA,"OVC",NA,NA,NA,200,NA,NA,NA,"FZFG",NA,NA,NA,NA,NA,NA,20.71,"LFSG 060830Z AUTO 19010KT 0800 R26/1200N FZFG OVC002 M01/M01 Q1020"
"1538","LFSG",2019-12-06 09:00:00,6.07,48.325,30.2,30.2,100,190,8,0,30.12,NA,1.06,NA,"OVC",NA,NA,NA,200,NA,NA,NA,"BR",NA,NA,NA,NA,NA,NA,21.9,"LFSG 060900Z AUTO 19008KT 1700 BR OVC002 M01/M01 Q1020"
"1539","LFSG",2019-12-06 09:30:00,6.07,48.325,32,30.2,92.97,200,6,0,30.12,NA,2.05,NA,"OVC",NA,NA,NA,300,NA,NA,NA,"BR",NA,NA,NA,NA,NA,NA,25.53,"LFSG 060930Z AUTO 20006KT 3300 BR OVC003 M00/M01 Q1020"
"1540","LFSG",2019-12-06 10:00:00,6.07,48.325,32,30.2,92.97,200,7,0,30.12,NA,2.3,NA,"OVC",NA,NA,NA,300,NA,NA,NA,"BR",NA,NA,NA,NA,NA,NA,24.78,"LFSG 061000Z AUTO 20007KT 170V230 3700 BR OVC003 M00/M01 Q1020"
"1541","LFSG",2019-12-06 10:30:00,6.07,48.325,32,32,100,190,9,0,30.12,NA,3.11,NA,"OVC",NA,NA,NA,300,NA,NA,NA,"BR",NA,NA,NA,NA,NA,NA,23.51,"LFSG 061030Z AUTO 19009KT 5000 BR OVC003 00/M00 Q1020"
"1542","LFSG",2019-12-06 11:00:00,6.07,48.325,32,32,100,190,11,0,30.09,NA,4.35,NA,"OVC",NA,NA,NA,300,NA,NA,NA,NA,NA,NA,NA,NA,NA,NA,22.47,"LFSG 061100Z AUTO 19011KT 7000 OVC003 00/00 Q1019"
"1543","LFSG",2019-12-06 11:30:00,6.07,48.325,33.8,32,93.03,190,12,0,30.09,NA,6.21,NA,"OVC",NA,NA,NA,400,NA,NA,NA,NA,NA,NA,NA,NA,NA,NA,24.29,"LFSG 061130Z AUTO 19012KT 9999 OVC004 01/00 Q1019"
"1544","LFSG",2019-12-06 12:00:00,6.07,48.325,33.8,33.8,100,200,12,0,30.09,NA,6.21,NA,"OVC",NA,NA,NA,500,NA,NA,NA,NA,NA,NA,NA,NA,NA,NA,24.29,"LFSG 061200Z AUTO 20012KT 9999 OVC005 01/01 Q1019"
"1545","LFSG",2019-12-06 12:30:00,6.07,48.325,33.8,33.8,100,190,12,0,30.06,NA,6.21,NA,"BKN",NA,NA,NA,500,NA,NA,NA,NA,NA,NA,NA,NA,NA,NA,24.29,"LFSG 061230Z AUTO 19012KT 9999 BKN005 01/01 Q1018"
"1546","LFSG",2019-12-06 13:00:00,6.07,48.325,35.6,33.8,93.08,200,10,0,30.06,NA,6.21,NA,"FEW","SCT",NA,NA,500,18000,NA,NA,NA,NA,NA,NA,NA,NA,NA,27.48,"LFSG 061300Z AUTO 20010KT 9999 FEW005 SCT180 02/01 Q1018"
"1547","LFSG",2019-12-06 13:30:00,6.07,48.325,35.6,33.8,93.08,200,8,0,30.03,NA,6.21,NA,"FEW","BKN",NA,NA,600,16000,NA,NA,NA,NA,NA,NA,NA,NA,NA,28.55,"LFSG 061330Z AUTO 20008KT 9999 FEW006 BKN160 02/01 Q1017"
"1548","LFSG",2019-12-06 14:00:00,6.07,48.325,35.6,33.8,93.08,210,10,0,30.03,NA,6.21,NA,NA,NA,NA,NA,NA,NA,NA,NA,NA,NA,NA,NA,NA,NA,NA,27.48,"LFSG 061400Z AUTO 21010KT CAVOK 02/01 Q1017"
"1549","LFSG",2019-12-06 14:30:00,6.07,48.325,35.6,33.8,93.08,190,13,0,30.03,NA,6.21,NA,NA,NA,NA,NA,NA,NA,NA,NA,NA,NA,NA,NA,NA,NA,NA,26.18,"LFSG 061430Z AUTO 19013KT CAVOK 02/01 Q1017"
"1550","LFSG",2019-12-06 15:00:00,6.07,48.325,35.6,33.8,93.08,200,12,0,30.03,NA,6.21,NA,NA,NA,NA,NA,NA,NA,NA,NA,NA,NA,NA,NA,NA,NA,NA,26.58,"LFSG 061500Z AUTO 20012KT CAVOK 02/01 Q1017"
"1551","LFSG",2019-12-06 15:30:00,6.07,48.325,35.6,32,86.59,200,12,0,30.03,NA,6.21,NA,NA,NA,NA,NA,NA,NA,NA,NA,NA,NA,NA,NA,NA,NA,NA,26.58,"LFSG 061530Z AUTO 20012KT CAVOK 02/00 Q1017"
"1552","LFSG",2019-12-06 16:00:00,6.07,48.325,35.6,32,86.59,200,10,0,30,NA,6.21,NA,NA,NA,NA,NA,NA,NA,NA,NA,NA,NA,NA,NA,NA,NA,NA,27.48,"LFSG 061600Z AUTO 20010KT CAVOK 02/00 Q1016"
"1553","LFSG",2019-12-06 16:30:00,6.07,48.325,35.6,33.8,93.08,190,9,0,30,NA,6.21,NA,NA,NA,NA,NA,NA,NA,NA,NA,NA,NA,NA,NA,NA,NA,NA,27.99,"LFSG 061630Z AUTO 19009KT CAVOK 02/01 Q1016"
"1554","LFSG",2019-12-06 17:00:00,6.07,48.325,37.4,33.8,86.69,190,10,0,30,NA,6.21,NA,NA,NA,NA,NA,NA,NA,NA,NA,NA,NA,NA,NA,NA,NA,NA,29.74,"LFSG 061700Z AUTO 19010KT CAVOK 03/01 Q1016"
"1555","LFSG",2019-12-06 17:30:00,6.07,48.325,37.4,33.8,86.69,190,10,0,30,NA,6.21,NA,NA,NA,NA,NA,NA,NA,NA,NA,NA,NA,NA,NA,NA,NA,NA,29.74,"LFSG 061730Z AUTO 19010KT CAVOK 03/01 Q1016"
"1556","LFSG",2019-12-06 18:00:00,6.07,48.325,39.2,33.8,80.79,200,12,0,30,NA,6.21,NA,NA,NA,NA,NA,NA,NA,NA,NA,NA,NA,NA,NA,NA,NA,NA,31.17,"LFSG 061800Z AUTO 20012KT CAVOK 04/01 Q1016"
"1557","LFSG",2019-12-06 18:30:00,6.07,48.325,39.2,33.8,80.79,200,11,0,30,NA,6.21,NA,"FEW","SCT","OVC","///",2000,7000,9000,NA,NA,NA,NA,NA,NA,NA,NA,31.57,"LFSG 061830Z AUTO 20011KT 9999 FEW020/// SCT070/// OVC090/// ///TCU 04/01 Q1016"
"1558","LFSG",2019-12-06 19:00:00,6.07,48.325,39.2,35.6,86.79,200,12,0,30,NA,6.21,NA,"///",NA,NA,NA,NA,NA,NA,NA,"-RA",NA,NA,NA,NA,NA,NA,31.17,"LFSG 061900Z AUTO 20012KT 9999 -RA ///TCU 04/02 Q1016"
"1559","LFSG",2019-12-06 19:30:00,6.07,48.325,39.2,35.6,86.79,190,12,0,30,NA,6.21,NA,"///",NA,NA,NA,NA,NA,NA,NA,"-RA",NA,NA,NA,NA,NA,NA,31.17,"LFSG 061930Z AUTO 19012KT 9999 -RA ///TCU 04/02 Q1016"
"1560","LFSG",2019-12-06 20:00:00,6.07,48.325,39.2,37.4,93.19,200,12,0,30,NA,6.21,NA,"BKN","OVC","///",NA,4900,5600,NA,NA,"-RA",NA,NA,NA,NA,NA,NA,31.17,"LFSG 062000Z AUTO 20012KT 9999 -RA BKN049/// OVC056/// ///TCU 04/03 Q1016"
"1561","LFSG",2019-12-06 20:30:00,6.07,48.325,41,37.4,86.89,190,14,0,29.97,NA,6.21,NA,"FEW","BKN","BKN",NA,3600,4400,5800,NA,"-DZ",NA,NA,NA,NA,NA,NA,32.76,"LFSG 062030Z AUTO 19014KT 9999 -DZ FEW036 BKN044 BKN058 05/03 Q1015"
"1562","LFSG",2019-12-06 21:00:00,6.07,48.325,39.2,37.4,93.19,200,10,0,29.97,NA,6.21,NA,"BKN","BKN","OVC",NA,2000,2500,4000,NA,NA,NA,NA,NA,NA,NA,NA,32,"LFSG 062100Z AUTO 20010KT 9999 BKN020 BKN025 OVC040 04/03 Q1015"
"1563","LFSG",2019-12-06 21:30:00,6.07,48.325,41,37.4,86.89,200,13,0,29.97,NA,6.21,NA,"BKN","BKN","BKN","///",2000,5000,7400,NA,NA,NA,NA,NA,NA,NA,NA,33.1,"LFSG 062130Z AUTO 20013KT 9999 BKN020/// BKN050/// BKN074/// ///TCU 05/03 Q1015"
"1564","LFSG",2019-12-06 22:00:00,6.07,48.325,41,37.4,86.89,200,13,0,29.97,NA,6.21,NA,"BKN","BKN","BKN","///",2000,3100,3800,NA,"-RA",NA,NA,NA,NA,NA,NA,33.1,"LFSG 062200Z AUTO 20013KT 9999 -RA BKN020/// BKN031/// BKN038/// ///TCU 05/03 Q1015"
"1565","LFSG",2019-12-06 22:30:00,6.07,48.325,41,39.2,93.24,200,14,0,29.97,NA,4.97,NA,"FEW","BKN","BKN",NA,2500,3100,3800,NA,"-RA",NA,NA,NA,NA,NA,NA,32.76,"LFSG 062230Z AUTO 20014KT 8000 -RA FEW025 BKN031 BKN038 05/04 Q1015"
"1566","LFSG",2019-12-06 23:00:00,6.07,48.325,41,39.2,93.24,200,14,0,29.97,NA,4.97,NA,"FEW","BKN","OVC",NA,1500,2600,3700,NA,"-RA",NA,NA,NA,NA,NA,NA,32.76,"LFSG 062300Z AUTO 20014KT 8000 -RA FEW015 BKN026 OVC037 05/04 Q1015"
"1567","LFSG",2019-12-06 23:30:00,6.07,48.325,42.8,41,93.3,210,13,0,29.97,NA,3.11,NA,"FEW","OVC",NA,NA,900,2300,NA,NA,"DZ BR",NA,NA,NA,NA,NA,NA,35.4,"LFSG 062330Z AUTO 21013KT 5000 DZ BR FEW009 OVC023 06/05 Q1015"
"1568","LFOE",2019-12-06 00:00:00,1.2217,49.025,32,32,100,190,9,0,30.12,NA,1.12,NA,"VV ",NA,NA,NA,NA,NA,NA,NA,"BR",NA,NA,NA,NA,NA,NA,23.51,"LFOE 060000Z AUTO 19009KT 1800 BR VV/// 00/00 Q1020"
"1569","LFOE",2019-12-06 00:30:00,1.2217,49.025,32,32,100,180,9,0,30.12,NA,2.17,NA,"OVC","///",NA,NA,200,NA,NA,NA,"BR",NA,NA,NA,NA,NA,NA,23.51,"LFOE 060030Z AUTO 18009KT 3500 BR OVC002/// ///TCU 00/00 Q1020"
"1570","LFOE",2019-12-06 01:00:00,1.2217,49.025,32,32,100,190,9,0,30.09,NA,2.8,NA,"BKN","BKN","OVC",NA,300,9400,16000,NA,"BR",NA,NA,NA,NA,NA,NA,23.51,"LFOE 060100Z AUTO 19009KT 4500 BR BKN003 BKN094 OVC160 00/00 Q1019"
"1571","LFOE",2019-12-06 01:30:00,1.2217,49.025,32,32,100,NA,NA,0,30.09,NA,3.11,NA,"FEW","BKN","OVC",NA,300,9400,11000,NA,"BR",NA,NA,NA,NA,NA,NA,NA,"LFOE 060130Z AUTO /////KT 5000 BR FEW003 BKN094 OVC110 00/00 Q1019"
"1572","LFOE",2019-12-06 02:00:00,1.2217,49.025,33.8,33.8,100,200,9,0,30.09,NA,3.73,NA,"NSC",NA,NA,NA,NA,NA,NA,NA,NA,NA,NA,NA,NA,NA,NA,25.75,"LFOE 060200Z AUTO 20009KT 6000 NSC 01/01 Q1019"
"1573","LFOE",2019-12-06 02:30:00,1.2217,49.025,33.8,33.8,100,200,10,0,30.06,NA,3.73,NA,"NSC",NA,NA,NA,NA,NA,NA,NA,NA,NA,NA,NA,NA,NA,NA,25.23,"LFOE 060230Z AUTO 20010KT 6000 NSC 01/01 Q1018"
"1574","LFOE",2019-12-06 03:00:00,1.2217,49.025,33.8,33.8,100,200,10,0,30.06,NA,3.73,NA,"NSC",NA,NA,NA,NA,NA,NA,NA,NA,NA,NA,NA,NA,NA,NA,25.23,"LFOE 060300Z AUTO 20010KT 6000 NSC 01/01 Q1018"
"1575","LFOE",2019-12-06 03:30:00,1.2217,49.025,35.6,35.6,100,210,9,0,30.06,NA,3.73,NA,"NSC",NA,NA,NA,NA,NA,NA,NA,NA,NA,NA,NA,NA,NA,NA,27.99,"LFOE 060330Z AUTO 21009KT 6000 NSC 02/02 Q1018"
"1576","LFOE",2019-12-06 04:00:00,1.2217,49.025,35.6,35.6,100,200,10,0,30.06,NA,3.73,NA,"///",NA,NA,NA,NA,NA,NA,NA,NA,NA,NA,NA,NA,NA,NA,27.48,"LFOE 060400Z AUTO 20010KT 6000 ///TCU 02/02 Q1018 TEMPO 4000 RA SCT007 BKN015"
"1577","LFOE",2019-12-06 04:30:00,1.2217,49.025,35.6,35.6,100,NA,NA,0,30.03,NA,3.73,NA,"///",NA,NA,NA,NA,NA,NA,NA,NA,NA,NA,NA,NA,NA,NA,NA,"LFOE 060430Z AUTO /////KT 6000 ///TCU 02/02 Q1017"
"1578","LFOE",2019-12-06 05:00:00,1.2217,49.025,35.6,35.6,100,NA,NA,0,30.03,NA,3.73,NA,"FEW","BKN","OVC","///",700,7600,9000,NA,"-RA",NA,NA,NA,NA,NA,NA,NA,"LFOE 060500Z AUTO /////KT 6000 -RA FEW007/// BKN076/// OVC090/// ///TCU 02/02 Q1017"
"1579","LFOE",2019-12-06 05:30:00,1.2217,49.025,37.4,35.6,93.14,200,10,0,30.03,NA,3.73,NA,"///",NA,NA,NA,NA,NA,NA,NA,NA,NA,NA,NA,NA,NA,NA,29.74,"LFOE 060530Z AUTO 20010KT 6000 ///TCU 03/02 Q1017 TEMPO 4000 RA SCT007 BKN015"
"1580","LFOE",2019-12-06 06:00:00,1.2217,49.025,37.4,37.4,100,NA,NA,0,30.03,NA,4.35,NA,"NSC",NA,NA,NA,NA,NA,NA,NA,NA,NA,NA,NA,NA,NA,NA,NA,"LFOE 060600Z AUTO /////KT 7000 NSC 03/03 Q1017"
"1581","LFOE",2019-12-06 06:30:00,1.2217,49.025,37.4,35.6,93.14,NA,NA,0,30.03,NA,3.73,NA,"///",NA,NA,NA,NA,NA,NA,NA,NA,NA,NA,NA,NA,NA,NA,NA,"LFOE 060630Z AUTO /////KT 6000 ///TCU 03/02 Q1017"
"1582","LFOE",2019-12-06 07:00:00,1.2217,49.025,37.4,37.4,100,200,11,0,30.03,NA,3.73,NA,"BKN","BKN","OVC","///",700,7200,8200,NA,NA,NA,NA,NA,NA,NA,NA,29.29,"LFOE 060700Z AUTO 20011KT 6000 BKN007/// BKN072/// OVC082/// ///CB 03/03 Q1017 TEMPO 4000 RA SCT007 BKN015"
"1583","LFOE",2019-12-06 07:30:00,1.2217,49.025,37.4,37.4,100,NA,NA,0,30.03,NA,3.73,NA,"OVC","///",NA,NA,500,NA,NA,NA,"-RA",NA,NA,NA,NA,NA,NA,NA,"LFOE 060730Z AUTO /////KT 6000 -RA OVC005/// ///TCU 03/03 Q1017"
"1584","LFOE",2019-12-06 08:00:00,1.2217,49.025,37.4,35.6,93.14,210,12,0,30.03,NA,3.11,NA,"OVC","///",NA,NA,500,NA,NA,NA,"-RA BR",NA,NA,NA,NA,NA,NA,28.87,"LFOE 060800Z AUTO 21012KT 5000 -RA BR OVC005/// ///TCU 03/02 Q1017 TEMPO RA SCT007 BKN015"
"1585","LFOE",2019-12-06 08:30:00,1.2217,49.025,37.4,37.4,100,NA,NA,0,30.03,NA,2.42,NA,"OVC","///",NA,NA,400,NA,NA,NA,"DZ BR",NA,NA,NA,NA,NA,NA,NA,"LFOE 060830Z AUTO /////KT 3900 DZ BR OVC004/// ///CB 03/03 Q1017"
"1586","LFOE",2019-12-06 09:00:00,1.2217,49.025,37.4,37.4,100,200,13,0,30,NA,2.42,NA,"OVC","///",NA,NA,400,NA,NA,NA,"-RA BR",NA,NA,NA,NA,NA,NA,28.49,"LFOE 060900Z AUTO 20013KT 3900 -RA BR OVC004/// ///CB 03/03 Q1016 BECMG 5000 -RA OVC005"
"1587","LFOE",2019-12-06 09:30:00,1.2217,49.025,37.4,37.4,100,NA,NA,0,30.03,NA,2.98,NA,"OVC","///",NA,NA,400,NA,NA,NA,"-RA BR",NA,NA,NA,NA,NA,NA,NA,"LFOE 060930Z AUTO /////KT 4800 -RA BR OVC004/// ///CB 03/03 Q1017"
"1588","LFOE",2019-12-06 10:00:00,1.2217,49.025,37.4,37.4,100,210,13,0,30,NA,4.35,NA,"OVC","///",NA,NA,400,NA,NA,NA,"-RA",NA,NA,NA,NA,NA,NA,28.49,"LFOE 061000Z AUTO 21013KT 7000 -RA OVC004/// ///TCU 03/03 Q1016 BECMG 22020G30KT BKN012"
"1589","LFOE",2019-12-06 10:30:00,1.2217,49.025,39.2,37.4,93.19,200,15,0,30,NA,3.11,NA,"OVC","///",NA,NA,500,NA,NA,NA,"-RA BR",NA,NA,NA,NA,NA,NA,30.11,"LFOE 061030Z AUTO 20015KT 5000 -RA BR OVC005/// ///TCU 04/03 Q1016 BECMG 22020G30KT BKN012"
"1590","LFOE",2019-12-06 11:00:00,1.2217,49.025,39.2,39.2,100,210,14,0,29.97,NA,5.59,NA,"OVC","///",NA,NA,500,NA,NA,NA,NA,NA,NA,NA,NA,NA,NA,30.44,"LFOE 061100Z AUTO 21014KT 9000 OVC005/// ///CB 04/04 Q1015 BECMG 22020G30KT BKN012"
"1591","LFOE",2019-12-06 11:30:00,1.2217,49.025,41,39.2,93.24,210,15,0,29.97,NA,6.21,NA,"BKN","OVC","///",NA,700,1100,NA,NA,NA,NA,NA,NA,NA,NA,NA,32.45,"LFOE 061130Z AUTO 21015KT 9999 BKN007/// OVC011/// ///CB 05/04 Q1015 BECMG 22020G30KT BKN012"
"1592","LFOE",2019-12-06 12:00:00,1.2217,49.025,41,39.2,93.24,NA,NA,0,29.94,NA,6.21,NA,"OVC","///",NA,NA,800,NA,NA,NA,NA,NA,NA,NA,NA,NA,NA,NA,"LFOE 061200Z AUTO /////KT 9999 OVC008/// ///CB 05/04 Q1014"
"1593","LFOE",2019-12-06 12:30:00,1.2217,49.025,41,41,100,220,14,0,29.94,NA,6.21,NA,"OVC",NA,NA,NA,700,NA,NA,NA,NA,NA,NA,NA,NA,NA,NA,32.76,"LFOE 061230Z AUTO 22014KT 9999 OVC007 05/05 Q1014 BECMG 22020G30KT BKN012"
"1594","LFOE",2019-12-06 13:00:00,1.2217,49.025,42.8,41,93.3,210,16,0,29.91,NA,6.21,NA,"OVC",NA,NA,NA,800,NA,NA,NA,NA,NA,NA,NA,NA,NA,NA,34.5,"LFOE 061300Z AUTO 21016KT 9999 OVC008 06/05 Q1013 BECMG 22020G30KT BKN012"
"1595","LFOE",2019-12-06 13:30:00,1.2217,49.025,44.6,42.8,93.35,220,15,0,29.91,NA,6.21,NA,"OVC",NA,NA,NA,800,NA,NA,NA,NA,NA,NA,NA,NA,NA,NA,37.11,"LFOE 061330Z AUTO 22015KT 9999 OVC008 07/06 Q1013 BECMG 22020G30KT BKN012"
"1596","LFOE",2019-12-06 14:00:00,1.2217,49.025,44.6,42.8,93.35,210,18,0,29.88,NA,6.21,NA,"OVC",NA,NA,NA,700,NA,NA,NA,NA,NA,NA,NA,NA,NA,NA,36.34,"LFOE 061400Z AUTO 21018KT 9999 OVC007 07/06 Q1012 BECMG 22020G30KT BKN012"
"1597","LFOE",2019-12-06 14:30:00,1.2217,49.025,44.6,42.8,93.35,220,15,0,29.88,NA,6.21,NA,"OVC",NA,NA,NA,600,NA,NA,NA,NA,NA,NA,NA,NA,NA,NA,37.11,"LFOE 061430Z AUTO 22015KT 9999 OVC006 07/06 Q1012 BECMG 22015G25KT"
"1598","LFOE",2019-12-06 15:00:00,1.2217,49.025,44.6,44.6,100,220,15,0,29.88,NA,6.21,NA,"OVC",NA,NA,NA,700,NA,NA,NA,NA,NA,NA,NA,NA,NA,NA,37.11,"LFOE 061500Z AUTO 22015KT 9999 OVC007 07/07 Q1012 BECMG 22015G25KT"
"1599","LFOE",2019-12-06 15:30:00,1.2217,49.025,46.4,44.6,93.4,NA,NA,0,29.85,NA,2.24,NA,"OVC",NA,NA,NA,700,NA,NA,NA,"-RA BR",NA,NA,NA,NA,NA,NA,NA,"LFOE 061530Z AUTO /////KT 3600 -RA BR OVC007 08/07 Q1011"
"1600","LFOE",2019-12-06 16:00:00,1.2217,49.025,46.4,44.6,93.4,220,15,0,29.85,NA,6.21,NA,"OVC",NA,NA,NA,700,NA,NA,NA,NA,NA,NA,NA,NA,NA,NA,39.45,"LFOE 061600Z AUTO 22015KT 9999 OVC007 08/07 Q1011 TEMPO 3000 RADZ BECMG 22015G25KT"
"1601","LFOE",2019-12-06 16:30:00,1.2217,49.025,46.4,44.6,93.4,NA,NA,0,29.85,NA,6.21,NA,"BKN","OVC",NA,NA,900,1300,NA,NA,NA,NA,NA,NA,NA,NA,NA,NA,"LFOE 061630Z AUTO /////KT 9999 BKN009 OVC013 08/07 Q1011"
"1602","LFOE",2019-12-06 17:00:00,1.2217,49.025,46.4,46.4,100,220,17,0,29.85,NA,6.21,NA,"OVC",NA,NA,NA,900,NA,NA,NA,NA,NA,NA,NA,NA,NA,NA,38.94,"LFOE 061700Z AUTO 22017KT 9999 OVC009 08/08 Q1011 TEMPO 3000 RADZ BECMG 22015G25KT"
"1603","LFOE",2019-12-06 17:30:00,1.2217,49.025,48.2,46.4,93.45,220,18,0,29.85,NA,6.21,NA,"OVC",NA,NA,NA,900,NA,NA,NA,NA,NA,NA,NA,NA,NA,NA,41.07,"LFOE 061730Z AUTO 22018KT 9999 OVC009 09/08 Q1011 TEMPO 22015G25KT 3000 RADZ BECMG BKN025"
"1604","LFOE",2019-12-06 18:00:00,1.2217,49.025,48.2,46.4,93.45,NA,NA,0,29.85,NA,5.59,NA,"OVC",NA,NA,NA,800,NA,NA,NA,NA,NA,NA,NA,NA,NA,NA,NA,"LFOE 061800Z AUTO /////KT 9000 OVC008 09/08 Q1011"
"1605","LFOE",2019-12-06 18:30:00,1.2217,49.025,48.2,46.4,93.45,230,14,0,29.85,NA,6.21,NA,"BKN","OVC",NA,NA,800,2000,NA,NA,"-RA",NA,NA,NA,NA,NA,NA,42.04,"LFOE 061830Z AUTO 23014KT 9999 -RA BKN008 OVC020 09/08 Q1011"
"1606","LFOE",2019-12-06 19:00:00,1.2217,49.025,48.2,48.2,100,250,13,0,29.85,NA,4.35,NA,"BKN","BKN","OVC",NA,700,1100,1900,NA,"DZ",NA,NA,NA,NA,NA,NA,42.32,"LFOE 061900Z AUTO 25013KT 7000 DZ BKN007 BKN011 OVC019 09/09 Q1011"
"1607","LFOE",2019-12-06 19:30:00,1.2217,49.025,50,46.4,87.37,240,15,0,29.85,NA,6.21,NA,"FEW","SCT","BKN",NA,900,4100,5200,NA,NA,NA,NA,NA,NA,NA,NA,44.12,"LFOE 061930Z AUTO 24015KT 9999 FEW009 SCT041 BKN052 10/08 Q1011"
"1608","LFOE",2019-12-06 20:00:00,1.2217,49.025,50,48.2,93.5,230,12,0,29.85,NA,6.21,NA,"FEW","BKN",NA,NA,1400,5400,NA,NA,NA,NA,NA,NA,NA,NA,NA,44.91,"LFOE 062000Z AUTO 23012KT 9999 FEW014 BKN054 10/09 Q1011"
"1609","LFOE",2019-12-06 20:30:00,1.2217,49.025,50,46.4,87.37,240,11,0,29.88,NA,6.21,NA,"SCT","BKN",NA,NA,2600,5200,NA,NA,NA,NA,NA,NA,NA,NA,NA,45.21,"LFOE 062030Z AUTO 24011KT 9999 SCT026 BKN052 10/08 Q1012"
"1610","LFOE",2019-12-06 21:00:00,1.2217,49.025,48.2,46.4,93.45,250,9,0,29.88,NA,6.21,NA,"OVC",NA,NA,NA,2300,NA,NA,NA,NA,NA,NA,NA,NA,NA,NA,43.66,"LFOE 062100Z AUTO 25009KT 9999 OVC023 09/08 Q1012"
"1611","LFOE",2019-12-06 21:30:00,1.2217,49.025,50,46.4,87.37,250,11,0,29.88,NA,6.21,NA,"BKN","OVC",NA,NA,2500,3900,NA,NA,NA,NA,NA,NA,NA,NA,NA,45.21,"LFOE 062130Z AUTO 25011KT 9999 BKN025 OVC039 10/08 Q1012"
"1612","LFOE",2019-12-06 22:00:00,1.2217,49.025,50,46.4,87.37,250,11,0,29.91,NA,6.21,NA,"BKN","BKN","OVC",NA,1500,2100,4000,NA,NA,NA,NA,NA,NA,NA,NA,45.21,"LFOE 062200Z AUTO 25011KT 9999 BKN015 BKN021 OVC040 10/08 Q1013"
"1613","LFOE",2019-12-06 22:30:00,1.2217,49.025,50,48.2,93.5,260,9,0,29.91,NA,6.21,NA,"SCT","BKN","OVC",NA,1100,1900,2500,NA,NA,NA,NA,NA,NA,NA,NA,45.9,"LFOE 062230Z AUTO 26009KT 230V290 9999 SCT011 BKN019 OVC025 10/09 Q1013"
"1614","LFOE",2019-12-06 23:00:00,1.2217,49.025,50,46.4,87.37,250,10,0,29.91,NA,6.21,NA,"SCT","SCT","BKN",NA,1700,2200,4400,NA,NA,NA,NA,NA,NA,NA,NA,45.54,"LFOE 062300Z AUTO 25010KT 9999 SCT017 SCT022 BKN044 10/08 Q1013"
"1615","LFOE",2019-12-06 23:30:00,1.2217,49.025,50,48.2,93.5,240,6,0,29.94,NA,6.21,NA,"BKN","BKN","OVC",NA,1900,2500,5400,NA,NA,NA,NA,NA,NA,NA,NA,47.21,"LFOE 062330Z AUTO 24006KT 9999 BKN019 BKN025 OVC054 10/09 Q1014"
"1616","LFKF",2019-12-06 00:00:00,9.0978,41.5006,53.6,51.8,93.6,NA,1,0,30.18,NA,6.21,NA,"FEW","SCT","OVC",NA,3000,3800,9400,NA,NA,NA,NA,NA,NA,NA,NA,NA,"LFKF 060000Z AUTO VRB01KT 9999 FEW030 SCT038 OVC094 12/11 Q1022"
"1617","LFKF",2019-12-06 00:30:00,9.0978,41.5006,53.6,50,87.56,NA,1,0,30.18,NA,6.21,NA,"SCT","BKN","OVC",NA,2800,3900,9400,NA,NA,NA,NA,NA,NA,NA,NA,NA,"LFKF 060030Z AUTO VRB01KT 9999 SCT028 BKN039 OVC094 12/10 Q1022"
"1618","LFKF",2019-12-06 01:00:00,9.0978,41.5006,51.8,50,93.55,10,4,0,30.18,NA,6.21,NA,"FEW",NA,NA,NA,2800,NA,NA,NA,NA,NA,NA,NA,NA,NA,NA,NA,"LFKF 060100Z AUTO 01004KT 9999 FEW028 11/10 Q1022"
"1619","LFKF",2019-12-06 01:30:00,9.0978,41.5006,50,48.2,93.5,30,3,0,30.18,NA,6.21,NA,"FEW",NA,NA,NA,3400,NA,NA,NA,NA,NA,NA,NA,NA,NA,NA,49.27,"LFKF 060130Z AUTO 03003KT 9999 FEW034 10/09 Q1022"
"1620","LFKF",2019-12-06 02:00:00,9.0978,41.5006,50,50,100,20,3,0,30.18,NA,6.21,NA,"SCT","SCT",NA,NA,3300,7200,NA,NA,NA,NA,NA,NA,NA,NA,NA,49.27,"LFKF 060200Z AUTO 02003KT 9999 SCT033 SCT072 10/10 Q1022"
"1621","LFKF",2019-12-06 02:30:00,9.0978,41.5006,50,48.2,93.5,30,4,0,30.18,NA,6.21,NA,"FEW","BKN",NA,NA,3300,7800,NA,NA,NA,NA,NA,NA,NA,NA,NA,48.44,"LFKF 060230Z AUTO 03004KT 9999 FEW033 BKN078 10/09 Q1022"
"1622","LFKF",2019-12-06 03:00:00,9.0978,41.5006,48.2,46.4,93.45,NA,2,0,30.18,NA,6.21,NA,"FEW",NA,NA,NA,7800,NA,NA,NA,NA,NA,NA,NA,NA,NA,NA,NA,"LFKF 060300Z AUTO VRB02KT 9999 FEW078 09/08 Q1022"
"1623","LFKF",2019-12-06 03:30:00,9.0978,41.5006,46.4,46.4,100,360,3,0,30.18,NA,6.21,NA,NA,NA,NA,NA,NA,NA,NA,NA,NA,NA,NA,NA,NA,NA,NA,45.15,"LFKF 060330Z AUTO 36003KT CAVOK 08/08 Q1022"
"1624","LFKF",2019-12-06 04:00:00,9.0978,41.5006,46.4,46.4,100,30,2,0,30.18,NA,6.21,NA,"FEW",NA,NA,NA,4200,NA,NA,NA,NA,NA,NA,NA,NA,NA,NA,NA,"LFKF 060400Z AUTO 03002KT 9999 FEW042 08/08 Q1022"
"1625","LFKF",2019-12-06 04:30:00,9.0978,41.5006,46.4,46.4,100,30,2,0,30.18,NA,6.21,NA,"FEW","BKN",NA,NA,4100,9800,NA,NA,NA,NA,NA,NA,NA,NA,NA,NA,"LFKF 060430Z AUTO 03002KT 9999 FEW041 BKN098 08/08 Q1022"
"1626","LFKF",2019-12-06 05:00:00,9.0978,41.5006,46.4,46.4,100,NA,2,0,30.18,NA,6.21,NA,"SCT","BKN",NA,NA,3900,9600,NA,NA,NA,NA,NA,NA,NA,NA,NA,NA,"LFKF 060500Z AUTO VRB02KT 9999 SCT039 BKN096 08/08 Q1022"
"1627","LFKF",2019-12-06 05:30:00,9.0978,41.5006,46.4,46.4,100,40,3,0,30.18,NA,6.21,NA,"BKN","BKN","OVC",NA,3800,4500,9000,NA,NA,NA,NA,NA,NA,NA,NA,45.15,"LFKF 060530Z AUTO 04003KT 9999 BKN038 BKN045 OVC090 08/08 Q1022"
"1628","LFKF",2019-12-06 06:00:00,9.0978,41.5006,48.2,48.2,100,NA,2,0,30.18,NA,6.21,NA,"BKN","BKN","BKN",NA,3100,4000,4800,NA,NA,NA,NA,NA,NA,NA,NA,NA,"LFKF 060600Z AUTO VRB02KT 9999 BKN031 BKN040 BKN048 09/09 Q1022"
"1629","LFKF",2019-12-06 06:30:00,9.0978,41.5006,48.2,48.2,100,0,0,0,30.18,NA,6.21,NA,"BKN","BKN","BKN",NA,2900,3800,4800,NA,NA,NA,NA,NA,NA,NA,NA,NA,"LFKF 060630Z AUTO 00000KT 9999 BKN029 BKN038 BKN048 09/09 Q1022"
"1630","LFKF",2019-12-06 07:00:00,9.0978,41.5006,46.4,46.4,100,NA,2,0,30.18,NA,6.21,NA,"BKN","BKN",NA,NA,2600,4500,NA,NA,"-RA",NA,NA,NA,NA,NA,NA,NA,"LFKF 060700Z AUTO VRB02KT 9999 -RA BKN026 BKN045 08/08 Q1022"
"1631","LFKF",2019-12-06 07:30:00,9.0978,41.5006,50,48.2,93.5,10,3,0,30.21,NA,6.21,NA,"SCT",NA,NA,NA,2500,NA,NA,NA,NA,NA,NA,NA,NA,NA,NA,49.27,"LFKF 060730Z AUTO 01003KT 9999 SCT025 10/09 Q1023"
"1632","LFKF",2019-12-06 08:00:00,9.0978,41.5006,53.6,53.6,100,0,0,0,30.21,NA,6.21,NA,"SCT","BKN","BKN",NA,2400,4000,8600,NA,NA,NA,NA,NA,NA,NA,NA,NA,"LFKF 060800Z AUTO 00000KT 9999 SCT024 BKN040 BKN086 12/12 Q1023 TEMPO TSRA SCT020 FEW023CB BKN025"
"1633","LFKF",2019-12-06 08:30:00,9.0978,41.5006,55.4,53.6,93.65,0,0,0,30.21,NA,6.21,NA,"SCT","SCT","BKN","///",2200,2700,3200,NA,NA,NA,NA,NA,NA,NA,NA,NA,"LFKF 060830Z AUTO 00000KT 9999 SCT022/// SCT027/// BKN032/// ///TCU 13/12 Q1023 TEMPO TSRA SCT020 FEW023CB BKN025"
"1634","LFKF",2019-12-06 09:00:00,9.0978,41.5006,57.2,55.4,93.69,NA,1,0,30.21,NA,6.21,NA,"FEW","SCT","OVC","///",2200,3300,8400,NA,NA,NA,NA,NA,NA,NA,NA,NA,"LFKF 060900Z AUTO VRB01KT 9999 FEW022/// SCT033/// OVC084/// ///CB 14/13 Q1023 TEMPO TSRA"
"1635","LFKF",2019-12-06 09:30:00,9.0978,41.5006,59,57.2,93.74,NA,2,0,30.21,NA,6.21,NA,"BKN","BKN","BKN","///",2200,3100,8400,NA,NA,NA,NA,NA,NA,NA,NA,NA,"LFKF 060930Z AUTO VRB02KT 9999 BKN022/// BKN031/// BKN084/// ///CB 15/14 Q1023 TEMPO TSRA"
"1636","LFKF",2019-12-06 10:00:00,9.0978,41.5006,60.8,55.4,82.37,230,4,0,30.21,NA,6.21,NA,"SCT","SCT","BKN","///",1500,2000,2600,NA,NA,NA,NA,NA,NA,NA,NA,NA,"LFKF 061000Z AUTO 23004KT 9999 SCT015/// SCT020/// BKN026/// ///CB 16/13 Q1023 TEMPO TSRA"
"1637","LFKF",2019-12-06 10:30:00,9.0978,41.5006,64.4,55.4,72.56,220,9,0,30.21,NA,6.21,NA,"FEW","BKN","BKN","///",1200,1700,2300,NA,NA,NA,NA,NA,NA,NA,NA,NA,"LFKF 061030Z AUTO 22009KT 9999 FEW012/// BKN017/// BKN023/// ///CB 18/13 Q1023 TEMPO TSRA"
"1638","LFKF",2019-12-06 11:00:00,9.0978,41.5006,62.6,53.6,72.38,230,10,0,30.21,NA,6.21,NA,"BKN","BKN","BKN","///",2000,2700,3300,NA,NA,NA,NA,NA,NA,NA,NA,NA,"LFKF 061100Z AUTO 23010KT 200V260 9999 BKN020/// BKN027/// BKN033/// ///TCU 17/12 Q1023 TEMPO TSRA SCT020 FEW023CB BKN025"
"1639","LFKF",2019-12-06 11:30:00,9.0978,41.5006,62.6,55.4,77.29,230,10,0,30.18,NA,6.21,NA,"SCT","BKN","BKN","///",2400,3000,3500,NA,NA,NA,NA,NA,NA,NA,NA,NA,"LFKF 061130Z AUTO 23010KT 9999 SCT024/// BKN030/// BKN035/// ///CB 17/13 Q1022 TEMPO TSRA"
"1640","LFKF",2019-12-06 12:00:00,9.0978,41.5006,62.6,55.4,77.29,260,9,0,30.18,NA,6.21,NA,"BKN","BKN","BKN","///",2200,3100,4000,NA,NA,NA,NA,NA,NA,NA,NA,NA,"LFKF 061200Z AUTO 26009KT 220V280 9999 BKN022/// BKN031/// BKN040/// ///TCU 17/13 Q1022 TEMPO TSRA SCT020 FEW023CB BKN025"
"1641","LFKF",2019-12-06 12:30:00,9.0978,41.5006,59,55.4,87.83,240,7,0,30.15,NA,6.21,NA,"BKN","BKN","BKN","///",2100,3100,4300,NA,NA,NA,NA,NA,NA,NA,NA,NA,"LFKF 061230Z AUTO 24007KT 9999 BKN021/// BKN031/// BKN043/// ///TCU 15/13 Q1021 TEMPO TSRA SCT020 FEW023CB BKN025"
"1642","LFKF",2019-12-06 13:00:00,9.0978,41.5006,60.8,55.4,82.37,230,9,0,30.15,NA,6.21,NA,"FEW","SCT","///",NA,2100,8600,NA,NA,NA,NA,NA,NA,NA,NA,NA,NA,"LFKF 061300Z AUTO 23009KT 9999 FEW021/// SCT086/// ///CB 16/13 Q1021 TEMPO TSRA"
"1643","LFKF",2019-12-06 13:30:00,9.0978,41.5006,60.8,53.6,77.14,260,5,0,30.15,NA,6.21,NA,"FEW","BKN","BKN","///",3400,7800,15000,NA,NA,NA,NA,NA,NA,NA,NA,NA,"LFKF 061330Z AUTO 26005KT 230V290 9999 FEW034/// BKN078/// BKN150/// ///CB 16/12 Q1021 TEMPO TSRA"
"1644","LFKF",2019-12-06 14:00:00,9.0978,41.5006,59,55.4,87.83,240,7,0,30.15,NA,6.21,NA,"FEW","BKN","BKN","///",1700,4800,5600,NA,"-RA",NA,NA,NA,NA,NA,NA,NA,"LFKF 061400Z AUTO 24007KT 9999 -RA FEW017/// BKN048/// BKN056/// ///CB 15/13 Q1021 TEMPO TSRA"
"1645","LFKF",2019-12-06 14:30:00,9.0978,41.5006,57.2,55.4,93.69,240,7,0,30.15,NA,6.21,NA,"SCT","BKN","BKN","///",3900,7200,8600,NA,"RA",NA,NA,NA,NA,NA,NA,NA,"LFKF 061430Z AUTO 24007KT 9999 4800 RA SCT039/// BKN072/// BKN086/// ///CB 14/13 Q1021 TEMPO TSRA"
"1646","LFKF",2019-12-06 15:00:00,9.0978,41.5006,57.2,55.4,93.69,240,6,0,30.15,NA,6.21,NA,"FEW","BKN","OVC","///",7800,9400,11000,NA,NA,NA,NA,NA,NA,NA,NA,NA,"LFKF 061500Z AUTO 24006KT 9999 FEW078/// BKN094/// OVC110/// ///CB 14/13 Q1021 TEMPO 4000 TSRA"
"1647","LFKF",2019-12-06 15:30:00,9.0978,41.5006,57.2,55.4,93.69,230,6,0,30.15,NA,6.21,NA,"FEW","BKN","OVC","///",3700,8800,10000,NA,NA,NA,NA,NA,NA,NA,NA,NA,"LFKF 061530Z AUTO 23006KT 9999 FEW037/// BKN088/// OVC100/// ///TCU 14/13 Q1021 TEMPO 4000 TSRA BKN020 FEW023CB BKN025"
"1648","LFKF",2019-12-06 16:00:00,9.0978,41.5006,55.4,53.6,93.65,230,7,0,30.15,NA,6.21,NA,"OVC","///",NA,NA,8200,NA,NA,NA,"RA",NA,NA,NA,NA,NA,NA,NA,"LFKF 061600Z AUTO 23007KT 9999 RA OVC082/// ///TCU 13/12 Q1021 TEMPO 4000 TSRA BKN020 FEW023CB BKN025"
"1649","LFKF",2019-12-06 16:30:00,9.0978,41.5006,55.4,53.6,93.65,230,7,0,30.15,NA,6.21,NA,"FEW","SCT","BKN","///",5000,7000,8200,NA,NA,NA,NA,NA,NA,NA,NA,NA,"LFKF 061630Z AUTO 23007KT 9999 FEW050/// SCT070/// BKN082/// ///CB 13/12 Q1021 TEMPO 4000 TSRA"
"1650","LFKF",2019-12-06 17:00:00,9.0978,41.5006,53.6,51.8,93.6,210,5,0,30.15,NA,6.21,NA,"FEW","BKN","///",NA,6800,24000,NA,NA,NA,NA,NA,NA,NA,NA,NA,NA,"LFKF 061700Z AUTO 21005KT 9999 FEW068/// BKN240/// ///CB 12/11 Q1021 TEMPO 4000 TSRA"
"1651","LFKF",2019-12-06 17:30:00,9.0978,41.5006,53.6,51.8,93.6,210,5,0,30.15,NA,6.21,NA,"///",NA,NA,NA,NA,NA,NA,NA,NA,NA,NA,NA,NA,NA,NA,NA,"LFKF 061730Z AUTO 21005KT 9999 ///TCU 12/11 Q1021 TEMPO 4000 TSRA BKN020 FEW023CB BKN025"
"1652","LFKF",2019-12-06 18:00:00,9.0978,41.5006,51.8,50,93.55,230,4,0,30.15,NA,6.21,NA,NA,NA,NA,NA,NA,NA,NA,NA,NA,NA,NA,NA,NA,NA,NA,NA,"LFKF 061800Z AUTO 23004KT 210V270 CAVOK 11/10 Q1021 TEMPO 4000 TSRA BKN020 FEW023CB BKN025"
"1653","LFKF",2019-12-06 18:30:00,9.0978,41.5006,51.8,50,93.55,250,4,0,30.15,NA,6.21,NA,NA,NA,NA,NA,NA,NA,NA,NA,NA,NA,NA,NA,NA,NA,NA,NA,"LFKF 061830Z AUTO 25004KT CAVOK 11/10 Q1021 TEMPO 4000 TSRA BKN020 FEW023CB BKN025"
"1654","LFKF",2019-12-06 19:00:00,9.0978,41.5006,50,50,100,230,3,0,30.15,NA,6.21,NA,"FEW","SCT",NA,NA,2900,7000,NA,NA,NA,NA,NA,NA,NA,NA,NA,49.27,"LFKF 061900Z AUTO 23003KT 9999 FEW029 SCT070 10/10 Q1021 TEMPO 4000 TSRA BKN020 FEW023CB BKN025"
"1655","LFKF",2019-12-06 19:30:00,9.0978,41.5006,50,50,100,200,3,0,30.15,NA,6.21,NA,"FEW","BKN","BKN",NA,2200,2700,5600,NA,NA,NA,NA,NA,NA,NA,NA,49.27,"LFKF 061930Z AUTO 20003KT 9999 FEW022 BKN027 BKN056 10/10 Q1021 TEMPO 4000 TSRA BKN020 FEW023CB BKN025"
"1656","LFKF",2019-12-06 20:00:00,9.0978,41.5006,51.8,51.8,100,210,5,0,30.15,NA,6.21,NA,"FEW","SCT","BKN","///",2200,5200,7000,NA,"-RADZ",NA,NA,NA,NA,NA,NA,NA,"LFKF 062000Z AUTO 21005KT 9999 -RADZ FEW022/// SCT052/// BKN070/// ///CB 11/11 Q1021 TEMPO 4000 TSRA"
"1657","LFKF",2019-12-06 20:30:00,9.0978,41.5006,53.6,51.8,93.6,230,4,0,30.15,NA,6.21,NA,"SCT","BKN","BKN","///",3300,4600,6400,NA,NA,NA,NA,NA,NA,NA,NA,NA,"LFKF 062030Z AUTO 23004KT 190V260 9999 SCT033/// BKN046/// BKN064/// ///TCU 12/11 Q1021 TEMPO 4000 TSRA BKN020 FEW023CB BKN025"
"1658","LFKF",2019-12-06 21:00:00,9.0978,41.5006,51.8,51.8,100,210,4,0,30.15,NA,6.21,NA,"FEW","SCT","///",NA,2500,3400,NA,NA,NA,NA,NA,NA,NA,NA,NA,NA,"LFKF 062100Z AUTO 21004KT 9999 FEW025/// SCT034/// ///TCU 11/11 Q1021 TEMPO 4000 TSRA BKN020 FEW023CB BKN025"
"1659","LFKF",2019-12-06 21:30:00,9.0978,41.5006,51.8,51.8,100,220,4,0,30.15,NA,6.21,NA,"BKN","BKN","BKN","///",2300,3000,7200,NA,NA,NA,NA,NA,NA,NA,NA,NA,"LFKF 062130Z AUTO 22004KT 9999 BKN023/// BKN030/// BKN072/// ///TCU 11/11 Q1021 TEMPO 4000 TSRA BKN020 FEW023CB BKN025"
"1660","LFKF",2019-12-06 22:00:00,9.0978,41.5006,51.8,51.8,100,NA,2,0,30.15,NA,6.21,NA,"FEW","BKN","OVC","///",2000,5400,7000,NA,"RA",NA,NA,NA,NA,NA,NA,NA,"LFKF 062200Z AUTO VRB02KT 9999 RA FEW020/// BKN054/// OVC070/// ///TCU 11/11 Q1021"
"1661","LFKF",2019-12-06 22:30:00,9.0978,41.5006,51.8,50,93.55,NA,2,0,30.15,NA,6.21,NA,"FEW","SCT","BKN","///",2700,7600,8600,NA,NA,NA,NA,NA,NA,NA,NA,NA,"LFKF 062230Z AUTO VRB02KT 9999 FEW027/// SCT076/// BKN086/// ///TCU 11/10 Q1021"
"1662","LFKF",2019-12-06 23:00:00,9.0978,41.5006,51.8,51.8,100,180,2,0,30.15,NA,6.21,NA,"FEW","BKN","BKN","///",2400,5200,6400,NA,NA,NA,NA,NA,NA,NA,NA,NA,"LFKF 062300Z AUTO 18002KT 9999 FEW024/// BKN052/// BKN064/// ///TCU 11/11 Q1021"
"1663","LFKF",2019-12-06 23:30:00,9.0978,41.5006,51.8,51.8,100,210,2,0,30.15,NA,6.21,NA,"FEW","SCT","BKN","///",2200,3300,4400,NA,"-RA",NA,NA,NA,NA,NA,NA,NA,"LFKF 062330Z AUTO 21002KT 9999 -RA FEW022/// SCT033/// BKN044/// ///TCU 11/11 Q1021"
"1664","LFMT",2019-12-06 00:00:00,3.9631,43.5769,42.8,39.2,86.99,340,5,0,30.21,NA,6.21,NA,NA,NA,NA,NA,NA,NA,NA,NA,NA,NA,NA,NA,NA,NA,NA,39.22,"LFMT 060000Z AUTO 34005KT CAVOK 06/04 Q1023 NOSIG"
"1665","LFMT",2019-12-06 00:30:00,3.9631,43.5769,44.6,39.2,81.2,NA,2,0,30.21,NA,6.21,NA,NA,NA,NA,NA,NA,NA,NA,NA,NA,NA,NA,NA,NA,NA,NA,NA,"LFMT 060030Z AUTO VRB02KT CAVOK 07/04 Q1023 NOSIG"
"1666","LFMT",2019-12-06 01:00:00,3.9631,43.5769,42.8,39.2,86.99,60,4,0,30.21,NA,6.21,NA,NA,NA,NA,NA,NA,NA,NA,NA,NA,NA,NA,NA,NA,NA,NA,40.03,"LFMT 060100Z AUTO 06004KT CAVOK 06/04 Q1023 NOSIG"
"1667","LFMT",2019-12-06 01:30:00,3.9631,43.5769,42.8,39.2,86.99,NA,2,0,30.21,NA,6.21,NA,NA,NA,NA,NA,NA,NA,NA,NA,NA,NA,NA,NA,NA,NA,NA,NA,"LFMT 060130Z AUTO VRB02KT CAVOK 06/04 Q1023 NOSIG"
"1668","LFMT",2019-12-06 02:00:00,3.9631,43.5769,42.8,39.2,86.99,NA,3,0,30.21,NA,6.21,NA,"FEW","OVC",NA,NA,4200,10000,NA,NA,NA,NA,NA,NA,NA,NA,NA,41.03,"LFMT 060200Z AUTO VRB03KT 9999 FEW042 OVC100 06/04 Q1023 NOSIG"
"1669","LFMT",2019-12-06 02:30:00,3.9631,43.5769,42.8,39.2,86.99,NA,3,0,30.21,NA,6.21,NA,NA,NA,NA,NA,NA,NA,NA,NA,NA,NA,NA,NA,NA,NA,NA,41.03,"LFMT 060230Z AUTO VRB03KT CAVOK 06/04 Q1023 NOSIG"
"1670","LFMT",2019-12-06 03:00:00,3.9631,43.5769,44.6,41,87.09,350,5,0,30.21,NA,6.21,NA,NA,NA,NA,NA,NA,NA,NA,NA,NA,NA,NA,NA,NA,NA,NA,41.36,"LFMT 060300Z AUTO 35005KT CAVOK 07/05 Q1023 NOSIG"
"1671","LFMT",2019-12-06 03:30:00,3.9631,43.5769,44.6,39.2,81.2,350,3,0,30.21,NA,6.21,NA,NA,NA,NA,NA,NA,NA,NA,NA,NA,NA,NA,NA,NA,NA,NA,43.09,"LFMT 060330Z AUTO 35003KT CAVOK 07/04 Q1023 NOSIG"
"1672","LFMT",2019-12-06 04:00:00,3.9631,43.5769,42.8,39.2,86.99,360,5,0,30.21,NA,6.21,NA,NA,NA,NA,NA,NA,NA,NA,NA,NA,NA,NA,NA,NA,NA,NA,39.22,"LFMT 060400Z AUTO 36005KT CAVOK 06/04 Q1023 NOSIG"
"1673","LFMT",2019-12-06 04:30:00,3.9631,43.5769,42.8,39.2,86.99,350,5,0,30.21,NA,6.21,NA,NA,NA,NA,NA,NA,NA,NA,NA,NA,NA,NA,NA,NA,NA,NA,39.22,"LFMT 060430Z AUTO 35005KT CAVOK 06/04 Q1023 NOSIG"
"1674","LFMT",2019-12-06 05:00:00,3.9631,43.5769,42.8,39.2,86.99,20,3,0,30.21,NA,6.21,NA,NA,NA,NA,NA,NA,NA,NA,NA,NA,NA,NA,NA,NA,NA,NA,41.03,"LFMT 060500Z AUTO 02003KT CAVOK 06/04 Q1023 NOSIG"
"1675","LFMT",2019-12-06 05:30:00,3.9631,43.5769,42.8,39.2,86.99,360,3,0,30.21,NA,6.21,NA,NA,NA,NA,NA,NA,NA,NA,NA,NA,NA,NA,NA,NA,NA,NA,41.03,"LFMT 060530Z AUTO 36003KT CAVOK 06/04 Q1023 NOSIG"
"1676","LFMT",2019-12-06 06:00:00,3.9631,43.5769,42.8,39.2,86.99,20,4,0,30.21,NA,6.21,NA,NA,NA,NA,NA,NA,NA,NA,NA,NA,NA,NA,NA,NA,NA,NA,40.03,"LFMT 060600Z AUTO 02004KT CAVOK 06/04 Q1023 NOSIG"
"1677","LFMT",2019-12-06 06:30:00,3.9631,43.5769,41,39.2,93.24,10,7,0,30.21,NA,6.21,NA,NA,NA,NA,NA,NA,NA,NA,NA,NA,NA,NA,NA,NA,NA,NA,35.75,"LFMT 060630Z AUTO 01007KT CAVOK 05/04 Q1023 NOSIG"
"1678","LFMT",2019-12-06 07:00:00,3.9631,43.5769,41,37.4,86.89,30,6,0,30.21,NA,6.21,NA,NA,NA,NA,NA,NA,NA,NA,NA,NA,NA,NA,NA,NA,NA,NA,36.37,"LFMT 060700Z AUTO 03006KT CAVOK 05/03 Q1023 NOSIG"
"1679","LFMT",2019-12-06 07:30:00,3.9631,43.5769,39.2,37.4,93.19,20,7,0,30.21,NA,6.21,NA,NA,NA,NA,NA,NA,NA,NA,NA,NA,NA,NA,NA,NA,NA,NA,33.56,"LFMT 060730Z AUTO 02007KT CAVOK 04/03 Q1023 NOSIG"
"1680","LFMT",2019-12-06 08:00:00,3.9631,43.5769,42.8,37.4,81.07,20,7,0,30.24,NA,6.21,NA,NA,NA,NA,NA,NA,NA,NA,NA,NA,NA,NA,NA,NA,NA,NA,37.94,"LFMT 060800Z AUTO 02007KT CAVOK 06/03 Q1024 NOSIG"
"1681","LFMT",2019-12-06 08:30:00,3.9631,43.5769,44.6,39.2,81.2,20,5,0,30.24,NA,6.21,NA,NA,NA,NA,NA,NA,NA,NA,NA,NA,NA,NA,NA,NA,NA,NA,41.36,"LFMT 060830Z AUTO 02005KT CAVOK 07/04 Q1024 NOSIG"
"1682","LFMT",2019-12-06 09:00:00,3.9631,43.5769,46.4,39.2,75.84,20,5,0,30.24,NA,6.21,NA,NA,NA,NA,NA,NA,NA,NA,NA,NA,NA,NA,NA,NA,NA,NA,43.5,"LFMT 060900Z AUTO 02005KT CAVOK 08/04 Q1024 NOSIG"
"1683","LFMT",2019-12-06 09:30:00,3.9631,43.5769,48.2,39.2,70.88,10,5,0,30.24,NA,6.21,NA,NA,NA,NA,NA,NA,NA,NA,NA,NA,NA,NA,NA,NA,NA,NA,45.63,"LFMT 060930Z AUTO 01005KT CAVOK 09/04 Q1024 NOSIG"
"1684","LFMT",2019-12-06 10:00:00,3.9631,43.5769,51.8,41,66.48,10,3,0,30.24,NA,6.21,NA,NA,NA,NA,NA,NA,NA,NA,NA,NA,NA,NA,NA,NA,NA,NA,NA,"LFMT 061000Z AUTO 01003KT 330V050 CAVOK 11/05 Q1024 NOSIG"
"1685","LFMT",2019-12-06 10:30:00,3.9631,43.5769,51.8,39.2,61.99,30,3,0,30.24,NA,6.21,NA,NA,NA,NA,NA,NA,NA,NA,NA,NA,NA,NA,NA,NA,NA,NA,NA,"LFMT 061030Z AUTO 03003KT CAVOK 11/04 Q1024 NOSIG"
"1686","LFMT",2019-12-06 11:00:00,3.9631,43.5769,53.6,41,62.23,10,5,0,30.24,NA,6.21,NA,NA,NA,NA,NA,NA,NA,NA,NA,NA,NA,NA,NA,NA,NA,NA,NA,"LFMT 061100Z AUTO 01005KT CAVOK 12/05 Q1024 NOSIG"
"1687","LFMT",2019-12-06 11:30:00,3.9631,43.5769,55.4,41,58.27,NA,3,0,30.21,NA,6.21,NA,NA,NA,NA,NA,NA,NA,NA,NA,NA,NA,NA,NA,NA,NA,NA,NA,"LFMT 061130Z AUTO VRB03KT CAVOK 13/05 Q1023 NOSIG"
"1688","LFMT",2019-12-06 12:00:00,3.9631,43.5769,55.4,42.8,62.46,150,3,0,30.21,NA,6.21,NA,NA,NA,NA,NA,NA,NA,NA,NA,NA,NA,NA,NA,NA,NA,NA,NA,"LFMT 061200Z AUTO 15003KT CAVOK 13/06 Q1023 NOSIG"
"1689","LFMT",2019-12-06 12:30:00,3.9631,43.5769,55.4,41,58.27,140,3,0,30.18,NA,6.21,NA,NA,NA,NA,NA,NA,NA,NA,NA,NA,NA,NA,NA,NA,NA,NA,NA,"LFMT 061230Z AUTO 14003KT CAVOK 13/05 Q1022 NOSIG"
"1690","LFMT",2019-12-06 13:00:00,3.9631,43.5769,55.4,41,58.27,170,3,0,30.18,NA,6.21,NA,NA,NA,NA,NA,NA,NA,NA,NA,NA,NA,NA,NA,NA,NA,NA,NA,"LFMT 061300Z AUTO 17003KT CAVOK 13/05 Q1022 NOSIG"
"1691","LFMT",2019-12-06 13:30:00,3.9631,43.5769,57.2,41,54.6,170,3,0,30.18,NA,6.21,NA,NA,NA,NA,NA,NA,NA,NA,NA,NA,NA,NA,NA,NA,NA,NA,NA,"LFMT 061330Z AUTO 17003KT CAVOK 14/05 Q1022 NOSIG"
"1692","LFMT",2019-12-06 14:00:00,3.9631,43.5769,57.2,42.8,58.52,NA,3,0,30.15,NA,6.21,NA,NA,NA,NA,NA,NA,NA,NA,NA,NA,NA,NA,NA,NA,NA,NA,NA,"LFMT 061400Z AUTO VRB03KT CAVOK 14/06 Q1021 NOSIG"
"1693","LFMT",2019-12-06 14:30:00,3.9631,43.5769,57.2,42.8,58.52,190,4,0,30.15,NA,6.21,NA,NA,NA,NA,NA,NA,NA,NA,NA,NA,NA,NA,NA,NA,NA,NA,NA,"LFMT 061430Z AUTO 19004KT CAVOK 14/06 Q1021 NOSIG"
"1694","LFMT",2019-12-06 15:00:00,3.9631,43.5769,55.4,44.6,66.91,210,4,0,30.15,NA,6.21,NA,NA,NA,NA,NA,NA,NA,NA,NA,NA,NA,NA,NA,NA,NA,NA,NA,"LFMT 061500Z AUTO 21004KT CAVOK 13/07 Q1021 NOSIG"
"1695","LFMT",2019-12-06 15:30:00,3.9631,43.5769,55.4,44.6,66.91,220,4,0,30.15,NA,6.21,NA,NA,NA,NA,NA,NA,NA,NA,NA,NA,NA,NA,NA,NA,NA,NA,NA,"LFMT 061530Z AUTO 22004KT CAVOK 13/07 Q1021 NOSIG"
"1696","LFMT",2019-12-06 16:00:00,3.9631,43.5769,53.6,42.8,66.7,200,4,0,30.15,NA,6.21,NA,NA,NA,NA,NA,NA,NA,NA,NA,NA,NA,NA,NA,NA,NA,NA,NA,"LFMT 061600Z AUTO 20004KT CAVOK 12/06 Q1021 NOSIG"
"1697","LFMT",2019-12-06 16:30:00,3.9631,43.5769,50,42.8,76.18,200,5,0,30.15,NA,6.21,NA,NA,NA,NA,NA,NA,NA,NA,NA,NA,NA,NA,NA,NA,NA,NA,47.77,"LFMT 061630Z AUTO 20005KT CAVOK 10/06 Q1021 NOSIG"
"1698","LFMT",2019-12-06 17:00:00,3.9631,43.5769,50,44.6,81.61,NA,2,0,30.15,NA,6.21,NA,NA,NA,NA,NA,NA,NA,NA,NA,NA,NA,NA,NA,NA,NA,NA,NA,"LFMT 061700Z AUTO VRB02KT CAVOK 10/07 Q1021 NOSIG"
"1699","LFMT",2019-12-06 17:30:00,3.9631,43.5769,48.2,42.8,81.47,230,3,0,30.15,NA,6.21,NA,NA,NA,NA,NA,NA,NA,NA,NA,NA,NA,NA,NA,NA,NA,NA,47.21,"LFMT 061730Z AUTO 23003KT CAVOK 09/06 Q1021 NOSIG"
"1700","LFMT",2019-12-06 18:00:00,3.9631,43.5769,48.2,44.6,87.28,240,6,0,30.15,NA,6.21,NA,NA,NA,NA,NA,NA,NA,NA,NA,NA,NA,NA,NA,NA,NA,NA,45.04,"LFMT 061800Z AUTO 24006KT CAVOK 09/07 Q1021 NOSIG"
"1701","LFMT",2019-12-06 18:30:00,3.9631,43.5769,48.2,44.6,87.28,240,6,0,30.15,NA,6.21,NA,NA,NA,NA,NA,NA,NA,NA,NA,NA,NA,NA,NA,NA,NA,NA,45.04,"LFMT 061830Z AUTO 24006KT CAVOK 09/07 Q1021 NOSIG"
"1702","LFMT",2019-12-06 19:00:00,3.9631,43.5769,48.2,44.6,87.28,260,3,0,30.15,NA,6.21,NA,NA,NA,NA,NA,NA,NA,NA,NA,NA,NA,NA,NA,NA,NA,NA,47.21,"LFMT 061900Z AUTO 26003KT CAVOK 09/07 Q1021 NOSIG"
"1703","LFMT",2019-12-06 19:30:00,3.9631,43.5769,44.6,39.2,81.2,300,3,0,30.15,NA,6.21,NA,NA,NA,NA,NA,NA,NA,NA,NA,NA,NA,NA,NA,NA,NA,NA,43.09,"LFMT 061930Z AUTO 30003KT CAVOK 07/04 Q1021 TEMPO 4000 BR"
"1704","LFMT",2019-12-06 20:00:00,3.9631,43.5769,42.8,41,93.3,NA,2,0,30.15,NA,6.21,NA,NA,NA,NA,NA,NA,NA,NA,NA,NA,NA,NA,NA,NA,NA,NA,NA,"LFMT 062000Z AUTO VRB02KT CAVOK 06/05 Q1021 TEMPO 4000 BR"
"1705","LFMT",2019-12-06 20:30:00,3.9631,43.5769,41,39.2,93.24,0,0,0,30.15,NA,6.21,NA,NA,NA,NA,NA,NA,NA,NA,NA,NA,NA,NA,NA,NA,NA,NA,NA,"LFMT 062030Z AUTO 00000KT CAVOK 05/04 Q1021 TEMPO 4000 BR"
"1706","LFMT",2019-12-06 21:00:00,3.9631,43.5769,41,39.2,93.24,0,0,0,30.15,NA,6.21,NA,NA,NA,NA,NA,NA,NA,NA,NA,NA,NA,NA,NA,NA,NA,NA,NA,"LFMT 062100Z AUTO 00000KT CAVOK 05/04 Q1021 TEMPO 4000 BR"
"1707","LFMT",2019-12-06 21:30:00,3.9631,43.5769,41,39.2,93.24,50,2,0,30.15,NA,6.21,NA,NA,NA,NA,NA,NA,NA,NA,NA,NA,NA,NA,NA,NA,NA,NA,NA,"LFMT 062130Z AUTO 05002KT CAVOK 05/04 Q1021 TEMPO 4000 BR"
"1708","LFMT",2019-12-06 22:00:00,3.9631,43.5769,41,39.2,93.24,10,5,0,30.18,NA,5.59,NA,"NSC",NA,NA,NA,NA,NA,NA,NA,NA,NA,NA,NA,NA,NA,NA,37.08,"LFMT 062200Z AUTO 01005KT 9000 NSC 05/04 Q1022 TEMPO 4000 BR"
"1709","LFMT",2019-12-06 22:30:00,3.9631,43.5769,41,39.2,93.24,360,3,0,30.18,NA,6.21,NA,NA,NA,NA,NA,NA,NA,NA,NA,NA,NA,NA,NA,NA,NA,NA,38.98,"LFMT 062230Z AUTO 36003KT CAVOK 05/04 Q1022 TEMPO 4000 BR"
"1710","LFMT",2019-12-06 23:00:00,3.9631,43.5769,41,39.2,93.24,50,2,0,30.18,NA,5.59,NA,"NSC",NA,NA,NA,NA,NA,NA,NA,NA,NA,NA,NA,NA,NA,NA,NA,"LFMT 062300Z AUTO 05002KT 9000 NSC 05/04 Q1022 TEMPO 4000 BR"
"1711","LFMT",2019-12-06 23:30:00,3.9631,43.5769,39.2,39.2,100,NA,2,0,30.18,NA,5.59,NA,"NSC",NA,NA,NA,NA,NA,NA,NA,NA,NA,NA,NA,NA,NA,NA,NA,"LFMT 062330Z AUTO VRB02KT 9000 NSC 04/04 Q1022 TEMPO 4000 BR"
"1712","LFLS",2019-12-06 00:00:00,5.3294,45.3629,32,32,100,90,7,0,30.21,NA,0.28,NA,"VV ",NA,NA,NA,NA,NA,NA,NA,"FZFG",NA,NA,NA,NA,NA,NA,24.78,"LFLS 060000Z AUTO 09007KT 0450 0350 R09/0550N R27/0400N FZFG VV/// M00/M00 Q1023"
"1713","LFLS",2019-12-06 00:30:00,5.3294,45.3629,32,32,100,90,9,0,30.21,NA,0.22,NA,"VV ",NA,NA,NA,NA,NA,NA,NA,"FZFG",NA,NA,NA,NA,NA,NA,23.51,"LFLS 060030Z AUTO 09009KT 0350 0250 R09/0400N R27/0300N FZFG VV/// M00/M00 Q1023"
"1714","LFLS",2019-12-06 01:00:00,5.3294,45.3629,32,32,100,80,10,0,30.21,NA,0.28,NA,"VV ",NA,NA,NA,NA,NA,NA,NA,"FZFG",NA,NA,NA,NA,NA,NA,22.97,"LFLS 060100Z AUTO 08010KT 0450 0350 R09/0550N R27/0375N FZFG VV/// M00/M00 Q1023"
"1715","LFLS",2019-12-06 01:30:00,5.3294,45.3629,32,32,100,80,9,0,30.21,NA,0.34,NA,"VV ",NA,NA,NA,NA,NA,NA,NA,"FZFG",NA,NA,NA,NA,NA,NA,23.51,"LFLS 060130Z AUTO 08009KT 0550 0350 R09/0750N R27/0400N FZFG VV/// M00/M00 Q1023"
"1716","LFLS",2019-12-06 02:00:00,5.3294,45.3629,30.2,30.2,100,70,8,0,30.21,NA,0.56,NA,"VV ",NA,NA,NA,NA,NA,NA,NA,"FZFG",NA,NA,NA,NA,NA,NA,21.9,"LFLS 060200Z AUTO 07008KT 0900 R09/1300U R27/1300U FZFG VV/// M01/M01 Q1023"
"1717","LFLS",2019-12-06 02:30:00,5.3294,45.3629,30.2,30.2,100,90,10,0,30.21,NA,1.24,NA,"VV ",NA,NA,NA,NA,NA,NA,NA,"BR",NA,NA,NA,NA,NA,NA,20.71,"LFLS 060230Z AUTO 09010KT 2000 1100 R09/2300D R27/1300U BR VV/// M01/M01 Q1023 BECMG 0400 FZFG"
"1718","LFLS",2019-12-06 03:00:00,5.3294,45.3629,30.2,30.2,100,90,9,0,30.21,NA,0.47,NA,"VV ",NA,NA,NA,NA,NA,NA,NA,"FZFG",NA,NA,NA,NA,NA,NA,21.28,"LFLS 060300Z AUTO 09009KT 0750 0500 R09/1000D R27/0650N FZFG VV/// M01/M01 Q1023 BECMG 0400 FZFG"
"1719","LFLS",2019-12-06 03:30:00,5.3294,45.3629,30.2,30.2,100,80,10,0,30.21,NA,0.37,NA,"VV ",NA,NA,NA,NA,NA,NA,NA,"FZFG",NA,NA,NA,NA,NA,NA,20.71,"LFLS 060330Z AUTO 08010KT 0600 0400 R09/0650D R27/0550U FZFG VV/// M01/M01 Q1023 NOSIG"
"1720","LFLS",2019-12-06 04:00:00,5.3294,45.3629,30.2,30.2,100,80,10,0,30.21,NA,0.87,NA,"VV ",NA,NA,NA,NA,NA,NA,NA,"BCFG",NA,NA,NA,NA,NA,NA,20.71,"LFLS 060400Z AUTO 08010KT 1400 0750 R09/1800D R27/0900D BCFG VV/// M01/M01 Q1023 BECMG 0400 FZFG"
"1721","LFLS",2019-12-06 04:30:00,5.3294,45.3629,30.2,30.2,100,90,11,0,30.21,NA,1.12,NA,"FEW","SCT",NA,NA,100,500,NA,NA,"BR",NA,NA,NA,NA,NA,NA,20.19,"LFLS 060430Z AUTO 09011KT 1800 BR FEW001 SCT005 M01/M01 Q1023 BECMG 0400 FZFG VV///"
"1722","LFLS",2019-12-06 05:00:00,5.3294,45.3629,30.2,30.2,100,80,10,0,30.21,NA,2.49,NA,"BKN",NA,NA,NA,300,NA,NA,NA,"BR",NA,NA,NA,NA,NA,NA,20.71,"LFLS 060500Z AUTO 08010KT 4000 1500 BR BKN003 M01/M01 Q1023 BECMG 0400 FZFG VV///"
"1723","LFLS",2019-12-06 05:30:00,5.3294,45.3629,30.2,30.2,100,90,11,0,30.21,NA,0.81,NA,"SCT","BKN",NA,NA,100,500,NA,NA,"BCFG",NA,NA,NA,NA,NA,NA,20.19,"LFLS 060530Z AUTO 09011KT 1300 0900 R09/1600D R27/1400D BCFG SCT001 BKN005 M01/M01 Q1023 TEMPO VV/// BECMG 6000 NSW"
"1724","LFLS",2019-12-06 06:00:00,5.3294,45.3629,30.2,30.2,100,100,10,0,30.21,NA,1.62,NA,"FEW","BKN",NA,NA,100,500,NA,NA,"BR",NA,NA,NA,NA,NA,NA,20.71,"LFLS 060600Z AUTO 10010KT 2600 BR FEW001 BKN005 M01/M01 Q1023 TEMPO VV/// BECMG 6000 NSW"
"1725","LFLS",2019-12-06 06:30:00,5.3294,45.3629,30.2,28.4,92.92,90,12,0,30.21,NA,4.35,NA,"NSC",NA,NA,NA,NA,NA,NA,NA,NA,NA,NA,NA,NA,NA,NA,19.71,"LFLS 060630Z AUTO 09012KT 7000 NSC M01/M02 Q1023 TEMPO 0400 FZFG VV///"
"1726","LFLS",2019-12-06 07:00:00,5.3294,45.3629,30.2,28.4,92.92,90,11,0,30.21,NA,6.21,NA,NA,NA,NA,NA,NA,NA,NA,NA,NA,NA,NA,NA,NA,NA,NA,20.19,"LFLS 060700Z AUTO 09011KT CAVOK M01/M02 Q1023 TEMPO 0400 FZFG VV///"
"1727","LFLS",2019-12-06 07:30:00,5.3294,45.3629,30.2,30.2,100,90,11,0,30.21,NA,6.21,NA,NA,NA,NA,NA,NA,NA,NA,NA,NA,NA,NA,NA,NA,NA,NA,20.19,"LFLS 060730Z AUTO 09011KT CAVOK M01/M01 Q1023 BECMG BKN008"
"1728","LFLS",2019-12-06 08:00:00,5.3294,45.3629,32,30.2,92.97,90,11,0,30.21,NA,5.59,NA,"NSC",NA,NA,NA,NA,NA,NA,NA,NA,NA,NA,NA,NA,NA,NA,22.47,"LFLS 060800Z AUTO 09011KT 9000 NSC M00/M01 Q1023 BECMG BKN008"
"1729","LFLS",2019-12-06 08:30:00,5.3294,45.3629,33.8,32,93.03,100,10,0,30.21,NA,6.21,NA,NA,NA,NA,NA,NA,NA,NA,NA,NA,NA,NA,NA,NA,NA,NA,25.23,"LFLS 060830Z AUTO 10010KT CAVOK 01/00 Q1023 TEMPO BKN008"
"1730","LFLS",2019-12-06 09:00:00,5.3294,45.3629,33.8,33.8,100,90,11,0,30.21,NA,6.21,NA,NA,NA,NA,NA,NA,NA,NA,NA,NA,NA,NA,NA,NA,NA,NA,24.74,"LFLS 060900Z AUTO 09011KT CAVOK 01/01 Q1023 TEMPO BKN008"
"1731","LFLS",2019-12-06 09:30:00,5.3294,45.3629,37.4,33.8,86.69,80,12,0,30.21,NA,6.21,NA,NA,NA,NA,NA,NA,NA,NA,NA,NA,NA,NA,NA,NA,NA,NA,28.87,"LFLS 060930Z AUTO 08012KT CAVOK 03/01 Q1023 TEMPO 0400 FG BKN004"
"1732","LFLS",2019-12-06 10:00:00,5.3294,45.3629,39.2,35.6,86.79,90,12,0,30.21,NA,6.21,NA,NA,NA,NA,NA,NA,NA,NA,NA,NA,NA,NA,NA,NA,NA,NA,31.17,"LFLS 061000Z AUTO 09012KT CAVOK 04/02 Q1023 TEMPO 0400 FG BKN004"
"1733","LFLS",2019-12-06 10:30:00,5.3294,45.3629,42.8,35.6,75.5,80,10,0,30.21,NA,6.21,NA,NA,NA,NA,NA,NA,NA,NA,NA,NA,NA,NA,NA,NA,NA,NA,36.51,"LFLS 061030Z AUTO 08010KT CAVOK 06/02 Q1023 TEMPO 0400 FG BKN004"
"1734","LFLS",2019-12-06 11:00:00,5.3294,45.3629,42.8,35.6,75.5,70,10,0,30.21,NA,6.21,NA,NA,NA,NA,NA,NA,NA,NA,NA,NA,NA,NA,NA,NA,NA,NA,36.51,"LFLS 061100Z AUTO 07010KT CAVOK 06/02 Q1023 TEMPO 0400 FG BKN004"
"1735","LFLS",2019-12-06 11:30:00,5.3294,45.3629,44.6,35.6,70.48,90,11,0,30.18,NA,6.21,NA,NA,NA,NA,NA,NA,NA,NA,NA,NA,NA,NA,NA,NA,NA,NA,38.39,"LFLS 061130Z AUTO 09011KT CAVOK 07/02 Q1022 NOSIG"
"1736","LFLS",2019-12-06 12:00:00,5.3294,45.3629,46.4,37.4,70.68,80,10,0,30.18,NA,6.21,NA,NA,NA,NA,NA,NA,NA,NA,NA,NA,NA,NA,NA,NA,NA,NA,41.03,"LFLS 061200Z AUTO 08010KT CAVOK 08/03 Q1022 NOSIG"
"1737","LFLS",2019-12-06 12:30:00,5.3294,45.3629,48.2,37.4,66.05,80,10,0,30.15,NA,6.21,NA,NA,NA,NA,NA,NA,NA,NA,NA,NA,NA,NA,NA,NA,NA,NA,43.28,"LFLS 061230Z AUTO 08010KT CAVOK 09/03 Q1021 NOSIG"
"1738","LFLS",2019-12-06 13:00:00,5.3294,45.3629,48.2,37.4,66.05,80,8,0,30.15,NA,6.21,NA,NA,NA,NA,NA,NA,NA,NA,NA,NA,NA,NA,NA,NA,NA,NA,44.07,"LFLS 061300Z AUTO 08008KT CAVOK 09/03 Q1021 NOSIG"
"1739","LFLS",2019-12-06 13:30:00,5.3294,45.3629,48.2,37.4,66.05,80,8,0,30.15,NA,6.21,NA,NA,NA,NA,NA,NA,NA,NA,NA,NA,NA,NA,NA,NA,NA,NA,44.07,"LFLS 061330Z AUTO 08008KT CAVOK 09/03 Q1021 NOSIG"
"1740","LFLS",2019-12-06 14:00:00,5.3294,45.3629,48.2,37.4,66.05,80,8,0,30.12,NA,6.21,NA,NA,NA,NA,NA,NA,NA,NA,NA,NA,NA,NA,NA,NA,NA,NA,44.07,"LFLS 061400Z AUTO 08008KT CAVOK 09/03 Q1020 NOSIG"
"1741","LFLS",2019-12-06 14:30:00,5.3294,45.3629,48.2,37.4,66.05,70,6,0,30.12,NA,6.21,NA,NA,NA,NA,NA,NA,NA,NA,NA,NA,NA,NA,NA,NA,NA,NA,45.04,"LFLS 061430Z AUTO 07006KT CAVOK 09/03 Q1020 NOSIG"
"1742","LFLS",2019-12-06 15:00:00,5.3294,45.3629,46.4,37.4,70.68,90,7,0,30.12,NA,6.21,NA,NA,NA,NA,NA,NA,NA,NA,NA,NA,NA,NA,NA,NA,NA,NA,42.33,"LFLS 061500Z AUTO 09007KT CAVOK 08/03 Q1020 NOSIG"
"1743","LFLS",2019-12-06 15:30:00,5.3294,45.3629,42.8,35.6,75.5,90,7,0,30.12,NA,6.21,NA,NA,NA,NA,NA,NA,NA,NA,NA,NA,NA,NA,NA,NA,NA,NA,37.94,"LFLS 061530Z AUTO 09007KT 070V130 CAVOK 06/02 Q1020 NOSIG"
"1744","LFLS",2019-12-06 16:00:00,5.3294,45.3629,41,33.8,75.33,100,7,0,30.12,NA,6.21,NA,NA,NA,NA,NA,NA,NA,NA,NA,NA,NA,NA,NA,NA,NA,NA,35.75,"LFLS 061600Z AUTO 10007KT CAVOK 05/01 Q1020 NOSIG"
"1745","LFLS",2019-12-06 16:30:00,5.3294,45.3629,41,32,70.08,70,8,0,30.12,NA,6.21,NA,NA,NA,NA,NA,NA,NA,NA,NA,NA,NA,NA,NA,NA,NA,NA,35.2,"LFLS 061630Z AUTO 07008KT CAVOK 05/00 Q1020 NOSIG"
"1746","LFLS",2019-12-06 17:00:00,5.3294,45.3629,37.4,32,80.65,70,7,0,30.12,NA,6.21,NA,NA,NA,NA,NA,NA,NA,NA,NA,NA,NA,NA,NA,NA,NA,NA,31.36,"LFLS 061700Z AUTO 07007KT CAVOK 03/M00 Q1020 NOSIG"
"1747","LFLS",2019-12-06 17:30:00,5.3294,45.3629,37.4,30.2,74.98,70,7,0,30.12,NA,6.21,NA,NA,NA,NA,NA,NA,NA,NA,NA,NA,NA,NA,NA,NA,NA,NA,31.36,"LFLS 061730Z AUTO 07007KT CAVOK 03/M01 Q1020 NOSIG"
"1748","LFLS",2019-12-06 18:00:00,5.3294,45.3629,35.6,30.2,80.51,80,7,0,30.12,NA,6.21,NA,NA,NA,NA,NA,NA,NA,NA,NA,NA,NA,NA,NA,NA,NA,NA,29.17,"LFLS 061800Z AUTO 08007KT CAVOK 02/M01 Q1020 NOSIG"
"1749","LFLS",2019-12-06 18:30:00,5.3294,45.3629,35.6,32,86.59,70,8,0,30.12,NA,6.21,NA,NA,NA,NA,NA,NA,NA,NA,NA,NA,NA,NA,NA,NA,NA,NA,28.55,"LFLS 061830Z AUTO 07008KT CAVOK 02/M00 Q1020 NOSIG"
"1750","LFLS",2019-12-06 19:00:00,5.3294,45.3629,37.4,33.8,86.69,70,8,0,30.15,NA,6.21,NA,NA,NA,NA,NA,NA,NA,NA,NA,NA,NA,NA,NA,NA,NA,NA,30.76,"LFLS 061900Z AUTO 07008KT CAVOK 03/01 Q1021 NOSIG"
"1751","LFLS",2019-12-06 19:30:00,5.3294,45.3629,37.4,30.2,74.98,70,8,0,30.15,NA,6.21,NA,NA,NA,NA,NA,NA,NA,NA,NA,NA,NA,NA,NA,NA,NA,NA,30.76,"LFLS 061930Z AUTO 07008KT CAVOK 03/M01 Q1021 NOSIG"
"1752","LFLS",2019-12-06 20:00:00,5.3294,45.3629,39.2,33.8,80.79,70,10,0,30.12,NA,6.21,NA,NA,NA,NA,NA,NA,NA,NA,NA,NA,NA,NA,NA,NA,NA,NA,32,"LFLS 062000Z AUTO 07010KT CAVOK 04/01 Q1020 NOSIG"
"1753","LFLS",2019-12-06 20:30:00,5.3294,45.3629,39.2,33.8,80.79,60,10,0,30.15,NA,6.21,NA,NA,NA,NA,NA,NA,NA,NA,NA,NA,NA,NA,NA,NA,NA,NA,32,"LFLS 062030Z AUTO 06010KT CAVOK 04/01 Q1021 NOSIG"
"1754","LFLS",2019-12-06 21:00:00,5.3294,45.3629,37.4,32,80.65,80,9,0,30.15,NA,6.21,NA,NA,NA,NA,NA,NA,NA,NA,NA,NA,NA,NA,NA,NA,NA,NA,30.23,"LFLS 062100Z AUTO 08009KT CAVOK 03/00 Q1021 NOSIG"
"1755","LFLS",2019-12-06 21:30:00,5.3294,45.3629,37.4,33.8,86.69,100,7,0,30.15,NA,6.21,NA,NA,NA,NA,NA,NA,NA,NA,NA,NA,NA,NA,NA,NA,NA,NA,31.36,"LFLS 062130Z AUTO 10007KT CAVOK 03/01 Q1021"
"1756","LFLS",2019-12-06 22:00:00,5.3294,45.3629,37.4,33.8,86.69,80,8,0,30.15,NA,6.21,NA,NA,NA,NA,NA,NA,NA,NA,NA,NA,NA,NA,NA,NA,NA,NA,30.76,"LFLS 062200Z AUTO 08008KT CAVOK 03/01 Q1021"
"1757","LFLS",2019-12-06 22:30:00,5.3294,45.3629,41,33.8,75.33,60,8,0,30.15,NA,6.21,NA,NA,NA,NA,NA,NA,NA,NA,NA,NA,NA,NA,NA,NA,NA,NA,35.2,"LFLS 062230Z AUTO 06008KT CAVOK 05/01 Q1021"
"1758","LFLS",2019-12-06 23:00:00,5.3294,45.3629,39.2,35.6,86.79,100,6,0,30.15,NA,6.21,NA,NA,NA,NA,NA,NA,NA,NA,NA,NA,NA,NA,NA,NA,NA,NA,34.2,"LFLS 062300Z AUTO 10006KT 080V140 CAVOK 04/02 Q1021"
"1759","LFLS",2019-12-06 23:30:00,5.3294,45.3629,39.2,35.6,86.79,90,8,0,30.15,NA,6.21,NA,NA,NA,NA,NA,NA,NA,NA,NA,NA,NA,NA,NA,NA,NA,NA,32.98,"LFLS 062330Z AUTO 09008KT CAVOK 04/02 Q1021"
"1760","LFTH",2019-12-06 00:00:00,6.1464,43.0944,55.4,41,58.27,360,7,0,30.18,NA,6.21,NA,"OVC",NA,NA,NA,3300,NA,NA,NA,NA,NA,NA,NA,NA,NA,NA,NA,"LFTH 060000Z AUTO 36007KT 9999 OVC033 13/05 Q1022 TEMPO SHRA"
"1761","LFTH",2019-12-06 00:30:00,6.1464,43.0944,55.4,41,58.27,360,8,0,30.18,NA,6.21,NA,"BKN","OVC",NA,NA,3200,3800,NA,NA,NA,NA,NA,NA,NA,NA,NA,NA,"LFTH 060030Z AUTO 36008KT 9999 BKN032 OVC038 13/05 Q1022 TEMPO SHRA"
"1762","LFTH",2019-12-06 01:00:00,6.1464,43.0944,55.4,41,58.27,360,7,0,30.18,NA,6.21,NA,"OVC",NA,NA,NA,3200,NA,NA,NA,NA,NA,NA,NA,NA,NA,NA,NA,"LFTH 060100Z AUTO 36007KT 9999 OVC032 13/05 Q1022 TEMPO SHRA"
"1763","LFTH",2019-12-06 01:30:00,6.1464,43.0944,55.4,41,58.27,10,7,0,30.18,NA,6.21,NA,"OVC",NA,NA,NA,2900,NA,NA,NA,NA,NA,NA,NA,NA,NA,NA,NA,"LFTH 060130Z AUTO 01007KT 9999 OVC029 13/05 Q1022 TEMPO SHRA"
"1764","LFTH",2019-12-06 02:00:00,6.1464,43.0944,55.4,41,58.27,10,6,0,30.18,NA,6.21,NA,"OVC",NA,NA,NA,2800,NA,NA,NA,NA,NA,NA,NA,NA,NA,NA,NA,"LFTH 060200Z AUTO 01006KT 9999 OVC028 13/05 Q1022 TEMPO SHRA"
"1765","LFTH",2019-12-06 02:30:00,6.1464,43.0944,53.6,41,62.23,360,6,0,30.18,NA,6.21,NA,"OVC",NA,NA,NA,2700,NA,NA,NA,NA,NA,NA,NA,NA,NA,NA,NA,"LFTH 060230Z AUTO 36006KT 9999 OVC027 12/05 Q1022 TEMPO SHRA"
"1766","LFTH",2019-12-06 03:00:00,6.1464,43.0944,53.6,41,62.23,350,6,0,30.18,NA,6.21,NA,"OVC",NA,NA,NA,2900,NA,NA,NA,NA,NA,NA,NA,NA,NA,NA,NA,"LFTH 060300Z AUTO 35006KT 9999 OVC029 12/05 Q1022 TEMPO SHRA"
"1767","LFTH",2019-12-06 03:30:00,6.1464,43.0944,53.6,41,62.23,350,6,0,30.18,NA,6.21,NA,"OVC",NA,NA,NA,2900,NA,NA,NA,NA,NA,NA,NA,NA,NA,NA,NA,"LFTH 060330Z AUTO 35006KT 9999 OVC029 12/05 Q1022 NOSIG"
"1768","LFTH",2019-12-06 04:00:00,6.1464,43.0944,53.6,41,62.23,360,5,0,30.18,NA,6.21,NA,"BKN","OVC",NA,NA,3000,9600,NA,NA,NA,NA,NA,NA,NA,NA,NA,NA,"LFTH 060400Z AUTO 36005KT 9999 BKN030 OVC096 12/05 Q1022 NOSIG"
"1769","LFTH",2019-12-06 04:30:00,6.1464,43.0944,51.8,41,66.48,350,5,0,30.18,NA,6.21,NA,NA,NA,NA,NA,NA,NA,NA,NA,NA,NA,NA,NA,NA,NA,NA,NA,"LFTH 060430Z AUTO 35005KT CAVOK 11/05 Q1022 NOSIG"
"1770","LFTH",2019-12-06 05:00:00,6.1464,43.0944,50,41,71.07,340,4,0,30.18,NA,6.21,NA,"SCT","SCT",NA,NA,3100,9400,NA,NA,NA,NA,NA,NA,NA,NA,NA,48.44,"LFTH 060500Z AUTO 34004KT 9999 SCT031 SCT094 10/05 Q1022 NOSIG"
"1771","LFTH",2019-12-06 05:30:00,6.1464,43.0944,50,41,71.07,350,3,0,30.18,NA,6.21,NA,"FEW","OVC",NA,NA,3000,8800,NA,NA,NA,NA,NA,NA,NA,NA,NA,49.27,"LFTH 060530Z AUTO 35003KT 9999 FEW030 OVC088 10/05 Q1022 NOSIG"
"1772","LFTH",2019-12-06 06:00:00,6.1464,43.0944,50,41,71.07,350,3,0,30.18,NA,6.21,NA,NA,NA,NA,NA,NA,NA,NA,NA,NA,NA,NA,NA,NA,NA,NA,49.27,"LFTH 060600Z AUTO 35003KT CAVOK 10/05 Q1022 NOSIG"
"1773","LFTH",2019-12-06 06:30:00,6.1464,43.0944,51.8,42.8,71.26,340,2,0,30.18,NA,6.21,NA,"BKN","OVC",NA,NA,3000,8800,NA,NA,NA,NA,NA,NA,NA,NA,NA,NA,"LFTH 060630Z AUTO 34002KT 9999 BKN030 OVC088 11/06 Q1022 NOSIG"
"1774","LFTH",2019-12-06 07:00:00,6.1464,43.0944,51.8,42.8,71.26,360,4,0,30.18,NA,6.21,NA,"SCT","OVC",NA,NA,3000,8800,NA,NA,NA,NA,NA,NA,NA,NA,NA,NA,"LFTH 060700Z AUTO 36004KT 9999 SCT030 OVC088 11/06 Q1022 NOSIG"
"1775","LFTH",2019-12-06 07:30:00,6.1464,43.0944,51.8,42.8,71.26,340,4,0,30.18,NA,6.21,NA,"BKN","OVC",NA,NA,2900,8800,NA,NA,NA,NA,NA,NA,NA,NA,NA,NA,"LFTH 060730Z AUTO 34004KT 9999 BKN029 OVC088 11/06 Q1022 NOSIG"
"1776","LFTH",2019-12-06 08:00:00,6.1464,43.0944,55.4,44.6,66.91,340,6,0,30.18,NA,6.21,NA,"OVC",NA,NA,NA,3000,NA,NA,NA,NA,NA,NA,NA,NA,NA,NA,NA,"LFTH 060800Z AUTO 34006KT 9999 OVC030 13/07 Q1022 NOSIG"
"1777","LFTH",2019-12-06 08:30:00,6.1464,43.0944,55.4,42.8,62.46,360,7,0,30.21,NA,6.21,NA,"OVC",NA,NA,NA,2900,NA,NA,NA,NA,NA,NA,NA,NA,NA,NA,NA,"LFTH 060830Z AUTO 36007KT 9999 OVC029 13/06 Q1023 NOSIG"
"1778","LFTH",2019-12-06 09:00:00,6.1464,43.0944,55.4,42.8,62.46,360,5,0,30.21,NA,6.21,NA,"OVC",NA,NA,NA,3000,NA,NA,NA,NA,NA,NA,NA,NA,NA,NA,NA,"LFTH 060900Z AUTO 36005KT 9999 OVC030 13/06 Q1023 NOSIG"
"1779","LFTH",2019-12-06 09:30:00,6.1464,43.0944,57.2,44.6,62.69,360,5,0,30.21,NA,6.21,NA,"OVC",NA,NA,NA,3200,NA,NA,NA,NA,NA,NA,NA,NA,NA,NA,NA,"LFTH 060930Z AUTO 36005KT 9999 OVC032 14/07 Q1023 NOSIG"
"1780","LFTH",2019-12-06 10:00:00,6.1464,43.0944,57.2,44.6,62.69,360,4,0,30.21,NA,6.21,NA,"SCT","OVC",NA,NA,3700,8600,NA,NA,NA,NA,NA,NA,NA,NA,NA,NA,"LFTH 061000Z AUTO 36004KT 9999 SCT037 OVC086 14/07 Q1023 NOSIG"
"1781","LFTH",2019-12-06 10:30:00,6.1464,43.0944,59,44.6,58.77,360,4,0,30.21,NA,6.21,NA,NA,NA,NA,NA,NA,NA,NA,NA,NA,NA,NA,NA,NA,NA,NA,NA,"LFTH 061030Z AUTO 36004KT CAVOK 15/07 Q1023 NOSIG"
"1782","LFTH",2019-12-06 11:00:00,6.1464,43.0944,59,44.6,58.77,340,3,0,30.18,NA,6.21,NA,NA,NA,NA,NA,NA,NA,NA,NA,NA,NA,NA,NA,NA,NA,NA,NA,"LFTH 061100Z AUTO 34003KT CAVOK 15/07 Q1022 NOSIG"
"1783","LFTH",2019-12-06 11:30:00,6.1464,43.0944,59,46.4,62.92,340,2,0,30.18,NA,6.21,NA,NA,NA,NA,NA,NA,NA,NA,NA,NA,NA,NA,NA,NA,NA,NA,NA,"LFTH 061130Z AUTO 34002KT CAVOK 15/08 Q1022 NOSIG"
"1784","LFTH",2019-12-06 12:00:00,6.1464,43.0944,62.6,48.2,59.26,NA,3,0,30.18,NA,6.21,NA,NA,NA,NA,NA,NA,NA,NA,NA,NA,NA,NA,NA,NA,NA,NA,NA,"LFTH 061200Z AUTO VRB03KT CAVOK 17/09 Q1022 NOSIG"
"1785","LFTH",2019-12-06 12:30:00,6.1464,43.0944,59,48.2,67.33,120,4,0,30.18,NA,6.21,NA,"BKN","OVC",NA,NA,4300,5200,NA,NA,NA,NA,NA,NA,NA,NA,NA,NA,"LFTH 061230Z AUTO 12004KT 070V210 9999 BKN043 OVC052 15/09 Q1022 NOSIG"
"1786","LFTH",2019-12-06 13:00:00,6.1464,43.0944,59,50,72.01,110,5,0,30.15,NA,6.21,NA,"BKN","OVC",NA,NA,4500,5600,NA,NA,NA,NA,NA,NA,NA,NA,NA,NA,"LFTH 061300Z AUTO 11005KT 090V150 9999 BKN045 OVC056 15/10 Q1021 NOSIG"
"1787","LFTH",2019-12-06 13:30:00,6.1464,43.0944,59,50,72.01,100,4,0,30.15,NA,6.21,NA,NA,NA,NA,NA,NA,NA,NA,NA,NA,NA,NA,NA,NA,NA,NA,NA,"LFTH 061330Z AUTO 10004KT 060V130 CAVOK 15/10 Q1021 NOSIG"
"1788","LFTH",2019-12-06 14:00:00,6.1464,43.0944,60.8,51.8,72.2,70,3,0,30.15,NA,6.21,NA,NA,NA,NA,NA,NA,NA,NA,NA,NA,NA,NA,NA,NA,NA,NA,NA,"LFTH 061400Z AUTO 07003KT 040V110 CAVOK 16/11 Q1021 NOSIG"
"1789","LFTH",2019-12-06 14:30:00,6.1464,43.0944,60.8,50,67.54,NA,2,0,30.15,NA,6.21,NA,NA,NA,NA,NA,NA,NA,NA,NA,NA,NA,NA,NA,NA,NA,NA,NA,"LFTH 061430Z AUTO VRB02KT CAVOK 16/10 Q1021 NOSIG"
"1790","LFTH",2019-12-06 15:00:00,6.1464,43.0944,59,50,72.01,NA,2,0,30.12,NA,6.21,NA,NA,NA,NA,NA,NA,NA,NA,NA,NA,NA,NA,NA,NA,NA,NA,NA,"LFTH 061500Z AUTO VRB02KT CAVOK 15/10 Q1020 NOSIG"
"1791","LFTH",2019-12-06 15:30:00,6.1464,43.0944,59,50,72.01,160,3,0,30.12,NA,6.21,NA,NA,NA,NA,NA,NA,NA,NA,NA,NA,NA,NA,NA,NA,NA,NA,NA,"LFTH 061530Z AUTO 16003KT CAVOK 15/10 Q1020 NOSIG"
"1792","LFTH",2019-12-06 16:00:00,6.1464,43.0944,57.2,50,76.82,240,2,0,30.12,NA,6.21,NA,NA,NA,NA,NA,NA,NA,NA,NA,NA,NA,NA,NA,NA,NA,NA,NA,"LFTH 061600Z AUTO 24002KT CAVOK 14/10 Q1020 NOSIG"
"1793","LFTH",2019-12-06 16:30:00,6.1464,43.0944,55.4,50,81.99,NA,2,0,30.12,NA,6.21,NA,NA,NA,NA,NA,NA,NA,NA,NA,NA,NA,NA,NA,NA,NA,NA,NA,"LFTH 061630Z AUTO VRB02KT CAVOK 13/10 Q1020 NOSIG"
"1794","LFTH",2019-12-06 17:00:00,6.1464,43.0944,53.6,50,87.56,0,0,0,30.15,NA,6.21,NA,NA,NA,NA,NA,NA,NA,NA,NA,NA,NA,NA,NA,NA,NA,NA,NA,"LFTH 061700Z AUTO 00000KT CAVOK 12/10 Q1021 NOSIG"
"1795","LFTH",2019-12-06 17:30:00,6.1464,43.0944,50,46.4,87.37,10,2,0,30.15,NA,6.21,NA,NA,NA,NA,NA,NA,NA,NA,NA,NA,NA,NA,NA,NA,NA,NA,NA,"LFTH 061730Z AUTO 01002KT CAVOK 10/08 Q1021 NOSIG"
"1796","LFTH",2019-12-06 18:00:00,6.1464,43.0944,50,46.4,87.37,360,3,0,30.15,NA,6.21,NA,NA,NA,NA,NA,NA,NA,NA,NA,NA,NA,NA,NA,NA,NA,NA,49.27,"LFTH 061800Z AUTO 36003KT CAVOK 10/08 Q1021 NOSIG"
"1797","LFTH",2019-12-06 18:30:00,6.1464,43.0944,48.2,46.4,93.45,10,3,0,30.15,NA,6.21,NA,NA,NA,NA,NA,NA,NA,NA,NA,NA,NA,NA,NA,NA,NA,NA,47.21,"LFTH 061830Z AUTO 01003KT CAVOK 09/08 Q1021 NOSIG"
"1798","LFTH",2019-12-06 19:00:00,6.1464,43.0944,48.2,44.6,87.28,20,3,0,30.15,NA,6.21,NA,NA,NA,NA,NA,NA,NA,NA,NA,NA,NA,NA,NA,NA,NA,NA,47.21,"LFTH 061900Z AUTO 02003KT CAVOK 09/07 Q1021 NOSIG"
"1799","LFTH",2019-12-06 19:30:00,6.1464,43.0944,46.4,44.6,93.4,350,3,0,30.15,NA,6.21,NA,NA,NA,NA,NA,NA,NA,NA,NA,NA,NA,NA,NA,NA,NA,NA,45.15,"LFTH 061930Z AUTO 35003KT CAVOK 08/07 Q1021 NOSIG"
"1800","LFTH",2019-12-06 20:00:00,6.1464,43.0944,48.2,46.4,93.45,330,5,0,30.15,NA,6.21,NA,NA,NA,NA,NA,NA,NA,NA,NA,NA,NA,NA,NA,NA,NA,NA,45.63,"LFTH 062000Z AUTO 33005KT CAVOK 09/08 Q1021 NOSIG"
"1801","LFTH",2019-12-06 20:30:00,6.1464,43.0944,48.2,46.4,93.45,320,5,0,30.15,NA,6.21,NA,NA,NA,NA,NA,NA,NA,NA,NA,NA,NA,NA,NA,NA,NA,NA,45.63,"LFTH 062030Z AUTO 32005KT CAVOK 09/08 Q1021 NOSIG"
"1802","LFTH",2019-12-06 21:00:00,6.1464,43.0944,48.2,46.4,93.45,310,3,0,30.15,NA,6.21,NA,NA,NA,NA,NA,NA,NA,NA,NA,NA,NA,NA,NA,NA,NA,NA,47.21,"LFTH 062100Z AUTO 31003KT CAVOK 09/08 Q1021 NOSIG"
"1803","LFTH",2019-12-06 21:30:00,6.1464,43.0944,48.2,44.6,87.28,310,7,0,30.15,NA,6.21,NA,NA,NA,NA,NA,NA,NA,NA,NA,NA,NA,NA,NA,NA,NA,NA,44.53,"LFTH 062130Z AUTO 31007KT CAVOK 09/07 Q1021 NOSIG"
"1804","LFTH",2019-12-06 22:00:00,6.1464,43.0944,46.4,44.6,93.4,330,6,0,30.15,NA,6.21,NA,NA,NA,NA,NA,NA,NA,NA,NA,NA,NA,NA,NA,NA,NA,NA,42.87,"LFTH 062200Z AUTO 33006KT CAVOK 08/07 Q1021 NOSIG"
"1805","LFTH",2019-12-06 22:30:00,6.1464,43.0944,48.2,44.6,87.28,NA,3,0,30.15,NA,6.21,NA,NA,NA,NA,NA,NA,NA,NA,NA,NA,NA,NA,NA,NA,NA,NA,47.21,"LFTH 062230Z AUTO VRB03KT CAVOK 09/07 Q1021 NOSIG"
"1806","LFTH",2019-12-06 23:00:00,6.1464,43.0944,48.2,44.6,87.28,310,4,0,30.15,NA,6.21,NA,NA,NA,NA,NA,NA,NA,NA,NA,NA,NA,NA,NA,NA,NA,NA,46.34,"LFTH 062300Z AUTO 31004KT CAVOK 09/07 Q1021 NOSIG"
"1807","LFTH",2019-12-06 23:30:00,6.1464,43.0944,44.6,42.8,93.35,320,6,0,30.15,NA,6.21,NA,NA,NA,NA,NA,NA,NA,NA,NA,NA,NA,NA,NA,NA,NA,NA,40.71,"LFTH 062330Z AUTO 32006KT CAVOK 07/06 Q1021 NOSIG"
"1808","LFMI",2019-12-06 00:00:00,4.9222,43.5231,46.4,42.8,87.19,60,6,0,30.21,NA,6.21,NA,NA,NA,NA,NA,NA,NA,NA,NA,NA,NA,NA,NA,NA,NA,NA,42.87,"LFMI 060000Z AUTO 06006KT CAVOK 08/06 Q1023 NOSIG"
"1809","LFMI",2019-12-06 00:30:00,4.9222,43.5231,48.2,42.8,81.47,60,4,0,30.21,NA,6.21,NA,NA,NA,NA,NA,NA,NA,NA,NA,NA,NA,NA,NA,NA,NA,NA,46.34,"LFMI 060030Z AUTO 06004KT CAVOK 09/06 Q1023 NOSIG"
"1810","LFMI",2019-12-06 01:00:00,4.9222,43.5231,46.4,42.8,87.19,30,6,0,30.21,NA,6.21,NA,NA,NA,NA,NA,NA,NA,NA,NA,NA,NA,NA,NA,NA,NA,NA,42.87,"LFMI 060100Z AUTO 03006KT CAVOK 08/06 Q1023 NOSIG"
"1811","LFMI",2019-12-06 01:30:00,4.9222,43.5231,46.4,42.8,87.19,30,9,0,30.21,NA,6.21,NA,"NSC",NA,NA,NA,NA,NA,NA,NA,"-RA",NA,NA,NA,NA,NA,NA,41.42,"LFMI 060130Z AUTO 03009KT 9999 -RA NSC 08/06 Q1023 NOSIG"
"1812","LFMI",2019-12-06 02:00:00,4.9222,43.5231,46.4,42.8,87.19,40,8,0,30.21,NA,6.21,NA,"NSC",NA,NA,NA,NA,NA,NA,NA,"-RADZ",NA,NA,NA,NA,NA,NA,41.85,"LFMI 060200Z AUTO 04008KT 9999 -RADZ NSC 08/06 Q1023 NOSIG"
"1813","LFMI",2019-12-06 02:30:00,4.9222,43.5231,46.4,42.8,87.19,30,6,0,30.18,NA,6.21,NA,NA,NA,NA,NA,NA,NA,NA,NA,NA,NA,NA,NA,NA,NA,NA,42.87,"LFMI 060230Z AUTO 03006KT CAVOK 08/06 Q1022 NOSIG"
"1814","LFMI",2019-12-06 03:00:00,4.9222,43.5231,48.2,42.8,81.47,30,5,0,30.18,NA,6.21,NA,NA,NA,NA,NA,NA,NA,NA,NA,NA,NA,NA,NA,NA,NA,NA,45.63,"LFMI 060300Z AUTO 03005KT CAVOK 09/06 Q1022 NOSIG"
"1815","LFMI",2019-12-06 03:30:00,4.9222,43.5231,46.4,42.8,87.19,30,4,0,30.18,NA,6.21,NA,NA,NA,NA,NA,NA,NA,NA,NA,NA,NA,NA,NA,NA,NA,NA,44.24,"LFMI 060330Z AUTO 03004KT CAVOK 08/06 Q1022 NOSIG"
"1816","LFMI",2019-12-06 04:00:00,4.9222,43.5231,46.4,42.8,87.19,350,5,0,30.18,NA,6.21,NA,NA,NA,NA,NA,NA,NA,NA,NA,NA,NA,NA,NA,NA,NA,NA,43.5,"LFMI 060400Z AUTO 35005KT CAVOK 08/06 Q1022 NOSIG"
"1817","LFMI",2019-12-06 04:30:00,4.9222,43.5231,46.4,42.8,87.19,20,4,0,30.18,NA,6.21,NA,NA,NA,NA,NA,NA,NA,NA,NA,NA,NA,NA,NA,NA,NA,NA,44.24,"LFMI 060430Z AUTO 02004KT CAVOK 08/06 Q1022 NOSIG"
"1818","LFMI",2019-12-06 05:00:00,4.9222,43.5231,46.4,41,81.34,10,7,0,30.18,NA,6.21,NA,NA,NA,NA,NA,NA,NA,NA,NA,NA,NA,NA,NA,NA,NA,NA,42.33,"LFMI 060500Z AUTO 01007KT CAVOK 08/05 Q1022 NOSIG"
"1819","LFMI",2019-12-06 05:30:00,4.9222,43.5231,44.6,41,87.09,30,6,0,30.18,NA,6.21,NA,NA,NA,NA,NA,NA,NA,NA,NA,NA,NA,NA,NA,NA,NA,NA,40.71,"LFMI 060530Z AUTO 03006KT CAVOK 07/05 Q1022 NOSIG"
"1820","LFMI",2019-12-06 06:00:00,4.9222,43.5231,44.6,39.2,81.2,30,9,0,30.18,NA,6.21,NA,NA,NA,NA,NA,NA,NA,NA,NA,NA,NA,NA,NA,NA,NA,NA,39.18,"LFMI 060600Z AUTO 03009KT CAVOK 07/04 Q1022 NOSIG"
"1821","LFMI",2019-12-06 06:30:00,4.9222,43.5231,42.8,39.2,86.99,40,6,0,30.21,NA,6.21,NA,NA,NA,NA,NA,NA,NA,NA,NA,NA,NA,NA,NA,NA,NA,NA,38.54,"LFMI 060630Z AUTO 04006KT CAVOK 06/04 Q1023 NOSIG"
"1822","LFMI",2019-12-06 07:00:00,4.9222,43.5231,42.8,39.2,86.99,40,6,0,30.21,NA,6.21,NA,NA,NA,NA,NA,NA,NA,NA,NA,NA,NA,NA,NA,NA,NA,NA,38.54,"LFMI 060700Z AUTO 04006KT CAVOK 06/04 Q1023 NOSIG"
"1823","LFMI",2019-12-06 07:30:00,4.9222,43.5231,42.8,39.2,86.99,20,5,0,30.21,NA,6.21,NA,NA,NA,NA,NA,NA,NA,NA,NA,NA,NA,NA,NA,NA,NA,NA,39.22,"LFMI 060730Z AUTO 02005KT CAVOK 06/04 Q1023 NOSIG"
"1824","LFMI",2019-12-06 08:00:00,4.9222,43.5231,44.6,39.2,81.2,20,6,0,30.21,NA,6.21,NA,NA,NA,NA,NA,NA,NA,NA,NA,NA,NA,NA,NA,NA,NA,NA,40.71,"LFMI 060800Z AUTO 02006KT CAVOK 07/04 Q1023 NOSIG"
"1825","LFMI",2019-12-06 08:30:00,4.9222,43.5231,46.4,39.2,75.84,20,7,0,30.21,NA,6.21,NA,NA,NA,NA,NA,NA,NA,NA,NA,NA,NA,NA,NA,NA,NA,NA,42.33,"LFMI 060830Z AUTO 02007KT CAVOK 08/04 Q1023 NOSIG"
"1826","LFMI",2019-12-06 09:00:00,4.9222,43.5231,50,41,71.07,30,3,0,30.21,NA,6.21,NA,NA,NA,NA,NA,NA,NA,NA,NA,NA,NA,NA,NA,NA,NA,NA,49.27,"LFMI 060900Z AUTO 03003KT CAVOK 10/05 Q1023 NOSIG"
"1827","LFMI",2019-12-06 09:30:00,4.9222,43.5231,51.8,41,66.48,30,6,0,30.24,NA,6.21,NA,NA,NA,NA,NA,NA,NA,NA,NA,NA,NA,NA,NA,NA,NA,NA,NA,"LFMI 060930Z AUTO 03006KT CAVOK 11/05 Q1024 NOSIG"
"1828","LFMI",2019-12-06 10:00:00,4.9222,43.5231,53.6,41,62.23,30,5,0,30.24,NA,6.21,NA,NA,NA,NA,NA,NA,NA,NA,NA,NA,NA,NA,NA,NA,NA,NA,NA,"LFMI 061000Z AUTO 03005KT CAVOK 12/05 Q1024 NOSIG"
"1829","LFMI",2019-12-06 10:30:00,4.9222,43.5231,55.4,41,58.27,30,5,0,30.21,NA,6.21,NA,NA,NA,NA,NA,NA,NA,NA,NA,NA,NA,NA,NA,NA,NA,NA,NA,"LFMI 061030Z AUTO 03005KT CAVOK 13/05 Q1023 NOSIG"
"1830","LFMI",2019-12-06 11:00:00,4.9222,43.5231,57.2,42.8,58.52,30,4,0,30.21,NA,6.21,NA,NA,NA,NA,NA,NA,NA,NA,NA,NA,NA,NA,NA,NA,NA,NA,NA,"LFMI 061100Z AUTO 03004KT 010V080 CAVOK 14/06 Q1023 NOSIG"
"1831","LFMI",2019-12-06 11:30:00,4.9222,43.5231,60.8,42.8,51.45,NA,2,0,30.21,NA,6.21,NA,NA,NA,NA,NA,NA,NA,NA,NA,NA,NA,NA,NA,NA,NA,NA,NA,"LFMI 061130Z AUTO VRB02KT CAVOK 16/06 Q1023 NOSIG"
"1832","LFMI",2019-12-06 12:00:00,4.9222,43.5231,60.8,42.8,51.45,NA,2,0,30.18,NA,6.21,NA,NA,NA,NA,NA,NA,NA,NA,NA,NA,NA,NA,NA,NA,NA,NA,NA,"LFMI 061200Z AUTO VRB02KT CAVOK 16/06 Q1022 NOSIG"
"1833","LFMI",2019-12-06 12:30:00,4.9222,43.5231,60.8,42.8,51.45,NA,3,0,30.18,NA,6.21,NA,NA,NA,NA,NA,NA,NA,NA,NA,NA,NA,NA,NA,NA,NA,NA,NA,"LFMI 061230Z AUTO VRB03KT CAVOK 16/06 Q1022 NOSIG"
"1834","LFMI",2019-12-06 13:00:00,4.9222,43.5231,62.6,41,45.04,NA,3,0,30.18,NA,6.21,NA,NA,NA,NA,NA,NA,NA,NA,NA,NA,NA,NA,NA,NA,NA,NA,NA,"LFMI 061300Z AUTO VRB03KT CAVOK 17/05 Q1022 NOSIG"
"1835","LFMI",2019-12-06 13:30:00,4.9222,43.5231,62.6,41,45.04,340,3,0,30.15,NA,6.21,NA,NA,NA,NA,NA,NA,NA,NA,NA,NA,NA,NA,NA,NA,NA,NA,NA,"LFMI 061330Z AUTO 34003KT 280V030 CAVOK 17/05 Q1021 NOSIG"
"1836","LFMI",2019-12-06 14:00:00,4.9222,43.5231,62.6,37.4,39.14,350,3,0,30.15,NA,6.21,NA,NA,NA,NA,NA,NA,NA,NA,NA,NA,NA,NA,NA,NA,NA,NA,NA,"LFMI 061400Z AUTO 35003KT CAVOK 17/03 Q1021 NOSIG"
"1837","LFMI",2019-12-06 14:30:00,4.9222,43.5231,60.8,39.2,44.76,320,4,0,30.15,NA,6.21,NA,NA,NA,NA,NA,NA,NA,NA,NA,NA,NA,NA,NA,NA,NA,NA,NA,"LFMI 061430Z AUTO 32004KT CAVOK 16/04 Q1021 NOSIG"
"1838","LFMI",2019-12-06 15:00:00,4.9222,43.5231,59,42.8,54.86,300,5,0,30.15,NA,6.21,NA,NA,NA,NA,NA,NA,NA,NA,NA,NA,NA,NA,NA,NA,NA,NA,NA,"LFMI 061500Z AUTO 30005KT CAVOK 15/06 Q1021 NOSIG"
"1839","LFMI",2019-12-06 15:30:00,4.9222,43.5231,59,44.6,58.77,310,3,0,30.15,NA,6.21,NA,NA,NA,NA,NA,NA,NA,NA,NA,NA,NA,NA,NA,NA,NA,NA,NA,"LFMI 061530Z AUTO 31003KT CAVOK 15/07 Q1021 NOSIG"
"1840","LFMI",2019-12-06 16:00:00,4.9222,43.5231,55.4,42.8,62.46,310,5,0,30.15,NA,6.21,NA,NA,NA,NA,NA,NA,NA,NA,NA,NA,NA,NA,NA,NA,NA,NA,NA,"LFMI 061600Z AUTO 31005KT CAVOK 13/06 Q1021 NOSIG"
"1841","LFMI",2019-12-06 16:30:00,4.9222,43.5231,51.8,44.6,76.34,320,5,0,30.15,NA,6.21,NA,NA,NA,NA,NA,NA,NA,NA,NA,NA,NA,NA,NA,NA,NA,NA,NA,"LFMI 061630Z AUTO 32005KT CAVOK 11/07 Q1021 NOSIG"
"1842","LFMI",2019-12-06 17:00:00,4.9222,43.5231,50,42.8,76.18,320,3,0,30.15,NA,6.21,NA,NA,NA,NA,NA,NA,NA,NA,NA,NA,NA,NA,NA,NA,NA,NA,49.27,"LFMI 061700Z AUTO 32003KT CAVOK 10/06 Q1021 NOSIG"
"1843","LFMI",2019-12-06 17:30:00,4.9222,43.5231,48.2,41,76.01,340,3,0,30.15,NA,6.21,NA,NA,NA,NA,NA,NA,NA,NA,NA,NA,NA,NA,NA,NA,NA,NA,47.21,"LFMI 061730Z AUTO 34003KT CAVOK 09/05 Q1021 NOSIG"
"1844","LFMI",2019-12-06 18:00:00,4.9222,43.5231,48.2,42.8,81.47,350,2,0,30.15,NA,6.21,NA,NA,NA,NA,NA,NA,NA,NA,NA,NA,NA,NA,NA,NA,NA,NA,NA,"LFMI 061800Z AUTO 35002KT CAVOK 09/06 Q1021 NOSIG"
"1845","LFMI",2019-12-06 18:30:00,4.9222,43.5231,46.4,41,81.34,40,2,0,30.15,NA,6.21,NA,NA,NA,NA,NA,NA,NA,NA,NA,NA,NA,NA,NA,NA,NA,NA,NA,"LFMI 061830Z AUTO 04002KT CAVOK 08/05 Q1021 NOSIG"
"1846","LFMI",2019-12-06 19:00:00,4.9222,43.5231,44.6,41,87.09,50,2,0,30.15,NA,6.21,NA,NA,NA,NA,NA,NA,NA,NA,NA,NA,NA,NA,NA,NA,NA,NA,NA,"LFMI 061900Z AUTO 05002KT CAVOK 07/05 Q1021 NOSIG"
"1847","LFMI",2019-12-06 19:30:00,4.9222,43.5231,42.8,41,93.3,0,0,0,30.15,NA,6.21,NA,NA,NA,NA,NA,NA,NA,NA,NA,NA,NA,NA,NA,NA,NA,NA,NA,"LFMI 061930Z AUTO 00000KT CAVOK 06/05 Q1021 NOSIG"
"1848","LFMI",2019-12-06 20:00:00,4.9222,43.5231,42.8,39.2,86.99,20,2,0,30.18,NA,6.21,NA,NA,NA,NA,NA,NA,NA,NA,NA,NA,NA,NA,NA,NA,NA,NA,NA,"LFMI 062000Z AUTO 02002KT CAVOK 06/04 Q1022 NOSIG"
"1849","LFMI",2019-12-06 20:30:00,4.9222,43.5231,41,39.2,93.24,50,4,0,30.18,NA,6.21,NA,NA,NA,NA,NA,NA,NA,NA,NA,NA,NA,NA,NA,NA,NA,NA,37.93,"LFMI 062030Z AUTO 05004KT CAVOK 05/04 Q1022 NOSIG"
"1850","LFMI",2019-12-06 21:00:00,4.9222,43.5231,41,39.2,93.24,70,4,0,30.18,NA,6.21,NA,"NSC",NA,NA,NA,NA,NA,NA,NA,NA,NA,NA,NA,NA,NA,NA,37.93,"LFMI 062100Z AUTO 07004KT 9999 4300 NSC 05/04 Q1022 NOSIG"
"1851","LFMI",2019-12-06 21:30:00,4.9222,43.5231,41,37.4,86.89,60,2,0,30.15,NA,6.21,NA,NA,NA,NA,NA,NA,NA,NA,NA,NA,NA,NA,NA,NA,NA,NA,NA,"LFMI 062130Z AUTO 06002KT CAVOK 05/03 Q1021 NOSIG"
"1852","LFMI",2019-12-06 22:00:00,4.9222,43.5231,39.2,37.4,93.19,50,3,0,30.18,NA,6.21,NA,NA,NA,NA,NA,NA,NA,NA,NA,NA,NA,NA,NA,NA,NA,NA,36.92,"LFMI 062200Z AUTO 05003KT CAVOK 04/03 Q1022 NOSIG"
"1853","LFMI",2019-12-06 22:30:00,4.9222,43.5231,39.2,37.4,93.19,100,3,0,30.18,NA,6.21,NA,NA,NA,NA,NA,NA,NA,NA,NA,NA,NA,NA,NA,NA,NA,NA,36.92,"LFMI 062230Z AUTO 10003KT CAVOK 04/03 Q1022 NOSIG"
"1854","LFMI",2019-12-06 23:00:00,4.9222,43.5231,39.2,37.4,93.19,60,3,0,30.18,NA,6.21,NA,NA,NA,NA,NA,NA,NA,NA,NA,NA,NA,NA,NA,NA,NA,NA,36.92,"LFMI 062300Z AUTO 06003KT CAVOK 04/03 Q1022 NOSIG"
"1855","LFMI",2019-12-06 23:30:00,4.9222,43.5231,39.2,37.4,93.19,50,3,0,30.18,NA,6.21,NA,NA,NA,NA,NA,NA,NA,NA,NA,NA,NA,NA,NA,NA,NA,NA,36.92,"LFMI 062330Z AUTO 05003KT CAVOK 04/03 Q1022 NOSIG"
"1856","LFRJ",2019-12-06 00:00:00,-4.1516,48.5303,50,46.4,87.37,230,12,0,30.09,NA,6.21,NA,"BKN","BKN","BKN",NA,1400,1900,2400,NA,NA,NA,NA,NA,NA,NA,NA,44.91,"LFRJ 060000Z AUTO 23012KT 9999 BKN014 BKN019 BKN024 10/08 Q1019"
"1857","LFRJ",2019-12-06 00:30:00,-4.1516,48.5303,50,46.4,87.37,230,14,0,30.09,NA,6.21,NA,"BKN","OVC",NA,NA,1600,2300,NA,NA,NA,NA,NA,NA,NA,NA,NA,44.36,"LFRJ 060030Z AUTO 23014KT 9999 BKN016 OVC023 10/08 Q1019"
"1858","LFRJ",2019-12-06 01:00:00,-4.1516,48.5303,50,46.4,87.37,240,17,0,30.06,NA,6.21,NA,"BKN","OVC",NA,NA,1300,2100,NA,NA,NA,NA,NA,NA,NA,NA,NA,43.66,"LFRJ 060100Z AUTO 24017KT 9999 BKN013 OVC021 10/08 Q1018"
"1859","LFRJ",2019-12-06 01:30:00,-4.1516,48.5303,50,48.2,93.5,240,15,0,30.06,NA,3.11,NA,"OVC",NA,NA,NA,1000,NA,NA,NA,"-DZ BR",NA,NA,NA,NA,NA,NA,44.12,"LFRJ 060130Z AUTO 24015KT 5000 -DZ BR OVC010 10/09 Q1018"
"1860","LFRJ",2019-12-06 02:00:00,-4.1516,48.5303,50,48.2,93.5,230,13,0,30.06,NA,3.11,NA,"OVC",NA,NA,NA,500,NA,NA,NA,"DZ BR",NA,NA,NA,NA,NA,NA,44.63,"LFRJ 060200Z AUTO 23013KT 5000 DZ BR OVC005 10/09 Q1018"
"1861","LFRJ",2019-12-06 02:30:00,-4.1516,48.5303,50,50,100,230,15,0,30.03,NA,4.35,NA,"OVC",NA,NA,NA,400,NA,NA,NA,NA,NA,NA,NA,NA,NA,NA,44.12,"LFRJ 060230Z AUTO 23015KT 7000 OVC004 10/10 Q1017"
"1862","LFRJ",2019-12-06 03:00:00,-4.1516,48.5303,50,50,100,230,16,0,30.03,NA,6.21,NA,"OVC",NA,NA,NA,700,NA,NA,NA,"-RA",NA,NA,NA,NA,NA,NA,43.88,"LFRJ 060300Z AUTO 23016KT 9999 -RA OVC007 10/10 Q1017"
"1863","LFRJ",2019-12-06 03:30:00,-4.1516,48.5303,50,50,100,230,18,0,30.03,NA,6.21,NA,"OVC",NA,NA,NA,800,NA,NA,NA,"-RA",NA,NA,NA,NA,NA,NA,43.44,"LFRJ 060330Z AUTO 23018KT 9999 -RA OVC008 10/10 Q1017"
"1864","LFRJ",2019-12-06 04:00:00,-4.1516,48.5303,50,50,100,230,17,0,30,NA,6.21,NA,"OVC",NA,NA,NA,800,NA,NA,NA,NA,NA,NA,NA,NA,NA,NA,43.66,"LFRJ 060400Z AUTO 23017KT 9999 OVC008 10/10 Q1016"
"1865","LFRJ",2019-12-06 04:30:00,-4.1516,48.5303,50,50,100,230,17,0,30,NA,4.35,NA,"OVC",NA,NA,NA,700,NA,NA,NA,NA,NA,NA,NA,NA,NA,NA,43.66,"LFRJ 060430Z AUTO 23017KT 7000 OVC007 10/10 Q1016"
"1866","LFRJ",2019-12-06 05:00:00,-4.1516,48.5303,51.8,50,93.55,220,16,0,29.97,NA,6.21,NA,"OVC",NA,NA,NA,700,NA,NA,NA,"-DZ",NA,NA,NA,NA,NA,NA,NA,"LFRJ 060500Z AUTO 22016KT 9999 -DZ OVC007 11/10 Q1015"
"1867","LFRJ",2019-12-06 05:30:00,-4.1516,48.5303,51.8,50,93.55,230,18,0,30,NA,6.21,NA,"OVC",NA,NA,NA,800,NA,NA,NA,NA,NA,NA,NA,NA,NA,NA,NA,"LFRJ 060530Z AUTO 23018KT 9999 OVC008 11/10 Q1016 TEMPO 22018G28KT 2500 RADZ BKN003"
"1868","LFRJ",2019-12-06 06:00:00,-4.1516,48.5303,51.8,50,93.55,230,17,0,30,NA,6.21,NA,"OVC",NA,NA,NA,700,NA,NA,NA,"-RA",NA,NA,NA,NA,NA,NA,NA,"LFRJ 060600Z AUTO 23017KT 9999 -RA OVC007 11/10 Q1016 TEMPO 22018G28KT 2500 RADZ BKN003"
"1869","LFRJ",2019-12-06 06:30:00,-4.1516,48.5303,51.8,50,93.55,230,18,0,30,NA,6.21,NA,"OVC",NA,NA,NA,600,NA,NA,NA,NA,NA,NA,NA,NA,NA,NA,NA,"LFRJ 060630Z AUTO 23018KT 9999 OVC006 11/10 Q1016 TEMPO 22018G28KT 2500 RADZ BKN003"
"1870","LFRJ",2019-12-06 07:00:00,-4.1516,48.5303,51.8,50,93.55,230,18,0,30,NA,3.11,NA,"OVC",NA,NA,NA,500,NA,NA,NA,"DZ BR",NA,NA,NA,NA,NA,NA,NA,"LFRJ 060700Z AUTO 23018KT 5000 DZ BR OVC005 11/10 Q1016 TEMPO 22018G28KT 2500 RADZ"
"1871","LFRJ",2019-12-06 07:30:00,-4.1516,48.5303,51.8,51.8,100,230,17,0,29.97,NA,2.36,NA,"OVC",NA,NA,NA,400,NA,NA,NA,"-DZ BR",NA,NA,NA,NA,NA,NA,NA,"LFRJ 060730Z AUTO 23017KT 3800 -DZ BR OVC004 11/11 Q1015 TEMPO 22018G28KT 2500 RADZ"
"1872","LFRJ",2019-12-06 08:00:00,-4.1516,48.5303,51.8,51.8,100,230,19,0,29.97,NA,2.11,NA,"OVC",NA,NA,NA,400,NA,NA,NA,"-DZ BR",NA,NA,NA,NA,NA,NA,NA,"LFRJ 060800Z AUTO 23019KT 3400 -DZ BR OVC004 11/11 Q1015 TEMPO 22018G28KT 2500 RADZ"
"1873","LFRJ",2019-12-06 08:30:00,-4.1516,48.5303,51.8,51.8,100,230,18,0,29.97,NA,1.74,NA,"OVC",NA,NA,NA,400,NA,NA,NA,"-DZ BR",NA,NA,NA,NA,NA,NA,NA,"LFRJ 060830Z AUTO 23018KT 2800 -DZ BR OVC004 11/11 Q1015 TEMPO 22018G28KT RADZ"
"1874","LFRJ",2019-12-06 09:00:00,-4.1516,48.5303,51.8,51.8,100,230,19,0,29.97,NA,1.74,NA,"OVC",NA,NA,NA,400,NA,NA,NA,"-RA BR",NA,NA,NA,NA,NA,NA,NA,"LFRJ 060900Z AUTO 23019KT 2800 -RA BR OVC004 11/11 Q1015 TEMPO 22018G28KT RADZ"
"1875","LFRJ",2019-12-06 09:30:00,-4.1516,48.5303,53.6,51.8,93.6,230,21,0,29.97,NA,3.11,NA,"OVC",NA,NA,NA,400,NA,NA,NA,"-RA BR",NA,NA,NA,NA,NA,NA,NA,"LFRJ 060930Z AUTO 23021KT 5000 -RA BR OVC004 12/11 Q1015 TEMPO 22018G28KT 1000 RADZ BR BKN001"
"1876","LFRJ",2019-12-06 10:00:00,-4.1516,48.5303,53.6,51.8,93.6,230,19,0,29.97,NA,3.73,NA,"OVC",NA,NA,NA,500,NA,NA,NA,"-RA",NA,NA,NA,NA,NA,NA,NA,"LFRJ 061000Z AUTO 23019KT 6000 2700 -RA OVC005 12/11 Q1015 TEMPO 22018G28KT 1000 RADZ BR BKN001"
"1877","LFRJ",2019-12-06 10:30:00,-4.1516,48.5303,53.6,51.8,93.6,230,20,0,29.97,NA,1.55,NA,"OVC",NA,NA,NA,400,NA,NA,NA,"-RA BR",NA,NA,NA,NA,NA,NA,NA,"LFRJ 061030Z AUTO 23020KT 2500 -RA BR OVC004 12/11 Q1015 TEMPO 22018G28KT 1000 RADZ BR BKN001"
"1878","LFRJ",2019-12-06 11:00:00,-4.1516,48.5303,53.6,51.8,93.6,230,20,0,29.94,NA,1.68,NA,"OVC",NA,NA,NA,400,NA,NA,NA,"-RA BR",NA,NA,NA,NA,NA,NA,NA,"LFRJ 061100Z AUTO 23020KT 2700 -RA BR OVC004 12/11 Q1014 TEMPO 22018G28KT 1000 RADZ BR BKN001"
"1879","LFRJ",2019-12-06 11:30:00,-4.1516,48.5303,53.6,51.8,93.6,230,22,0,29.91,NA,2.17,NA,"OVC",NA,NA,NA,400,NA,NA,NA,"-DZ BR",NA,NA,NA,NA,NA,NA,NA,"LFRJ 061130Z AUTO 23022KT 3500 -DZ BR OVC004 12/11 Q1013 BECMG 27015G25KT 8000 NSW BKN010"
"1880","LFRJ",2019-12-06 12:00:00,-4.1516,48.5303,53.6,51.8,93.6,230,22,0,29.88,NA,2.17,NA,"OVC",NA,NA,NA,400,NA,NA,NA,"-DZ BR",NA,NA,NA,NA,NA,NA,NA,"LFRJ 061200Z AUTO 23022KT 3500 -DZ BR OVC004 12/11 Q1012 TEMPO 25016G26KT 2500 RADZ BR"
"1881","LFRJ",2019-12-06 12:30:00,-4.1516,48.5303,53.6,53.6,100,240,21,0,29.88,NA,1.43,NA,"OVC",NA,NA,NA,400,NA,NA,NA,"DZ BR",NA,NA,NA,NA,NA,NA,NA,"LFRJ 061230Z AUTO 24021KT 2300 DZ BR OVC004 12/12 Q1012 TEMPO 25016G26KT RADZ BKN010"
"1882","LFRJ",2019-12-06 13:00:00,-4.1516,48.5303,53.6,53.6,100,250,18,0,29.91,NA,1.55,NA,"OVC",NA,NA,NA,400,NA,NA,NA,"-RA BR",NA,NA,NA,NA,NA,NA,NA,"LFRJ 061300Z AUTO 25018KT 2500 -RA BR OVC004 12/12 Q1013 TEMPO 25016G26KT RADZ BKN010"
"1883","LFRJ",2019-12-06 13:30:00,-4.1516,48.5303,53.6,53.6,100,260,22,0,29.88,NA,4.97,NA,"BKN","OVC",NA,NA,400,800,NA,NA,"-RA",NA,NA,NA,NA,NA,NA,NA,"LFRJ 061330Z AUTO 26022KT 8000 3400 -RA BKN004 OVC008 12/12 Q1012 TEMPO 25016G26KT 2500 RADZ BR BKN010"
"1884","LFRJ",2019-12-06 14:00:00,-4.1516,48.5303,53.6,51.8,93.6,270,17,0,29.88,NA,6.21,NA,"SCT","BKN","BKN",NA,700,1400,2200,NA,NA,NA,NA,NA,NA,NA,NA,NA,"LFRJ 061400Z AUTO 27017KT 9999 SCT007 BKN014 BKN022 12/11 Q1012 TEMPO 25016G26KT 2500 RADZ BR"
"1885","LFRJ",2019-12-06 14:30:00,-4.1516,48.5303,53.6,51.8,93.6,270,17,0,29.88,NA,6.21,NA,"BKN","OVC",NA,NA,1200,1700,NA,NA,NA,NA,NA,NA,NA,NA,NA,NA,"LFRJ 061430Z AUTO 27017KT 9999 BKN012 OVC017 12/11 Q1012 TEMPO 27015G25KT BECMG BKN006"
"1886","LFRJ",2019-12-06 15:00:00,-4.1516,48.5303,53.6,50,87.56,270,18,0,29.91,NA,6.21,NA,"OVC",NA,NA,NA,1300,NA,NA,NA,NA,NA,NA,NA,NA,NA,NA,NA,"LFRJ 061500Z AUTO 27018KT 9999 OVC013 12/10 Q1013 TEMPO 27015G25KT BECMG BKN006"
"1887","LFRJ",2019-12-06 15:30:00,-4.1516,48.5303,53.6,50,87.56,270,17,0,29.91,NA,6.21,NA,"BKN","BKN","OVC",NA,1400,2600,3800,NA,NA,NA,NA,NA,NA,NA,NA,NA,"LFRJ 061530Z AUTO 27017KT 9999 BKN014 BKN026 OVC038 12/10 Q1013 TEMPO 27015G25KT 3000 RADZ BR BKN003"
"1888","LFRJ",2019-12-06 16:00:00,-4.1516,48.5303,53.6,50,87.56,260,17,0,29.91,NA,6.21,NA,"BKN","OVC",NA,NA,1500,3900,NA,NA,NA,NA,NA,NA,NA,NA,NA,NA,"LFRJ 061600Z AUTO 26017KT 9999 BKN015 OVC039 12/10 Q1013 TEMPO 27015G25KT 3000 RADZ BR BKN003"
"1889","LFRJ",2019-12-06 16:30:00,-4.1516,48.5303,51.8,50,93.55,290,13,0,29.91,NA,6.21,NA,"BKN","BKN","OVC",NA,1100,1900,2500,NA,"-RA",NA,NA,NA,NA,NA,NA,NA,"LFRJ 061630Z AUTO 29013KT 260V320 9999 -RA BKN011 BKN019 OVC025 11/10 Q1013 TEMPO 27015G25KT 3000 RADZ BR BKN003"
"1890","LFRJ",2019-12-06 17:00:00,-4.1516,48.5303,51.8,48.2,87.47,270,12,0,29.91,NA,6.21,NA,"SCT","SCT","OVC",NA,2600,3200,3900,NA,NA,NA,NA,NA,NA,NA,NA,NA,"LFRJ 061700Z AUTO 27012KT 9999 SCT026 SCT032 OVC039 11/09 Q1013 TEMPO 27015G25KT 3000 RADZ BR BKN003"
"1891","LFRJ",2019-12-06 17:30:00,-4.1516,48.5303,51.8,50,93.55,260,12,0,29.94,NA,6.21,NA,"SCT","OVC",NA,NA,1500,4300,NA,NA,NA,NA,NA,NA,NA,NA,NA,NA,"LFRJ 061730Z AUTO 26012KT 9999 SCT015 OVC043 11/10 Q1014 TEMPO 3000 RADZ BR BKN003"
"1892","LFRJ",2019-12-06 18:00:00,-4.1516,48.5303,51.8,50,93.55,260,12,0,29.94,NA,6.21,NA,"FEW","BKN","OVC",NA,1500,2000,4000,NA,NA,NA,NA,NA,NA,NA,NA,NA,"LFRJ 061800Z AUTO 26012KT 9999 FEW015 BKN020 OVC040 11/10 Q1014 TEMPO 3000 RADZ BR BKN003"
"1893","LFRJ",2019-12-06 18:30:00,-4.1516,48.5303,51.8,50,93.55,260,14,0,29.94,NA,6.21,NA,"BKN","OVC",NA,NA,1200,3800,NA,NA,NA,NA,NA,NA,NA,NA,NA,NA,"LFRJ 061830Z AUTO 26014KT 9999 BKN012 OVC038 11/10 Q1014 TEMPO 3000 RADZ BR BKN003"
"1894","LFRJ",2019-12-06 19:00:00,-4.1516,48.5303,51.8,50,93.55,270,13,0,29.94,NA,6.21,NA,"OVC",NA,NA,NA,1000,NA,NA,NA,NA,NA,NA,NA,NA,NA,NA,NA,"LFRJ 061900Z AUTO 27013KT 9999 OVC010 11/10 Q1014"
"1895","LFRJ",2019-12-06 19:30:00,-4.1516,48.5303,50,48.2,93.5,280,12,0,29.94,NA,6.21,NA,"SCT","BKN","OVC",NA,900,3400,4400,NA,NA,NA,NA,NA,NA,NA,NA,44.91,"LFRJ 061930Z AUTO 28012KT 250V310 9999 SCT009 BKN034 OVC044 10/09 Q1014"
"1896","LFRJ",2019-12-06 20:00:00,-4.1516,48.5303,51.8,48.2,87.47,270,11,0,29.97,NA,6.21,NA,"FEW","BKN","OVC",NA,1600,3800,4400,NA,NA,NA,NA,NA,NA,NA,NA,NA,"LFRJ 062000Z AUTO 27011KT 9999 FEW016 BKN038 OVC044 11/09 Q1015"
"1897","LFRJ",2019-12-06 20:30:00,-4.1516,48.5303,51.8,48.2,87.47,250,8,0,29.97,NA,6.21,NA,"FEW","OVC",NA,NA,1700,3800,NA,NA,NA,NA,NA,NA,NA,NA,NA,NA,"LFRJ 062030Z AUTO 25008KT 9999 FEW017 OVC038 11/09 Q1015"
"1898","LFRJ",2019-12-06 21:00:00,-4.1516,48.5303,50,48.2,93.5,270,8,0,29.97,NA,6.21,NA,"SCT","SCT","BKN",NA,1500,3200,25000,NA,NA,NA,NA,NA,NA,NA,NA,46.29,"LFRJ 062100Z AUTO 27008KT 9999 SCT015 SCT032 BKN250 10/09 Q1015"
"1899","LFRJ",2019-12-06 21:30:00,-4.1516,48.5303,48.2,46.4,93.45,280,7,0,29.97,NA,6.21,NA,NA,NA,NA,NA,NA,NA,NA,NA,NA,NA,NA,NA,NA,NA,NA,44.53,"LFRJ 062130Z AUTO 28007KT CAVOK 09/08 Q1015"
"1900","LFRJ",2019-12-06 22:00:00,-4.1516,48.5303,50,46.4,87.37,260,7,0,30,NA,6.21,NA,NA,NA,NA,NA,NA,NA,NA,NA,NA,NA,NA,NA,NA,NA,NA,46.72,"LFRJ 062200Z AUTO 26007KT CAVOK 10/08 Q1016"
"1901","LFRJ",2019-12-06 22:30:00,-4.1516,48.5303,48.2,46.4,93.45,240,8,0,30,NA,6.21,NA,NA,NA,NA,NA,NA,NA,NA,NA,NA,NA,NA,NA,NA,NA,NA,44.07,"LFRJ 062230Z AUTO 24008KT CAVOK 09/08 Q1016"
"1902","LFRJ",2019-12-06 23:00:00,-4.1516,48.5303,48.2,46.4,93.45,240,8,0,30,NA,6.21,NA,"BKN","BKN","OVC",NA,3700,22000,24000,NA,NA,NA,NA,NA,NA,NA,NA,44.07,"LFRJ 062300Z AUTO 24008KT 9999 BKN037 BKN220 OVC240 09/08 Q1016"
"1903","LFRJ",2019-12-06 23:30:00,-4.1516,48.5303,48.2,46.4,93.45,230,6,0,30,NA,6.21,NA,"OVC",NA,NA,NA,3900,NA,NA,NA,NA,NA,NA,NA,NA,NA,NA,45.04,"LFRJ 062330Z AUTO 23006KT 9999 OVC039 09/08 Q1016"
"1904","LFRO",2019-12-06 00:00:00,-3.4686,48.7553,50,46.4,87.37,220,11,0,30.09,NA,6.21,NA,"FEW","SCT","BKN",NA,1500,3100,12000,NA,NA,NA,NA,NA,NA,NA,NA,45.21,"LFRO 060000Z AUTO 22011KT 9999 FEW015 SCT031 BKN120 10/08 Q1019"
"1905","LFRO",2019-12-06 00:30:00,-3.4686,48.7553,50,46.4,87.37,220,11,0,30.06,NA,6.21,NA,"FEW","BKN","OVC",NA,1400,2400,2900,NA,NA,NA,NA,NA,NA,NA,NA,45.21,"LFRO 060030Z AUTO 22011KT 190V250 9999 FEW014 BKN024 OVC029 10/08 Q1018"
"1906","LFRO",2019-12-06 01:00:00,-3.4686,48.7553,50,46.4,87.37,220,11,0,30.06,NA,6.21,NA,"SCT","OVC",NA,NA,1600,2400,NA,NA,NA,NA,NA,NA,NA,NA,NA,45.21,"LFRO 060100Z AUTO 22011KT 9999 SCT016 OVC024 10/08 Q1018"
"1907","LFRO",2019-12-06 01:30:00,-3.4686,48.7553,50,46.4,87.37,220,13,0,30.06,NA,6.21,NA,"OVC",NA,NA,NA,1400,NA,NA,NA,NA,NA,NA,NA,NA,NA,NA,44.63,"LFRO 060130Z AUTO 22013KT 190V250 9999 OVC014 10/08 Q1018"
"1908","LFRO",2019-12-06 02:00:00,-3.4686,48.7553,50,46.4,87.37,220,12,0,30.03,NA,6.21,NA,"OVC",NA,NA,NA,1100,NA,NA,NA,NA,NA,NA,NA,NA,NA,NA,44.91,"LFRO 060200Z AUTO 22012KT 9999 OVC011 10/08 Q1017"
"1909","LFRO",2019-12-06 02:30:00,-3.4686,48.7553,50,48.2,93.5,210,12,0,30.03,NA,6.21,NA,"OVC",NA,NA,NA,800,NA,NA,NA,NA,NA,NA,NA,NA,NA,NA,44.91,"LFRO 060230Z AUTO 21012KT 180V240 9999 OVC008 10/09 Q1017"
"1910","LFRO",2019-12-06 03:00:00,-3.4686,48.7553,50,48.2,93.5,220,15,0,30.03,NA,6.21,NA,"OVC",NA,NA,NA,900,NA,NA,NA,"-RA",NA,NA,NA,NA,NA,NA,44.12,"LFRO 060300Z AUTO 22015KT 180V240 9999 -RA OVC009 10/09 Q1017"
"1911","LFRO",2019-12-06 03:30:00,-3.4686,48.7553,50,48.2,93.5,220,15,0,30,NA,6.21,NA,"OVC","///",NA,NA,800,NA,NA,NA,"-RA",NA,NA,NA,NA,NA,NA,44.12,"LFRO 060330Z AUTO 22015KT 9999 -RA OVC008/// ///TCU 10/09 Q1016"
"1912","LFRO",2019-12-06 04:00:00,-3.4686,48.7553,50,48.2,93.5,220,15,0,30,NA,6.21,NA,"OVC",NA,NA,NA,700,NA,NA,NA,NA,NA,NA,NA,NA,NA,NA,44.12,"LFRO 060400Z AUTO 22015KT 9999 OVC007 10/09 Q1016"
"1913","LFRO",2019-12-06 04:30:00,-3.4686,48.7553,50,50,100,220,16,0,30,NA,6.21,NA,"OVC",NA,NA,NA,800,NA,NA,NA,NA,NA,NA,NA,NA,NA,NA,43.88,"LFRO 060430Z AUTO 22016KT 9999 OVC008 10/10 Q1016"
"1914","LFRO",2019-12-06 05:00:00,-3.4686,48.7553,51.8,48.2,87.47,220,15,0,29.97,NA,6.21,NA,"OVC",NA,NA,NA,800,NA,NA,NA,NA,NA,NA,NA,NA,NA,NA,NA,"LFRO 060500Z AUTO 22015KT 9999 OVC008 11/09 Q1015"
"1915","LFRO",2019-12-06 05:30:00,-3.4686,48.7553,51.8,50,93.55,220,16,0,29.97,NA,6.21,NA,"OVC","///",NA,NA,1000,NA,NA,NA,"-RA",NA,NA,NA,NA,NA,NA,NA,"LFRO 060530Z AUTO 22016KT 9999 -RA OVC010/// ///TCU 11/10 Q1015"
"1916","LFRO",2019-12-06 06:00:00,-3.4686,48.7553,51.8,50,93.55,220,14,0,30,NA,6.21,NA,"OVC","///",NA,NA,1000,NA,NA,NA,"-RA",NA,NA,NA,NA,NA,NA,NA,"LFRO 060600Z AUTO 22014KT 9999 -RA OVC010/// ///TCU 11/10 Q1016"
"1917","LFRO",2019-12-06 06:30:00,-3.4686,48.7553,51.8,50,93.55,220,16,0,29.97,NA,6.21,NA,"OVC",NA,NA,NA,800,NA,NA,NA,NA,NA,NA,NA,NA,NA,NA,NA,"LFRO 060630Z AUTO 22016KT 9999 OVC008 11/10 Q1015"
"1918","LFRO",2019-12-06 07:00:00,-3.4686,48.7553,51.8,50,93.55,220,16,0,29.97,NA,6.21,NA,"OVC",NA,NA,NA,900,NA,NA,NA,NA,NA,NA,NA,NA,NA,NA,NA,"LFRO 060700Z AUTO 22016KT 9999 OVC009 11/10 Q1015"
"1919","LFRO",2019-12-06 07:30:00,-3.4686,48.7553,51.8,50,93.55,220,16,0,29.97,NA,6.21,NA,"OVC",NA,NA,NA,800,NA,NA,NA,NA,NA,NA,NA,NA,NA,NA,NA,"LFRO 060730Z AUTO 22016KT 9999 OVC008 11/10 Q1015"
"1920","LFRO",2019-12-06 08:00:00,-3.4686,48.7553,51.8,50,93.55,220,14,0,29.97,NA,6.21,NA,"OVC",NA,NA,NA,800,NA,NA,NA,NA,NA,NA,NA,NA,NA,NA,NA,"LFRO 060800Z AUTO 22014KT 9999 OVC008 11/10 Q1015"
"1921","LFRO",2019-12-06 08:30:00,-3.4686,48.7553,51.8,50,93.55,210,15,0,29.97,NA,6.21,NA,"OVC",NA,NA,NA,800,NA,NA,NA,NA,NA,NA,NA,NA,NA,NA,NA,"LFRO 060830Z AUTO 21015KT 9999 OVC008 11/10 Q1015"
"1922","LFRO",2019-12-06 09:00:00,-3.4686,48.7553,51.8,51.8,100,220,15,0,29.97,NA,4.97,NA,"OVC",NA,NA,NA,800,NA,NA,NA,NA,NA,NA,NA,NA,NA,NA,NA,"LFRO 060900Z AUTO 22015KT 190V250 8000 OVC008 11/11 Q1015"
"1923","LFRO",2019-12-06 09:30:00,-3.4686,48.7553,53.6,51.8,93.6,210,15,0,29.94,NA,6.21,NA,"OVC",NA,NA,NA,700,NA,NA,NA,NA,NA,NA,NA,NA,NA,NA,NA,"LFRO 060930Z AUTO 21015KT 9999 OVC007 12/11 Q1014"
"1924","LFRO",2019-12-06 10:00:00,-3.4686,48.7553,53.6,51.8,93.6,220,17,0,29.94,NA,6.21,NA,"OVC",NA,NA,NA,900,NA,NA,NA,NA,NA,NA,NA,NA,NA,NA,NA,"LFRO 061000Z AUTO 22017KT 190V250 9999 OVC009 12/11 Q1014"
"1925","LFRO",2019-12-06 10:30:00,-3.4686,48.7553,53.6,51.8,93.6,220,17,0,29.94,NA,6.21,27,"OVC",NA,NA,NA,1000,NA,NA,NA,NA,NA,NA,NA,NA,NA,NA,NA,"LFRO 061030Z AUTO 22017G27KT 9999 OVC010 12/11 Q1014"
"1926","LFRO",2019-12-06 11:00:00,-3.4686,48.7553,53.6,51.8,93.6,220,13,0,29.91,NA,6.21,NA,"OVC",NA,NA,NA,900,NA,NA,NA,NA,NA,NA,NA,NA,NA,NA,NA,"LFRO 061100Z AUTO 22013KT 9999 OVC009 12/11 Q1013"
"1927","LFRO",2019-12-06 11:30:00,-3.4686,48.7553,53.6,51.8,93.6,220,17,0,29.88,NA,6.21,NA,"OVC",NA,NA,NA,800,NA,NA,NA,"-DZ",NA,NA,NA,NA,NA,NA,NA,"LFRO 061130Z AUTO 22017KT 180V240 9999 -DZ OVC008 12/11 Q1012"
"1928","LFRO",2019-12-06 12:00:00,-3.4686,48.7553,55.4,51.8,87.65,220,18,0,29.88,NA,6.21,30,"OVC",NA,NA,NA,900,NA,NA,NA,NA,NA,NA,NA,NA,NA,NA,NA,"LFRO 061200Z AUTO 22018G30KT 9999 OVC009 13/11 Q1012"
"1929","LFRO",2019-12-06 12:30:00,-3.4686,48.7553,53.6,51.8,93.6,230,19,0,29.88,NA,3.73,30,"OVC",NA,NA,NA,900,NA,NA,NA,NA,NA,NA,NA,NA,NA,NA,NA,"LFRO 061230Z AUTO 23019G30KT 6000 2500 OVC009 12/11 Q1012"
"1930","LFRO",2019-12-06 13:00:00,-3.4686,48.7553,53.6,53.6,100,230,17,0,29.88,NA,1.74,NA,"BKN","OVC",NA,NA,500,900,NA,NA,"-RA BR",NA,NA,NA,NA,NA,NA,NA,"LFRO 061300Z AUTO 23017KT 2800 -RA BR BKN005 OVC009 12/12 Q1012"
"1931","LFRO",2019-12-06 13:30:00,-3.4686,48.7553,53.6,53.6,100,240,17,0,29.85,NA,2.42,NA,"OVC",NA,NA,NA,400,NA,NA,NA,"-DZ BR",NA,NA,NA,NA,NA,NA,NA,"LFRO 061330Z AUTO 24017KT 3900 -DZ BR OVC004 12/12 Q1011"
"1932","LFRO",2019-12-06 14:00:00,-3.4686,48.7553,53.6,53.6,100,250,20,0,29.85,NA,6.21,31,"OVC",NA,NA,NA,600,NA,NA,NA,NA,NA,NA,NA,NA,NA,NA,NA,"LFRO 061400Z AUTO 25020G31KT 9999 4900 OVC006 12/12 Q1011"
"1933","LFRO",2019-12-06 14:30:00,-3.4686,48.7553,53.6,51.8,93.6,250,19,0,29.88,NA,6.21,31,"BKN","OVC",NA,NA,900,2800,NA,NA,NA,NA,NA,NA,NA,NA,NA,NA,"LFRO 061430Z AUTO 25019G31KT 9999 BKN009 OVC028 12/11 Q1012"
"1934","LFRO",2019-12-06 15:00:00,-3.4686,48.7553,53.6,50,87.56,250,17,0,29.88,NA,6.21,NA,"BKN","OVC",NA,NA,1200,1800,NA,NA,NA,NA,NA,NA,NA,NA,NA,NA,"LFRO 061500Z AUTO 25017KT 9999 BKN012 OVC018 12/10 Q1012"
"1935","LFRO",2019-12-06 15:30:00,-3.4686,48.7553,53.6,50,87.56,250,16,0,29.88,NA,6.21,NA,"OVC",NA,NA,NA,1300,NA,NA,NA,NA,NA,NA,NA,NA,NA,NA,NA,"LFRO 061530Z AUTO 25016KT 9999 OVC013 12/10 Q1012"
"1936","LFRO",2019-12-06 16:00:00,-3.4686,48.7553,51.8,50,93.55,260,21,0,29.88,NA,6.21,31,"SCT","BKN","OVC",NA,1300,1900,3100,NA,"-DZ",NA,NA,NA,NA,NA,NA,NA,"LFRO 061600Z AUTO 26021G31KT 9999 -DZ SCT013 BKN019 OVC031 11/10 Q1012"
"1937","LFRO",2019-12-06 16:30:00,-3.4686,48.7553,51.8,50,93.55,260,18,0,29.88,NA,6.21,NA,"BKN","OVC",NA,NA,3200,4100,NA,NA,"-DZ",NA,NA,NA,NA,NA,NA,NA,"LFRO 061630Z AUTO 26018KT 9999 -DZ BKN032 OVC041 11/10 Q1012"
"1938","LFRO",2019-12-06 17:00:00,-3.4686,48.7553,53.6,50,87.56,250,16,0,29.88,NA,6.21,NA,"FEW","OVC",NA,NA,1600,4100,NA,NA,NA,NA,NA,NA,NA,NA,NA,NA,"LFRO 061700Z AUTO 25016KT 9999 FEW016 OVC041 12/10 Q1012"
"1939","LFRO",2019-12-06 17:30:00,-3.4686,48.7553,51.8,48.2,87.47,260,17,0,29.91,NA,6.21,NA,"OVC",NA,NA,NA,4600,NA,NA,NA,NA,NA,NA,NA,NA,NA,NA,NA,"LFRO 061730Z AUTO 26017KT 9999 OVC046 11/09 Q1013"
"1940","LFRO",2019-12-06 18:00:00,-3.4686,48.7553,51.8,50,93.55,260,17,0,29.91,NA,6.21,NA,"FEW","OVC",NA,NA,1400,4500,NA,NA,NA,NA,NA,NA,NA,NA,NA,NA,"LFRO 061800Z AUTO 26017KT 9999 FEW014 OVC045 11/10 Q1013"
"1941","LFRO",2019-12-06 18:30:00,-3.4686,48.7553,51.8,48.2,87.47,260,18,0,29.91,NA,6.21,NA,"BKN","OVC",NA,NA,1400,4100,NA,NA,NA,NA,NA,NA,NA,NA,NA,NA,"LFRO 061830Z AUTO 26018KT 9999 BKN014 OVC041 11/09 Q1013"
"1942","LFRO",2019-12-06 19:00:00,-3.4686,48.7553,51.8,48.2,87.47,270,16,0,29.91,NA,6.21,NA,"FEW","OVC",NA,NA,2300,4600,NA,NA,NA,NA,NA,NA,NA,NA,NA,NA,"LFRO 061900Z AUTO 27016KT 9999 FEW023 OVC046 11/09 Q1013"
"1943","LFRO",2019-12-06 19:30:00,-3.4686,48.7553,51.8,50,93.55,260,11,0,29.94,NA,6.21,NA,"FEW","BKN","BKN",NA,900,1400,2700,NA,"-RADZ",NA,NA,NA,NA,NA,NA,NA,"LFRO 061930Z AUTO 26011KT 9999 -RADZ FEW009 BKN014 BKN027 11/10 Q1014"
"1944","LFRO",2019-12-06 20:00:00,-3.4686,48.7553,51.8,50,93.55,260,15,0,29.94,NA,5.59,NA,"BKN","OVC",NA,NA,1000,4700,NA,NA,NA,NA,NA,NA,NA,NA,NA,NA,"LFRO 062000Z AUTO 26015KT 9000 BKN010 OVC047 11/10 Q1014"
"1945","LFRO",2019-12-06 20:30:00,-3.4686,48.7553,51.8,50,93.55,260,12,0,29.94,NA,4.97,NA,"BKN","OVC",NA,NA,1300,4500,NA,NA,"-RA",NA,NA,NA,NA,NA,NA,NA,"LFRO 062030Z AUTO 26012KT 8000 -RA BKN013 OVC045 11/10 Q1014"
"1946","LFRO",2019-12-06 21:00:00,-3.4686,48.7553,51.8,50,93.55,260,11,0,29.97,NA,5.59,NA,"BKN","BKN","BKN",NA,1000,1900,2500,NA,"-DZ",NA,NA,NA,NA,NA,NA,NA,"LFRO 062100Z AUTO 26011KT 9000 -DZ BKN010 BKN019 BKN025 11/10 Q1015"
"1947","LFRO",2019-12-06 21:30:00,-3.4686,48.7553,51.8,48.2,87.47,270,13,0,29.97,NA,6.21,NA,"FEW","SCT","BKN",NA,900,1300,2700,NA,"-RA",NA,NA,NA,NA,NA,NA,NA,"LFRO 062130Z AUTO 27013KT 9999 4000 -RA FEW009 SCT013 BKN027 11/09 Q1015"
"1948","LFRO",2019-12-06 22:00:00,-3.4686,48.7553,51.8,50,93.55,280,6,0,29.97,NA,5.59,NA,"BKN","OVC",NA,NA,900,1500,NA,NA,"-RADZ",NA,NA,NA,NA,NA,NA,NA,"LFRO 062200Z AUTO 28006KT 240V310 9000 -RADZ BKN009 OVC015 11/10 Q1015"
"1949","LFRO",2019-12-06 22:30:00,-3.4686,48.7553,51.8,50,93.55,260,13,0,29.97,NA,6.21,NA,"BKN","BKN","OVC",NA,1100,2100,3400,NA,NA,NA,NA,NA,NA,NA,NA,NA,"LFRO 062230Z AUTO 26013KT 9999 BKN011 BKN021 OVC034 11/10 Q1015"
"1950","LFRO",2019-12-06 23:00:00,-3.4686,48.7553,50,48.2,93.5,260,9,0,30,NA,6.21,NA,"BKN","BKN",NA,NA,1300,4300,NA,NA,NA,NA,NA,NA,NA,NA,NA,45.9,"LFRO 062300Z AUTO 26009KT 9999 BKN013 BKN043 10/09 Q1016"
"1951","LFRO",2019-12-06 23:30:00,-3.4686,48.7553,50,48.2,93.5,260,8,0,30,NA,6.21,NA,"BKN","BKN",NA,NA,1400,4800,NA,NA,NA,NA,NA,NA,NA,NA,NA,46.29,"LFRO 062330Z AUTO 26008KT 9999 BKN014 BKN048 10/09 Q1016"
"1952","LFRL",2019-12-06 00:00:00,-4.445,48.2817,51.8,46.4,81.74,220,14,0,30.12,NA,6.21,NA,"BKN","BKN","BKN",NA,1700,2400,13000,NA,NA,NA,NA,NA,NA,NA,NA,NA,"LFRL 060000Z AUTO 22014KT 9999 BKN017 BKN024 BKN130 11/08 Q1020"
"1953","LFRL",2019-12-06 00:30:00,-4.445,48.2817,51.8,46.4,81.74,230,14,0,30.09,NA,6.21,NA,"BKN","BKN","OVC",NA,2000,2800,3300,NA,NA,NA,NA,NA,NA,NA,NA,NA,"LFRL 060030Z AUTO 23014KT 9999 BKN020 BKN028 OVC033 11/08 Q1019"
"1954","LFRL",2019-12-06 01:00:00,-4.445,48.2817,51.8,46.4,81.74,230,16,0,30.09,NA,6.21,NA,"OVC",NA,NA,NA,1500,NA,NA,NA,NA,NA,NA,NA,NA,NA,NA,NA,"LFRL 060100Z AUTO 23016KT 210V270 9999 OVC015 11/08 Q1019"
"1955","LFRL",2019-12-06 01:30:00,-4.445,48.2817,51.8,46.4,81.74,230,14,0,30.09,NA,6.21,NA,"OVC",NA,NA,NA,1400,NA,NA,NA,NA,NA,NA,NA,NA,NA,NA,NA,"LFRL 060130Z AUTO 23014KT 9999 OVC014 11/08 Q1019"
"1956","LFRL",2019-12-06 02:00:00,-4.445,48.2817,51.8,48.2,87.47,230,14,0,30.06,NA,6.21,NA,"BKN","OVC",NA,NA,1000,1400,NA,NA,NA,NA,NA,NA,NA,NA,NA,NA,"LFRL 060200Z AUTO 23014KT 9999 BKN010 OVC014 11/09 Q1018"
"1957","LFRL",2019-12-06 02:30:00,-4.445,48.2817,51.8,48.2,87.47,230,13,0,30.06,NA,6.21,NA,"OVC",NA,NA,NA,1200,NA,NA,NA,NA,NA,NA,NA,NA,NA,NA,NA,"LFRL 060230Z AUTO 23013KT 9999 OVC012 11/09 Q1018"
"1958","LFRL",2019-12-06 03:00:00,-4.445,48.2817,51.8,48.2,87.47,230,14,0,30.06,NA,6.21,NA,"OVC",NA,NA,NA,1100,NA,NA,NA,"-DZ",NA,NA,NA,NA,NA,NA,NA,"LFRL 060300Z AUTO 23014KT 200V260 9999 -DZ OVC011 11/09 Q1018"
"1959","LFRL",2019-12-06 03:30:00,-4.445,48.2817,51.8,48.2,87.47,220,13,0,30.06,NA,6.21,NA,"BKN","OVC",NA,NA,1000,1400,NA,NA,"-DZ",NA,NA,NA,NA,NA,NA,NA,"LFRL 060330Z AUTO 22013KT 9999 -DZ BKN010 OVC014 11/09 Q1018"
"1960","LFRL",2019-12-06 04:00:00,-4.445,48.2817,51.8,50,93.55,220,13,0,30.03,NA,6.21,NA,"OVC",NA,NA,NA,900,NA,NA,NA,NA,NA,NA,NA,NA,NA,NA,NA,"LFRL 060400Z AUTO 22013KT 9999 OVC009 11/10 Q1017"
"1961","LFRL",2019-12-06 04:30:00,-4.445,48.2817,51.8,50,93.55,210,14,0,30.03,NA,6.21,NA,"OVC",NA,NA,NA,900,NA,NA,NA,NA,NA,NA,NA,NA,NA,NA,NA,"LFRL 060430Z AUTO 21014KT 180V240 9999 OVC009 11/10 Q1017"
"1962","LFRL",2019-12-06 05:00:00,-4.445,48.2817,51.8,50,93.55,210,15,0,30,NA,6.21,NA,"OVC",NA,NA,NA,800,NA,NA,NA,"-RA",NA,NA,NA,NA,NA,NA,NA,"LFRL 060500Z AUTO 21015KT 9999 -RA OVC008 11/10 Q1016"
"1963","LFRL",2019-12-06 05:30:00,-4.445,48.2817,51.8,50,93.55,220,13,0,30.03,NA,6.21,NA,"OVC","///",NA,NA,700,NA,NA,NA,"-RA",NA,NA,NA,NA,NA,NA,NA,"LFRL 060530Z AUTO 22013KT 9999 -RA OVC007/// ///TCU 11/10 Q1017"
"1964","LFRL",2019-12-06 06:00:00,-4.445,48.2817,51.8,50,93.55,220,14,0,30.03,NA,6.21,NA,"OVC",NA,NA,NA,700,NA,NA,NA,"-DZ",NA,NA,NA,NA,NA,NA,NA,"LFRL 060600Z AUTO 22014KT 9999 -DZ OVC007 11/10 Q1017 BECMG 23015G25KT"
"1965","LFRL",2019-12-06 06:30:00,-4.445,48.2817,51.8,50,93.55,230,14,0,30.03,NA,6.21,NA,"OVC",NA,NA,NA,600,NA,NA,NA,"-DZ",NA,NA,NA,NA,NA,NA,NA,"LFRL 060630Z AUTO 23014KT 9999 -DZ OVC006 11/10 Q1017 TEMPO 23015G25KT 4000 RA OVC004"
"1966","LFRL",2019-12-06 07:00:00,-4.445,48.2817,51.8,51.8,100,220,15,0,30.03,NA,4.35,NA,"OVC",NA,NA,NA,600,NA,NA,NA,NA,NA,NA,NA,NA,NA,NA,NA,"LFRL 060700Z AUTO 22015KT 7000 OVC006 11/11 Q1017 TEMPO 23015G25KT 4000 RA OVC004"
"1967","LFRL",2019-12-06 07:30:00,-4.445,48.2817,51.8,51.8,100,220,14,0,30,NA,2.8,NA,"OVC",NA,NA,NA,400,NA,NA,NA,"BR",NA,NA,NA,NA,NA,NA,NA,"LFRL 060730Z AUTO 22014KT 4500 BR OVC004 11/11 Q1016 TEMPO 23017G31KT 2000 RA"
"1968","LFRL",2019-12-06 08:00:00,-4.445,48.2817,51.8,51.8,100,220,17,0,30,NA,1.86,NA,"OVC",NA,NA,NA,300,NA,NA,NA,"-DZ BR",NA,NA,NA,NA,NA,NA,NA,"LFRL 060800Z AUTO 22017KT 3000 -DZ BR OVC003 11/11 Q1016 TEMPO 23017G31KT RA"
"1969","LFRL",2019-12-06 08:30:00,-4.445,48.2817,51.8,51.8,100,220,17,0,30,NA,1.62,NA,"OVC",NA,NA,NA,200,NA,NA,NA,"-DZ BR",NA,NA,NA,NA,NA,NA,NA,"LFRL 060830Z AUTO 22017KT 2600 -DZ BR OVC002 11/11 Q1016 TEMPO 23017G31KT RA"
"1970","LFRL",2019-12-06 09:00:00,-4.445,48.2817,53.6,51.8,93.6,230,15,0,30,NA,2.3,NA,"OVC",NA,NA,NA,300,NA,NA,NA,"BR",NA,NA,NA,NA,NA,NA,NA,"LFRL 060900Z AUTO 23015KT 3700 BR OVC003 12/11 Q1016 TEMPO 23017G31KT 2000 RA"
"1971","LFRL",2019-12-06 09:30:00,-4.445,48.2817,53.6,51.8,93.6,220,18,0,30,NA,6.21,30,"OVC",NA,NA,NA,400,NA,NA,NA,NA,NA,NA,NA,NA,NA,NA,NA,"LFRL 060930Z AUTO 22018G30KT 9999 OVC004 12/11 Q1016 TEMPO 2000 RA"
"1972","LFRL",2019-12-06 10:00:00,-4.445,48.2817,53.6,51.8,93.6,220,16,0,30,NA,6.21,NA,"OVC",NA,NA,NA,500,NA,NA,NA,NA,NA,NA,NA,NA,NA,NA,NA,"LFRL 061000Z AUTO 22016KT 9999 OVC005 12/11 Q1016 TEMPO 23017G31KT 2000 RA"
"1973","LFRL",2019-12-06 10:30:00,-4.445,48.2817,53.6,51.8,93.6,230,17,0,30,NA,2.67,NA,"OVC",NA,NA,NA,600,NA,NA,NA,"-RADZ BR",NA,NA,NA,NA,NA,NA,NA,"LFRL 061030Z AUTO 23017KT 4300 -RADZ BR OVC006 12/11 Q1016 TEMPO 23017G31KT 2000 RA OVC002"
"1974","LFRL",2019-12-06 11:00:00,-4.445,48.2817,53.6,51.8,93.6,230,16,0,29.97,NA,1.43,NA,"OVC",NA,NA,NA,300,NA,NA,NA,"-DZ BR",NA,NA,NA,NA,NA,NA,NA,"LFRL 061100Z AUTO 23016KT 200V260 2300 -DZ BR OVC003 12/11 Q1015 TEMPO 23017G31KT RA"
"1975","LFRL",2019-12-06 11:30:00,-4.445,48.2817,53.6,51.8,93.6,230,19,0,29.97,NA,1.86,NA,"OVC",NA,NA,NA,300,NA,NA,NA,"-DZ BR",NA,NA,NA,NA,NA,NA,NA,"LFRL 061130Z AUTO 23019KT 3000 -DZ BR OVC003 12/11 Q1015 TEMPO 23017G31KT RA"
"1976","LFRL",2019-12-06 12:00:00,-4.445,48.2817,53.6,51.8,93.6,220,20,0,29.94,NA,2.49,NA,"OVC",NA,NA,NA,300,NA,NA,NA,"BR",NA,NA,NA,NA,NA,NA,NA,"LFRL 061200Z AUTO 22020KT 4000 BR OVC003 12/11 Q1014 TEMPO 23020G30KT 0800 -DZ FG VV///"
"1977","LFRL",2019-12-06 12:30:00,-4.445,48.2817,53.6,53.6,100,230,19,0,29.91,NA,1.37,NA,"OVC",NA,NA,NA,300,NA,NA,NA,"-DZ BR",NA,NA,NA,NA,NA,NA,NA,"LFRL 061230Z AUTO 23019KT 2200 -DZ BR OVC003 12/12 Q1013 TEMPO 23020G30KT VV/// BECMG 9999 NSW"
"1978","LFRL",2019-12-06 13:00:00,-4.445,48.2817,53.6,53.6,100,240,20,0,29.94,NA,1.12,NA,"OVC",NA,NA,NA,200,NA,NA,NA,"DZ BR",NA,NA,NA,NA,NA,NA,NA,"LFRL 061300Z AUTO 24020KT 1800 1300 R23/1800D R05/P2000 DZ BR OVC002 12/12 Q1014 TEMPO 23020G30KT VV/// BECMG 9999 NSW"
"1979","LFRL",2019-12-06 13:30:00,-4.445,48.2817,53.6,53.6,100,250,18,0,29.91,NA,2.3,NA,"OVC",NA,NA,NA,300,NA,NA,NA,"-DZ BR",NA,NA,NA,NA,NA,NA,NA,"LFRL 061330Z AUTO 25018KT 3700 -DZ BR OVC003 12/12 Q1013 BECMG 9999 NSW BKN008"
"1980","LFRL",2019-12-06 14:00:00,-4.445,48.2817,53.6,51.8,93.6,260,14,0,29.91,NA,6.21,NA,"BKN","BKN",NA,NA,600,3900,NA,NA,NA,NA,NA,NA,NA,NA,NA,NA,"LFRL 061400Z AUTO 26014KT 9999 BKN006 BKN039 12/11 Q1013 NOSIG"
"1981","LFRL",2019-12-06 14:30:00,-4.445,48.2817,53.6,51.8,93.6,260,12,0,29.91,NA,6.21,NA,"SCT","SCT",NA,NA,800,22000,NA,NA,NA,NA,NA,NA,NA,NA,NA,NA,"LFRL 061430Z AUTO 26012KT 9999 SCT008 SCT220 12/11 Q1013 TEMPO RA BECMG BKN008"
"1982","LFRL",2019-12-06 15:00:00,-4.445,48.2817,53.6,50,87.56,270,14,0,29.94,NA,6.21,NA,"FEW","SCT","BKN",NA,1000,1600,4100,NA,NA,NA,NA,NA,NA,NA,NA,NA,"LFRL 061500Z AUTO 27014KT 9999 FEW010 SCT016 BKN041 12/10 Q1014"
"1983","LFRL",2019-12-06 15:30:00,-4.445,48.2817,53.6,50,87.56,260,13,0,29.94,NA,6.21,NA,"BKN","BKN","OVC",NA,1300,1900,4000,NA,NA,NA,NA,NA,NA,NA,NA,NA,"LFRL 061530Z AUTO 26013KT 9999 BKN013 BKN019 OVC040 12/10 Q1014"
"1984","LFRL",2019-12-06 16:00:00,-4.445,48.2817,53.6,50,87.56,260,13,0,29.94,NA,6.21,NA,"OVC",NA,NA,NA,1400,NA,NA,NA,NA,NA,NA,NA,NA,NA,NA,NA,"LFRL 061600Z AUTO 26013KT 9999 OVC014 12/10 Q1014"
"1985","LFRL",2019-12-06 16:30:00,-4.445,48.2817,53.6,50,87.56,260,13,0,29.94,NA,6.21,NA,"BKN","OVC",NA,NA,1200,3900,NA,NA,NA,NA,NA,NA,NA,NA,NA,NA,"LFRL 061630Z AUTO 26013KT 9999 BKN012 OVC039 12/10 Q1014"
"1986","LFRL",2019-12-06 17:00:00,-4.445,48.2817,53.6,50,87.56,260,10,0,29.94,NA,6.21,NA,"OVC",NA,NA,NA,4000,NA,NA,NA,NA,NA,NA,NA,NA,NA,NA,NA,"LFRL 061700Z AUTO 26010KT 9999 OVC040 12/10 Q1014"
"1987","LFRL",2019-12-06 17:30:00,-4.445,48.2817,53.6,50,87.56,260,12,0,29.94,NA,6.21,NA,"OVC",NA,NA,NA,4000,NA,NA,NA,NA,NA,NA,NA,NA,NA,NA,NA,"LFRL 061730Z AUTO 26012KT 9999 OVC040 12/10 Q1014"
"1988","LFRL",2019-12-06 18:00:00,-4.445,48.2817,53.6,48.2,81.87,270,13,0,29.97,NA,6.21,NA,"BKN","OVC",NA,NA,3100,3800,NA,NA,NA,NA,NA,NA,NA,NA,NA,NA,"LFRL 061800Z AUTO 27013KT 9999 BKN031 OVC038 12/09 Q1015"
"1989","LFRL",2019-12-06 18:30:00,-4.445,48.2817,51.8,50,93.55,280,10,0,29.97,NA,6.21,NA,"FEW","SCT","BKN",NA,600,1200,1900,NA,NA,NA,NA,NA,NA,NA,NA,NA,"LFRL 061830Z AUTO 28010KT 9999 FEW006 SCT012 BKN019 11/10 Q1015"
"1990","LFRL",2019-12-06 19:00:00,-4.445,48.2817,51.8,50,93.55,280,8,0,29.97,NA,6.21,NA,"FEW","BKN","BKN",NA,1200,1700,2200,NA,"-RADZ",NA,NA,NA,NA,NA,NA,NA,"LFRL 061900Z AUTO 28008KT 9999 3500 -RADZ FEW012 BKN017 BKN022 11/10 Q1015"
"1991","LFRL",2019-12-06 19:30:00,-4.445,48.2817,51.8,50,93.55,270,8,0,29.97,NA,6.21,NA,"BKN","OVC",NA,NA,1000,1600,NA,NA,NA,NA,NA,NA,NA,NA,NA,NA,"LFRL 061930Z AUTO 27008KT 250V310 9999 BKN010 OVC016 11/10 Q1015"
"1992","LFRL",2019-12-06 20:00:00,-4.445,48.2817,51.8,50,93.55,270,9,0,29.97,NA,6.21,NA,"FEW","OVC",NA,NA,1000,4100,NA,NA,NA,NA,NA,NA,NA,NA,NA,NA,"LFRL 062000Z AUTO 27009KT 9999 FEW010 OVC041 11/10 Q1015"
"1993","LFRL",2019-12-06 20:30:00,-4.445,48.2817,51.8,50,93.55,280,10,0,29.97,NA,6.21,NA,"SCT","BKN","BKN",NA,1300,1900,2800,NA,NA,NA,NA,NA,NA,NA,NA,NA,"LFRL 062030Z AUTO 28010KT 9999 SCT013 BKN019 BKN028 11/10 Q1015"
"1994","LFRL",2019-12-06 21:00:00,-4.445,48.2817,51.8,48.2,87.47,280,10,0,30,NA,6.21,NA,"BKN","OVC",NA,NA,3500,4100,NA,NA,NA,NA,NA,NA,NA,NA,NA,NA,"LFRL 062100Z AUTO 28010KT 9999 BKN035 OVC041 11/09 Q1016"
"1995","LFRL",2019-12-06 21:30:00,-4.445,48.2817,51.8,48.2,87.47,270,9,0,30,NA,6.21,NA,"FEW","BKN","OVC",NA,1600,3200,4100,NA,NA,NA,NA,NA,NA,NA,NA,NA,"LFRL 062130Z AUTO 27009KT 9999 FEW016 BKN032 OVC041 11/09 Q1016"
"1996","LFRL",2019-12-06 22:00:00,-4.445,48.2817,51.8,48.2,87.47,270,9,0,30,NA,6.21,NA,"OVC",NA,NA,NA,3800,NA,NA,NA,NA,NA,NA,NA,NA,NA,NA,NA,"LFRL 062200Z AUTO 27009KT 9999 OVC038 11/09 Q1016"
"1997","LFRL",2019-12-06 22:30:00,-4.445,48.2817,51.8,48.2,87.47,270,7,0,30,NA,6.21,NA,"FEW","OVC",NA,NA,1600,3900,NA,NA,NA,NA,NA,NA,NA,NA,NA,NA,"LFRL 062230Z AUTO 27007KT 9999 FEW016 OVC039 11/09 Q1016"
"1998","LFRL",2019-12-06 23:00:00,-4.445,48.2817,51.8,50,93.55,270,7,0,30,NA,3.73,NA,"SCT","SCT","BKN",NA,600,1100,1600,NA,"DZ",NA,NA,NA,NA,NA,NA,NA,"LFRL 062300Z AUTO 27007KT 6000 DZ SCT006 SCT011 BKN016 11/10 Q1016"
"1999","LFRL",2019-12-06 23:30:00,-4.445,48.2817,51.8,48.2,87.47,270,5,0,30.03,NA,6.21,NA,"FEW","BKN","OVC",NA,1900,3300,4100,NA,NA,NA,NA,NA,NA,NA,NA,NA,"LFRL 062330Z AUTO 27005KT 9999 FEW019 BKN033 OVC041 11/09 Q1017"
"2000","LFRI",2019-12-06 00:00:00,-1.3789,46.7,33.8,33.8,100,NA,1,0,30.21,NA,0.25,NA,"VV ",NA,NA,NA,NA,NA,NA,NA,"FG",NA,NA,NA,NA,NA,NA,NA,"LFRI 060000Z AUTO VRB01KT 0400 R28/0550N FG VV/// 01/01 Q1023"
"2001","LFRI",2019-12-06 00:30:00,-1.3789,46.7,32,32,100,0,0,0,30.21,NA,0.25,NA,"VV ",NA,NA,NA,NA,NA,NA,NA,"FG",NA,NA,NA,NA,NA,NA,NA,"LFRI 060030Z AUTO 00000KT 0400 0350 R28/0450N FG VV/// 00/00 Q1023"
"2002","LFRI",2019-12-06 01:00:00,-1.3789,46.7,32,32,100,40,2,0,30.21,NA,0.22,NA,"VV ",NA,NA,NA,NA,NA,NA,NA,"FZFG",NA,NA,NA,NA,NA,NA,NA,"LFRI 060100Z AUTO 04002KT 0350 R28/0450N FZFG VV/// M00/M00 Q1023"
"2003","LFRI",2019-12-06 01:30:00,-1.3789,46.7,32,32,100,130,2,0,30.21,NA,0.25,NA,"VV ",NA,NA,NA,NA,NA,NA,NA,"FZFG",NA,NA,NA,NA,NA,NA,NA,"LFRI 060130Z AUTO 13002KT 0400 R28/0500N FZFG VV/// M00/M00 Q1023"
"2004","LFRI",2019-12-06 02:00:00,-1.3789,46.7,32,32,100,0,0,0,30.18,NA,0.34,NA,"VV ",NA,NA,NA,NA,NA,NA,NA,"FZFG",NA,NA,NA,NA,NA,NA,NA,"LFRI 060200Z AUTO 00000KT 0550 R28/0650N FZFG VV/// M00/M00 Q1022"
"2005","LFRI",2019-12-06 02:30:00,-1.3789,46.7,30.2,30.2,100,0,0,0,30.18,NA,0.4,NA,"VV ",NA,NA,NA,NA,NA,NA,NA,"FZFG",NA,NA,NA,NA,NA,NA,NA,"LFRI 060230Z AUTO 00000KT 0650 0600 R28/0800U FZFG VV/// M01/M01 Q1022"
"2006","LFRI",2019-12-06 03:00:00,-1.3789,46.7,30.2,30.2,100,0,0,0,30.18,NA,0.43,NA,"VV ",NA,NA,NA,NA,NA,NA,NA,"FZFG",NA,NA,NA,NA,NA,NA,NA,"LFRI 060300Z AUTO 00000KT 0700 R28/0900D FZFG VV/// M01/M01 Q1022"
"2007","LFRI",2019-12-06 03:30:00,-1.3789,46.7,30.2,30.2,100,0,0,0,30.18,NA,0.56,NA,"VV ",NA,NA,NA,NA,NA,NA,NA,"FZFG",NA,NA,NA,NA,NA,NA,NA,"LFRI 060330Z AUTO 00000KT 0900 0800 R28/1200D FZFG VV/// M01/M01 Q1022"
"2008","LFRI",2019-12-06 04:00:00,-1.3789,46.7,32,32,100,0,0,0,30.18,NA,0.56,NA,"VV ",NA,NA,NA,NA,NA,NA,NA,"FZFG",NA,NA,NA,NA,NA,NA,NA,"LFRI 060400Z AUTO 00000KT 0900 0800 R28/1100U FZFG VV/// M00/M00 Q1022"
"2009","LFRI",2019-12-06 04:30:00,-1.3789,46.7,32,32,100,0,0,0,30.18,NA,0.81,NA,"VV ",NA,NA,NA,NA,NA,NA,NA,"BR",NA,NA,NA,NA,NA,NA,NA,"LFRI 060430Z AUTO 00000KT 1300 1200 R28/1700D BR VV/// M00/M00 Q1022"
"2010","LFRI",2019-12-06 05:00:00,-1.3789,46.7,32,32,100,0,0,0,30.18,NA,0.99,NA,"VV ",NA,NA,NA,NA,NA,NA,NA,"BR",NA,NA,NA,NA,NA,NA,NA,"LFRI 060500Z AUTO 00000KT 1600 BR VV/// 00/00 Q1022"
"2011","LFRI",2019-12-06 05:30:00,-1.3789,46.7,32,32,100,0,0,0,30.15,NA,0.87,NA,"VV ",NA,NA,NA,NA,NA,NA,NA,"BR",NA,NA,NA,NA,NA,NA,NA,"LFRI 060530Z AUTO 00000KT 1400 1200 R28/1900D BR VV/// 00/00 Q1021"
"2012","LFRI",2019-12-06 06:00:00,-1.3789,46.7,33.8,33.8,100,150,6,0,30.15,NA,0.62,NA,"VV ",NA,NA,NA,NA,NA,NA,NA,"BCFG",NA,NA,NA,NA,NA,NA,27.7,"LFRI 060600Z AUTO 15006KT 1000 0900 R28/1400D BCFG VV/// 01/01 Q1021"
"2013","LFRI",2019-12-06 06:30:00,-1.3789,46.7,35.6,35.6,100,150,6,0,30.15,NA,0.34,NA,"VV ",NA,NA,NA,NA,NA,NA,NA,"FG",NA,NA,NA,NA,NA,NA,29.87,"LFRI 060630Z AUTO 15006KT 0550 0500 R28/0700N FG VV/// 02/02 Q1021"
"2014","LFRI",2019-12-06 07:00:00,-1.3789,46.7,37.4,37.4,100,150,7,0,30.15,NA,0.43,NA,"VV ",NA,NA,NA,NA,NA,NA,NA,"FG",NA,NA,NA,NA,NA,NA,31.36,"LFRI 060700Z AUTO 15007KT 0700 0650 R28/0900U FG VV/// 03/03 Q1021"
"2015","LFRI",2019-12-06 07:30:00,-1.3789,46.7,37.4,37.4,100,160,7,0,30.15,NA,0.62,NA,"VV ",NA,NA,NA,NA,NA,NA,NA,"BCFG",NA,NA,NA,NA,NA,NA,31.36,"LFRI 060730Z AUTO 16007KT 1000 0900 R28/1400D BCFG VV/// 03/03 Q1021"
"2016","LFRI",2019-12-06 08:00:00,-1.3789,46.7,37.4,37.4,100,160,9,0,30.15,NA,0.99,NA,"VV ",NA,NA,NA,NA,NA,NA,NA,"BR",NA,NA,NA,NA,NA,NA,30.23,"LFRI 060800Z AUTO 16009KT 1600 BR VV/// 03/03 Q1021 TEMPO 0700 FG"
"2017","LFRI",2019-12-06 08:30:00,-1.3789,46.7,39.2,39.2,100,160,8,0,30.15,NA,1.99,NA,"OVC",NA,NA,NA,200,NA,NA,NA,"BR",NA,NA,NA,NA,NA,NA,32.98,"LFRI 060830Z AUTO 16008KT 3200 BR OVC002 04/04 Q1021 TEMPO 0700 FG VV///"
"2018","LFRI",2019-12-06 09:00:00,-1.3789,46.7,39.2,39.2,100,160,7,0,30.15,NA,2.17,NA,"OVC",NA,NA,NA,200,NA,NA,NA,"BR",NA,NA,NA,NA,NA,NA,33.56,"LFRI 060900Z AUTO 16007KT 3500 BR OVC002 04/04 Q1021 TEMPO 0700 FG VV///"
"2019","LFRI",2019-12-06 09:30:00,-1.3789,46.7,41,41,100,170,6,0,30.15,NA,2.17,NA,"BKN","OVC",NA,NA,200,1700,NA,NA,"BR",NA,NA,NA,NA,NA,NA,36.37,"LFRI 060930Z AUTO 17006KT 3500 BR BKN002 OVC017 05/05 Q1021 TEMPO RADZ"
"2020","LFRI",2019-12-06 10:00:00,-1.3789,46.7,41,41,100,160,8,0,30.15,NA,2.61,NA,"FEW","BKN","BKN",NA,200,1900,2400,NA,"BR",NA,NA,NA,NA,NA,NA,35.2,"LFRI 061000Z AUTO 16008KT 120V190 4200 BR FEW002 BKN019 BKN024 05/05 Q1021 TEMPO RADZ BECMG BKN003"
"2021","LFRI",2019-12-06 10:30:00,-1.3789,46.7,42.8,42.8,100,170,8,0,30.15,NA,3.11,NA,"FEW","SCT","BKN",NA,300,2300,9600,NA,"BR",NA,NA,NA,NA,NA,NA,37.42,"LFRI 061030Z AUTO 17008KT 5000 BR FEW003 SCT023 BKN096 06/06 Q1021 TEMPO RADZ BECMG BKN003"
"2022","LFRI",2019-12-06 11:00:00,-1.3789,46.7,44.6,44.6,100,180,6,0,30.15,NA,3.11,NA,"OVC",NA,NA,NA,2400,NA,NA,NA,"BR",NA,NA,NA,NA,NA,NA,40.71,"LFRI 061100Z AUTO 18006KT 5000 BR OVC024 07/07 Q1021 TEMPO RADZ BECMG BKN003"
"2023","LFRI",2019-12-06 11:30:00,-1.3789,46.7,46.4,46.4,100,180,7,0,30.12,NA,4.35,NA,"FEW","OVC","///",NA,1900,2700,NA,NA,NA,NA,NA,NA,NA,NA,NA,42.33,"LFRI 061130Z AUTO 18007KT 7000 FEW019/// OVC027/// ///TCU 08/08 Q1020 TEMPO 4000 RA BKN008"
"2024","LFRI",2019-12-06 12:00:00,-1.3789,46.7,48.2,46.4,93.45,190,7,0,30.12,NA,5.59,NA,"FEW","BKN","OVC","///",1900,2900,10000,NA,NA,NA,NA,NA,NA,NA,NA,44.53,"LFRI 061200Z AUTO 19007KT 9000 FEW019/// BKN029/// OVC100/// ///TCU 09/08 Q1020 TEMPO 4000 RA BKN008"
"2025","LFRI",2019-12-06 12:30:00,-1.3789,46.7,48.2,48.2,100,180,7,0,30.09,NA,5.59,NA,"FEW","OVC","///",NA,1400,8800,NA,NA,"-RA",NA,NA,NA,NA,NA,NA,44.53,"LFRI 061230Z AUTO 18007KT 9000 -RA FEW014/// OVC088/// ///TCU 09/09 Q1019 TEMPO 4000 RA BECMG SCT010 BKN040"
"2026","LFRI",2019-12-06 13:00:00,-1.3789,46.7,50,48.2,93.5,200,7,0,30.09,NA,6.21,NA,"BKN","BKN","OVC","///",1500,2000,9000,NA,NA,NA,NA,NA,NA,NA,NA,46.72,"LFRI 061300Z AUTO 20007KT 9999 BKN015/// BKN020/// OVC090/// ///TCU 10/09 Q1019 TEMPO 4000 RA BECMG SCT010 BKN040"
"2027","LFRI",2019-12-06 13:30:00,-1.3789,46.7,50,48.2,93.5,220,9,0,30.06,NA,6.21,NA,"OVC",NA,NA,NA,1400,NA,NA,NA,NA,NA,NA,NA,NA,NA,NA,45.9,"LFRI 061330Z AUTO 22009KT 190V250 9999 OVC014 10/09 Q1018 BECMG SCT010 BKN040"
"2028","LFRI",2019-12-06 14:00:00,-1.3789,46.7,51.8,50,93.55,220,10,0,30.06,NA,6.21,NA,"OVC",NA,NA,NA,1300,NA,NA,NA,NA,NA,NA,NA,NA,NA,NA,NA,"LFRI 061400Z AUTO 22010KT 9999 OVC013 11/10 Q1018 BECMG SCT010 BKN040"
"2029","LFRI",2019-12-06 14:30:00,-1.3789,46.7,51.8,50,93.55,220,9,0,30.06,NA,6.21,NA,"OVC",NA,NA,NA,1300,NA,NA,NA,NA,NA,NA,NA,NA,NA,NA,NA,"LFRI 061430Z AUTO 22009KT 9999 OVC013 11/10 Q1018 BECMG SCT010 BKN040"
"2030","LFRI",2019-12-06 15:00:00,-1.3789,46.7,53.6,50,87.56,220,10,0,30.03,NA,6.21,NA,"BKN","BKN","OVC",NA,1400,3100,6000,NA,NA,NA,NA,NA,NA,NA,NA,NA,"LFRI 061500Z AUTO 22010KT 190V250 9999 BKN014 BKN031 OVC060 12/10 Q1017 NOSIG"
"2031","LFRI",2019-12-06 15:30:00,-1.3789,46.7,51.8,50,93.55,210,10,0,30.03,NA,6.21,NA,"OVC",NA,NA,NA,1300,NA,NA,NA,NA,NA,NA,NA,NA,NA,NA,NA,"LFRI 061530Z AUTO 21010KT 9999 OVC013 11/10 Q1017 TEMPO 3000 RA BKN004"
"2032","LFRI",2019-12-06 16:00:00,-1.3789,46.7,51.8,50,93.55,220,9,0,30.06,NA,6.21,NA,"BKN","OVC",NA,NA,1200,1700,NA,NA,NA,NA,NA,NA,NA,NA,NA,NA,"LFRI 061600Z AUTO 22009KT 9999 BKN012 OVC017 11/10 Q1018 TEMPO 3000 RA BKN004"
"2033","LFRI",2019-12-06 16:30:00,-1.3789,46.7,51.8,50,93.55,220,9,0,30.06,NA,6.21,NA,"BKN","BKN","OVC",NA,1300,7000,23000,NA,NA,NA,NA,NA,NA,NA,NA,NA,"LFRI 061630Z AUTO 22009KT 9999 BKN013 BKN070 OVC230 11/10 Q1018 TEMPO 3000 RA BKN004"
"2034","LFRI",2019-12-06 17:00:00,-1.3789,46.7,51.8,50,93.55,230,7,0,30.06,NA,6.21,NA,"BKN","BKN","OVC",NA,1300,1800,2300,NA,NA,NA,NA,NA,NA,NA,NA,NA,"LFRI 061700Z AUTO 23007KT 200V260 9999 BKN013 BKN018 OVC023 11/10 Q1018 TEMPO 3000 RA BKN004"
"2035","LFRI",2019-12-06 17:30:00,-1.3789,46.7,51.8,50,93.55,230,8,0,30.06,NA,6.21,NA,"SCT","BKN","OVC",NA,1500,2700,9000,NA,NA,NA,NA,NA,NA,NA,NA,NA,"LFRI 061730Z AUTO 23008KT 200V260 9999 SCT015 BKN027 OVC090 11/10 Q1018 TEMPO 3000 -SHRA BKN006"
"2036","LFRI",2019-12-06 18:00:00,-1.3789,46.7,53.6,50,87.56,230,9,0,30.06,NA,6.21,NA,"FEW","OVC",NA,NA,1400,2700,NA,NA,NA,NA,NA,NA,NA,NA,NA,NA,"LFRI 061800Z AUTO 23009KT 9999 FEW014 OVC027 12/10 Q1018 TEMPO 3000 -SHRA BKN006"
"2037","LFRI",2019-12-06 18:30:00,-1.3789,46.7,51.8,48.2,87.47,230,9,0,30.03,NA,6.21,NA,"SCT","BKN","BKN",NA,1300,1900,2500,NA,NA,NA,NA,NA,NA,NA,NA,NA,"LFRI 061830Z AUTO 23009KT 200V260 9999 SCT013 BKN019 BKN025 11/09 Q1017 TEMPO 3000 -SHRA BKN006"
"2038","LFRI",2019-12-06 19:00:00,-1.3789,46.7,51.8,50,93.55,230,10,0,30.06,NA,6.21,NA,"BKN","OVC",NA,NA,700,1100,NA,NA,NA,NA,NA,NA,NA,NA,NA,NA,"LFRI 061900Z AUTO 23010KT 9999 BKN007 OVC011 11/10 Q1018 TEMPO 3000 -SHRA"
"2039","LFRI",2019-12-06 19:30:00,-1.3789,46.7,51.8,50,93.55,240,9,0,30.06,NA,3.11,NA,"OVC",NA,NA,NA,500,NA,NA,NA,"-DZ BR",NA,NA,NA,NA,NA,NA,NA,"LFRI 061930Z AUTO 24009KT 210V290 5000 -DZ BR OVC005 11/10 Q1018 TEMPO 2000 BR"
"2040","LFRI",2019-12-06 20:00:00,-1.3789,46.7,51.8,50,93.55,240,9,0,30.06,NA,4.35,NA,"OVC",NA,NA,NA,400,NA,NA,NA,"-DZ",NA,NA,NA,NA,NA,NA,NA,"LFRI 062000Z AUTO 24009KT 210V270 7000 -DZ OVC004 11/10 Q1018 TEMPO 2000 BR BKN006"
"2041","LFRI",2019-12-06 20:30:00,-1.3789,46.7,51.8,50,93.55,240,11,0,30.06,NA,3.73,NA,"OVC",NA,NA,NA,400,NA,NA,NA,"-RADZ",NA,NA,NA,NA,NA,NA,NA,"LFRI 062030Z AUTO 24011KT 6000 -RADZ OVC004 11/10 Q1018 TEMPO 2000 BR"
"2042","LFRI",2019-12-06 21:00:00,-1.3789,46.7,51.8,51.8,100,230,9,0,30.06,NA,2.8,NA,"OVC",NA,NA,NA,400,NA,NA,NA,"DZ BR",NA,NA,NA,NA,NA,NA,NA,"LFRI 062100Z AUTO 23009KT 4500 DZ BR OVC004 11/11 Q1018 TEMPO 2000 BR"
"2043","LFRI",2019-12-06 21:30:00,-1.3789,46.7,51.8,51.8,100,240,8,0,30.06,NA,3.11,NA,"OVC",NA,NA,NA,300,NA,NA,NA,"-DZ BR",NA,NA,NA,NA,NA,NA,NA,"LFRI 062130Z AUTO 24008KT 200V270 5000 -DZ BR OVC003 11/11 Q1018"
"2044","LFRI",2019-12-06 22:00:00,-1.3789,46.7,51.8,51.8,100,230,6,0,30.06,NA,5.59,NA,"OVC",NA,NA,NA,300,NA,NA,NA,"-DZ",NA,NA,NA,NA,NA,NA,NA,"LFRI 062200Z AUTO 23006KT 9000 -DZ OVC003 11/11 Q1018"
"2045","LFRI",2019-12-06 22:30:00,-1.3789,46.7,51.8,51.8,100,250,8,0,30.06,NA,3.11,NA,"OVC",NA,NA,NA,300,NA,NA,NA,"-RA BR",NA,NA,NA,NA,NA,NA,NA,"LFRI 062230Z AUTO 25008KT 5000 -RA BR OVC003 11/11 Q1018"
"2046","LFRI",2019-12-06 23:00:00,-1.3789,46.7,51.8,50,93.55,250,5,0,30.09,NA,6.21,NA,"FEW","OVC",NA,NA,700,2500,NA,NA,NA,NA,NA,NA,NA,NA,NA,NA,"LFRI 062300Z AUTO 25005KT 9999 FEW007 OVC025 11/10 Q1019"
"2047","LFRI",2019-12-06 23:30:00,-1.3789,46.7,51.8,50,93.55,240,4,0,30.09,NA,6.21,NA,"SCT","BKN","BKN",NA,2200,2700,3800,NA,NA,NA,NA,NA,NA,NA,NA,NA,"LFRI 062330Z AUTO 24004KT 9999 SCT022 BKN027 BKN038 11/10 Q1019"
"2048","LFBH",2019-12-06 00:00:00,-1.1931,46.1781,37.4,35.6,93.14,340,5,0,30.24,NA,3.11,NA,"BKN",NA,NA,NA,400,NA,NA,NA,"BR",NA,NA,NA,NA,NA,NA,32.81,"LFBH 060000Z AUTO 34005KT 5000 BR BKN004 03/02 Q1024"
"2049","LFBH",2019-12-06 00:30:00,-1.1931,46.1781,37.4,35.6,93.14,NA,2,0,30.24,NA,1.74,NA,"VV ",NA,NA,NA,NA,NA,NA,NA,"BR",NA,NA,NA,NA,NA,NA,NA,"LFBH 060030Z AUTO VRB02KT 2800 BR VV/// 03/02 Q1024"
"2050","LFBH",2019-12-06 01:00:00,-1.1931,46.1781,37.4,35.6,93.14,NA,3,0,30.21,NA,0.81,NA,"VV ",NA,NA,NA,NA,NA,NA,NA,"BR",NA,NA,NA,NA,NA,NA,34.86,"LFBH 060100Z AUTO VRB03KT 1300 R27/1500U BR VV/// 03/02 Q1023"
"2051","LFBH",2019-12-06 01:30:00,-1.1931,46.1781,37.4,35.6,93.14,NA,2,0,30.21,NA,0.43,NA,"VV ",NA,NA,NA,NA,NA,NA,NA,"FG",NA,NA,NA,NA,NA,NA,NA,"LFBH 060130Z AUTO VRB02KT 0700 0650 R27/0550D FG VV/// 03/02 Q1023"
"2052","LFBH",2019-12-06 02:00:00,-1.1931,46.1781,37.4,35.6,93.14,NA,1,0,30.21,NA,0.19,NA,"VV ",NA,NA,NA,NA,NA,NA,NA,"FG",NA,NA,NA,NA,NA,NA,NA,"LFBH 060200Z AUTO VRB01KT 0300 R27/0350N FG VV/// 03/02 Q1023"
"2053","LFBH",2019-12-06 02:30:00,-1.1931,46.1781,35.6,35.6,100,100,2,0,30.21,NA,0.22,NA,"VV ",NA,NA,NA,NA,NA,NA,NA,"FG",NA,NA,NA,NA,NA,NA,NA,"LFBH 060230Z AUTO 10002KT 0350 0300 R27/0375N FG VV/// 02/02 Q1023"
"2054","LFBH",2019-12-06 03:00:00,-1.1931,46.1781,35.6,35.6,100,120,4,0,30.21,NA,0.47,NA,"VV ",NA,NA,NA,NA,NA,NA,NA,"FG",NA,NA,NA,NA,NA,NA,31.62,"LFBH 060300Z AUTO 12004KT 0750 0700 R27/0800U FG VV/// 02/02 Q1023"
"2055","LFBH",2019-12-06 03:30:00,-1.1931,46.1781,35.6,35.6,100,130,4,0,30.21,NA,1.68,NA,"VV ",NA,NA,NA,NA,NA,NA,NA,"BR",NA,NA,NA,NA,NA,NA,31.62,"LFBH 060330Z AUTO 13004KT 2700 BR VV/// 02/02 Q1023"
"2056","LFBH",2019-12-06 04:00:00,-1.1931,46.1781,37.4,35.6,93.14,160,6,0,30.18,NA,2.67,NA,"FEW","BKN",NA,NA,200,24000,NA,NA,"BR",NA,NA,NA,NA,NA,NA,32.03,"LFBH 060400Z AUTO 16006KT 4300 BR FEW002 BKN240 03/02 Q1022"
"2057","LFBH",2019-12-06 04:30:00,-1.1931,46.1781,39.2,37.4,93.19,160,8,0,30.18,NA,1.62,NA,"BKN","OVC",NA,NA,100,24000,NA,NA,"BR",NA,NA,NA,NA,NA,NA,32.98,"LFBH 060430Z AUTO 16008KT 2600 BR BKN001 OVC240 04/03 Q1022"
"2058","LFBH",2019-12-06 05:00:00,-1.1931,46.1781,39.2,37.4,93.19,150,6,0,30.18,NA,2.86,NA,"NSC",NA,NA,NA,NA,NA,NA,NA,"BR",NA,NA,NA,NA,NA,NA,34.2,"LFBH 060500Z AUTO 15006KT 4600 BR NSC 04/03 Q1022"
"2059","LFBH",2019-12-06 05:30:00,-1.1931,46.1781,39.2,37.4,93.19,140,6,0,30.18,NA,2.86,NA,"NSC",NA,NA,NA,NA,NA,NA,NA,"BR",NA,NA,NA,NA,NA,NA,34.2,"LFBH 060530Z AUTO 14006KT 4600 BR NSC 04/03 Q1022"
"2060","LFBH",2019-12-06 06:00:00,-1.1931,46.1781,39.2,37.4,93.19,150,6,0,30.18,NA,2.8,NA,"FEW","OVC",NA,NA,1800,22000,NA,NA,"BR",NA,NA,NA,NA,NA,NA,34.2,"LFBH 060600Z AUTO 15006KT 4500 BR FEW018 OVC220 04/03 Q1022"
"2061","LFBH",2019-12-06 06:30:00,-1.1931,46.1781,41,41,100,160,8,0,30.18,NA,3.11,NA,"OVC",NA,NA,NA,1700,NA,NA,NA,"BR",NA,NA,NA,NA,NA,NA,35.2,"LFBH 060630Z AUTO 16008KT 5000 BR OVC017 05/05 Q1022"
"2062","LFBH",2019-12-06 07:00:00,-1.1931,46.1781,42.8,41,93.3,150,7,0,30.18,NA,3.04,NA,"OVC",NA,NA,NA,1700,NA,NA,NA,"BR",NA,NA,NA,NA,NA,NA,37.94,"LFBH 060700Z AUTO 15007KT 4900 BR OVC017 06/05 Q1022 TEMPO 0800 BCFG BKN002"
"2063","LFBH",2019-12-06 07:30:00,-1.1931,46.1781,44.6,42.8,93.35,170,8,0,30.18,NA,3.73,NA,"OVC",NA,NA,NA,1700,NA,NA,NA,NA,NA,NA,NA,NA,NA,NA,39.63,"LFBH 060730Z AUTO 17008KT 6000 OVC017 07/06 Q1022 TEMPO 0800 BCFG BKN002"
"2064","LFBH",2019-12-06 08:00:00,-1.1931,46.1781,44.6,42.8,93.35,170,8,0,30.18,NA,2.86,NA,"FEW","OVC",NA,NA,600,1700,NA,NA,"BR",NA,NA,NA,NA,NA,NA,39.63,"LFBH 060800Z AUTO 17008KT 4600 BR FEW006 OVC017 07/06 Q1022 TEMPO 0800 BCFG BKN002"
"2065","LFBH",2019-12-06 08:30:00,-1.1931,46.1781,46.4,44.6,93.4,180,7,0,30.18,NA,2.42,NA,"BKN","OVC",NA,NA,500,1800,NA,NA,"BR",NA,NA,NA,NA,NA,NA,42.33,"LFBH 060830Z AUTO 18007KT 3900 BR BKN005 OVC018 08/07 Q1022 BECMG 25012KT 9999 NSW BKN015"
"2066","LFBH",2019-12-06 09:00:00,-1.1931,46.1781,46.4,44.6,93.4,180,8,0,30.18,NA,2.86,NA,"OVC",NA,NA,NA,400,NA,NA,NA,"BR",NA,NA,NA,NA,NA,NA,41.85,"LFBH 060900Z AUTO 18008KT 4600 BR OVC004 08/07 Q1022 BECMG 25012KT 9999 NSW BKN015"
"2067","LFBH",2019-12-06 09:30:00,-1.1931,46.1781,46.4,44.6,93.4,180,9,0,30.18,NA,2.3,NA,"OVC",NA,NA,NA,400,NA,NA,NA,"BR",NA,NA,NA,NA,NA,NA,41.42,"LFBH 060930Z AUTO 18009KT 3700 BR OVC004 08/07 Q1022 BECMG 25012KT 9999 NSW BKN015"
"2068","LFBH",2019-12-06 10:00:00,-1.1931,46.1781,48.2,46.4,93.45,180,10,0,30.18,NA,2.17,NA,"OVC",NA,NA,NA,300,NA,NA,NA,"BR",NA,NA,NA,NA,NA,NA,43.28,"LFBH 061000Z AUTO 18010KT 3500 BR OVC003 09/08 Q1022 BECMG 25012KT 9999 NSW BKN015"
"2069","LFBH",2019-12-06 10:30:00,-1.1931,46.1781,48.2,46.4,93.45,180,9,0,30.18,NA,2.24,NA,"BKN","OVC",NA,NA,300,1700,NA,NA,"BR",NA,NA,NA,NA,NA,NA,43.66,"LFBH 061030Z AUTO 18009KT 3600 BR BKN003 OVC017 09/08 Q1022 BECMG 25012KT 9999 NSW BKN015"
"2070","LFBH",2019-12-06 11:00:00,-1.1931,46.1781,48.2,48.2,100,190,10,0,30.18,NA,3.11,NA,"SCT","OVC",NA,NA,300,1900,NA,NA,"BR",NA,NA,NA,NA,NA,NA,43.28,"LFBH 061100Z AUTO 19010KT 5000 BR SCT003 OVC019 09/09 Q1022 BECMG 25012KT"
"2071","LFBH",2019-12-06 11:30:00,-1.1931,46.1781,50,48.2,93.5,190,10,0,30.15,NA,3.73,NA,"BKN","OVC",NA,NA,1800,2300,NA,NA,NA,NA,NA,NA,NA,NA,NA,45.54,"LFBH 061130Z AUTO 19010KT 6000 BKN018 OVC023 10/09 Q1021 NOSIG"
"2072","LFBH",2019-12-06 12:00:00,-1.1931,46.1781,51.8,48.2,87.47,220,10,0,30.15,NA,6.21,NA,"OVC",NA,NA,NA,1800,NA,NA,NA,NA,NA,NA,NA,NA,NA,NA,NA,"LFBH 061200Z AUTO 22010KT 9999 OVC018 11/09 Q1021 NOSIG"
"2073","LFBH",2019-12-06 12:30:00,-1.1931,46.1781,53.6,48.2,81.87,220,10,0,30.12,NA,6.21,NA,"OVC",NA,NA,NA,1700,NA,NA,NA,NA,NA,NA,NA,NA,NA,NA,NA,"LFBH 061230Z AUTO 22010KT 9999 OVC017 12/09 Q1020 NOSIG"
"2074","LFBH",2019-12-06 13:00:00,-1.1931,46.1781,53.6,48.2,81.87,220,10,0,30.12,NA,6.21,NA,"BKN","OVC","///",NA,1700,2300,NA,NA,NA,NA,NA,NA,NA,NA,NA,NA,"LFBH 061300Z AUTO 22010KT 9999 BKN017/// OVC023/// ///TCU 12/09 Q1020 BECMG OVC015"
"2075","LFBH",2019-12-06 13:30:00,-1.1931,46.1781,53.6,48.2,81.87,220,10,0,30.12,NA,6.21,NA,"BKN","OVC","///",NA,1600,2500,NA,NA,NA,NA,NA,NA,NA,NA,NA,NA,"LFBH 061330Z AUTO 22010KT 9999 BKN016/// OVC025/// ///TCU 12/09 Q1020 TEMPO 25015G25KT BECMG OVC015"
"2076","LFBH",2019-12-06 14:00:00,-1.1931,46.1781,53.6,48.2,81.87,220,10,0,30.09,NA,6.21,NA,"BKN","BKN","OVC","///",1700,2500,9800,NA,NA,NA,NA,NA,NA,NA,NA,NA,"LFBH 061400Z AUTO 22010KT 9999 BKN017/// BKN025/// OVC098/// ///TCU 12/09 Q1019 TEMPO 25015G25KT BECMG OVC015"
"2077","LFBH",2019-12-06 14:30:00,-1.1931,46.1781,53.6,48.2,81.87,220,10,0,30.09,NA,6.21,NA,"FEW","BKN","OVC",NA,1700,2700,9800,NA,NA,NA,NA,NA,NA,NA,NA,NA,"LFBH 061430Z AUTO 22010KT 9999 FEW017 BKN027 OVC098 12/09 Q1019 TEMPO 25015G25KT"
"2078","LFBH",2019-12-06 15:00:00,-1.1931,46.1781,53.6,50,87.56,220,10,0,30.09,NA,6.21,NA,"OVC",NA,NA,NA,2700,NA,NA,NA,NA,NA,NA,NA,NA,NA,NA,NA,"LFBH 061500Z AUTO 22010KT 9999 OVC027 12/10 Q1019 TEMPO 25015G25KT"
"2079","LFBH",2019-12-06 15:30:00,-1.1931,46.1781,53.6,50,87.56,210,10,0,30.09,NA,6.21,NA,"FEW","OVC",NA,NA,1800,2600,NA,NA,NA,NA,NA,NA,NA,NA,NA,NA,"LFBH 061530Z AUTO 21010KT 9999 FEW018 OVC026 12/10 Q1019 TEMPO 25015G25KT"
"2080","LFBH",2019-12-06 16:00:00,-1.1931,46.1781,53.6,48.2,81.87,210,9,0,30.09,NA,6.21,NA,"OVC",NA,NA,NA,2800,NA,NA,NA,NA,NA,NA,NA,NA,NA,NA,NA,"LFBH 061600Z AUTO 21009KT 9999 OVC028 12/09 Q1019 TEMPO 25015G25KT"
"2081","LFBH",2019-12-06 16:30:00,-1.1931,46.1781,53.6,50,87.56,210,9,0,30.09,NA,6.21,NA,"FEW","BKN","OVC",NA,1700,2800,9000,NA,NA,NA,NA,NA,NA,NA,NA,NA,"LFBH 061630Z AUTO 21009KT 9999 FEW017 BKN028 OVC090 12/10 Q1019 TEMPO 25015G25KT"
"2082","LFBH",2019-12-06 17:00:00,-1.1931,46.1781,53.6,50,87.56,220,7,0,30.09,NA,6.21,NA,"BKN","OVC",NA,NA,2300,2800,NA,NA,NA,NA,NA,NA,NA,NA,NA,NA,"LFBH 061700Z AUTO 22007KT 9999 BKN023 OVC028 12/10 Q1019 TEMPO 25015G25KT"
"2083","LFBH",2019-12-06 17:30:00,-1.1931,46.1781,53.6,50,87.56,230,8,0,30.09,NA,6.21,NA,"OVC",NA,NA,NA,2200,NA,NA,NA,NA,NA,NA,NA,NA,NA,NA,NA,"LFBH 061730Z AUTO 23008KT 9999 OVC022 12/10 Q1019 TEMPO 23015G25KT OVC010"
"2084","LFBH",2019-12-06 18:00:00,-1.1931,46.1781,53.6,50,87.56,230,9,0,30.09,NA,6.21,NA,"BKN","OVC",NA,NA,2000,2700,NA,NA,NA,NA,NA,NA,NA,NA,NA,NA,"LFBH 061800Z AUTO 23009KT 9999 BKN020 OVC027 12/10 Q1019 TEMPO 23015G25KT OVC010"
"2085","LFBH",2019-12-06 18:30:00,-1.1931,46.1781,53.6,50,87.56,230,11,0,30.09,NA,6.21,NA,"FEW","BKN","OVC",NA,1900,3500,7000,NA,NA,NA,NA,NA,NA,NA,NA,NA,"LFBH 061830Z AUTO 23011KT 9999 FEW019 BKN035 OVC070 12/10 Q1019 TEMPO 23015G25KT OVC010"
"2086","LFBH",2019-12-06 19:00:00,-1.1931,46.1781,53.6,50,87.56,230,10,0,30.09,NA,6.21,NA,"FEW","OVC",NA,NA,1800,3200,NA,NA,NA,NA,NA,NA,NA,NA,NA,NA,"LFBH 061900Z AUTO 23010KT 9999 FEW018 OVC032 12/10 Q1019 TEMPO 23015G25KT OVC010"
"2087","LFBH",2019-12-06 19:30:00,-1.1931,46.1781,53.6,50,87.56,230,11,0,30.09,NA,6.21,NA,"FEW","BKN","OVC",NA,2600,3500,4700,NA,NA,NA,NA,NA,NA,NA,NA,NA,"LFBH 061930Z AUTO 23011KT 9999 FEW026 BKN035 OVC047 12/10 Q1019 TEMPO 23015G25KT OVC010"
"2088","LFBH",2019-12-06 20:00:00,-1.1931,46.1781,53.6,50,87.56,230,12,0,30.09,NA,6.21,NA,"BKN","BKN","OVC",NA,3300,4600,5600,NA,NA,NA,NA,NA,NA,NA,NA,NA,"LFBH 062000Z AUTO 23012KT 9999 BKN033 BKN046 OVC056 12/10 Q1019 TEMPO 23015G25KT OVC010"
"2089","LFBH",2019-12-06 20:30:00,-1.1931,46.1781,55.4,50,81.99,240,14,0,30.09,NA,6.21,NA,"BKN","BKN","OVC",NA,2300,2900,3500,NA,NA,NA,NA,NA,NA,NA,NA,NA,"LFBH 062030Z AUTO 24014KT 9999 BKN023 BKN029 OVC035 13/10 Q1019 TEMPO 23015G25KT 3000 -RADZ OVC005"
"2090","LFBH",2019-12-06 21:00:00,-1.1931,46.1781,55.4,50,81.99,250,12,0,30.09,NA,6.21,NA,"BKN","OVC",NA,NA,1700,2600,NA,NA,NA,NA,NA,NA,NA,NA,NA,NA,"LFBH 062100Z AUTO 25012KT 9999 BKN017 OVC026 13/10 Q1019 TEMPO 23015G25KT 3000 -RADZ OVC005"
"2091","LFBH",2019-12-06 21:30:00,-1.1931,46.1781,53.6,51.8,93.6,260,12,0,30.09,NA,2.36,NA,"BKN","OVC",NA,NA,700,1300,NA,NA,"-DZ BR",NA,NA,NA,NA,NA,NA,NA,"LFBH 062130Z AUTO 26012KT 3800 -DZ BR BKN007 OVC013 12/11 Q1019 NOSIG"
"2092","LFBH",2019-12-06 22:00:00,-1.1931,46.1781,53.6,51.8,93.6,260,11,0,30.12,NA,2.36,NA,"OVC",NA,NA,NA,300,NA,NA,NA,"-DZ BR",NA,NA,NA,NA,NA,NA,NA,"LFBH 062200Z AUTO 26011KT 3800 -DZ BR OVC003 12/11 Q1020 TEMPO OVC005"
"2093","LFBH",2019-12-06 22:30:00,-1.1931,46.1781,53.6,51.8,93.6,250,10,0,30.09,NA,2.86,NA,"OVC",NA,NA,NA,300,NA,NA,NA,"-RADZ BR",NA,NA,NA,NA,NA,NA,NA,"LFBH 062230Z AUTO 25010KT 4600 -RADZ BR OVC003 12/11 Q1019 TEMPO OVC005"
"2094","LFBH",2019-12-06 23:00:00,-1.1931,46.1781,53.6,51.8,93.6,240,11,0,30.12,NA,4.35,NA,"OVC",NA,NA,NA,200,NA,NA,NA,NA,NA,NA,NA,NA,NA,NA,NA,"LFBH 062300Z AUTO 24011KT 7000 OVC002 12/11 Q1020 TEMPO 3000 -RADZ"
"2095","LFBH",2019-12-06 23:30:00,-1.1931,46.1781,53.6,51.8,93.6,240,12,0,30.12,NA,6.21,NA,"OVC",NA,NA,NA,300,NA,NA,NA,NA,NA,NA,NA,NA,NA,NA,NA,"LFBH 062330Z AUTO 24012KT 9999 OVC003 12/11 Q1020 BECMG BKN030"
"2096","LFOV",2019-12-06 00:00:00,-0.743,48.0314,32,32,100,190,7,0,30.18,NA,0.28,NA,"VV ",NA,NA,NA,NA,NA,NA,NA,"FG",NA,NA,NA,NA,NA,NA,24.78,"LFOV 060000Z AUTO 19007KT 0450 FG VV/// 00/00 Q1022"
"2097","LFOV",2019-12-06 00:30:00,-0.743,48.0314,32,32,100,190,6,0,30.18,NA,0.28,NA,"VV ",NA,NA,NA,NA,NA,NA,NA,"FG",NA,NA,NA,NA,NA,NA,25.53,"LFOV 060030Z AUTO 19006KT 160V220 0450 FG VV/// 00/00 Q1022"
"2098","LFOV",2019-12-06 01:00:00,-0.743,48.0314,32,32,100,180,5,0,30.15,NA,0.28,NA,"VV ",NA,NA,NA,NA,NA,NA,NA,"FG",NA,NA,NA,NA,NA,NA,26.4,"LFOV 060100Z AUTO 18005KT 0450 FG VV/// 00/00 Q1021"
"2099","LFOV",2019-12-06 01:30:00,-0.743,48.0314,33.8,33.8,100,180,5,0,30.15,NA,0.31,NA,"VV ",NA,NA,NA,NA,NA,NA,NA,"FG",NA,NA,NA,NA,NA,NA,28.53,"LFOV 060130Z AUTO 18005KT 0500 FG VV/// 01/01 Q1021"
"2100","LFOV",2019-12-06 02:00:00,-0.743,48.0314,33.8,33.8,100,180,5,0,30.15,NA,0.31,NA,"VV ",NA,NA,NA,NA,NA,NA,NA,"FG",NA,NA,NA,NA,NA,NA,28.53,"LFOV 060200Z AUTO 18005KT 0500 FG VV/// 01/01 Q1021"
"2101","LFOV",2019-12-06 02:30:00,-0.743,48.0314,33.8,33.8,100,180,5,0,30.15,NA,0.28,NA,"VV ",NA,NA,NA,NA,NA,NA,NA,"FG",NA,NA,NA,NA,NA,NA,28.53,"LFOV 060230Z AUTO 18005KT 0450 FG VV/// 01/01 Q1021"
"2102","LFOV",2019-12-06 03:00:00,-0.743,48.0314,33.8,33.8,100,190,7,0,30.12,NA,0.37,NA,"VV ",NA,NA,NA,NA,NA,NA,NA,"FG",NA,NA,NA,NA,NA,NA,26.97,"LFOV 060300Z AUTO 19007KT 0600 FG VV/// 01/01 Q1020"
"2103","LFOV",2019-12-06 03:30:00,-0.743,48.0314,33.8,33.8,100,180,6,0,30.12,NA,0.34,NA,"VV ",NA,NA,NA,NA,NA,NA,NA,"FG",NA,NA,NA,NA,NA,NA,27.7,"LFOV 060330Z AUTO 18006KT 0550 FG VV/// 01/01 Q1020"
"2104","LFOV",2019-12-06 04:00:00,-0.743,48.0314,33.8,33.8,100,190,6,0,30.12,NA,0.47,NA,"VV ","///",NA,NA,NA,NA,NA,NA,"FG",NA,NA,NA,NA,NA,NA,27.7,"LFOV 060400Z AUTO 19006KT 0750 0700 FG VV/// ///TCU 01/01 Q1020"
"2105","LFOV",2019-12-06 04:30:00,-0.743,48.0314,33.8,33.8,100,190,5,0,30.12,NA,0.56,NA,"VV ",NA,NA,NA,NA,NA,NA,NA,"FG",NA,NA,NA,NA,NA,NA,28.53,"LFOV 060430Z AUTO 19005KT 0900 FG VV/// 01/01 Q1020"
"2106","LFOV",2019-12-06 05:00:00,-0.743,48.0314,33.8,33.8,100,190,6,0,30.09,NA,0.56,NA,"VV ","///",NA,NA,NA,NA,NA,NA,"FG",NA,NA,NA,NA,NA,NA,27.7,"LFOV 060500Z AUTO 19006KT 0900 0800 FG VV/// ///TCU 01/01 Q1019"
"2107","LFOV",2019-12-06 05:30:00,-0.743,48.0314,33.8,33.8,100,200,7,0,30.09,NA,1.3,NA,"VV ","///",NA,NA,NA,NA,NA,NA,"BR",NA,NA,NA,NA,NA,NA,26.97,"LFOV 060530Z AUTO 20007KT 2100 BR VV/// ///TCU 01/01 Q1019"
"2108","LFOV",2019-12-06 06:00:00,-0.743,48.0314,35.6,35.6,100,180,10,0,30.09,NA,1.3,NA,"OVC","///",NA,NA,200,NA,NA,NA,"-SNRA BR",NA,NA,NA,NA,NA,NA,27.48,"LFOV 060600Z AUTO 18010KT 2100 -SNRA BR OVC002/// ///CB 02/02 Q1019"
"2109","LFOV",2019-12-06 06:30:00,-0.743,48.0314,35.6,35.6,100,190,10,0,30.09,NA,1.8,NA,"OVC","///",NA,NA,200,NA,NA,NA,"BR",NA,NA,NA,NA,NA,NA,27.48,"LFOV 060630Z AUTO 19010KT 2900 BR OVC002/// ///TCU 02/02 Q1019"
"2110","LFOV",2019-12-06 07:00:00,-0.743,48.0314,35.6,35.6,100,200,10,0,30.09,NA,1.62,NA,"OVC","///",NA,NA,200,NA,NA,NA,"BR",NA,NA,NA,NA,NA,NA,27.48,"LFOV 060700Z AUTO 20010KT 2600 BR OVC002/// ///CB 02/02 Q1019"
"2111","LFOV",2019-12-06 07:30:00,-0.743,48.0314,37.4,37.4,100,200,9,0,30.09,NA,1.55,NA,"OVC","///",NA,NA,200,NA,NA,NA,"BR",NA,NA,NA,NA,NA,NA,30.23,"LFOV 060730Z AUTO 20009KT 2500 BR OVC002/// ///TCU 03/03 Q1019"
"2112","LFOV",2019-12-06 08:00:00,-0.743,48.0314,37.4,37.4,100,200,8,0,30.09,NA,1.18,NA,"OVC",NA,NA,NA,200,NA,NA,NA,"BR",NA,NA,NA,NA,NA,NA,30.76,"LFOV 060800Z AUTO 20008KT 1900 BR OVC002 03/03 Q1019"
"2113","LFOV",2019-12-06 08:30:00,-0.743,48.0314,39.2,39.2,100,200,9,0,30.09,NA,1.12,NA,"OVC","///",NA,NA,300,NA,NA,NA,"BR",NA,NA,NA,NA,NA,NA,32.47,"LFOV 060830Z AUTO 20009KT 1800 BR OVC003/// ///TCU 04/04 Q1019"
"2114","LFOV",2019-12-06 09:00:00,-0.743,48.0314,39.2,39.2,100,200,10,0,30.09,NA,1.37,NA,"OVC","///",NA,NA,300,NA,NA,NA,"-RA BR",NA,NA,NA,NA,NA,NA,32,"LFOV 060900Z AUTO 20010KT 2200 -RA BR OVC003/// ///TCU 04/04 Q1019"
"2115","LFOV",2019-12-06 09:30:00,-0.743,48.0314,41,41,100,200,10,0,30.09,NA,1.3,NA,"OVC","///",NA,NA,400,NA,NA,NA,"-RA BR",NA,NA,NA,NA,NA,NA,34.25,"LFOV 060930Z AUTO 20010KT 2100 -RA BR OVC004/// ///CB 05/05 Q1019"
"2116","LFOV",2019-12-06 10:00:00,-0.743,48.0314,41,41,100,200,10,0,30.09,NA,1.3,NA,"OVC","///",NA,NA,400,NA,NA,NA,"-RA BR",NA,NA,NA,NA,NA,NA,34.25,"LFOV 061000Z AUTO 20010KT 2100 -RA BR OVC004/// ///CB 05/05 Q1019"
"2117","LFOV",2019-12-06 10:30:00,-0.743,48.0314,42.8,42.8,100,200,9,0,30.06,NA,1.55,NA,"OVC","///",NA,NA,400,NA,NA,NA,"-RA BR",NA,NA,NA,NA,NA,NA,36.94,"LFOV 061030Z AUTO 20009KT 2500 -RA BR OVC004/// ///TCU 06/06 Q1018"
"2118","LFOV",2019-12-06 11:00:00,-0.743,48.0314,42.8,42.8,100,200,9,0,30.06,NA,1.74,NA,"OVC","///",NA,NA,400,NA,NA,NA,"-RA BR",NA,NA,NA,NA,NA,NA,36.94,"LFOV 061100Z AUTO 20009KT 2800 -RA BR OVC004/// ///CB 06/06 Q1018"
"2119","LFOV",2019-12-06 11:30:00,-0.743,48.0314,44.6,44.6,100,210,10,0,30.03,NA,2.24,NA,"OVC","///",NA,NA,400,NA,NA,NA,"-RA BR",NA,NA,NA,NA,NA,NA,38.77,"LFOV 061130Z AUTO 21010KT 3600 -RA BR OVC004/// ///CB 07/07 Q1017"
"2120","LFOV",2019-12-06 12:00:00,-0.743,48.0314,44.6,44.6,100,210,10,0,30,NA,2.73,NA,"OVC","///",NA,NA,500,NA,NA,NA,"-RA BR",NA,NA,NA,NA,NA,NA,38.77,"LFOV 061200Z AUTO 21010KT 180V240 4400 -RA BR OVC005/// ///TCU 07/07 Q1016"
"2121","LFOV",2019-12-06 12:30:00,-0.743,48.0314,46.4,46.4,100,210,12,0,30,NA,3.73,NA,"BKN","OVC","///",NA,500,1500,NA,NA,NA,NA,NA,NA,NA,NA,NA,40.33,"LFOV 061230Z AUTO 21012KT 6000 BKN005/// OVC015/// ///CB 08/08 Q1016"
"2122","LFOV",2019-12-06 13:00:00,-0.743,48.0314,46.4,46.4,100,210,11,0,29.97,NA,4.35,NA,"BKN","OVC",NA,NA,500,1900,NA,NA,NA,NA,NA,NA,NA,NA,NA,40.66,"LFOV 061300Z AUTO 21011KT 7000 BKN005 OVC019 08/08 Q1015"
"2123","LFOV",2019-12-06 13:30:00,-0.743,48.0314,48.2,46.4,93.45,210,12,0,29.97,NA,6.21,NA,"BKN","BKN",NA,NA,700,1900,NA,NA,NA,NA,NA,NA,NA,NA,NA,42.62,"LFOV 061330Z AUTO 21012KT 9999 BKN007 BKN019 09/08 Q1015"
"2124","LFOV",2019-12-06 14:00:00,-0.743,48.0314,50,48.2,93.5,210,13,0,29.94,NA,6.21,NA,"SCT","OVC",NA,NA,800,1500,NA,NA,NA,NA,NA,NA,NA,NA,NA,44.63,"LFOV 061400Z AUTO 21013KT 9999 SCT008 OVC015 10/09 Q1014"
"2125","LFOV",2019-12-06 14:30:00,-0.743,48.0314,50,48.2,93.5,210,11,0,29.94,NA,4.97,NA,"BKN","OVC",NA,NA,1100,1700,NA,NA,NA,NA,NA,NA,NA,NA,NA,45.21,"LFOV 061430Z AUTO 21011KT 190V250 8000 BKN011 OVC017 10/09 Q1014"
"2126","LFOV",2019-12-06 15:00:00,-0.743,48.0314,50,48.2,93.5,210,10,0,29.94,NA,3.73,NA,"BKN","OVC",NA,NA,900,1400,NA,NA,"-RADZ",NA,NA,NA,NA,NA,NA,45.54,"LFOV 061500Z AUTO 21010KT 6000 -RADZ BKN009 OVC014 10/09 Q1014"
"2127","LFOV",2019-12-06 15:30:00,-0.743,48.0314,50,48.2,93.5,220,11,0,29.94,NA,2.24,NA,"SCT","OVC",NA,NA,1000,1500,NA,NA,"-RA BR",NA,NA,NA,NA,NA,NA,45.21,"LFOV 061530Z AUTO 22011KT 3600 -RA BR SCT010 OVC015 10/09 Q1014"
"2128","LFOV",2019-12-06 16:00:00,-0.743,48.0314,50,48.2,93.5,210,12,0,29.94,NA,6.21,NA,"BKN","BKN","BKN",NA,800,1200,4300,NA,"-RA",NA,NA,NA,NA,NA,NA,44.91,"LFOV 061600Z AUTO 21012KT 9999 -RA BKN008 BKN012 BKN043 10/09 Q1014"
"2129","LFOV",2019-12-06 16:30:00,-0.743,48.0314,50,48.2,93.5,220,11,0,29.94,NA,6.21,NA,"OVC",NA,NA,NA,800,NA,NA,NA,NA,NA,NA,NA,NA,NA,NA,45.21,"LFOV 061630Z AUTO 22011KT 190V260 9999 OVC008 10/09 Q1014"
"2130","LFOV",2019-12-06 17:00:00,-0.743,48.0314,50,50,100,220,13,0,29.94,NA,6.21,23,"OVC",NA,NA,NA,700,NA,NA,NA,NA,NA,NA,NA,NA,NA,NA,44.63,"LFOV 061700Z AUTO 22013G23KT 190V260 9999 OVC007 10/10 Q1014"
"2131","LFOV",2019-12-06 17:30:00,-0.743,48.0314,50,50,100,220,14,0,29.94,NA,3.11,NA,"OVC",NA,NA,NA,600,NA,NA,NA,"-DZ BR",NA,NA,NA,NA,NA,NA,44.36,"LFOV 061730Z AUTO 22014KT 190V250 5000 -DZ BR OVC006 10/10 Q1014"
"2132","LFOV",2019-12-06 18:00:00,-0.743,48.0314,50,50,100,230,11,0,29.94,NA,4.35,NA,"OVC",NA,NA,NA,500,NA,NA,NA,"-RADZ",NA,NA,NA,NA,NA,NA,45.21,"LFOV 061800Z AUTO 23011KT 200V270 7000 -RADZ OVC005 10/10 Q1014"
"2133","LFOV",2019-12-06 18:30:00,-0.743,48.0314,50,50,100,230,12,0,29.94,NA,2.92,NA,"OVC",NA,NA,NA,500,NA,NA,NA,"+RADZ BR",NA,NA,NA,NA,NA,NA,44.91,"LFOV 061830Z AUTO 23012KT 200V260 4700 +RADZ BR OVC005 10/10 Q1014"
"2134","LFOV",2019-12-06 19:00:00,-0.743,48.0314,51.8,51.8,100,260,9,0,29.97,NA,3.11,NA,"OVC",NA,NA,NA,500,NA,NA,NA,"+RA BR",NA,NA,NA,NA,NA,NA,NA,"LFOV 061900Z AUTO 26009KT 230V300 5000 +RA BR OVC005 11/11 Q1015"
"2135","LFOV",2019-12-06 19:30:00,-0.743,48.0314,51.8,50,93.55,240,8,0,29.94,NA,6.21,NA,"SCT","SCT","OVC",NA,700,1300,3700,NA,NA,NA,NA,NA,NA,NA,NA,NA,"LFOV 061930Z AUTO 24008KT 9999 SCT007 SCT013 OVC037 11/10 Q1014"
"2136","LFOV",2019-12-06 20:00:00,-0.743,48.0314,51.8,50,93.55,230,8,0,29.94,NA,6.21,NA,"BKN","BKN",NA,NA,800,4900,NA,NA,NA,NA,NA,NA,NA,NA,NA,NA,"LFOV 062000Z AUTO 23008KT 9999 BKN008 BKN049 11/10 Q1014"
"2137","LFOV",2019-12-06 20:30:00,-0.743,48.0314,50,50,100,240,7,0,29.97,NA,6.21,NA,"SCT","OVC",NA,NA,3800,4800,NA,NA,NA,NA,NA,NA,NA,NA,NA,46.72,"LFOV 062030Z AUTO 24007KT 9999 SCT038 OVC048 10/10 Q1015"
"2138","LFOV",2019-12-06 21:00:00,-0.743,48.0314,51.8,50,93.55,230,6,0,29.97,NA,6.21,NA,"FEW","OVC",NA,NA,1100,4800,NA,NA,NA,NA,NA,NA,NA,NA,NA,NA,"LFOV 062100Z AUTO 23006KT 9999 FEW011 OVC048 11/10 Q1015"
"2139","LFOV",2019-12-06 21:30:00,-0.743,48.0314,51.8,50,93.55,230,10,0,29.97,NA,6.21,NA,"FEW","BKN","OVC",NA,1000,4200,4900,NA,NA,NA,NA,NA,NA,NA,NA,NA,"LFOV 062130Z AUTO 23010KT 210V270 9999 FEW010 BKN042 OVC049 11/10 Q1015"
"2140","LFOV",2019-12-06 22:00:00,-0.743,48.0314,50,50,100,230,7,0,30,NA,6.21,NA,NA,NA,NA,NA,NA,NA,NA,NA,NA,NA,NA,NA,NA,NA,NA,46.72,"LFOV 062200Z AUTO 23007KT CAVOK 10/10 Q1016"
"2141","LFOV",2019-12-06 22:30:00,-0.743,48.0314,50,50,100,230,5,0,30,NA,6.21,NA,"OVC",NA,NA,NA,4400,NA,NA,NA,NA,NA,NA,NA,NA,NA,NA,47.77,"LFOV 062230Z AUTO 23005KT 9999 OVC044 10/10 Q1016"
"2142","LFOV",2019-12-06 23:00:00,-0.743,48.0314,50,50,100,220,6,0,30,NA,6.21,NA,"FEW","SCT","BKN",NA,2600,3200,4600,NA,NA,NA,NA,NA,NA,NA,NA,47.21,"LFOV 062300Z AUTO 22006KT 190V250 9999 FEW026 SCT032 BKN046 10/10 Q1016"
"2143","LFOV",2019-12-06 23:30:00,-0.743,48.0314,50,50,100,230,7,0,30,NA,6.21,NA,"FEW","SCT","BKN",NA,1100,3700,4300,NA,NA,NA,NA,NA,NA,NA,NA,46.72,"LFOV 062330Z AUTO 23007KT 190V270 9999 FEW011 SCT037 BKN043 10/10 Q1016"
"2144","LFOH",2019-12-06 00:00:00,0.0711,49.5089,42.8,39.2,86.99,220,12,0,30.06,NA,6.21,NA,NA,NA,NA,NA,NA,NA,NA,NA,NA,NA,NA,NA,NA,NA,NA,35.75,"LFOH 060000Z AUTO 22012KT CAVOK 06/04 Q1018"
"2145","LFOH",2019-12-06 00:30:00,0.0711,49.5089,44.6,39.2,81.2,220,15,0,30.06,NA,6.21,NA,NA,NA,NA,NA,NA,NA,NA,NA,NA,NA,NA,NA,NA,NA,NA,37.11,"LFOH 060030Z AUTO 22015KT CAVOK 07/04 Q1018"
"2146","LFOH",2019-12-06 01:00:00,0.0711,49.5089,42.8,39.2,86.99,220,14,0,30.03,NA,6.21,NA,NA,NA,NA,NA,NA,NA,NA,NA,NA,NA,NA,NA,NA,NA,NA,35.08,"LFOH 060100Z AUTO 22014KT CAVOK 06/04 Q1017"
"2147","LFOH",2019-12-06 01:30:00,0.0711,49.5089,42.8,39.2,86.99,220,14,0,30.03,NA,6.21,NA,NA,NA,NA,NA,NA,NA,NA,NA,NA,NA,NA,NA,NA,NA,NA,35.08,"LFOH 060130Z AUTO 22014KT CAVOK 06/04 Q1017"
"2148","LFOH",2019-12-06 02:00:00,0.0711,49.5089,42.8,41,93.3,220,13,0,30.03,NA,6.21,NA,"FEW","OVC",NA,NA,1000,6200,NA,NA,NA,NA,NA,NA,NA,NA,NA,35.4,"LFOH 060200Z AUTO 22013KT 9999 FEW010 OVC062 06/05 Q1017"
"2149","LFOH",2019-12-06 02:30:00,0.0711,49.5089,42.8,41,93.3,220,14,0,30.03,NA,6.21,NA,"SCT","OVC",NA,NA,3100,6200,NA,NA,NA,NA,NA,NA,NA,NA,NA,35.08,"LFOH 060230Z AUTO 22014KT 9999 SCT031 OVC062 06/05 Q1017"
"2150","LFOH",2019-12-06 03:00:00,0.0711,49.5089,42.8,41,93.3,220,14,0,30,NA,6.21,NA,"FEW","BKN","OVC",NA,2200,2900,3600,NA,NA,NA,NA,NA,NA,NA,NA,35.08,"LFOH 060300Z AUTO 22014KT 9999 FEW022 BKN029 OVC036 06/05 Q1016"
"2151","LFOH",2019-12-06 03:30:00,0.0711,49.5089,42.8,41,93.3,220,15,0,30,NA,6.21,NA,"SCT","BKN","BKN",NA,1700,3000,3600,NA,NA,NA,NA,NA,NA,NA,NA,34.78,"LFOH 060330Z AUTO 22015KT 9999 SCT017 BKN030 BKN036 06/05 Q1016"
"2152","LFOH",2019-12-06 04:00:00,0.0711,49.5089,42.8,41,93.3,210,13,0,30,NA,6.21,NA,"OVC","///",NA,NA,1600,NA,NA,NA,NA,NA,NA,NA,NA,NA,NA,35.4,"LFOH 060400Z AUTO 21013KT 9999 OVC016/// ///TCU 06/05 Q1016"
"2153","LFOH",2019-12-06 04:30:00,0.0711,49.5089,44.6,41,87.09,210,13,0,29.97,NA,3.73,NA,"SCT","BKN","BKN","///",1100,1600,3500,NA,"-RA",NA,NA,NA,NA,NA,NA,37.71,"LFOH 060430Z AUTO 21013KT 6000 -RA SCT011/// BKN016/// BKN035/// ///TCU 07/05 Q1015"
"2154","LFOH",2019-12-06 05:00:00,0.0711,49.5089,44.6,42.8,93.35,220,14,0,29.97,NA,4.35,NA,"OVC","///",NA,NA,1100,NA,NA,NA,"-RA",NA,NA,NA,NA,NA,NA,37.4,"LFOH 060500Z AUTO 22014KT 7000 -RA OVC011/// ///CB 07/06 Q1015"
"2155","LFOH",2019-12-06 05:30:00,0.0711,49.5089,44.6,42.8,93.35,220,14,0,29.97,NA,5.59,NA,"BKN","OVC","///",NA,800,1400,NA,NA,"DZ",NA,NA,NA,NA,NA,NA,37.4,"LFOH 060530Z AUTO 22014KT 9000 DZ BKN008/// OVC014/// ///TCU 07/06 Q1015"
"2156","LFOH",2019-12-06 06:00:00,0.0711,49.5089,42.8,42.8,100,220,14,0,29.97,NA,4.35,NA,"BKN","OVC","///",NA,700,1300,NA,NA,"-RA",NA,NA,NA,NA,NA,NA,35.08,"LFOH 060600Z AUTO 22014KT 7000 -RA BKN007/// OVC013/// ///TCU 06/06 Q1015 TEMPO 3000 DZRA OVC003 BECMG 21019G29KT"
"2157","LFOH",2019-12-06 06:30:00,0.0711,49.5089,44.6,42.8,93.35,210,14,0,29.97,NA,3.73,NA,"BKN","BKN","BKN","///",600,1300,3400,NA,"-RA",NA,NA,NA,NA,NA,NA,37.4,"LFOH 060630Z AUTO 21014KT 6000 -RA BKN006/// BKN013/// BKN034/// ///TCU 07/06 Q1015 TEMPO 3000 DZRA OVC003 BECMG 21019G29KT"
"2158","LFOH",2019-12-06 07:00:00,0.0711,49.5089,44.6,42.8,93.35,210,14,0,29.97,NA,4.35,NA,"BKN","OVC","///",NA,700,1600,NA,NA,"-RA",NA,NA,NA,NA,NA,NA,37.4,"LFOH 060700Z AUTO 21014KT 7000 -RA BKN007/// OVC016/// ///TCU 07/06 Q1015 TEMPO 3000 DZRA OVC003 BECMG 21019G29KT"
"2159","LFOH",2019-12-06 07:30:00,0.0711,49.5089,44.6,42.8,93.35,210,14,0,29.97,NA,3.73,NA,"BKN","OVC","///",NA,700,1400,NA,NA,"-RA",NA,NA,NA,NA,NA,NA,37.4,"LFOH 060730Z AUTO 21014KT 6000 -RA BKN007/// OVC014/// ///TCU 07/06 Q1015 TEMPO 3000 DZRA OVC003 BECMG 21019G29KT"
"2160","LFOH",2019-12-06 08:00:00,0.0711,49.5089,44.6,42.8,93.35,220,17,0,29.94,NA,6.21,NA,"SCT","OVC","///",NA,700,1300,NA,NA,NA,NA,NA,NA,NA,NA,NA,36.58,"LFOH 060800Z AUTO 22017KT 9999 SCT007/// OVC013/// ///TCU 07/06 Q1014 TEMPO 3000 DZRA OVC003 BECMG 21019G29KT"
"2161","LFOH",2019-12-06 08:30:00,0.0711,49.5089,44.6,42.8,93.35,210,16,0,29.94,NA,3.11,NA,"BKN","OVC","///",NA,800,1300,NA,NA,"-RA BR",NA,NA,NA,NA,NA,NA,36.84,"LFOH 060830Z AUTO 21016KT 5000 -RA BR BKN008/// OVC013/// ///CB 07/06 Q1014 TEMPO DZRA OVC003 BECMG 21019G29KT"
"2162","LFOH",2019-12-06 09:00:00,0.0711,49.5089,44.6,44.6,100,210,17,0,29.94,NA,3.11,NA,"BKN","OVC","///",NA,700,1100,NA,NA,"-RA BR",NA,NA,NA,NA,NA,NA,36.58,"LFOH 060900Z AUTO 21017KT 5000 -RA BR BKN007/// OVC011/// ///CB 07/07 Q1014 TEMPO DZRA OVC003 BECMG 21019G29KT"
"2163","LFOH",2019-12-06 09:30:00,0.0711,49.5089,46.4,44.6,93.4,210,16,0,29.94,NA,6.21,NA,"OVC","///",NA,NA,1100,NA,NA,NA,"-RADZ",NA,NA,NA,NA,NA,NA,39.19,"LFOH 060930Z AUTO 21016KT 9999 -RADZ OVC011/// ///TCU 08/07 Q1014 TEMPO 3000 DZRA OVC003 BECMG 21019G29KT"
"2164","LFOH",2019-12-06 10:00:00,0.0711,49.5089,46.4,44.6,93.4,210,16,0,29.91,NA,4.35,NA,"OVC","///",NA,NA,1000,NA,NA,NA,"-DZ",NA,NA,NA,NA,NA,NA,39.19,"LFOH 061000Z AUTO 21016KT 7000 -DZ OVC010/// ///TCU 08/07 Q1013 TEMPO 3000 DZRA OVC003 BECMG 21019G29KT"
"2165","LFOH",2019-12-06 10:30:00,0.0711,49.5089,46.4,44.6,93.4,210,15,0,29.91,NA,6.21,NA,"FEW","OVC","///",NA,600,1400,NA,NA,NA,NA,NA,NA,NA,NA,NA,39.45,"LFOH 061030Z AUTO 21015KT 9999 FEW006/// OVC014/// ///TCU 08/07 Q1013 TEMPO 3000 DZRA OVC003 BECMG 21019G29KT"
"2166","LFOH",2019-12-06 11:00:00,0.0711,49.5089,46.4,44.6,93.4,210,15,0,29.88,NA,6.21,NA,"OVC",NA,NA,NA,1200,NA,NA,NA,NA,NA,NA,NA,NA,NA,NA,39.45,"LFOH 061100Z AUTO 21015KT 9999 OVC012 08/07 Q1012 TEMPO 3000 DZRA OVC003 BECMG 21019G29KT"
"2167","LFOH",2019-12-06 11:30:00,0.0711,49.5089,48.2,46.4,93.45,210,17,0,29.88,NA,6.21,NA,"OVC",NA,NA,NA,1200,NA,NA,NA,NA,NA,NA,NA,NA,NA,NA,41.3,"LFOH 061130Z AUTO 21017KT 9999 OVC012 09/08 Q1012 TEMPO 3000 DZRA OVC004 BECMG 21020G30KT"
"2168","LFOH",2019-12-06 12:00:00,0.0711,49.5089,48.2,46.4,93.45,220,15,0,29.85,NA,6.21,NA,"OVC",NA,NA,NA,1200,NA,NA,NA,NA,NA,NA,NA,NA,NA,NA,41.78,"LFOH 061200Z AUTO 22015KT 9999 OVC012 09/08 Q1011 TEMPO 3000 DZRA OVC004 BECMG 21020G30KT"
"2169","LFOH",2019-12-06 12:30:00,0.0711,49.5089,48.2,46.4,93.45,210,17,0,29.85,NA,6.21,NA,"OVC",NA,NA,NA,1300,NA,NA,NA,NA,NA,NA,NA,NA,NA,NA,41.3,"LFOH 061230Z AUTO 21017KT 9999 OVC013 09/08 Q1011 TEMPO 3000 DZRA OVC004 BECMG 21020G30KT"
"2170","LFOH",2019-12-06 13:00:00,0.0711,49.5089,50,46.4,87.37,220,15,0,29.83,NA,6.21,NA,"OVC",NA,NA,NA,1200,NA,NA,NA,NA,NA,NA,NA,NA,NA,NA,44.12,"LFOH 061300Z AUTO 22015KT 9999 OVC012 10/08 Q1010 TEMPO 3000 DZRA OVC004 BECMG 21020G30KT"
"2171","LFOH",2019-12-06 13:30:00,0.0711,49.5089,50,46.4,87.37,220,17,0,29.83,NA,6.21,NA,"OVC",NA,NA,NA,1200,NA,NA,NA,NA,NA,NA,NA,NA,NA,NA,43.66,"LFOH 061330Z AUTO 22017KT 9999 OVC012 10/08 Q1010 TEMPO 3000 DZRA OVC004 BECMG 21020G30KT"
"2172","LFOH",2019-12-06 14:00:00,0.0711,49.5089,50,48.2,93.5,230,18,0,29.83,NA,4.35,NA,"OVC",NA,NA,NA,1200,NA,NA,NA,NA,NA,NA,NA,NA,NA,NA,43.44,"LFOH 061400Z AUTO 23018KT 7000 OVC012 10/09 Q1010 TEMPO 3000 DZRA OVC004 BECMG 21020G30KT"
"2173","LFOH",2019-12-06 14:30:00,0.0711,49.5089,50,48.2,93.5,220,15,0,29.8,NA,6.21,NA,"OVC",NA,NA,NA,1000,NA,NA,NA,NA,NA,NA,NA,NA,NA,NA,44.12,"LFOH 061430Z AUTO 22015KT 190V250 9999 OVC010 10/09 Q1009 TEMPO 3000 DZRA OVC004 BECMG 21020G30KT"
"2174","LFOH",2019-12-06 15:00:00,0.0711,49.5089,50,48.2,93.5,220,17,0,29.8,NA,6.21,NA,"OVC",NA,NA,NA,1000,NA,NA,NA,NA,NA,NA,NA,NA,NA,NA,43.66,"LFOH 061500Z AUTO 22017KT 9999 OVC010 10/09 Q1009 TEMPO 3000 DZRA OVC004 BECMG 21020G30KT"
"2175","LFOH",2019-12-06 15:30:00,0.0711,49.5089,50,48.2,93.5,220,17,0,29.8,NA,6.21,NA,"OVC",NA,NA,NA,1100,NA,NA,NA,NA,NA,NA,NA,NA,NA,NA,43.66,"LFOH 061530Z AUTO 22017KT 9999 OVC011 10/09 Q1009 TEMPO 3000 DZRA OVC004 BECMG 27020G33KT"
"2176","LFOH",2019-12-06 16:00:00,0.0711,49.5089,50,48.2,93.5,230,16,0,29.8,NA,6.21,NA,"OVC",NA,NA,NA,900,NA,NA,NA,NA,NA,NA,NA,NA,NA,NA,43.88,"LFOH 061600Z AUTO 23016KT 9999 OVC009 10/09 Q1009 TEMPO 3000 DZRA OVC004 BECMG 27020G33KT"
"2177","LFOH",2019-12-06 16:30:00,0.0711,49.5089,50,50,100,230,17,0,29.8,NA,4.35,27,"OVC",NA,NA,NA,700,NA,NA,NA,NA,NA,NA,NA,NA,NA,NA,43.66,"LFOH 061630Z AUTO 23017G27KT 7000 OVC007 10/10 Q1009 TEMPO 3000 DZRA BECMG SCT020"
"2178","LFOH",2019-12-06 17:00:00,0.0711,49.5089,50,50,100,230,14,0,29.8,NA,2.42,NA,"OVC",NA,NA,NA,300,NA,NA,NA,"DZ BR",NA,NA,NA,NA,NA,NA,44.36,"LFOH 061700Z AUTO 23014KT 3900 DZ BR OVC003 10/10 Q1009 BECMG 27020G33KT 9999 NSW SCT020"
"2179","LFOH",2019-12-06 17:30:00,0.0711,49.5089,51.8,50,93.55,250,17,0,29.8,NA,2.86,29,"OVC",NA,NA,NA,200,NA,NA,NA,"-RA BR",NA,NA,NA,NA,NA,NA,NA,"LFOH 061730Z AUTO 25017G29KT 4600 -RA BR OVC002 11/10 Q1009 BECMG 9999 NSW SCT020"
"2180","LFOH",2019-12-06 18:00:00,0.0711,49.5089,51.8,50,93.55,250,20,0,29.8,NA,6.21,NA,"BKN","BKN",NA,NA,300,4800,NA,NA,NA,NA,NA,NA,NA,NA,NA,NA,"LFOH 061800Z AUTO 25020KT 9999 BKN003 BKN048 11/10 Q1009 BECMG 27020G33KT SCT020"
"2181","LFOH",2019-12-06 18:30:00,0.0711,49.5089,51.8,50,93.55,250,22,0,29.83,NA,6.21,NA,"BKN","BKN","BKN",NA,1200,2800,4700,NA,NA,NA,NA,NA,NA,NA,NA,NA,"LFOH 061830Z AUTO 25022KT 9999 BKN012 BKN028 BKN047 11/10 Q1010 BECMG 26011KT SCT020"
"2182","LFOH",2019-12-06 19:00:00,0.0711,49.5089,51.8,50,93.55,260,18,0,29.83,NA,6.21,NA,"OVC",NA,NA,NA,900,NA,NA,NA,NA,NA,NA,NA,NA,NA,NA,NA,"LFOH 061900Z AUTO 26018KT 9999 OVC009 11/10 Q1010 TEMPO 27020G33KT BECMG SCT020"
"2183","LFOH",2019-12-06 19:30:00,0.0711,49.5089,51.8,48.2,87.47,260,20,0,29.83,NA,6.21,NA,"FEW","BKN","OVC",NA,1000,2600,3300,NA,NA,NA,NA,NA,NA,NA,NA,NA,"LFOH 061930Z AUTO 26020KT 9999 FEW010 BKN026 OVC033 11/09 Q1010 NOSIG"
"2184","LFOH",2019-12-06 20:00:00,0.0711,49.5089,51.8,48.2,87.47,260,17,0,29.85,NA,6.21,NA,"FEW","BKN","BKN",NA,1400,2000,3100,NA,NA,NA,NA,NA,NA,NA,NA,NA,"LFOH 062000Z AUTO 26017KT 9999 FEW014 BKN020 BKN031 11/09 Q1011"
"2185","LFOH",2019-12-06 20:30:00,0.0711,49.5089,51.8,50,93.55,260,17,0,29.85,NA,6.21,NA,"FEW","BKN","BKN",NA,1700,2300,3100,NA,NA,NA,NA,NA,NA,NA,NA,NA,"LFOH 062030Z AUTO 26017KT 9999 FEW017 BKN023 BKN031 11/10 Q1011"
"2186","LFOH",2019-12-06 21:00:00,0.0711,49.5089,51.8,48.2,87.47,260,16,0,29.88,NA,6.21,NA,"FEW","BKN","BKN",NA,1400,2100,3000,NA,NA,NA,NA,NA,NA,NA,NA,NA,"LFOH 062100Z AUTO 26016KT 9999 FEW014 BKN021 BKN030 11/09 Q1012"
"2187","LFOH",2019-12-06 21:30:00,0.0711,49.5089,51.8,48.2,87.47,270,16,0,29.88,NA,6.21,NA,"FEW","BKN","OVC",NA,1100,1900,5000,NA,NA,NA,NA,NA,NA,NA,NA,NA,"LFOH 062130Z AUTO 27016KT 9999 4900 FEW011 BKN019 OVC050 11/09 Q1012"
"2188","LFOH",2019-12-06 22:00:00,0.0711,49.5089,50,48.2,93.5,260,17,0,29.88,NA,6.21,NA,"FEW","BKN","BKN",NA,1200,1800,2600,NA,NA,NA,NA,NA,NA,NA,NA,43.66,"LFOH 062200Z AUTO 26017KT 9999 FEW012 BKN018 BKN026 10/09 Q1012"
"2189","LFOH",2019-12-06 22:30:00,0.0711,49.5089,50,48.2,93.5,270,15,0,29.88,NA,6.21,NA,"FEW","BKN","OVC",NA,1000,1700,4600,NA,NA,NA,NA,NA,NA,NA,NA,44.12,"LFOH 062230Z AUTO 27015KT 9999 FEW010 BKN017 OVC046 10/09 Q1012"
"2190","LFOH",2019-12-06 23:00:00,0.0711,49.5089,50,48.2,93.5,270,13,0,29.91,NA,6.21,NA,"FEW","BKN","BKN",NA,1100,1700,3800,NA,NA,NA,NA,NA,NA,NA,NA,44.63,"LFOH 062300Z AUTO 27013KT 9999 FEW011 BKN017 BKN038 10/09 Q1013"
"2191","LFOH",2019-12-06 23:30:00,0.0711,49.5089,50,48.2,93.5,270,13,0,29.91,NA,6.21,NA,"BKN","BKN","OVC",NA,1500,2000,24000,NA,NA,NA,NA,NA,NA,NA,NA,44.63,"LFOH 062330Z AUTO 27013KT 9999 BKN015 BKN020 OVC240 10/09 Q1013"
"2192","LFMC",2019-12-06 00:00:00,6.3864,43.3831,48.2,44.6,87.28,0,0,0,30.21,NA,6.21,NA,"///",NA,NA,NA,NA,NA,NA,NA,NA,NA,NA,NA,NA,NA,NA,NA,"LFMC 060000Z AUTO 00000KT 9999 ///TCU 09/07 Q1023"
"2193","LFMC",2019-12-06 00:30:00,6.3864,43.3831,48.2,44.6,87.28,NA,2,0,30.21,NA,6.21,NA,"SCT","BKN",NA,NA,3700,4700,NA,NA,NA,NA,NA,NA,NA,NA,NA,NA,"LFMC 060030Z AUTO VRB02KT 9999 SCT037 BKN047 09/07 Q1023"
"2194","LFMC",2019-12-06 01:00:00,6.3864,43.3831,48.2,46.4,93.45,0,0,0,30.21,NA,6.21,NA,NA,NA,NA,NA,NA,NA,NA,NA,NA,NA,NA,NA,NA,NA,NA,NA,"LFMC 060100Z AUTO 00000KT 9999 ////// 09/08 Q1023"
"2195","LFMC",2019-12-06 01:30:00,6.3864,43.3831,48.2,46.4,93.45,0,0,0,30.21,NA,6.21,NA,NA,NA,NA,NA,NA,NA,NA,NA,NA,NA,NA,NA,NA,NA,NA,NA,"LFMC 060130Z AUTO 00000KT 9999 ////// 09/08 Q1023"
"2196","LFMC",2019-12-06 02:00:00,6.3864,43.3831,48.2,46.4,93.45,0,0,0,30.21,NA,6.21,NA,NA,NA,NA,NA,NA,NA,NA,NA,NA,NA,NA,NA,NA,NA,NA,NA,"LFMC 060200Z AUTO 00000KT 9999 ////// 09/08 Q1023"
"2197","LFMC",2019-12-06 02:30:00,6.3864,43.3831,48.2,44.6,87.28,0,0,0,30.21,NA,6.21,NA,NA,NA,NA,NA,NA,NA,NA,NA,NA,NA,NA,NA,NA,NA,NA,NA,"LFMC 060230Z AUTO 00000KT 9999 ////// 09/07 Q1023"
"2198","LFMC",2019-12-06 03:00:00,6.3864,43.3831,48.2,46.4,93.45,0,0,0,30.21,NA,6.21,NA,NA,NA,NA,NA,NA,NA,NA,NA,NA,NA,NA,NA,NA,NA,NA,NA,"LFMC 060300Z AUTO 00000KT 9999 ////// 09/08 Q1023"
"2199","LFMC",2019-12-06 03:30:00,6.3864,43.3831,48.2,46.4,93.45,220,1,0,30.18,NA,6.21,NA,NA,NA,NA,NA,NA,NA,NA,NA,NA,NA,NA,NA,NA,NA,NA,NA,"LFMC 060330Z AUTO 22001KT 9999 ////// 09/08 Q1022"
"2200","LFMC",2019-12-06 04:00:00,6.3864,43.3831,48.2,44.6,87.28,0,0,0,30.18,NA,6.21,NA,NA,NA,NA,NA,NA,NA,NA,NA,NA,NA,NA,NA,NA,NA,NA,NA,"LFMC 060400Z AUTO 00000KT 9999 ////// 09/07 Q1022"
"2201","LFMC",2019-12-06 04:30:00,6.3864,43.3831,48.2,44.6,87.28,0,0,0,30.18,NA,6.21,NA,NA,NA,NA,NA,NA,NA,NA,NA,NA,NA,NA,NA,NA,NA,NA,NA,"LFMC 060430Z AUTO 00000KT 9999 ////// 09/07 Q1022"
"2202","LFMC",2019-12-06 05:00:00,6.3864,43.3831,46.4,44.6,93.4,0,0,0,30.18,NA,6.21,NA,NA,NA,NA,NA,NA,NA,NA,NA,NA,NA,NA,NA,NA,NA,NA,NA,"LFMC 060500Z AUTO 00000KT 9999 ////// 08/07 Q1022"
"2203","LFMC",2019-12-06 05:30:00,6.3864,43.3831,46.4,44.6,93.4,0,0,0,30.18,NA,6.21,NA,NA,NA,NA,NA,NA,NA,NA,NA,NA,NA,NA,NA,NA,NA,NA,NA,"LFMC 060530Z AUTO 00000KT 9999 ////// 08/07 Q1022"
"2204","LFMC",2019-12-06 06:00:00,6.3864,43.3831,46.4,44.6,93.4,0,0,0,30.18,NA,6.21,NA,NA,NA,NA,NA,NA,NA,NA,NA,NA,NA,NA,NA,NA,NA,NA,NA,"LFMC 060600Z AUTO 00000KT 9999 ////// 08/07 Q1022"
"2205","LFMC",2019-12-06 06:30:00,6.3864,43.3831,48.2,46.4,93.45,0,0,0,30.21,NA,6.21,NA,NA,NA,NA,NA,NA,NA,NA,NA,NA,NA,NA,NA,NA,NA,NA,NA,"LFMC 060630Z AUTO 00000KT 9999 ////// 09/08 Q1023"
"2206","LFMC",2019-12-06 07:00:00,6.3864,43.3831,46.4,44.6,93.4,0,0,0,30.21,NA,6.21,NA,NA,NA,NA,NA,NA,NA,NA,NA,NA,NA,NA,NA,NA,NA,NA,NA,"LFMC 060700Z AUTO 00000KT 9999 ////// 08/07 Q1023"
"2207","LFMC",2019-12-06 07:30:00,6.3864,43.3831,46.4,44.6,93.4,0,0,0,30.21,NA,6.21,NA,"BKN","BKN",NA,NA,2900,4200,NA,NA,NA,NA,NA,NA,NA,NA,NA,NA,"LFMC 060730Z AUTO 00000KT 9999 BKN029 BKN042 08/07 Q1023"
"2208","LFMC",2019-12-06 08:00:00,6.3864,43.3831,46.4,44.6,93.4,NA,3,0,30.21,NA,6.21,NA,NA,NA,NA,NA,NA,NA,NA,NA,NA,NA,NA,NA,NA,NA,NA,45.15,"LFMC 060800Z AUTO VRB03KT 9999 ////// 08/07 Q1023"
"2209","LFMC",2019-12-06 08:30:00,6.3864,43.3831,48.2,44.6,87.28,NA,2,0,30.21,NA,6.21,NA,NA,NA,NA,NA,NA,NA,NA,NA,NA,NA,NA,NA,NA,NA,NA,NA,"LFMC 060830Z AUTO VRB02KT 9999 ////// 09/07 Q1023"
"2210","LFMC",2019-12-06 09:00:00,6.3864,43.3831,50,46.4,87.37,240,1,0,30.21,NA,6.21,NA,NA,NA,NA,NA,NA,NA,NA,NA,NA,NA,NA,NA,NA,NA,NA,NA,"LFMC 060900Z AUTO 24001KT 9999 ////// 10/08 Q1023"
"2211","LFMC",2019-12-06 09:30:00,6.3864,43.3831,50,44.6,81.61,310,3,0,30.21,NA,6.21,NA,NA,NA,NA,NA,NA,NA,NA,NA,NA,NA,NA,NA,NA,NA,NA,49.27,"LFMC 060930Z AUTO 31003KT 9999 ////// 10/07 Q1023"
"2212","LFMC",2019-12-06 10:00:00,6.3864,43.3831,51.8,44.6,76.34,NA,2,0,30.24,NA,6.21,NA,NA,NA,NA,NA,NA,NA,NA,NA,NA,NA,NA,NA,NA,NA,NA,NA,"LFMC 061000Z AUTO VRB02KT 9999 ////// 11/07 Q1024"
"2213","LFMC",2019-12-06 10:30:00,6.3864,43.3831,53.6,46.4,76.5,NA,1,0,30.21,NA,6.21,NA,NA,NA,NA,NA,NA,NA,NA,NA,NA,NA,NA,NA,NA,NA,NA,NA,"LFMC 061030Z AUTO VRB01KT 9999 ////// 12/08 Q1023"
"2214","LFMC",2019-12-06 11:00:00,6.3864,43.3831,55.4,44.6,66.91,0,0,0,30.21,NA,6.21,NA,NA,NA,NA,NA,NA,NA,NA,NA,NA,NA,NA,NA,NA,NA,NA,NA,"LFMC 061100Z AUTO 00000KT 9999 ////// 13/07 Q1023"
"2215","LFMC",2019-12-06 11:30:00,6.3864,43.3831,59,46.4,62.92,NA,1,0,30.18,NA,6.21,NA,NA,NA,NA,NA,NA,NA,NA,NA,NA,NA,NA,NA,NA,NA,NA,NA,"LFMC 061130Z AUTO VRB01KT 9999 ////// 15/08 Q1022"
"2216","LFMC",2019-12-06 12:00:00,6.3864,43.3831,57.2,46.4,67.12,130,2,0,30.18,NA,6.21,NA,NA,NA,NA,NA,NA,NA,NA,NA,NA,NA,NA,NA,NA,NA,NA,NA,"LFMC 061200Z AUTO 13002KT 9999 ////// 14/08 Q1022"
"2217","LFMC",2019-12-06 12:30:00,6.3864,43.3831,57.2,44.6,62.69,NA,2,0,30.15,NA,6.21,NA,NA,NA,NA,NA,NA,NA,NA,NA,NA,NA,NA,NA,NA,NA,NA,NA,"LFMC 061230Z AUTO VRB02KT 9999 ////// 14/07 Q1021"
"2218","LFMC",2019-12-06 13:00:00,6.3864,43.3831,57.2,46.4,67.12,NA,2,0,30.15,NA,6.21,NA,NA,NA,NA,NA,NA,NA,NA,NA,NA,NA,NA,NA,NA,NA,NA,NA,"LFMC 061300Z AUTO VRB02KT 9999 ////// 14/08 Q1021"
"2219","LFMC",2019-12-06 13:30:00,6.3864,43.3831,57.2,44.6,62.69,NA,2,0,30.15,NA,6.21,NA,NA,NA,NA,NA,NA,NA,NA,NA,NA,NA,NA,NA,NA,NA,NA,NA,"LFMC 061330Z AUTO VRB02KT 9999 ////// 14/07 Q1021"
"2220","LFMC",2019-12-06 14:00:00,6.3864,43.3831,59,46.4,62.92,NA,2,0,30.15,NA,6.21,NA,NA,NA,NA,NA,NA,NA,NA,NA,NA,NA,NA,NA,NA,NA,NA,NA,"LFMC 061400Z AUTO VRB02KT 9999 ////// 15/08 Q1021"
"2221","LFMC",2019-12-06 14:30:00,6.3864,43.3831,59,46.4,62.92,NA,1,0,30.15,NA,6.21,NA,NA,NA,NA,NA,NA,NA,NA,NA,NA,NA,NA,NA,NA,NA,NA,NA,"LFMC 061430Z AUTO VRB01KT 9999 ////// 15/08 Q1021"
"2222","LFMC",2019-12-06 15:00:00,6.3864,43.3831,57.2,46.4,67.12,120,2,0,30.12,NA,6.21,NA,NA,NA,NA,NA,NA,NA,NA,NA,NA,NA,NA,NA,NA,NA,NA,NA,"LFMC 061500Z AUTO 12002KT 9999 ////// 14/08 Q1020"
"2223","LFMC",2019-12-06 15:30:00,6.3864,43.3831,57.2,46.4,67.12,0,0,0,30.12,NA,6.21,NA,NA,NA,NA,NA,NA,NA,NA,NA,NA,NA,NA,NA,NA,NA,NA,NA,"LFMC 061530Z AUTO 00000KT 9999 ////// 14/08 Q1020"
"2224","LFMC",2019-12-06 16:00:00,6.3864,43.3831,53.6,46.4,76.5,0,0,0,30.12,NA,6.21,NA,NA,NA,NA,NA,NA,NA,NA,NA,NA,NA,NA,NA,NA,NA,NA,NA,"LFMC 061600Z AUTO 00000KT 9999 ////// 12/08 Q1020"
"2225","LFMC",2019-12-06 16:30:00,6.3864,43.3831,50,46.4,87.37,0,0,0,30.12,NA,6.21,NA,NA,NA,NA,NA,NA,NA,NA,NA,NA,NA,NA,NA,NA,NA,NA,NA,"LFMC 061630Z AUTO 00000KT 9999 ////// 10/08 Q1020"
"2226","LFMC",2019-12-06 17:00:00,6.3864,43.3831,50,46.4,87.37,260,2,0,30.12,NA,6.21,NA,NA,NA,NA,NA,NA,NA,NA,NA,NA,NA,NA,NA,NA,NA,NA,NA,"LFMC 061700Z AUTO 26002KT 9999 ////// 10/08 Q1020"
"2227","LFMC",2019-12-06 17:30:00,6.3864,43.3831,48.2,44.6,87.28,0,0,0,30.12,NA,6.21,NA,NA,NA,NA,NA,NA,NA,NA,NA,NA,NA,NA,NA,NA,NA,NA,NA,"LFMC 061730Z AUTO 00000KT 9999 ////// 09/07 Q1020"
"2228","LFMC",2019-12-06 18:00:00,6.3864,43.3831,46.4,42.8,87.19,0,0,0,30.15,NA,6.21,NA,NA,NA,NA,NA,NA,NA,NA,NA,NA,NA,NA,NA,NA,NA,NA,NA,"LFMC 061800Z AUTO 00000KT 9999 ////// 08/06 Q1021"
"2229","LFMC",2019-12-06 18:30:00,6.3864,43.3831,46.4,44.6,93.4,0,0,0,30.15,NA,6.21,NA,NA,NA,NA,NA,NA,NA,NA,NA,NA,NA,NA,NA,NA,NA,NA,NA,"LFMC 061830Z AUTO 00000KT 9999 ////// 08/07 Q1021"
"2230","LFMC",2019-12-06 19:00:00,6.3864,43.3831,44.6,41,87.09,0,0,0,30.15,NA,6.21,NA,NA,NA,NA,NA,NA,NA,NA,NA,NA,NA,NA,NA,NA,NA,NA,NA,"LFMC 061900Z AUTO 00000KT 9999 ////// 07/05 Q1021"
"2231","LFMC",2019-12-06 19:30:00,6.3864,43.3831,42.8,41,93.3,NA,2,0,30.15,NA,6.21,NA,NA,NA,NA,NA,NA,NA,NA,NA,NA,NA,NA,NA,NA,NA,NA,NA,"LFMC 061930Z AUTO VRB02KT 9999 ////// 06/05 Q1021"
"2232","LFMC",2019-12-06 20:00:00,6.3864,43.3831,41,41,100,0,0,0,30.15,NA,6.21,NA,NA,NA,NA,NA,NA,NA,NA,NA,NA,NA,NA,NA,NA,NA,NA,NA,"LFMC 062000Z AUTO 00000KT 9999 ////// 05/05 Q1021"
"2233","LFMC",2019-12-06 20:30:00,6.3864,43.3831,42.8,41,93.3,270,2,0,30.15,NA,6.21,NA,NA,NA,NA,NA,NA,NA,NA,NA,NA,NA,NA,NA,NA,NA,NA,NA,"LFMC 062030Z AUTO 27002KT 9999 ////// 06/05 Q1021"
"2234","LFMC",2019-12-06 21:00:00,6.3864,43.3831,41,41,100,0,0,0,30.15,NA,6.21,NA,NA,NA,NA,NA,NA,NA,NA,NA,NA,NA,NA,NA,NA,NA,NA,NA,"LFMC 062100Z AUTO 00000KT 9999 ////// 05/05 Q1021"
"2235","LFMC",2019-12-06 21:30:00,6.3864,43.3831,42.8,42.8,100,NA,2,0,30.15,NA,6.21,NA,NA,NA,NA,NA,NA,NA,NA,NA,NA,NA,NA,NA,NA,NA,NA,NA,"LFMC 062130Z AUTO VRB02KT 9999 ////// 06/06 Q1021"
"2236","LFMC",2019-12-06 22:00:00,6.3864,43.3831,46.4,41,81.34,230,5,0,30.15,NA,6.21,NA,NA,NA,NA,NA,NA,NA,NA,NA,NA,NA,NA,NA,NA,NA,NA,43.5,"LFMC 062200Z AUTO 23005KT 170V270 9999 ////// 08/05 Q1021"
"2237","LFMC",2019-12-06 22:30:00,6.3864,43.3831,44.6,39.2,81.2,230,3,0,30.15,NA,6.21,NA,NA,NA,NA,NA,NA,NA,NA,NA,NA,NA,NA,NA,NA,NA,NA,43.09,"LFMC 062230Z AUTO 23003KT 200V300 9999 ////// 07/04 Q1021"
"2238","LFMC",2019-12-06 23:00:00,6.3864,43.3831,46.4,39.2,75.84,240,3,0,30.15,NA,6.21,NA,NA,NA,NA,NA,NA,NA,NA,NA,NA,NA,NA,NA,NA,NA,NA,45.15,"LFMC 062300Z AUTO 24003KT 200V280 9999 ////// 08/04 Q1021"
"2239","LFMC",2019-12-06 23:30:00,6.3864,43.3831,46.4,37.4,70.68,240,6,0,30.15,NA,6.21,NA,NA,NA,NA,NA,NA,NA,NA,NA,NA,NA,NA,NA,NA,NA,NA,42.87,"LFMC 062330Z AUTO 24006KT 210V270 9999 ////// 08/03 Q1021"
"2240","LFRM",2019-12-06 00:00:00,0.1939,47.9458,30.2,30.2,100,240,3,0,30.21,NA,0.47,NA,"VV ",NA,NA,NA,NA,NA,NA,NA,"FZFG",NA,NA,NA,NA,NA,NA,26.63,"LFRM 060000Z AUTO 24003KT 180V290 0750 FZFG VV/// M01/M01 Q1023"
"2241","LFRM",2019-12-06 00:30:00,0.1939,47.9458,30.2,30.2,100,210,3,0,30.21,NA,0.5,NA,"VV ",NA,NA,NA,NA,NA,NA,NA,"FZFG",NA,NA,NA,NA,NA,NA,26.63,"LFRM 060030Z AUTO 21003KT 160V270 0800 FZFG VV/// M01/M01 Q1023"
"2242","LFRM",2019-12-06 01:00:00,0.1939,47.9458,30.2,30.2,100,210,4,0,30.18,NA,0.5,NA,"VV ",NA,NA,NA,NA,NA,NA,NA,"FZFG",NA,NA,NA,NA,NA,NA,25.32,"LFRM 060100Z AUTO 21004KT 180V240 0800 0700 FZFG VV/// M01/M01 Q1022"
"2243","LFRM",2019-12-06 01:30:00,0.1939,47.9458,30.2,30.2,100,210,3,0,30.18,NA,0.5,NA,"VV ",NA,NA,NA,NA,NA,NA,NA,"FZFG",NA,NA,NA,NA,NA,NA,26.63,"LFRM 060130Z AUTO 21003KT 180V240 0800 FZFG VV/// M01/M01 Q1022"
"2244","LFRM",2019-12-06 02:00:00,0.1939,47.9458,30.2,30.2,100,190,4,0,30.18,NA,0.75,NA,"VV ",NA,NA,NA,NA,NA,NA,NA,"BR",NA,NA,NA,NA,NA,NA,25.32,"LFRM 060200Z AUTO 19004KT 160V230 1200 BR VV/// M01/M01 Q1022"
"2245","LFRM",2019-12-06 02:30:00,0.1939,47.9458,30.2,30.2,100,190,3,0,30.15,NA,1.12,NA,"VV ",NA,NA,NA,NA,NA,NA,NA,"BR",NA,NA,NA,NA,NA,NA,26.63,"LFRM 060230Z AUTO 19003KT 160V220 1800 BR VV/// M01/M01 Q1021"
"2246","LFRM",2019-12-06 03:00:00,0.1939,47.9458,30.2,30.2,100,200,4,0,30.15,NA,1.43,NA,"OVC",NA,NA,NA,200,NA,NA,NA,"BR",NA,NA,NA,NA,NA,NA,25.32,"LFRM 060300Z AUTO 20004KT 2300 BR OVC002 M01/M01 Q1021"
"2247","LFRM",2019-12-06 03:30:00,0.1939,47.9458,30.2,30.2,100,210,4,0,30.15,NA,1.06,NA,"VV ",NA,NA,NA,NA,NA,NA,NA,"BR",NA,NA,NA,NA,NA,NA,25.32,"LFRM 060330Z AUTO 21004KT 180V240 1700 BR VV/// M01/M01 Q1021"
"2248","LFRM",2019-12-06 04:00:00,0.1939,47.9458,30.2,30.2,100,190,4,0,30.15,NA,0.99,NA,"OVC",NA,NA,NA,200,NA,NA,NA,"BR",NA,NA,NA,NA,NA,NA,25.32,"LFRM 060400Z AUTO 19004KT 170V230 1600 BR OVC002 M01/M01 Q1021"
"2249","LFRM",2019-12-06 04:30:00,0.1939,47.9458,30.2,30.2,100,190,4,0,30.15,NA,1.55,NA,"OVC",NA,NA,NA,200,NA,NA,NA,"BR",NA,NA,NA,NA,NA,NA,25.32,"LFRM 060430Z AUTO 19004KT 160V220 2500 BR OVC002 M01/M01 Q1021"
"2250","LFRM",2019-12-06 05:00:00,0.1939,47.9458,30.2,30.2,100,200,5,0,30.15,NA,1.24,NA,"OVC",NA,NA,NA,200,NA,NA,NA,"BR",NA,NA,NA,NA,NA,NA,24.26,"LFRM 060500Z AUTO 20005KT 170V240 2000 BR OVC002 M01/M01 Q1021"
"2251","LFRM",2019-12-06 05:30:00,0.1939,47.9458,30.2,30.2,100,190,3,0,30.12,NA,1.55,NA,"OVC",NA,NA,NA,200,NA,NA,NA,"BR",NA,NA,NA,NA,NA,NA,26.63,"LFRM 060530Z AUTO 19003KT 160V230 2500 BR OVC002 M01/M01 Q1020"
"2252","LFRM",2019-12-06 06:00:00,0.1939,47.9458,32,32,100,190,3,0,30.12,NA,2.11,NA,"OVC",NA,NA,NA,200,NA,NA,NA,"BR",NA,NA,NA,NA,NA,NA,28.69,"LFRM 060600Z AUTO 19003KT 160V230 3400 BR OVC002 M00/M00 Q1020"
"2253","LFRM",2019-12-06 06:30:00,0.1939,47.9458,32,32,100,NA,3,0,30.12,NA,2.8,NA,"OVC",NA,NA,NA,200,NA,NA,NA,"BR",NA,NA,NA,NA,NA,NA,28.69,"LFRM 060630Z AUTO VRB03KT 4500 BR OVC002 M00/M00 Q1020"
"2254","LFRM",2019-12-06 07:00:00,0.1939,47.9458,32,32,100,NA,3,0,30.12,NA,2.36,NA,"OVC","///",NA,NA,300,NA,NA,NA,"BR",NA,NA,NA,NA,NA,NA,28.69,"LFRM 060700Z AUTO VRB03KT 3800 BR OVC003/// ///CB 00/00 Q1020"
"2255","LFRM",2019-12-06 07:30:00,0.1939,47.9458,32,32,100,NA,3,0,30.12,NA,2.49,NA,"OVC","///",NA,NA,300,NA,NA,NA,"BR",NA,NA,NA,NA,NA,NA,28.69,"LFRM 060730Z AUTO VRB03KT 4000 BR OVC003/// ///TCU 00/00 Q1020"
"2256","LFRM",2019-12-06 08:00:00,0.1939,47.9458,33.8,33.8,100,190,3,0,30.12,NA,2.05,NA,"OVC","///",NA,NA,300,NA,NA,NA,"BR",NA,NA,NA,NA,NA,NA,30.75,"LFRM 060800Z AUTO 19003KT 160V220 3300 BR OVC003/// ///TCU 01/01 Q1020 TEMPO RADZ BKN003"
"2257","LFRM",2019-12-06 08:30:00,0.1939,47.9458,33.8,33.8,100,NA,3,0,30.12,NA,1.8,NA,"OVC","///",NA,NA,400,NA,NA,NA,"-RA BR",NA,NA,NA,NA,NA,NA,30.75,"LFRM 060830Z AUTO VRB03KT 2900 -RA BR OVC004/// ///TCU 01/01 Q1020 TEMPO 3000 RADZ BKN003"
"2258","LFRM",2019-12-06 09:00:00,0.1939,47.9458,35.6,35.6,100,180,4,0,30.12,NA,1.86,NA,"OVC","///",NA,NA,400,NA,NA,NA,"BR",NA,NA,NA,NA,NA,NA,31.62,"LFRM 060900Z AUTO 18004KT 140V220 3000 BR OVC004/// ///TCU 02/02 Q1020 TEMPO RADZ BKN003"
"2259","LFRM",2019-12-06 09:30:00,0.1939,47.9458,35.6,35.6,100,190,5,0,30.12,NA,2.17,NA,"OVC",NA,NA,NA,400,NA,NA,NA,"BR",NA,NA,NA,NA,NA,NA,30.67,"LFRM 060930Z AUTO 19005KT 3500 BR OVC004 02/02 Q1020 TEMPO RADZ"
"2260","LFRM",2019-12-06 10:00:00,0.1939,47.9458,37.4,37.4,100,190,6,0,30.12,NA,2.8,NA,"OVC",NA,NA,NA,400,NA,NA,NA,"BR",NA,NA,NA,NA,NA,NA,32.03,"LFRM 061000Z AUTO 19006KT 160V220 4500 BR OVC004 03/03 Q1020 TEMPO RADZ"
"2261","LFRM",2019-12-06 10:30:00,0.1939,47.9458,39.2,39.2,100,190,5,0,30.09,NA,2.8,NA,"OVC","///",NA,NA,400,NA,NA,NA,"BR",NA,NA,NA,NA,NA,NA,34.95,"LFRM 061030Z AUTO 19005KT 160V220 4500 BR OVC004/// ///TCU 04/04 Q1019 TEMPO RADZ BKN003"
"2262","LFRM",2019-12-06 11:00:00,0.1939,47.9458,39.2,39.2,100,210,6,0,30.09,NA,3.11,NA,"OVC","///",NA,NA,600,NA,NA,NA,"-RADZ BR",NA,NA,NA,NA,NA,NA,34.2,"LFRM 061100Z AUTO 21006KT 170V240 5000 -RADZ BR OVC006/// ///CB 04/04 Q1019 TEMPO RADZ BKN003"
"2263","LFRM",2019-12-06 11:30:00,0.1939,47.9458,41,41,100,200,6,0,30.06,NA,2.61,NA,"OVC","///",NA,NA,600,NA,NA,NA,"-RA BR",NA,NA,NA,NA,NA,NA,36.37,"LFRM 061130Z AUTO 20006KT 4200 -RA BR OVC006/// ///CB 05/05 Q1018 TEMPO 24015G25KT RADZ BKN004"
"2264","LFRM",2019-12-06 12:00:00,0.1939,47.9458,42.8,42.8,100,200,5,0,30.06,NA,2.98,NA,"OVC","///",NA,NA,600,NA,NA,NA,"-DZ BR",NA,NA,NA,NA,NA,NA,39.22,"LFRM 061200Z AUTO 20005KT 4800 -DZ BR OVC006/// ///TCU 06/06 Q1018 TEMPO 24015G25KT RADZ BKN004"
"2265","LFRM",2019-12-06 12:30:00,0.1939,47.9458,44.6,44.6,100,200,7,0,30.03,NA,4.35,NA,"OVC","///",NA,NA,700,NA,NA,NA,NA,NA,NA,NA,NA,NA,NA,40.14,"LFRM 061230Z AUTO 20007KT 170V230 7000 OVC007/// ///CB 07/07 Q1017 TEMPO 24015G25KT 3000 RADZ BKN004"
"2266","LFRM",2019-12-06 13:00:00,0.1939,47.9458,46.4,44.6,93.4,210,8,0,30.03,NA,3.11,NA,"BKN","OVC","///",NA,700,1100,NA,NA,"-RA BR",NA,NA,NA,NA,NA,NA,41.85,"LFRM 061300Z AUTO 21008KT 180V250 5000 -RA BR BKN007/// OVC011/// ///TCU 08/07 Q1017 TEMPO 24015G25KT RADZ BKN004"
"2267","LFRM",2019-12-06 13:30:00,0.1939,47.9458,46.4,44.6,93.4,190,8,0,30,NA,3.73,NA,"OVC","///",NA,NA,700,NA,NA,NA,NA,NA,NA,NA,NA,NA,NA,41.85,"LFRM 061330Z AUTO 19008KT 6000 OVC007/// ///TCU 08/07 Q1016 TEMPO 24015G25KT 3000 RADZ BKN004"
"2268","LFRM",2019-12-06 14:00:00,0.1939,47.9458,46.4,46.4,100,200,10,0,29.97,NA,4.97,NA,"BKN","OVC",NA,NA,700,1200,NA,NA,NA,NA,NA,NA,NA,NA,NA,41.03,"LFRM 061400Z AUTO 20010KT 160V240 8000 BKN007 OVC012 08/08 Q1015 TEMPO 24015G25KT 3000 RADZ BKN004"
"2269","LFRM",2019-12-06 14:30:00,0.1939,47.9458,48.2,46.4,93.45,200,9,0,29.97,NA,5.59,NA,"BKN","OVC",NA,NA,700,1100,NA,NA,NA,NA,NA,NA,NA,NA,NA,43.66,"LFRM 061430Z AUTO 20009KT 170V250 9000 BKN007 OVC011 09/08 Q1015 TEMPO 24015G25KT 3000 RADZ BKN004"
"2270","LFRM",2019-12-06 15:00:00,0.1939,47.9458,48.2,46.4,93.45,210,8,0,29.97,NA,6.21,NA,"OVC",NA,NA,NA,800,NA,NA,NA,NA,NA,NA,NA,NA,NA,NA,44.07,"LFRM 061500Z AUTO 21008KT 170V240 9999 OVC008 09/08 Q1015 TEMPO 24015G25KT 3000 RADZ BKN004"
"2271","LFRM",2019-12-06 15:30:00,0.1939,47.9458,48.2,48.2,100,220,10,0,29.97,NA,6.21,NA,"OVC","///",NA,NA,900,NA,NA,NA,NA,NA,NA,NA,NA,NA,NA,43.28,"LFRM 061530Z AUTO 22010KT 190V250 9999 OVC009/// ///TCU 09/09 Q1015 TEMPO 24015G25KT 3000 RADZ BKN004"
"2272","LFRM",2019-12-06 16:00:00,0.1939,47.9458,50,48.2,93.5,210,9,0,29.97,NA,6.21,NA,"SCT","OVC","///",NA,1000,2000,NA,NA,NA,NA,NA,NA,NA,NA,NA,45.9,"LFRM 061600Z AUTO 21009KT 180V240 9999 SCT010/// OVC020/// ///TCU 10/09 Q1015 TEMPO 24015G25KT 3000 RADZ BKN004"
"2273","LFRM",2019-12-06 16:30:00,0.1939,47.9458,50,48.2,93.5,200,10,0,29.97,NA,6.21,NA,"SCT","OVC","///",NA,1600,2200,NA,NA,"-RADZ",NA,NA,NA,NA,NA,NA,45.54,"LFRM 061630Z AUTO 20010KT 170V230 9999 -RADZ SCT016/// OVC022/// ///TCU 10/09 Q1015 TEMPO 24015G25KT 3000 RADZ BKN004"
"2274","LFRM",2019-12-06 17:00:00,0.1939,47.9458,50,48.2,93.5,210,9,0,29.97,NA,6.21,NA,"OVC",NA,NA,NA,1300,NA,NA,NA,NA,NA,NA,NA,NA,NA,NA,45.9,"LFRM 061700Z AUTO 21009KT 180V240 9999 OVC013 10/09 Q1015 TEMPO 24015G25KT 3000 RADZ BKN004"
"2275","LFRM",2019-12-06 17:30:00,0.1939,47.9458,50,48.2,93.5,210,10,0,29.94,NA,3.73,NA,"BKN","OVC",NA,NA,1100,1600,NA,NA,NA,NA,NA,NA,NA,NA,NA,45.54,"LFRM 061730Z AUTO 21010KT 180V250 6000 BKN011 OVC016 10/09 Q1014 TEMPO 24015G25KT 3000 RADZ BKN004"
"2276","LFRM",2019-12-06 18:00:00,0.1939,47.9458,50,50,100,220,10,0,29.94,NA,3.73,NA,"OVC",NA,NA,NA,800,NA,NA,NA,"DZ",NA,NA,NA,NA,NA,NA,45.54,"LFRM 061800Z AUTO 22010KT 180V250 6000 DZ OVC008 10/10 Q1014 TEMPO 24015G25KT 3000 RADZ BKN004"
"2277","LFRM",2019-12-06 18:30:00,0.1939,47.9458,50,50,100,220,10,0,29.97,NA,3.11,NA,"OVC",NA,NA,NA,600,NA,NA,NA,"-DZ BR",NA,NA,NA,NA,NA,NA,45.54,"LFRM 061830Z AUTO 22010KT 180V250 5000 -DZ BR OVC006 10/10 Q1015 TEMPO 24015G25KT BECMG SCT010 BKN040"
"2278","LFRM",2019-12-06 19:00:00,0.1939,47.9458,50,50,100,210,9,0,29.97,NA,3.73,NA,"OVC",NA,NA,NA,600,NA,NA,NA,"-DZ",NA,NA,NA,NA,NA,NA,45.9,"LFRM 061900Z AUTO 21009KT 170V250 6000 -DZ OVC006 10/10 Q1015 TEMPO 24015G25KT 3000 RADZ BECMG SCT010 BKN040"
"2279","LFRM",2019-12-06 19:30:00,0.1939,47.9458,50,50,100,220,9,0,29.97,NA,2.86,NA,"OVC",NA,NA,NA,600,NA,NA,NA,"-DZ BR",NA,NA,NA,NA,NA,NA,45.9,"LFRM 061930Z AUTO 22009KT 190V260 4600 -DZ BR OVC006 10/10 Q1015"
"2280","LFRM",2019-12-06 20:00:00,0.1939,47.9458,50,50,100,230,9,0,29.97,NA,3.11,NA,"OVC",NA,NA,NA,600,NA,NA,NA,"-DZ BR",NA,NA,NA,NA,NA,NA,45.9,"LFRM 062000Z AUTO 23009KT 200V270 5000 -DZ BR OVC006 10/10 Q1015"
"2281","LFRM",2019-12-06 20:30:00,0.1939,47.9458,51.8,50,93.55,240,9,0,29.97,NA,5.59,NA,"BKN","BKN","OVC",NA,600,1000,1400,NA,NA,NA,NA,NA,NA,NA,NA,NA,"LFRM 062030Z AUTO 24009KT 210V280 9000 BKN006 BKN010 OVC014 11/10 Q1015"
"2282","LFRM",2019-12-06 21:00:00,0.1939,47.9458,50,50,100,240,7,0,29.97,NA,6.21,NA,"BKN","OVC",NA,NA,700,4900,NA,NA,NA,NA,NA,NA,NA,NA,NA,46.72,"LFRM 062100Z AUTO 24007KT 210V270 9999 BKN007 OVC049 10/10 Q1015"
"2283","LFRM",2019-12-06 21:30:00,0.1939,47.9458,50,50,100,230,5,0,30,NA,6.21,NA,"BKN","BKN","OVC",NA,800,1200,5400,NA,NA,NA,NA,NA,NA,NA,NA,47.77,"LFRM 062130Z AUTO 23005KT 200V260 9999 BKN008 BKN012 OVC054 10/10 Q1016"
"2284","LFRM",2019-12-06 22:00:00,0.1939,47.9458,50,50,100,230,6,0,30,NA,6.21,NA,"FEW","OVC",NA,NA,1000,5400,NA,NA,NA,NA,NA,NA,NA,NA,NA,47.21,"LFRM 062200Z AUTO 23006KT 190V260 9999 FEW010 OVC054 10/10 Q1016"
"2285","LFRM",2019-12-06 22:30:00,0.1939,47.9458,50,50,100,230,7,0,30,NA,6.21,NA,"FEW","SCT","OVC",NA,1000,4600,5400,NA,NA,NA,NA,NA,NA,NA,NA,46.72,"LFRM 062230Z AUTO 23007KT 190V260 9999 FEW010 SCT046 OVC054 10/10 Q1016"
"2286","LFRM",2019-12-06 23:00:00,0.1939,47.9458,50,50,100,240,6,0,30,NA,6.21,NA,NA,NA,NA,NA,NA,NA,NA,NA,NA,NA,NA,NA,NA,NA,NA,47.21,"LFRM 062300Z AUTO 24006KT 210V270 CAVOK 10/10 Q1016"
"2287","LFRM",2019-12-06 23:30:00,0.1939,47.9458,50,50,100,220,7,0,30,NA,6.21,NA,"FEW","OVC",NA,NA,1000,5200,NA,NA,NA,NA,NA,NA,NA,NA,NA,46.72,"LFRM 062330Z AUTO 22007KT 9999 FEW010 OVC052 10/10 Q1016"
"2288","LFHP",2019-12-06 07:00:00,3.7639,45.0744,24.8,23,92.74,0,0,0,30.18,NA,6.21,NA,NA,NA,NA,NA,NA,NA,NA,NA,NA,NA,NA,NA,NA,NA,NA,NA,"LFHP 060700Z AUTO 00000KT CAVOK M04/M05 Q1022"
"2289","LFHP",2019-12-06 07:30:00,3.7639,45.0744,24.8,23,92.74,250,2,0,30.18,NA,6.21,NA,NA,NA,NA,NA,NA,NA,NA,NA,NA,NA,NA,NA,NA,NA,NA,NA,"LFHP 060730Z AUTO 25002KT CAVOK M04/M05 Q1022"
"2290","LFHP",2019-12-06 08:00:00,3.7639,45.0744,28.4,24.8,86.18,NA,2,0,30.18,NA,6.21,NA,NA,NA,NA,NA,NA,NA,NA,NA,NA,NA,NA,NA,NA,NA,NA,NA,"LFHP 060800Z AUTO VRB02KT CAVOK M02/M04 Q1022"
"2291","LFHP",2019-12-06 08:30:00,3.7639,45.0744,33.8,30.2,86.49,0,0,0,30.21,NA,6.21,NA,NA,NA,NA,NA,NA,NA,NA,NA,NA,NA,NA,NA,NA,NA,NA,NA,"LFHP 060830Z AUTO 00000KT CAVOK 01/M01 Q1023"
"2292","LFHP",2019-12-06 09:00:00,3.7639,45.0744,35.6,30.2,80.51,NA,1,0,30.21,NA,6.21,NA,NA,NA,NA,NA,NA,NA,NA,NA,NA,NA,NA,NA,NA,NA,NA,NA,"LFHP 060900Z AUTO VRB01KT CAVOK 02/M01 Q1023"
"2293","LFHP",2019-12-06 09:30:00,3.7639,45.0744,37.4,32,80.65,0,0,0,30.21,NA,6.21,NA,NA,NA,NA,NA,NA,NA,NA,NA,NA,NA,NA,NA,NA,NA,NA,NA,"LFHP 060930Z AUTO 00000KT CAVOK 03/M00 Q1023"
"2294","LFHP",2019-12-06 10:00:00,3.7639,45.0744,39.2,30.2,69.88,0,0,0,30.21,NA,6.21,NA,NA,NA,NA,NA,NA,NA,NA,NA,NA,NA,NA,NA,NA,NA,NA,NA,"LFHP 061000Z AUTO 00000KT CAVOK 04/M01 Q1023"
"2295","LFHP",2019-12-06 10:30:00,3.7639,45.0744,39.2,30.2,69.88,340,2,0,30.21,NA,6.21,NA,NA,NA,NA,NA,NA,NA,NA,NA,NA,NA,NA,NA,NA,NA,NA,NA,"LFHP 061030Z AUTO 34002KT CAVOK 04/M01 Q1023"
"2296","LFHP",2019-12-06 11:00:00,3.7639,45.0744,44.6,32,61.03,0,0,0,30.18,NA,6.21,NA,NA,NA,NA,NA,NA,NA,NA,NA,NA,NA,NA,NA,NA,NA,NA,NA,"LFHP 061100Z AUTO 00000KT CAVOK 07/M00 Q1022"
"2297","LFHP",2019-12-06 11:30:00,3.7639,45.0744,46.4,33.8,61.28,NA,2,0,30.15,NA,6.21,NA,NA,NA,NA,NA,NA,NA,NA,NA,NA,NA,NA,NA,NA,NA,NA,NA,"LFHP 061130Z AUTO VRB02KT CAVOK 08/01 Q1021"
"2298","LFHP",2019-12-06 12:00:00,3.7639,45.0744,46.4,35.6,65.83,NA,2,0,30.15,NA,6.21,NA,NA,NA,NA,NA,NA,NA,NA,NA,NA,NA,NA,NA,NA,NA,NA,NA,"LFHP 061200Z AUTO VRB02KT CAVOK 08/02 Q1021"
"2299","LFHP",2019-12-06 12:30:00,3.7639,45.0744,48.2,35.6,61.52,0,0,0,30.15,NA,6.21,NA,NA,NA,NA,NA,NA,NA,NA,NA,NA,NA,NA,NA,NA,NA,NA,NA,"LFHP 061230Z AUTO 00000KT CAVOK 09/02 Q1021"
"2300","LFHP",2019-12-06 13:00:00,3.7639,45.0744,50,37.4,61.76,NA,2,0,30.12,NA,6.21,NA,NA,NA,NA,NA,NA,NA,NA,NA,NA,NA,NA,NA,NA,NA,NA,NA,"LFHP 061300Z AUTO VRB02KT CAVOK 10/03 Q1020"
"2301","LFHP",2019-12-06 13:30:00,3.7639,45.0744,51.8,37.4,57.77,NA,1,0,30.12,NA,6.21,NA,NA,NA,NA,NA,NA,NA,NA,NA,NA,NA,NA,NA,NA,NA,NA,NA,"LFHP 061330Z AUTO VRB01KT CAVOK 11/03 Q1020"
"2302","LFHP",2019-12-06 14:00:00,3.7639,45.0744,53.6,39.2,58.02,0,0,0,30.12,NA,6.21,NA,NA,NA,NA,NA,NA,NA,NA,NA,NA,NA,NA,NA,NA,NA,NA,NA,"LFHP 061400Z AUTO 00000KT CAVOK 12/04 Q1020"
"2303","LFHP",2019-12-06 14:30:00,3.7639,45.0744,53.6,35.6,50.36,NA,1,0,30.12,NA,6.21,NA,NA,NA,NA,NA,NA,NA,NA,NA,NA,NA,NA,NA,NA,NA,NA,NA,"LFHP 061430Z AUTO VRB01KT CAVOK 12/02 Q1020"
"2304","LFHP",2019-12-06 15:00:00,3.7639,45.0744,51.8,39.2,61.99,0,0,0,30.12,NA,6.21,NA,NA,NA,NA,NA,NA,NA,NA,NA,NA,NA,NA,NA,NA,NA,NA,NA,"LFHP 061500Z AUTO 00000KT CAVOK 11/04 Q1020"
"2305","LFHP",2019-12-06 15:30:00,3.7639,45.0744,51.8,32,46.59,240,3,0,30.09,NA,6.21,NA,NA,NA,NA,NA,NA,NA,NA,NA,NA,NA,NA,NA,NA,NA,NA,NA,"LFHP 061530Z AUTO 24003KT 210V270 CAVOK 11/00 Q1019"
"2306","LFHP",2019-12-06 16:00:00,3.7639,45.0744,42.8,32,65.38,NA,3,0,30.09,NA,6.21,NA,NA,NA,NA,NA,NA,NA,NA,NA,NA,NA,NA,NA,NA,NA,NA,41.03,"LFHP 061600Z AUTO VRB03KT CAVOK 06/00 Q1019"
"2307","LFHP",2019-12-06 16:30:00,3.7639,45.0744,39.2,32,75.16,240,3,0,30.09,NA,6.21,NA,NA,NA,NA,NA,NA,NA,NA,NA,NA,NA,NA,NA,NA,NA,NA,36.92,"LFHP 061630Z AUTO 24003KT CAVOK 04/00 Q1019"
"2308","LFHP",2019-12-06 17:00:00,3.7639,45.0744,42.8,32,65.38,250,5,0,30.12,NA,6.21,NA,NA,NA,NA,NA,NA,NA,NA,NA,NA,NA,NA,NA,NA,NA,NA,39.22,"LFHP 061700Z AUTO 25005KT CAVOK 06/00 Q1020"
"2309","LFHP",2019-12-06 17:30:00,3.7639,45.0744,39.2,32,75.16,260,4,0,30.12,NA,6.21,NA,NA,NA,NA,NA,NA,NA,NA,NA,NA,NA,NA,NA,NA,NA,NA,35.83,"LFHP 061730Z AUTO 26004KT CAVOK 04/00 Q1020"
"2310","LFHP",2019-12-06 18:00:00,3.7639,45.0744,41,33.8,75.33,260,4,0,30.12,NA,6.21,NA,NA,NA,NA,NA,NA,NA,NA,NA,NA,NA,NA,NA,NA,NA,NA,37.93,"LFHP 061800Z AUTO 26004KT 230V290 CAVOK 05/01 Q1020"
"2311","LFHP",2019-12-06 18:30:00,3.7639,45.0744,41,33.8,75.33,250,3,0,30.12,NA,6.21,NA,NA,NA,NA,NA,NA,NA,NA,NA,NA,NA,NA,NA,NA,NA,NA,38.98,"LFHP 061830Z AUTO 25003KT 210V310 CAVOK 05/01 Q1020"
"2312","LFHP",2019-12-06 19:00:00,3.7639,45.0744,41,33.8,75.33,0,0,0,30.12,NA,6.21,NA,NA,NA,NA,NA,NA,NA,NA,NA,NA,NA,NA,NA,NA,NA,NA,NA,"LFHP 061900Z AUTO 00000KT CAVOK 05/01 Q1020"
"2313","LFAT",2019-12-06 00:00:00,1.6228,50.5144,46.4,42.8,87.19,210,12,0,30,NA,6.21,NA,"OVC",NA,NA,NA,1400,NA,NA,NA,NA,NA,NA,NA,NA,NA,NA,40.33,"LFAT 060000Z AUTO 21012KT 180V270 9999 OVC014 08/06 Q1016"
"2314","LFAT",2019-12-06 00:30:00,1.6228,50.5144,46.4,42.8,87.19,210,12,0,30,NA,6.21,NA,"OVC",NA,NA,NA,1300,NA,NA,NA,NA,NA,NA,NA,NA,NA,NA,40.33,"LFAT 060030Z AUTO 21012KT 170V240 9999 OVC013 08/06 Q1016"
"2315","LFAT",2019-12-06 01:00:00,1.6228,50.5144,46.4,42.8,87.19,220,12,0,29.97,NA,6.21,NA,"OVC",NA,NA,NA,1400,NA,NA,NA,NA,NA,NA,NA,NA,NA,NA,40.33,"LFAT 060100Z AUTO 22012KT 9999 OVC014 08/06 Q1015"
"2316","LFAT",2019-12-06 01:30:00,1.6228,50.5144,46.4,42.8,87.19,210,12,0,29.97,NA,6.21,NA,"OVC",NA,NA,NA,1300,NA,NA,NA,NA,NA,NA,NA,NA,NA,NA,40.33,"LFAT 060130Z AUTO 21012KT 180V250 9999 OVC013 08/06 Q1015"
"2317","LFAT",2019-12-06 02:00:00,1.6228,50.5144,46.4,42.8,87.19,210,12,0,29.97,NA,6.21,NA,"OVC",NA,NA,NA,1300,NA,NA,NA,NA,NA,NA,NA,NA,NA,NA,40.33,"LFAT 060200Z AUTO 21012KT 180V250 9999 OVC013 08/06 Q1015"
"2318","LFAT",2019-12-06 02:30:00,1.6228,50.5144,46.4,42.8,87.19,210,11,0,29.97,NA,4.35,NA,"OVC",NA,NA,NA,1300,NA,NA,NA,"-RA",NA,NA,NA,NA,NA,NA,40.66,"LFAT 060230Z AUTO 21011KT 180V250 7000 -RA OVC013 08/06 Q1015"
"2319","LFAT",2019-12-06 03:00:00,1.6228,50.5144,44.6,42.8,93.35,210,10,0,29.97,NA,4.35,NA,"OVC",NA,NA,NA,1200,NA,NA,NA,"-RA",NA,NA,NA,NA,NA,NA,38.77,"LFAT 060300Z AUTO 21010KT 180V260 7000 -RA OVC012 07/06 Q1015"
"2320","LFAT",2019-12-06 03:30:00,1.6228,50.5144,46.4,42.8,87.19,220,12,0,29.94,NA,4.35,NA,"OVC","///",NA,NA,1100,NA,NA,NA,"-RA",NA,NA,NA,NA,NA,NA,40.33,"LFAT 060330Z AUTO 22012KT 180V250 7000 -RA OVC011/// ///TCU 08/06 Q1014"
"2321","LFAT",2019-12-06 04:00:00,1.6228,50.5144,46.4,44.6,93.4,210,11,0,29.94,NA,5.59,NA,"OVC",NA,NA,NA,1100,NA,NA,NA,NA,NA,NA,NA,NA,NA,NA,40.66,"LFAT 060400Z AUTO 21011KT 180V250 9000 OVC011 08/07 Q1014"
"2322","LFAT",2019-12-06 04:30:00,1.6228,50.5144,46.4,44.6,93.4,220,10,0,29.91,NA,5.59,NA,"OVC","///",NA,NA,1000,NA,NA,NA,"-RA",NA,NA,NA,NA,NA,NA,41.03,"LFAT 060430Z AUTO 22010KT 180V260 9000 -RA OVC010/// ///TCU 08/07 Q1013"
"2323","LFAT",2019-12-06 05:00:00,1.6228,50.5144,46.4,44.6,93.4,220,10,0,29.91,NA,6.21,NA,"OVC","///",NA,NA,1000,NA,NA,NA,"-RADZ",NA,NA,NA,NA,NA,NA,41.03,"LFAT 060500Z AUTO 22010KT 190V250 9999 -RADZ OVC010/// ///TCU 08/07 Q1013"
"2324","LFAT",2019-12-06 05:30:00,1.6228,50.5144,46.4,44.6,93.4,210,10,0,29.91,NA,3.73,NA,"OVC","///",NA,NA,1000,NA,NA,NA,"-RA",NA,NA,NA,NA,NA,NA,41.03,"LFAT 060530Z AUTO 21010KT 170V250 6000 -RA OVC010/// ///CB 08/07 Q1013"
"2325","LFAT",2019-12-06 06:00:00,1.6228,50.5144,46.4,44.6,93.4,210,11,0,29.91,NA,4.35,NA,"OVC","///",NA,NA,900,NA,NA,NA,"-RA",NA,NA,NA,NA,NA,NA,40.66,"LFAT 060600Z AUTO 21011KT 180V250 7000 -RA OVC009/// ///TCU 08/07 Q1013"
"2326","LFAT",2019-12-06 06:30:00,1.6228,50.5144,46.4,46.4,100,210,10,0,29.91,NA,3.73,NA,"OVC",NA,NA,NA,700,NA,NA,NA,"-RA",NA,NA,NA,NA,NA,NA,41.03,"LFAT 060630Z AUTO 21010KT 170V240 6000 -RA OVC007 08/08 Q1013 TEMPO 21017G27KT 2000 RADZ OVC003"
"2327","LFAT",2019-12-06 07:00:00,1.6228,50.5144,46.4,44.6,93.4,210,11,0,29.88,NA,4.97,NA,"OVC",NA,NA,NA,700,NA,NA,NA,NA,NA,NA,NA,NA,NA,NA,40.66,"LFAT 060700Z AUTO 21011KT 170V240 8000 OVC007 08/07 Q1012 TEMPO 21017G27KT 2000 RADZ OVC003"
"2328","LFAT",2019-12-06 07:30:00,1.6228,50.5144,46.4,44.6,93.4,210,13,0,29.88,NA,5.59,23,"OVC",NA,NA,NA,800,NA,NA,NA,"-RA",NA,NA,NA,NA,NA,NA,40.02,"LFAT 060730Z AUTO 21013G23KT 170V240 9000 -RA OVC008 08/07 Q1012 TEMPO 2000 RADZ OVC003"
"2329","LFAT",2019-12-06 08:00:00,1.6228,50.5144,46.4,46.4,100,210,13,0,29.88,NA,5.59,NA,"OVC","///",NA,NA,800,NA,NA,NA,NA,NA,NA,NA,NA,NA,NA,40.02,"LFAT 060800Z AUTO 21013KT 170V250 9000 OVC008/// ///TCU 08/08 Q1012 TEMPO 21017G27KT 2000 RADZ OVC003"
"2330","LFAT",2019-12-06 08:30:00,1.6228,50.5144,46.4,44.6,93.4,210,13,0,29.85,NA,5.59,31,"OVC",NA,NA,NA,800,NA,NA,NA,NA,NA,NA,NA,NA,NA,NA,40.02,"LFAT 060830Z AUTO 21013G31KT 170V240 9000 OVC008 08/07 Q1011 TEMPO 3000 RADZ OVC003"
"2331","LFAT",2019-12-06 09:00:00,1.6228,50.5144,48.2,46.4,93.45,210,12,0,29.85,NA,4.97,NA,"OVC","///",NA,NA,900,NA,NA,NA,"-RA",NA,NA,NA,NA,NA,NA,42.62,"LFAT 060900Z AUTO 21012KT 180V250 8000 -RA OVC009/// ///TCU 09/08 Q1011 TEMPO 22020G30KT 3000 RADZ OVC003"
"2332","LFAT",2019-12-06 09:30:00,1.6228,50.5144,48.2,46.4,93.45,220,15,0,29.85,NA,4.35,25,"OVC","///",NA,NA,900,NA,NA,NA,"-RA",NA,NA,NA,NA,NA,NA,41.78,"LFAT 060930Z AUTO 22015G25KT 180V250 7000 -RA OVC009/// ///TCU 09/08 Q1011 TEMPO 3000 RADZ OVC003"
"2333","LFAT",2019-12-06 10:00:00,1.6228,50.5144,48.2,46.4,93.45,220,14,0,29.85,NA,5.59,26,"OVC","///",NA,NA,900,NA,NA,NA,"-RA",NA,NA,NA,NA,NA,NA,42.04,"LFAT 061000Z AUTO 22014G26KT 180V250 9000 -RA OVC009/// ///TCU 09/08 Q1011 TEMPO 3000 RADZ OVC003"
"2334","LFAT",2019-12-06 10:30:00,1.6228,50.5144,48.2,46.4,93.45,210,15,0,29.85,NA,6.21,29,"OVC",NA,NA,NA,800,NA,NA,NA,NA,NA,NA,NA,NA,NA,NA,41.78,"LFAT 061030Z AUTO 21015G29KT 160V240 9999 OVC008 09/08 Q1011 TEMPO 3000 RADZ OVC003"
"2335","LFAT",2019-12-06 11:00:00,1.6228,50.5144,48.2,46.4,93.45,220,15,0,29.83,NA,6.21,NA,"OVC",NA,NA,NA,1000,NA,NA,NA,"-RA",NA,NA,NA,NA,NA,NA,41.78,"LFAT 061100Z AUTO 22015KT 180V250 9999 4300 -RA OVC010 09/08 Q1010 TEMPO 22020G30KT 3000 RADZ OVC003"
"2336","LFAT",2019-12-06 11:30:00,1.6228,50.5144,48.2,48.2,100,210,14,0,29.8,NA,5.59,NA,"OVC",NA,NA,NA,800,NA,NA,NA,"-RA",NA,NA,NA,NA,NA,NA,42.04,"LFAT 061130Z AUTO 21014KT 180V260 9000 -RA OVC008 09/09 Q1009 TEMPO 21020G30KT 3000 DZRA OVC004"
"2337","LFAT",2019-12-06 12:00:00,1.6228,50.5144,50,48.2,93.5,220,16,0,29.8,NA,6.21,26,"OVC",NA,NA,NA,1100,NA,NA,NA,"-RA",NA,NA,NA,NA,NA,NA,43.88,"LFAT 061200Z AUTO 22016G26KT 190V250 9999 -RA OVC011 10/09 Q1009 TEMPO 3000 DZRA OVC004"
"2338","LFAT",2019-12-06 12:30:00,1.6228,50.5144,50,48.2,93.5,220,14,0,29.77,NA,5.59,25,"OVC",NA,NA,NA,700,NA,NA,NA,NA,NA,NA,NA,NA,NA,NA,44.36,"LFAT 061230Z AUTO 22014G25KT 190V260 9000 OVC007 10/09 Q1008 TEMPO 3000 DZRA OVC004"
"2339","LFAT",2019-12-06 13:00:00,1.6228,50.5144,50,48.2,93.5,220,16,0,29.77,NA,2.36,29,"OVC",NA,NA,NA,600,NA,NA,NA,"-DZ BR",NA,NA,NA,NA,NA,NA,43.88,"LFAT 061300Z AUTO 22016G29KT 200V260 3800 -DZ BR OVC006 10/09 Q1008 TEMPO DZRA OVC004"
"2340","LFAT",2019-12-06 13:30:00,1.6228,50.5144,50,48.2,93.5,220,16,0,29.74,NA,3.11,NA,"OVC",NA,NA,NA,700,NA,NA,NA,"BR",NA,NA,NA,NA,NA,NA,43.88,"LFAT 061330Z AUTO 22016KT 190V260 5000 BR OVC007 10/09 Q1007 TEMPO 21020G30KT DZRA OVC004"
"2341","LFAT",2019-12-06 14:00:00,1.6228,50.5144,50,48.2,93.5,220,15,0,29.74,NA,2.98,NA,"OVC",NA,NA,NA,500,NA,NA,NA,"BR",NA,NA,NA,NA,NA,NA,44.12,"LFAT 061400Z AUTO 22015KT 190V260 4800 BR OVC005 10/09 Q1007 TEMPO 21020G30KT DZRA"
"2342","LFAT",2019-12-06 14:30:00,1.6228,50.5144,50,48.2,93.5,210,15,0,29.71,NA,1.62,26,"OVC",NA,NA,NA,400,NA,NA,NA,"-RA BR",NA,NA,NA,NA,NA,NA,44.12,"LFAT 061430Z AUTO 21015G26KT 180V240 2600 -RA BR OVC004 10/09 Q1006 TEMPO 3000 DZRA"
"2343","LFAT",2019-12-06 15:00:00,1.6228,50.5144,50,48.2,93.5,220,14,0,29.71,NA,2.3,25,"OVC",NA,NA,NA,400,NA,NA,NA,"-DZ BR",NA,NA,NA,NA,NA,NA,44.36,"LFAT 061500Z AUTO 22014G25KT 180V240 3700 -DZ BR OVC004 10/09 Q1006 TEMPO DZRA"
"2344","LFAT",2019-12-06 15:30:00,1.6228,50.5144,50,48.2,93.5,220,14,0,29.71,NA,1.8,26,"OVC",NA,NA,NA,400,NA,NA,NA,"-DZ BR",NA,NA,NA,NA,NA,NA,44.36,"LFAT 061530Z AUTO 22014G26KT 180V250 2900 -DZ BR OVC004 10/09 Q1006 TEMPO 3000 SHRA BKN008 BKN020TCU"
"2345","LFAT",2019-12-06 16:00:00,1.6228,50.5144,50,50,100,220,15,0,29.71,NA,3.11,26,"OVC",NA,NA,NA,400,NA,NA,NA,"-DZ BR",NA,NA,NA,NA,NA,NA,44.12,"LFAT 061600Z AUTO 22015G26KT 190V250 5000 -DZ BR OVC004 10/10 Q1006 TEMPO SHRA BKN008 BKN020TCU"
"2346","LFAT",2019-12-06 16:30:00,1.6228,50.5144,50,50,100,220,16,0,29.71,NA,2.17,NA,"OVC",NA,NA,NA,400,NA,NA,NA,"-RA BR",NA,NA,NA,NA,NA,NA,43.88,"LFAT 061630Z AUTO 22016KT 190V260 3500 -RA BR OVC004 10/10 Q1006 TEMPO 24020G35KT SHRA BKN008 BKN020TCU"
"2347","LFAT",2019-12-06 17:00:00,1.6228,50.5144,51.8,50,93.55,230,15,0,29.71,NA,5.59,NA,"OVC",NA,NA,NA,400,NA,NA,NA,NA,NA,NA,NA,NA,NA,NA,NA,"LFAT 061700Z AUTO 23015KT 190V270 9000 OVC004 11/10 Q1006 TEMPO 24020G35KT 3000 SHRA BKN008 BKN020TCU"
"2348","LFAT",2019-12-06 17:30:00,1.6228,50.5144,51.8,50,93.55,240,17,0,29.71,NA,6.21,NA,"BKN","OVC",NA,NA,900,1500,NA,NA,"-RA",NA,NA,NA,NA,NA,NA,NA,"LFAT 061730Z AUTO 24017KT 200V260 9999 -RA BKN009 OVC015 11/10 Q1006 TEMPO 24020G35KT 3000 SHRA BKN008 BKN020TCU"
"2349","LFAT",2019-12-06 18:00:00,1.6228,50.5144,51.8,51.8,100,240,14,0,29.71,NA,4.97,NA,"BKN","OVC",NA,NA,800,1200,NA,NA,NA,NA,NA,NA,NA,NA,NA,NA,"LFAT 061800Z AUTO 24014KT 210V280 8000 BKN008 OVC012 11/11 Q1006 TEMPO 24020G35KT 3000 SHRA BKN008 BKN020TCU"
"2350","LFAT",2019-12-06 18:30:00,1.6228,50.5144,53.6,51.8,93.6,240,12,0,29.71,NA,5.59,26,"OVC",NA,NA,NA,1300,NA,NA,NA,NA,NA,NA,NA,NA,NA,NA,NA,"LFAT 061830Z AUTO 24012G26KT 220V280 9000 OVC013 12/11 Q1006"
"2351","LFAT",2019-12-06 19:00:00,1.6228,50.5144,51.8,50,93.55,260,12,0,29.71,NA,4.97,NA,"FEW","SCT","OVC","///",1000,4500,5800,NA,"-RADZ",NA,NA,NA,NA,NA,NA,NA,"LFAT 061900Z AUTO 26012KT 220V290 8000 -RADZ FEW010/// SCT045/// OVC058/// ///TCU 11/10 Q1006"
"2352","LFAT",2019-12-06 19:30:00,1.6228,50.5144,51.8,48.2,87.47,270,13,0,29.74,NA,6.21,23,"FEW","BKN","OVC","///",4200,4800,5800,NA,NA,NA,NA,NA,NA,NA,NA,NA,"LFAT 061930Z AUTO 27013G23KT 240V300 9999 FEW042/// BKN048/// OVC058/// ///CB 11/09 Q1007"
"2353","LFAT",2019-12-06 20:00:00,1.6228,50.5144,51.8,48.2,87.47,280,14,0,29.74,NA,6.21,NA,"FEW","SCT","BKN",NA,2700,3200,5800,NA,NA,NA,NA,NA,NA,NA,NA,NA,"LFAT 062000Z AUTO 28014KT 250V320 9999 FEW027 SCT032 BKN058 11/09 Q1007"
"2354","LFAT",2019-12-06 20:30:00,1.6228,50.5144,53.6,48.2,81.87,280,13,0,29.77,NA,6.21,NA,"SCT","BKN","BKN",NA,2200,2700,3400,NA,NA,NA,NA,NA,NA,NA,NA,NA,"LFAT 062030Z AUTO 28013KT 250V310 9999 SCT022 BKN027 BKN034 12/09 Q1008"
"2355","LFAT",2019-12-06 21:00:00,1.6228,50.5144,51.8,48.2,87.47,280,12,0,29.8,NA,6.21,NA,"BKN","BKN","BKN",NA,2200,2700,4900,NA,NA,NA,NA,NA,NA,NA,NA,NA,"LFAT 062100Z AUTO 28012KT 240V320 9999 BKN022 BKN027 BKN049 11/09 Q1009"
"2356","LFAT",2019-12-06 21:30:00,1.6228,50.5144,51.8,46.4,81.74,290,14,0,29.8,NA,6.21,NA,"OVC",NA,NA,NA,4800,NA,NA,NA,NA,NA,NA,NA,NA,NA,NA,NA,"LFAT 062130Z AUTO 29014KT 250V310 9999 OVC048 11/08 Q1009"
"2357","LFAT",2019-12-06 22:00:00,1.6228,50.5144,51.8,46.4,81.74,280,12,0,29.8,NA,6.21,NA,"OVC",NA,NA,NA,4700,NA,NA,NA,NA,NA,NA,NA,NA,NA,NA,NA,"LFAT 062200Z AUTO 28012KT 9999 OVC047 11/08 Q1009"
"2358","LFAT",2019-12-06 22:30:00,1.6228,50.5144,51.8,46.4,81.74,280,11,0,29.8,NA,6.21,NA,"FEW","OVC",NA,NA,2500,4800,NA,NA,NA,NA,NA,NA,NA,NA,NA,NA,"LFAT 062230Z AUTO 28011KT 250V310 9999 FEW025 OVC048 11/08 Q1009"
"2359","LFAT",2019-12-06 23:00:00,1.6228,50.5144,51.8,46.4,81.74,290,13,0,29.83,NA,6.21,24,"FEW","OVC",NA,NA,2600,4600,NA,NA,NA,NA,NA,NA,NA,NA,NA,NA,"LFAT 062300Z AUTO 29013G24KT 250V320 9999 FEW026 OVC046 11/08 Q1010"
"2360","LFAT",2019-12-06 23:30:00,1.6228,50.5144,51.8,44.6,76.34,290,11,0,29.83,NA,6.21,NA,"FEW","OVC",NA,NA,2500,4500,NA,NA,NA,NA,NA,NA,NA,NA,NA,NA,"LFAT 062330Z AUTO 29011KT 9999 FEW025 OVC045 11/07 Q1010"
"2361","LFQQ",2019-12-06 00:00:00,3.0975,50.57,35.6,35.6,100,180,15,0,30.03,NA,3.11,NA,"OVC",NA,NA,NA,300,NA,NA,NA,"BR",NA,NA,NA,NA,NA,NA,25.45,"LFQQ 060000Z AUTO 18015KT 5000 BR OVC003 02/02 Q1017 TEMPO 1200 DZRA"
"2362","LFQQ",2019-12-06 00:30:00,3.0975,50.57,35.6,33.8,93.08,180,16,0,30.03,NA,3.11,NA,"OVC",NA,NA,NA,400,NA,NA,NA,"BR",NA,NA,NA,NA,NA,NA,25.11,"LFQQ 060030Z AUTO 18016KT 5000 BR OVC004 02/01 Q1017 TEMPO 1200 DZRA"
"2363","LFQQ",2019-12-06 01:00:00,3.0975,50.57,35.6,33.8,93.08,180,16,0,30,NA,3.11,NA,"OVC",NA,NA,NA,400,NA,NA,NA,"BR",NA,NA,NA,NA,NA,NA,25.11,"LFQQ 060100Z AUTO 18016KT 5000 BR OVC004 02/01 Q1016 TEMPO 1200 DZRA"
"2364","LFQQ",2019-12-06 01:30:00,3.0975,50.57,35.6,33.8,93.08,190,13,0,30,NA,3.11,NA,"OVC",NA,NA,NA,400,NA,NA,NA,"BR",NA,NA,NA,NA,NA,NA,26.18,"LFQQ 060130Z AUTO 19013KT 5000 BR OVC004 02/01 Q1016 TEMPO 1200 DZRA"
"2365","LFQQ",2019-12-06 02:00:00,3.0975,50.57,35.6,33.8,93.08,190,16,0,30,NA,3.73,NA,"OVC",NA,NA,NA,500,NA,NA,NA,NA,NA,NA,NA,NA,NA,NA,25.11,"LFQQ 060200Z AUTO 19016KT 6000 OVC005 02/01 Q1016 TEMPO 1200 DZRA"
"2366","LFQQ",2019-12-06 02:30:00,3.0975,50.57,35.6,35.6,100,180,17,0,29.97,NA,3.73,NA,"BKN","OVC",NA,NA,600,6200,NA,NA,NA,NA,NA,NA,NA,NA,NA,24.79,"LFQQ 060230Z AUTO 18017KT 6000 BKN006 OVC062 02/02 Q1015 TEMPO 1200 DZRA OVC002"
"2367","LFQQ",2019-12-06 03:00:00,3.0975,50.57,37.4,35.6,93.14,180,17,0,29.97,NA,3.73,NA,"BKN","BKN","OVC",NA,600,1100,5400,NA,NA,NA,NA,NA,NA,NA,NA,27.15,"LFQQ 060300Z AUTO 18017KT 6000 BKN006 BKN011 OVC054 03/02 Q1015 TEMPO 1200 DZRA OVC002"
"2368","LFQQ",2019-12-06 03:30:00,3.0975,50.57,37.4,35.6,93.14,190,15,0,29.94,NA,3.73,NA,"BKN","BKN","OVC","///",800,3300,4500,NA,NA,NA,NA,NA,NA,NA,NA,27.78,"LFQQ 060330Z AUTO 19015KT 6000 BKN008/// BKN033/// OVC045/// ///TCU 03/02 Q1014 TEMPO 1200 DZRA OVC002"
"2369","LFQQ",2019-12-06 04:00:00,3.0975,50.57,37.4,35.6,93.14,180,15,0,29.94,NA,3.73,NA,"BKN","BKN","BKN","///",800,1200,2000,NA,NA,NA,NA,NA,NA,NA,NA,27.78,"LFQQ 060400Z AUTO 18015KT 6000 BKN008/// BKN012/// BKN020/// ///TCU 03/02 Q1014 TEMPO 1200 DZRA OVC002"
"2370","LFQQ",2019-12-06 04:30:00,3.0975,50.57,37.4,35.6,93.14,180,15,0,29.94,NA,3.73,NA,"BKN","OVC","///",NA,700,1600,NA,NA,"-RA",NA,NA,NA,NA,NA,NA,27.78,"LFQQ 060430Z AUTO 18015KT 6000 -RA BKN007/// OVC016/// ///TCU 03/02 Q1014 TEMPO 1200 DZRA OVC002"
"2371","LFQQ",2019-12-06 05:00:00,3.0975,50.57,37.4,35.6,93.14,190,15,0,29.94,NA,3.73,NA,"BKN","BKN","OVC","///",800,1400,3500,NA,"-RA",NA,NA,NA,NA,NA,NA,27.78,"LFQQ 060500Z AUTO 19015KT 6000 -RA BKN008/// BKN014/// OVC035/// ///TCU 03/02 Q1014 TEMPO 1200 DZRA OVC002"
"2372","LFQQ",2019-12-06 05:30:00,3.0975,50.57,37.4,35.6,93.14,180,16,0,29.91,NA,3.11,NA,"BKN","BKN","OVC","///",900,1400,3800,NA,"-RA BR",NA,NA,NA,NA,NA,NA,27.46,"LFQQ 060530Z AUTO 18016KT 5000 -RA BR BKN009/// BKN014/// OVC038/// ///TCU 03/02 Q1013 TEMPO 1200 DZRA OVC002"
"2373","LFQQ",2019-12-06 06:00:00,3.0975,50.57,37.4,35.6,93.14,180,15,0,29.94,NA,3.11,NA,"BKN","OVC","///",NA,700,1200,NA,NA,"-RA BR",NA,NA,NA,NA,NA,NA,27.78,"LFQQ 060600Z AUTO 18015KT 5000 -RA BR BKN007/// OVC012/// ///TCU 03/02 Q1014 TEMPO 1200 DZRA OVC002"
"2374","LFQQ",2019-12-06 06:30:00,3.0975,50.57,37.4,37.4,100,190,14,0,29.91,NA,3.11,NA,"BKN","OVC","///",NA,700,1100,NA,NA,"-RA BR",NA,NA,NA,NA,NA,NA,28.12,"LFQQ 060630Z AUTO 19014KT 5000 -RA BR BKN007/// OVC011/// ///TCU 03/03 Q1013 TEMPO 19017G27KT 2000 RADZ OVC003"
"2375","LFQQ",2019-12-06 07:00:00,3.0975,50.57,37.4,37.4,100,180,15,0,29.91,NA,3.11,NA,"BKN","OVC","///",NA,600,1100,NA,NA,"-RA BR",NA,NA,NA,NA,NA,NA,27.78,"LFQQ 060700Z AUTO 18015KT 5000 -RA BR BKN006/// OVC011/// ///TCU 03/03 Q1013 TEMPO 19017G27KT 2000 RADZ OVC003"
"2376","LFQQ",2019-12-06 07:30:00,3.0975,50.57,37.4,37.4,100,180,16,0,29.91,NA,3.73,NA,"BKN","OVC","///",NA,600,1000,NA,NA,"-RA",NA,NA,NA,NA,NA,NA,27.46,"LFQQ 060730Z AUTO 18016KT 6000 -RA BKN006/// OVC010/// ///TCU 03/03 Q1013 TEMPO 19017G27KT 2000 RADZ OVC003"
"2377","LFQQ",2019-12-06 08:00:00,3.0975,50.57,39.2,37.4,93.19,180,15,0,29.91,NA,2.73,NA,"BKN","OVC","///",NA,600,1200,NA,NA,"-RA BR",NA,NA,NA,NA,NA,NA,30.11,"LFQQ 060800Z AUTO 18015KT 4400 -RA BR BKN006/// OVC012/// ///TCU 04/03 Q1013 TEMPO 19017G27KT 2000 RADZ OVC003"
"2378","LFQQ",2019-12-06 08:30:00,3.0975,50.57,39.2,37.4,93.19,180,16,0,29.91,NA,3.11,NA,"OVC","///",NA,NA,600,NA,NA,NA,"-RA BR",NA,NA,NA,NA,NA,NA,29.8,"LFQQ 060830Z AUTO 18016KT 5000 -RA BR OVC006/// ///TCU 04/03 Q1013 TEMPO 19017G27KT 2000 RADZ OVC003"
"2379","LFQQ",2019-12-06 09:00:00,3.0975,50.57,39.2,39.2,100,180,15,0,29.88,NA,2.24,NA,"OVC","///",NA,NA,600,NA,NA,NA,"RA BR",NA,NA,NA,NA,NA,NA,30.11,"LFQQ 060900Z AUTO 18015KT 3600 RA BR OVC006/// ///CB 04/04 Q1012 TEMPO 19017G27KT 2000 RADZ OVC003"
"2380","LFQQ",2019-12-06 09:30:00,3.0975,50.57,39.2,39.2,100,180,15,0,29.88,NA,4.97,NA,"BKN","OVC","///",NA,600,1000,NA,NA,NA,NA,NA,NA,NA,NA,NA,30.11,"LFQQ 060930Z AUTO 18015KT 8000 BKN006/// OVC010/// ///CB 04/04 Q1012 TEMPO 19017G27KT 2000 RADZ OVC003"
"2381","LFQQ",2019-12-06 10:00:00,3.0975,50.57,41,39.2,93.24,180,16,0,29.88,NA,5.59,NA,"OVC",NA,NA,NA,700,NA,NA,NA,NA,NA,NA,NA,NA,NA,NA,32.15,"LFQQ 061000Z AUTO 18016KT 9000 OVC007 05/04 Q1012 TEMPO 19017G27KT 2000 RADZ OVC003"
"2382","LFQQ",2019-12-06 10:30:00,3.0975,50.57,42.8,41,93.3,190,15,0,29.85,NA,6.21,NA,"OVC","///",NA,NA,700,NA,NA,NA,NA,NA,NA,NA,NA,NA,NA,34.78,"LFQQ 061030Z AUTO 19015KT 9999 OVC007/// ///TCU 06/05 Q1011 TEMPO 19017G27KT 2000 RADZ OVC003"
"2383","LFQQ",2019-12-06 11:00:00,3.0975,50.57,42.8,41,93.3,190,16,0,29.85,NA,3.11,NA,"OVC","///",NA,NA,800,NA,NA,NA,"-RA BR",NA,NA,NA,NA,NA,NA,34.5,"LFQQ 061100Z AUTO 19016KT 5000 -RA BR OVC008/// ///TCU 06/05 Q1011 TEMPO 19017G27KT 2000 RADZ OVC003"
"2384","LFQQ",2019-12-06 11:30:00,3.0975,50.57,42.8,41,93.3,190,16,0,29.83,NA,5.59,NA,"OVC","///",NA,NA,800,NA,NA,NA,"-RA",NA,NA,NA,NA,NA,NA,34.5,"LFQQ 061130Z AUTO 19016KT 9000 -RA OVC008/// ///TCU 06/05 Q1010 TEMPO 19017G27KT 3000 RADZ OVC004"
"2385","LFQQ",2019-12-06 12:00:00,3.0975,50.57,44.6,41,87.09,190,17,0,29.83,NA,6.21,NA,"OVC",NA,NA,NA,800,NA,NA,NA,NA,NA,NA,NA,NA,NA,NA,36.58,"LFQQ 061200Z AUTO 19017KT 9999 OVC008 07/05 Q1010 TEMPO 19017G27KT 3000 RADZ OVC004"
"2386","LFQQ",2019-12-06 12:30:00,3.0975,50.57,44.6,42.8,93.35,190,18,0,29.8,NA,6.21,NA,"OVC",NA,NA,NA,800,NA,NA,NA,NA,NA,NA,NA,NA,NA,NA,36.34,"LFQQ 061230Z AUTO 19018KT 9999 OVC008 07/06 Q1009 TEMPO 19017G27KT 3000 RADZ OVC004"
"2387","LFQQ",2019-12-06 13:00:00,3.0975,50.57,44.6,42.8,93.35,190,17,0,29.8,NA,4.35,NA,"OVC",NA,NA,NA,800,NA,NA,NA,NA,NA,NA,NA,NA,NA,NA,36.58,"LFQQ 061300Z AUTO 19017KT 7000 OVC008 07/06 Q1009 TEMPO 19017G27KT 3000 RADZ OVC004"
"2388","LFQQ",2019-12-06 13:30:00,3.0975,50.57,44.6,42.8,93.35,190,17,0,29.77,NA,6.21,NA,"BKN","OVC",NA,NA,700,1300,NA,NA,NA,NA,NA,NA,NA,NA,NA,36.58,"LFQQ 061330Z AUTO 19017KT 9999 BKN007 OVC013 07/06 Q1008 TEMPO 19017G27KT 3000 RADZ OVC004"
"2389","LFQQ",2019-12-06 14:00:00,3.0975,50.57,44.6,42.8,93.35,190,18,0,29.74,NA,6.21,NA,"OVC",NA,NA,NA,700,NA,NA,NA,NA,NA,NA,NA,NA,NA,NA,36.34,"LFQQ 061400Z AUTO 19018KT 9999 OVC007 07/06 Q1007 TEMPO 19017G27KT 3000 RADZ OVC004"
"2390","LFQQ",2019-12-06 14:30:00,3.0975,50.57,44.6,42.8,93.35,200,20,0,29.74,NA,6.21,NA,"OVC",NA,NA,NA,700,NA,NA,NA,NA,NA,NA,NA,NA,NA,NA,35.87,"LFQQ 061430Z AUTO 20020KT 9999 OVC007 07/06 Q1007 TEMPO 19017G27KT 3000 RADZ OVC004"
"2391","LFQQ",2019-12-06 15:00:00,3.0975,50.57,44.6,42.8,93.35,200,20,0,29.74,NA,6.21,NA,"BKN","OVC",NA,NA,700,1600,NA,NA,NA,NA,NA,NA,NA,NA,NA,35.87,"LFQQ 061500Z AUTO 20020KT 9999 BKN007 OVC016 07/06 Q1007 TEMPO 19017G27KT 3000 RADZ OVC004"
"2392","LFQQ",2019-12-06 15:30:00,3.0975,50.57,44.6,42.8,93.35,190,18,0,29.74,NA,6.21,NA,"BKN","OVC",NA,NA,700,1500,NA,NA,NA,NA,NA,NA,NA,NA,NA,36.34,"LFQQ 061530Z AUTO 19018KT 9999 BKN007 OVC015 07/06 Q1007 TEMPO 19017G27KT 3000 RADZ OVC004"
"2393","LFQQ",2019-12-06 16:00:00,3.0975,50.57,44.6,44.6,100,200,19,0,29.71,NA,6.21,NA,"OVC",NA,NA,NA,600,NA,NA,NA,NA,NA,NA,NA,NA,NA,NA,36.1,"LFQQ 061600Z AUTO 20019KT 9999 OVC006 07/07 Q1006 TEMPO 19017G27KT 3000 RADZ OVC004"
"2394","LFQQ",2019-12-06 16:30:00,3.0975,50.57,46.4,44.6,93.4,200,20,0,29.71,NA,6.21,NA,"OVC",NA,NA,NA,700,NA,NA,NA,NA,NA,NA,NA,NA,NA,NA,38.26,"LFQQ 061630Z AUTO 20020KT 9999 OVC007 08/07 Q1006 TEMPO 19017G27KT 3000 RADZ OVC004"
"2395","LFQQ",2019-12-06 17:00:00,3.0975,50.57,46.4,44.6,93.4,200,21,0,29.71,NA,6.21,NA,"OVC",NA,NA,NA,800,NA,NA,NA,NA,NA,NA,NA,NA,NA,NA,38.06,"LFQQ 061700Z AUTO 20021KT 9999 OVC008 08/07 Q1006 TEMPO 19017G27KT 3000 RADZ OVC004"
"2396","LFQQ",2019-12-06 17:30:00,3.0975,50.57,46.4,44.6,93.4,190,20,0,29.71,NA,6.21,NA,"BKN","OVC",NA,NA,800,1500,NA,NA,"-DZ",NA,NA,NA,NA,NA,NA,38.26,"LFQQ 061730Z AUTO 19020KT 9999 -DZ BKN008 OVC015 08/07 Q1006 TEMPO 24020G30KT 2000 SHRA BKN004 BKN020TCU"
"2397","LFQQ",2019-12-06 18:00:00,3.0975,50.57,46.4,44.6,93.4,200,19,0,29.71,NA,6.21,NA,"OVC",NA,NA,NA,700,NA,NA,NA,NA,NA,NA,NA,NA,NA,NA,38.48,"LFQQ 061800Z AUTO 20019KT 9999 OVC007 08/07 Q1006 TEMPO 2000 SHRA BKN004 BKN020TCU BECMG 22020G33KT"
"2398","LFQQ",2019-12-06 18:30:00,3.0975,50.57,48.2,46.4,93.45,200,17,0,29.71,NA,6.21,NA,"OVC",NA,NA,NA,900,NA,NA,NA,NA,NA,NA,NA,NA,NA,NA,41.3,"LFQQ 061830Z AUTO 20017KT 9999 OVC009 09/08 Q1006 TEMPO 2000 SHRA BKN004 BKN020TCU BECMG 22020G33KT"
"2399","LFQQ",2019-12-06 19:00:00,3.0975,50.57,48.2,46.4,93.45,210,16,0,29.71,NA,6.21,NA,"BKN","OVC",NA,NA,1000,2100,NA,NA,NA,NA,NA,NA,NA,NA,NA,41.53,"LFQQ 061900Z AUTO 21016KT 9999 BKN010 OVC021 09/08 Q1006 TEMPO 2000 SHRA BKN004 BKN020TCU BECMG 22020G33KT"
"2400","LFQQ",2019-12-06 19:30:00,3.0975,50.57,48.2,46.4,93.45,200,16,0,29.71,NA,6.21,NA,"FEW","BKN","OVC","///",800,1400,2200,NA,NA,NA,NA,NA,NA,NA,NA,41.53,"LFQQ 061930Z AUTO 20016KT 9999 FEW008/// BKN014/// OVC022/// ///TCU 09/08 Q1006 TEMPO 2000 SHRA BECMG 26011KT BKN030"
"2401","LFQQ",2019-12-06 20:00:00,3.0975,50.57,48.2,46.4,93.45,200,16,0,29.71,NA,6.21,NA,"BKN","OVC","///",NA,1100,1600,NA,NA,NA,NA,NA,NA,NA,NA,NA,41.53,"LFQQ 062000Z AUTO 20016KT 9999 BKN011/// OVC016/// ///TCU 09/08 Q1006 TEMPO 2000 SHRA BECMG 26011KT BKN030"
"2402","LFQQ",2019-12-06 20:30:00,3.0975,50.57,48.2,46.4,93.45,200,15,0,29.74,NA,6.21,NA,"FEW","BKN","BKN","///",700,1300,2400,NA,"-RA",NA,NA,NA,NA,NA,NA,41.78,"LFQQ 062030Z AUTO 20015KT 9999 -RA FEW007/// BKN013/// BKN024/// ///CB 09/08 Q1007 BECMG 26011KT BKN030"
"2403","LFQQ",2019-12-06 21:00:00,3.0975,50.57,50,46.4,87.37,220,13,0,29.74,NA,6.21,NA,"FEW","SCT","BKN","///",1000,1600,2100,NA,NA,NA,NA,NA,NA,NA,NA,44.63,"LFQQ 062100Z AUTO 22013KT 9999 FEW010/// SCT016/// BKN021/// ///TCU 10/08 Q1007 BECMG BKN030"
"2404","LFQQ",2019-12-06 21:30:00,3.0975,50.57,50,46.4,87.37,240,13,0,29.77,NA,6.21,NA,"FEW","SCT","BKN",NA,2000,4000,4700,NA,NA,NA,NA,NA,NA,NA,NA,44.63,"LFQQ 062130Z AUTO 24013KT 9999 FEW020 SCT040 BKN047 10/08 Q1008 NOSIG"
"2405","LFQQ",2019-12-06 22:00:00,3.0975,50.57,50,44.6,81.61,240,13,0,29.77,NA,6.21,NA,"FEW","BKN",NA,NA,2400,4900,NA,NA,NA,NA,NA,NA,NA,NA,NA,44.63,"LFQQ 062200Z AUTO 24013KT 9999 FEW024 BKN049 10/07 Q1008 NOSIG"
"2406","LFQQ",2019-12-06 22:30:00,3.0975,50.57,50,44.6,81.61,250,13,0,29.8,NA,6.21,NA,"FEW","BKN",NA,NA,2300,4700,NA,NA,NA,NA,NA,NA,NA,NA,NA,44.63,"LFQQ 062230Z AUTO 25013KT 9999 FEW023 BKN047 10/07 Q1009 NOSIG"
"2407","LFQQ",2019-12-06 23:00:00,3.0975,50.57,50,44.6,81.61,250,13,0,29.8,NA,6.21,NA,"FEW","OVC",NA,NA,3000,4500,NA,NA,NA,NA,NA,NA,NA,NA,NA,44.63,"LFQQ 062300Z AUTO 25013KT 9999 FEW030 OVC045 10/07 Q1009 NOSIG"
"2408","LFQQ",2019-12-06 23:30:00,3.0975,50.57,50,44.6,81.61,250,13,0,29.8,NA,6.21,NA,"FEW","OVC",NA,NA,3000,4500,NA,NA,NA,NA,NA,NA,NA,NA,NA,44.63,"LFQQ 062330Z AUTO 25013KT 9999 FEW030 OVC045 10/07 Q1009 NOSIG"
"2409","LFBL",2019-12-06 00:00:00,1.175,45.8611,41,39.2,93.24,70,2,0,30.21,NA,4.35,NA,"NSC",NA,NA,NA,NA,NA,NA,NA,NA,NA,NA,NA,NA,NA,NA,NA,"LFBL 060000Z AUTO 07002KT 7000 NSC 05/04 Q1023"
"2410","LFBL",2019-12-06 00:30:00,1.175,45.8611,41,37.4,86.89,NA,1,0,30.18,NA,6.21,NA,NA,NA,NA,NA,NA,NA,NA,NA,NA,NA,NA,NA,NA,NA,NA,NA,"LFBL 060030Z AUTO VRB01KT CAVOK 05/03 Q1022"
"2411","LFBL",2019-12-06 01:00:00,1.175,45.8611,39.2,37.4,93.19,NA,2,0,30.18,NA,4.35,NA,"FEW",NA,NA,NA,100,NA,NA,NA,NA,NA,NA,NA,NA,NA,NA,NA,"LFBL 060100Z AUTO VRB02KT 7000 FEW001 04/03 Q1022"
"2412","LFBL",2019-12-06 01:30:00,1.175,45.8611,39.2,37.4,93.19,100,4,0,30.18,NA,6.21,NA,NA,NA,NA,NA,NA,NA,NA,NA,NA,NA,NA,NA,NA,NA,NA,35.83,"LFBL 060130Z AUTO 10004KT 070V130 CAVOK 04/03 Q1022"
"2413","LFBL",2019-12-06 02:00:00,1.175,45.8611,39.2,37.4,93.19,NA,3,0,30.18,NA,6.21,NA,"NSC",NA,NA,NA,NA,NA,NA,NA,NA,NA,NA,NA,NA,NA,NA,36.92,"LFBL 060200Z AUTO VRB03KT 9999 1900 NSC 04/03 Q1022"
"2414","LFBL",2019-12-06 02:30:00,1.175,45.8611,39.2,35.6,86.79,NA,3,0,30.18,NA,6.21,NA,NA,NA,NA,NA,NA,NA,NA,NA,NA,NA,NA,NA,NA,NA,NA,36.92,"LFBL 060230Z AUTO VRB03KT CAVOK 04/02 Q1022"
"2415","LFBL",2019-12-06 03:00:00,1.175,45.8611,37.4,35.6,93.14,NA,1,0,30.18,NA,6.21,NA,NA,NA,NA,NA,NA,NA,NA,NA,NA,NA,NA,NA,NA,NA,NA,NA,"LFBL 060300Z AUTO VRB01KT CAVOK 03/02 Q1022"
"2416","LFBL",2019-12-06 03:30:00,1.175,45.8611,37.4,35.6,93.14,NA,2,0,30.18,NA,6.21,NA,NA,NA,NA,NA,NA,NA,NA,NA,NA,NA,NA,NA,NA,NA,NA,NA,"LFBL 060330Z AUTO VRB02KT CAVOK 03/02 Q1022"
"2417","LFBL",2019-12-06 04:00:00,1.175,45.8611,37.4,35.6,93.14,NA,2,0,30.18,NA,6.21,NA,NA,NA,NA,NA,NA,NA,NA,NA,NA,NA,NA,NA,NA,NA,NA,NA,"LFBL 060400Z AUTO VRB02KT CAVOK 03/02 Q1022"
"2418","LFBL",2019-12-06 04:30:00,1.175,45.8611,35.6,35.6,100,NA,2,0,30.18,NA,5.59,NA,"NSC",NA,NA,NA,NA,NA,NA,NA,NA,NA,NA,NA,NA,NA,NA,NA,"LFBL 060430Z AUTO VRB02KT 9000 NSC 02/02 Q1022"
"2419","LFBL",2019-12-06 05:00:00,1.175,45.8611,35.6,35.6,100,NA,2,0,30.18,NA,6.21,NA,NA,NA,NA,NA,NA,NA,NA,NA,NA,NA,NA,NA,NA,NA,NA,NA,"LFBL 060500Z AUTO VRB02KT CAVOK 02/02 Q1022"
"2420","LFBL",2019-12-06 05:30:00,1.175,45.8611,37.4,35.6,93.14,NA,3,0,30.18,NA,6.21,NA,NA,NA,NA,NA,NA,NA,NA,NA,NA,NA,NA,NA,NA,NA,NA,34.86,"LFBL 060530Z AUTO VRB03KT CAVOK 03/02 Q1022"
"2421","LFBL",2019-12-06 06:00:00,1.175,45.8611,35.6,35.6,100,NA,2,0,30.18,NA,6.21,NA,NA,NA,NA,NA,NA,NA,NA,NA,NA,NA,NA,NA,NA,NA,NA,NA,"LFBL 060600Z AUTO VRB02KT CAVOK 02/02 Q1022"
"2422","LFBL",2019-12-06 06:30:00,1.175,45.8611,35.6,33.8,93.08,140,3,0,30.18,NA,4.97,NA,"NSC",NA,NA,NA,NA,NA,NA,NA,NA,NA,NA,NA,NA,NA,NA,32.8,"LFBL 060630Z AUTO 14003KT 8000 NSC 02/01 Q1022"
"2423","LFBL",2019-12-06 07:00:00,1.175,45.8611,35.6,35.6,100,150,3,0,30.18,NA,5.59,NA,"NSC",NA,NA,NA,NA,NA,NA,NA,NA,NA,NA,NA,NA,NA,NA,32.8,"LFBL 060700Z AUTO 15003KT 9000 NSC 02/02 Q1022"
"2424","LFBL",2019-12-06 07:30:00,1.175,45.8611,35.6,35.6,100,140,3,0,30.18,NA,4.35,NA,"NSC",NA,NA,NA,NA,NA,NA,NA,NA,NA,NA,NA,NA,NA,NA,32.8,"LFBL 060730Z AUTO 14003KT 7000 NSC 02/02 Q1022 NOSIG"
"2425","LFBL",2019-12-06 08:00:00,1.175,45.8611,35.6,35.6,100,120,5,0,30.18,NA,3.73,NA,"NSC",NA,NA,NA,NA,NA,NA,NA,NA,NA,NA,NA,NA,NA,NA,30.67,"LFBL 060800Z AUTO 12005KT 6000 NSC 02/02 Q1022 NOSIG"
"2426","LFBL",2019-12-06 08:30:00,1.175,45.8611,37.4,35.6,93.14,100,4,0,30.18,NA,4.97,NA,"NSC",NA,NA,NA,NA,NA,NA,NA,NA,NA,NA,NA,NA,NA,NA,33.73,"LFBL 060830Z AUTO 10004KT 070V130 8000 NSC 03/02 Q1022 NOSIG"
"2427","LFBL",2019-12-06 09:00:00,1.175,45.8611,39.2,37.4,93.19,120,3,0,30.18,NA,4.97,NA,"NSC",NA,NA,NA,NA,NA,NA,NA,NA,NA,NA,NA,NA,NA,NA,36.92,"LFBL 060900Z AUTO 12003KT 090V150 8000 NSC 04/03 Q1022 NOSIG"
"2428","LFBL",2019-12-06 09:30:00,1.175,45.8611,39.2,37.4,93.19,130,3,0,30.21,NA,4.97,NA,"NSC",NA,NA,NA,NA,NA,NA,NA,NA,NA,NA,NA,NA,NA,NA,36.92,"LFBL 060930Z AUTO 13003KT 8000 NSC 04/03 Q1023 NOSIG"
"2429","LFBL",2019-12-06 10:00:00,1.175,45.8611,41,39.2,93.24,150,4,0,30.21,NA,4.97,NA,"NSC",NA,NA,NA,NA,NA,NA,NA,NA,NA,NA,NA,NA,NA,NA,37.93,"LFBL 061000Z AUTO 15004KT 120V180 8000 NSC 05/04 Q1023 NOSIG"
"2430","LFBL",2019-12-06 10:30:00,1.175,45.8611,42.8,39.2,86.99,150,6,0,30.18,NA,4.97,NA,"NSC",NA,NA,NA,NA,NA,NA,NA,NA,NA,NA,NA,NA,NA,NA,38.54,"LFBL 061030Z AUTO 15006KT 8000 NSC 06/04 Q1022 NOSIG"
"2431","LFBL",2019-12-06 11:00:00,1.175,45.8611,42.8,41,93.3,140,5,0,30.18,NA,5.59,NA,"NSC",NA,NA,NA,NA,NA,NA,NA,NA,NA,NA,NA,NA,NA,NA,39.22,"LFBL 061100Z AUTO 14005KT 120V200 9000 NSC 06/05 Q1022 NOSIG"
"2432","LFBL",2019-12-06 11:30:00,1.175,45.8611,44.6,41,87.09,160,5,0,30.18,NA,6.21,NA,NA,NA,NA,NA,NA,NA,NA,NA,NA,NA,NA,NA,NA,NA,NA,41.36,"LFBL 061130Z AUTO 16005KT 130V200 CAVOK 07/05 Q1022 NOSIG"
"2433","LFBL",2019-12-06 12:00:00,1.175,45.8611,46.4,41,81.34,180,6,0,30.15,NA,6.21,NA,NA,NA,NA,NA,NA,NA,NA,NA,NA,NA,NA,NA,NA,NA,NA,42.87,"LFBL 061200Z AUTO 18006KT CAVOK 08/05 Q1021 NOSIG"
"2434","LFBL",2019-12-06 12:30:00,1.175,45.8611,46.4,41,81.34,180,7,0,30.15,NA,6.21,NA,NA,NA,NA,NA,NA,NA,NA,NA,NA,NA,NA,NA,NA,NA,NA,42.33,"LFBL 061230Z AUTO 18007KT CAVOK 08/05 Q1021 NOSIG"
"2435","LFBL",2019-12-06 13:00:00,1.175,45.8611,48.2,41,76.01,180,9,0,30.12,NA,6.21,NA,NA,NA,NA,NA,NA,NA,NA,NA,NA,NA,NA,NA,NA,NA,NA,43.66,"LFBL 061300Z AUTO 18009KT CAVOK 09/05 Q1020 NOSIG"
"2436","LFBL",2019-12-06 13:30:00,1.175,45.8611,48.2,41,76.01,170,7,0,30.12,NA,6.21,NA,NA,NA,NA,NA,NA,NA,NA,NA,NA,NA,NA,NA,NA,NA,NA,44.53,"LFBL 061330Z AUTO 17007KT CAVOK 09/05 Q1020 NOSIG"
"2437","LFBL",2019-12-06 14:00:00,1.175,45.8611,48.2,42.8,81.47,180,7,0,30.12,NA,6.21,NA,NA,NA,NA,NA,NA,NA,NA,NA,NA,NA,NA,NA,NA,NA,NA,44.53,"LFBL 061400Z AUTO 18007KT CAVOK 09/06 Q1020 NOSIG"
"2438","LFBL",2019-12-06 14:30:00,1.175,45.8611,46.4,41,81.34,190,9,0,30.12,NA,6.21,NA,NA,NA,NA,NA,NA,NA,NA,NA,NA,NA,NA,NA,NA,NA,NA,41.42,"LFBL 061430Z AUTO 19009KT CAVOK 08/05 Q1020 NOSIG"
"2439","LFBL",2019-12-06 15:00:00,1.175,45.8611,46.4,41,81.34,190,9,0,30.12,NA,6.21,NA,NA,NA,NA,NA,NA,NA,NA,NA,NA,NA,NA,NA,NA,NA,NA,41.42,"LFBL 061500Z AUTO 19009KT CAVOK 08/05 Q1020 NOSIG"
"2440","LFBL",2019-12-06 15:30:00,1.175,45.8611,46.4,41,81.34,190,6,0,30.12,NA,6.21,NA,NA,NA,NA,NA,NA,NA,NA,NA,NA,NA,NA,NA,NA,NA,NA,42.87,"LFBL 061530Z AUTO 19006KT CAVOK 08/05 Q1020 NOSIG"
"2441","LFBL",2019-12-06 16:00:00,1.175,45.8611,44.6,39.2,81.2,200,6,0,30.12,NA,6.21,NA,NA,NA,NA,NA,NA,NA,NA,NA,NA,NA,NA,NA,NA,NA,NA,40.71,"LFBL 061600Z AUTO 20006KT CAVOK 07/04 Q1020 NOSIG"
"2442","LFBL",2019-12-06 16:30:00,1.175,45.8611,44.6,41,87.09,210,5,0,30.12,NA,6.21,NA,NA,NA,NA,NA,NA,NA,NA,NA,NA,NA,NA,NA,NA,NA,NA,41.36,"LFBL 061630Z AUTO 21005KT CAVOK 07/05 Q1020 TEMPO 0500 BCFG"
"2443","LFBL",2019-12-06 17:00:00,1.175,45.8611,44.6,41,87.09,190,8,0,30.09,NA,6.21,NA,NA,NA,NA,NA,NA,NA,NA,NA,NA,NA,NA,NA,NA,NA,NA,39.63,"LFBL 061700Z AUTO 19008KT CAVOK 07/05 Q1019 TEMPO 0500 BCFG"
"2444","LFBL",2019-12-06 17:30:00,1.175,45.8611,44.6,41,87.09,180,7,0,30.09,NA,6.21,NA,NA,NA,NA,NA,NA,NA,NA,NA,NA,NA,NA,NA,NA,NA,NA,40.14,"LFBL 061730Z AUTO 18007KT CAVOK 07/05 Q1019 TEMPO 0500 BCFG"
"2445","LFBL",2019-12-06 18:00:00,1.175,45.8611,44.6,41,87.09,210,7,0,30.12,NA,6.21,NA,NA,NA,NA,NA,NA,NA,NA,NA,NA,NA,NA,NA,NA,NA,NA,40.14,"LFBL 061800Z AUTO 21007KT CAVOK 07/05 Q1020 TEMPO 0300 BECMG VV///"
"2446","LFBL",2019-12-06 18:30:00,1.175,45.8611,44.6,41,87.09,190,7,0,30.12,NA,5.59,NA,"FEW","OVC",NA,NA,1200,8200,NA,NA,NA,NA,NA,NA,NA,NA,NA,40.14,"LFBL 061830Z AUTO 19007KT 9000 FEW012 OVC082 07/05 Q1020 TEMPO 0300 BECMG VV///"
"2447","LFBL",2019-12-06 19:00:00,1.175,45.8611,44.6,41,87.09,NA,3,0,30.15,NA,4.97,NA,"BKN","OVC",NA,NA,1400,8000,NA,NA,NA,NA,NA,NA,NA,NA,NA,43.09,"LFBL 061900Z AUTO VRB03KT 8000 BKN014 OVC080 07/05 Q1021 TEMPO 0300 BECMG VV///"
"2448","LFBL",2019-12-06 19:30:00,1.175,45.8611,44.6,41,87.09,220,5,0,30.15,NA,6.21,NA,"OVC",NA,NA,NA,1100,NA,NA,NA,NA,NA,NA,NA,NA,NA,NA,41.36,"LFBL 061930Z AUTO 22005KT 190V250 9999 OVC011 07/05 Q1021 TEMPO 0300 BECMG VV///"
"2449","LFBL",2019-12-06 20:00:00,1.175,45.8611,44.6,41,87.09,180,8,0,30.12,NA,5.59,NA,"BKN","BKN","OVC",NA,1000,6000,9400,NA,NA,NA,NA,NA,NA,NA,NA,39.63,"LFBL 062000Z AUTO 18008KT 9000 BKN010 BKN060 OVC094 07/05 Q1020 TEMPO 0300 BECMG VV///"
"2450","LFBL",2019-12-06 20:30:00,1.175,45.8611,42.8,41,93.3,180,7,0,30.12,NA,5.59,NA,"OVC",NA,NA,NA,900,NA,NA,NA,NA,NA,NA,NA,NA,NA,NA,37.94,"LFBL 062030Z AUTO 18007KT 9000 OVC009 06/05 Q1020 TEMPO 0300 BECMG VV///"
"2451","LFBL",2019-12-06 21:00:00,1.175,45.8611,42.8,39.2,86.99,210,5,0,30.12,NA,5.59,NA,"BKN","BKN",NA,NA,900,1500,NA,NA,NA,NA,NA,NA,NA,NA,NA,39.22,"LFBL 062100Z AUTO 21005KT 9000 BKN009 BKN015 06/04 Q1020 TEMPO 0300 BECMG VV///"
"2452","LFBL",2019-12-06 21:30:00,1.175,45.8611,42.8,41,93.3,190,6,0,30.12,NA,4.35,NA,"BKN","BKN",NA,NA,1500,2400,NA,NA,NA,NA,NA,NA,NA,NA,NA,38.54,"LFBL 062130Z AUTO 19006KT 7000 BKN015 BKN024 06/05 Q1020 TEMPO 0300 BECMG VV///"
"2453","LFBL",2019-12-06 22:00:00,1.175,45.8611,42.8,41,93.3,200,5,0,30.12,NA,4.35,NA,"OVC",NA,NA,NA,700,NA,NA,NA,NA,NA,NA,NA,NA,NA,NA,39.22,"LFBL 062200Z AUTO 20005KT 7000 OVC007 06/05 Q1020 TEMPO 0300 BECMG VV///"
"2454","LFBL",2019-12-06 22:30:00,1.175,45.8611,42.8,42.8,100,200,6,0,30.15,NA,3.11,NA,"OVC",NA,NA,NA,400,NA,NA,NA,"BR",NA,NA,NA,NA,NA,NA,38.54,"LFBL 062230Z AUTO 20006KT 5000 BR OVC004 06/06 Q1021 NOSIG"
"2455","LFBL",2019-12-06 23:00:00,1.175,45.8611,42.8,42.8,100,210,7,0,30.15,NA,1.55,NA,"VV ",NA,NA,NA,NA,NA,NA,NA,"BR",NA,NA,NA,NA,NA,NA,37.94,"LFBL 062300Z AUTO 21007KT 2500 BR VV/// 06/06 Q1021 TEMPO 4000 BR OVC003"
"2456","LFBL",2019-12-06 23:30:00,1.175,45.8611,42.8,42.8,100,190,5,0,30.15,NA,3.11,NA,"OVC",NA,NA,NA,200,NA,NA,NA,"BR",NA,NA,NA,NA,NA,NA,39.22,"LFBL 062330Z AUTO 19005KT 140V240 5000 BR OVC002 06/06 Q1021 TEMPO 0600 FG VV///"
"2457","LFRH",2019-12-06 00:30:00,-3.4428,47.7686,50,46.4,87.37,240,11,0,30.15,NA,6.21,NA,"FEW","BKN","BKN",NA,1500,2200,2700,NA,NA,NA,NA,NA,NA,NA,NA,45.21,"LFRH 060030Z AUTO 24011KT 9999 FEW015 BKN022 BKN027 10/08 Q1021 NOSIG"
"2458","LFRH",2019-12-06 01:00:00,-3.4428,47.7686,50,46.4,87.37,240,13,0,30.15,NA,6.21,NA,"FEW","SCT","OVC",NA,1600,2700,15000,NA,NA,NA,NA,NA,NA,NA,NA,44.63,"LFRH 060100Z AUTO 24013KT 9999 FEW016 SCT027 OVC150 10/08 Q1021 NOSIG"
"2459","LFRH",2019-12-06 01:30:00,-3.4428,47.7686,50,46.4,87.37,250,12,0,30.12,NA,6.21,NA,"FEW","BKN","BKN",NA,1900,15000,17000,NA,NA,NA,NA,NA,NA,NA,NA,44.91,"LFRH 060130Z AUTO 25012KT 9999 FEW019 BKN150 BKN170 10/08 Q1020 BECMG 4000 RA OVC014"
"2460","LFRH",2019-12-06 02:00:00,-3.4428,47.7686,50,46.4,87.37,250,14,0,30.12,NA,6.21,NA,"SCT","SCT","BKN",NA,1800,2500,8200,NA,NA,NA,NA,NA,NA,NA,NA,44.36,"LFRH 060200Z AUTO 25014KT 9999 SCT018 SCT025 BKN082 10/08 Q1020 BECMG 4000 RA OVC014"
"2461","LFRH",2019-12-06 02:30:00,-3.4428,47.7686,50,46.4,87.37,250,13,0,30.12,NA,6.21,NA,"FEW","BKN","OVC",NA,1800,12000,15000,NA,NA,NA,NA,NA,NA,NA,NA,44.63,"LFRH 060230Z AUTO 25013KT 9999 FEW018 BKN120 OVC150 10/08 Q1020 BECMG 4000 RA OVC014"
"2462","LFRH",2019-12-06 03:00:00,-3.4428,47.7686,50,46.4,87.37,250,14,0,30.12,NA,6.21,NA,"FEW","BKN","OVC",NA,2000,12000,14000,NA,NA,NA,NA,NA,NA,NA,NA,44.36,"LFRH 060300Z AUTO 25014KT 9999 FEW020 BKN120 OVC140 10/08 Q1020 BECMG 4000 RA OVC014"
"2463","LFRH",2019-12-06 03:30:00,-3.4428,47.7686,51.8,48.2,87.47,240,14,0,30.09,NA,6.21,NA,"SCT","BKN","BKN",NA,2000,7400,11000,NA,NA,NA,NA,NA,NA,NA,NA,NA,"LFRH 060330Z AUTO 24014KT 9999 SCT020 BKN074 BKN110 11/09 Q1019 BECMG 4000 RA OVC014"
"2464","LFRH",2019-12-06 04:00:00,-3.4428,47.7686,51.8,46.4,81.74,240,15,0,30.09,NA,6.21,NA,"BKN","BKN","OVC",NA,1600,2300,12000,NA,NA,NA,NA,NA,NA,NA,NA,NA,"LFRH 060400Z AUTO 24015KT 9999 BKN016 BKN023 OVC120 11/08 Q1019 BECMG 24010G20KT 4000 RA OVC014"
"2465","LFRH",2019-12-06 04:30:00,-3.4428,47.7686,51.8,48.2,87.47,240,14,0,30.09,NA,6.21,NA,"BKN","BKN","OVC",NA,1600,2300,3600,NA,NA,NA,NA,NA,NA,NA,NA,NA,"LFRH 060430Z AUTO 24014KT 9999 BKN016 BKN023 OVC036 11/09 Q1019 BECMG 4000 RA OVC014"
"2466","LFRH",2019-12-06 05:00:00,-3.4428,47.7686,51.8,48.2,87.47,240,14,0,30.09,NA,6.21,NA,"BKN","BKN","OVC",NA,1700,2400,3300,NA,NA,NA,NA,NA,NA,NA,NA,NA,"LFRH 060500Z AUTO 24014KT 9999 BKN017 BKN024 OVC033 11/09 Q1019 BECMG 4000 RA OVC014"
"2467","LFRH",2019-12-06 05:30:00,-3.4428,47.7686,51.8,46.4,81.74,240,14,0,30.06,NA,6.21,NA,"BKN","OVC",NA,NA,1700,2200,NA,NA,NA,NA,NA,NA,NA,NA,NA,NA,"LFRH 060530Z AUTO 24014KT 9999 BKN017 OVC022 11/08 Q1018 BECMG 4000 RA OVC014"
"2468","LFRH",2019-12-06 06:00:00,-3.4428,47.7686,50,48.2,93.5,230,14,0,30.06,NA,6.21,NA,"BKN","OVC","///",NA,1800,2500,NA,NA,"-RA",NA,NA,NA,NA,NA,NA,44.36,"LFRH 060600Z AUTO 23014KT 9999 -RA BKN018/// OVC025/// ///TCU 10/09 Q1018 BECMG BKN017 OVC023"
"2469","LFRH",2019-12-06 06:30:00,-3.4428,47.7686,50,48.2,93.5,230,14,0,30.06,NA,6.21,NA,"BKN","BKN","OVC","///",1600,2700,8600,NA,"-RA",NA,NA,NA,NA,NA,NA,44.36,"LFRH 060630Z AUTO 23014KT 9999 -RA BKN016/// BKN027/// OVC086/// ///TCU 10/09 Q1018 BECMG 24015G30KT 4000 SHRA BKN009TCU OVC015"
"2470","LFRH",2019-12-06 07:00:00,-3.4428,47.7686,50,48.2,93.5,230,15,0,30.09,NA,6.21,NA,"OVC","///",NA,NA,1500,NA,NA,NA,"-RA",NA,NA,NA,NA,NA,NA,44.12,"LFRH 060700Z AUTO 23015KT 9999 -RA OVC015/// ///TCU 10/09 Q1019 BECMG 24015G30KT 4000 SHRA BKN009TCU OVC015"
"2471","LFRH",2019-12-06 07:30:00,-3.4428,47.7686,50,48.2,93.5,230,16,0,30.09,NA,6.21,NA,"BKN","OVC","///",NA,1300,2000,NA,NA,"-RADZ",NA,NA,NA,NA,NA,NA,43.88,"LFRH 060730Z AUTO 23016KT 9999 -RADZ BKN013/// OVC020/// ///TCU 10/09 Q1019 BECMG 24015G30KT 4000 SHRA BKN009TCU OVC015"
"2472","LFRH",2019-12-06 08:00:00,-3.4428,47.7686,50,48.2,93.5,240,17,0,30.06,NA,6.21,NA,"OVC",NA,NA,NA,900,NA,NA,NA,"-DZ",NA,NA,NA,NA,NA,NA,43.66,"LFRH 060800Z AUTO 24017KT 9999 1100 R25/P2000 R07/1500D -DZ OVC009 10/09 Q1018 BECMG 24015G30KT 4000 SHRA BKN009TCU OVC015"
"2473","LFRH",2019-12-06 08:30:00,-3.4428,47.7686,51.8,50,93.55,230,16,0,30.06,NA,6.21,NA,"OVC",NA,NA,NA,1100,NA,NA,NA,NA,NA,NA,NA,NA,NA,NA,NA,"LFRH 060830Z AUTO 23016KT 9999 OVC011 11/10 Q1018 BECMG 24015G30KT 4000 SHRA BKN009TCU OVC015"
"2474","LFRH",2019-12-06 09:00:00,-3.4428,47.7686,51.8,50,93.55,230,17,0,30.06,NA,6.21,NA,"OVC",NA,NA,NA,1100,NA,NA,NA,NA,NA,NA,NA,NA,NA,NA,NA,"LFRH 060900Z AUTO 23017KT 9999 OVC011 11/10 Q1018 BECMG 24015G30KT RADZ BKN009 OVC015"
"2475","LFRH",2019-12-06 09:30:00,-3.4428,47.7686,51.8,50,93.55,230,17,0,30.06,NA,6.21,NA,"OVC",NA,NA,NA,1200,NA,NA,NA,NA,NA,NA,NA,NA,NA,NA,NA,"LFRH 060930Z AUTO 23017KT 9999 OVC012 11/10 Q1018 BECMG 24015G30KT RADZ BKN009 OVC015"
"2476","LFRH",2019-12-06 10:00:00,-3.4428,47.7686,51.8,50,93.55,230,18,0,30.06,NA,3.73,NA,"OVC",NA,NA,NA,900,NA,NA,NA,"-RA",NA,NA,NA,NA,NA,NA,NA,"LFRH 061000Z AUTO 23018KT 6000 -RA OVC009 11/10 Q1018 BECMG 24015G30KT RADZ"
"2477","LFRH",2019-12-06 10:30:00,-3.4428,47.7686,51.8,51.8,100,230,17,0,30.06,NA,4.35,NA,"OVC",NA,NA,NA,800,NA,NA,NA,NA,NA,NA,NA,NA,NA,NA,NA,"LFRH 061030Z AUTO 23017KT 7000 OVC008 11/11 Q1018 BECMG 24015G30KT RADZ"
"2478","LFRH",2019-12-06 11:00:00,-3.4428,47.7686,53.6,51.8,93.6,230,17,0,30.03,NA,6.21,NA,"OVC",NA,NA,NA,800,NA,NA,NA,NA,NA,NA,NA,NA,NA,NA,NA,"LFRH 061100Z AUTO 23017KT 9999 OVC008 12/11 Q1017 BECMG 24015G30KT RADZ"
"2479","LFRH",2019-12-06 11:30:00,-3.4428,47.7686,53.6,51.8,93.6,230,18,0,30.03,NA,6.21,NA,"OVC",NA,NA,NA,800,NA,NA,NA,NA,NA,NA,NA,NA,NA,NA,NA,"LFRH 061130Z AUTO 23018KT 9999 OVC008 12/11 Q1017 TEMPO 3000 RADZ BKN003 BECMG 24017G27KT"
"2480","LFRH",2019-12-06 12:00:00,-3.4428,47.7686,53.6,51.8,93.6,240,19,0,30,NA,6.21,NA,"BKN","OVC",NA,NA,700,1100,NA,NA,NA,NA,NA,NA,NA,NA,NA,NA,"LFRH 061200Z AUTO 24019KT 9999 BKN007 OVC011 12/11 Q1016 TEMPO 3000 RADZ BKN003 BECMG 24017G27KT"
"2481","LFRH",2019-12-06 12:30:00,-3.4428,47.7686,53.6,51.8,93.6,240,18,0,30,NA,1.37,NA,"BKN","OVC",NA,NA,400,800,NA,NA,"-DZ BR",NA,NA,NA,NA,NA,NA,NA,"LFRH 061230Z AUTO 24018KT 2200 -DZ BR BKN004 OVC008 12/11 Q1016 TEMPO 3000 RADZ BECMG 24017G27KT"
"2482","LFRH",2019-12-06 13:00:00,-3.4428,47.7686,51.8,51.8,100,240,20,0,29.97,NA,3.11,NA,"BKN","OVC",NA,NA,500,900,NA,NA,"BR",NA,NA,NA,NA,NA,NA,NA,"LFRH 061300Z AUTO 24020KT 5000 BR BKN005 OVC009 11/11 Q1015 TEMPO RADZ BECMG 24017G27KT"
"2483","LFRH",2019-12-06 13:30:00,-3.4428,47.7686,53.6,51.8,93.6,230,22,0,29.94,NA,6.21,NA,"OVC",NA,NA,NA,700,NA,NA,NA,NA,NA,NA,NA,NA,NA,NA,NA,"LFRH 061330Z AUTO 23022KT 9999 4500 OVC007 12/11 Q1014 TEMPO 3000 RADZ BKN003 BECMG 24017G27KT"
"2484","LFRH",2019-12-06 14:00:00,-3.4428,47.7686,53.6,51.8,93.6,240,21,0,29.97,NA,2.05,NA,"OVC",NA,NA,NA,400,NA,NA,NA,"-DZ BR",NA,NA,NA,NA,NA,NA,NA,"LFRH 061400Z AUTO 24021KT 3300 -DZ BR OVC004 12/11 Q1015 TEMPO RADZ BECMG 24017G27KT"
"2485","LFRH",2019-12-06 14:30:00,-3.4428,47.7686,53.6,51.8,93.6,240,21,0,29.94,NA,1.68,NA,"OVC",NA,NA,NA,300,NA,NA,NA,"-DZ BR",NA,NA,NA,NA,NA,NA,NA,"LFRH 061430Z AUTO 24021KT 2700 -DZ BR OVC003 12/11 Q1014 BECMG 24017G27KT 9999 NSW BKN008 OVC012"
"2486","LFRH",2019-12-06 15:00:00,-3.4428,47.7686,53.6,53.6,100,240,21,0,29.94,NA,2.55,NA,"OVC",NA,NA,NA,300,NA,NA,NA,"BR",NA,NA,NA,NA,NA,NA,NA,"LFRH 061500Z AUTO 24021KT 4100 BR OVC003 12/12 Q1014 BECMG 24017G27KT 9999 NSW BKN008 OVC012"
"2487","LFRH",2019-12-06 15:30:00,-3.4428,47.7686,53.6,53.6,100,240,19,0,29.94,NA,1.68,NA,"OVC",NA,NA,NA,300,NA,NA,NA,"-DZ BR",NA,NA,NA,NA,NA,NA,NA,"LFRH 061530Z AUTO 24019KT 2700 -DZ BR OVC003 12/12 Q1014 BECMG 24017G27KT 9999 NSW BKN008 OVC012"
"2488","LFRH",2019-12-06 16:00:00,-3.4428,47.7686,51.8,51.8,100,260,14,0,29.97,NA,6.21,NA,"SCT","BKN","BKN",NA,300,2200,2800,NA,NA,NA,NA,NA,NA,NA,NA,NA,"LFRH 061600Z AUTO 26014KT 9999 SCT003 BKN022 BKN028 11/11 Q1015 BECMG 24017G27KT BKN008 OVC012"
"2489","LFRH",2019-12-06 16:30:00,-3.4428,47.7686,51.8,51.8,100,260,12,0,29.97,NA,6.21,NA,"OVC",NA,NA,NA,3400,NA,NA,NA,NA,NA,NA,NA,NA,NA,NA,NA,"LFRH 061630Z AUTO 26012KT 9999 OVC034 11/11 Q1015 TEMPO 24017G27KT BECMG BKN008 OVC012"
"2490","LFRH",2019-12-06 17:00:00,-3.4428,47.7686,51.8,51.8,100,270,10,0,29.97,NA,6.21,NA,"FEW","OVC",NA,NA,1800,3400,NA,NA,NA,NA,NA,NA,NA,NA,NA,NA,"LFRH 061700Z AUTO 27010KT 9999 FEW018 OVC034 11/11 Q1015 TEMPO 24017G27KT BECMG BKN008 OVC012"
"2491","LFRH",2019-12-06 17:30:00,-3.4428,47.7686,51.8,51.8,100,270,10,0,29.97,NA,6.21,NA,"BKN","BKN","BKN",NA,1500,2100,2700,NA,NA,NA,NA,NA,NA,NA,NA,NA,"LFRH 061730Z AUTO 27010KT 9999 BKN015 BKN021 BKN027 11/11 Q1015 BECMG BKN008 BKN035"
"2492","LFRH",2019-12-06 18:00:00,-3.4428,47.7686,51.8,51.8,100,260,10,0,29.97,NA,6.21,NA,"FEW","BKN",NA,NA,1400,4100,NA,NA,NA,NA,NA,NA,NA,NA,NA,NA,"LFRH 061800Z AUTO 26010KT 9999 FEW014 BKN041 11/11 Q1015 BECMG BKN008 BKN035"
"2493","LFRH",2019-12-06 18:30:00,-3.4428,47.7686,51.8,50,93.55,260,11,0,29.97,NA,6.21,NA,"FEW","OVC",NA,NA,900,4000,NA,NA,NA,NA,NA,NA,NA,NA,NA,NA,"LFRH 061830Z AUTO 26011KT 9999 FEW009 OVC040 11/10 Q1015 BECMG BKN008 BKN035"
"2494","LFRH",2019-12-06 19:00:00,-3.4428,47.7686,51.8,50,93.55,260,12,0,30,NA,6.21,NA,"BKN",NA,NA,NA,4300,NA,NA,NA,NA,NA,NA,NA,NA,NA,NA,NA,"LFRH 061900Z AUTO 26012KT 9999 BKN043 11/10 Q1016 BECMG BKN008 BKN035"
"2495","LFRH",2019-12-06 19:30:00,-3.4428,47.7686,51.8,50,93.55,250,10,0,30,NA,6.21,NA,"OVC",NA,NA,NA,4200,NA,NA,NA,NA,NA,NA,NA,NA,NA,NA,NA,"LFRH 061930Z AUTO 25010KT 9999 OVC042 11/10 Q1016 BECMG BKN008 BKN035"
"2496","LFRH",2019-12-06 20:00:00,-3.4428,47.7686,51.8,50,93.55,260,11,0,30,NA,6.21,NA,"FEW","OVC",NA,NA,3400,4300,NA,NA,NA,NA,NA,NA,NA,NA,NA,NA,"LFRH 062000Z AUTO 26011KT 9999 FEW034 OVC043 11/10 Q1016 BECMG BKN008 BKN035"
"2497","LFRH",2019-12-06 20:30:00,-3.4428,47.7686,53.6,51.8,93.6,250,13,0,30,NA,6.21,NA,"FEW","SCT","BKN",NA,2100,2800,3700,NA,NA,NA,NA,NA,NA,NA,NA,NA,"LFRH 062030Z AUTO 25013KT 9999 FEW021 SCT028 BKN037 12/11 Q1016 TEMPO BKN003"
"2498","LFRH",2019-12-06 21:00:00,-3.4428,47.7686,53.6,50,87.56,260,14,0,30,NA,6.21,NA,"FEW","SCT","OVC",NA,1400,2800,4000,NA,NA,NA,NA,NA,NA,NA,NA,NA,"LFRH 062100Z AUTO 26014KT 9999 FEW014 SCT028 OVC040 12/10 Q1016 TEMPO BKN003"
"2499","LFRH",2019-12-06 21:30:00,-3.4428,47.7686,53.6,51.8,93.6,250,13,0,30.03,NA,6.21,NA,"SCT","OVC",NA,NA,2900,3800,NA,NA,NA,NA,NA,NA,NA,NA,NA,NA,"LFRH 062130Z AUTO 25013KT 9999 SCT029 OVC038 12/11 Q1017 TEMPO BKN003"
"2500","LFRH",2019-12-06 22:00:00,-3.4428,47.7686,53.6,50,87.56,260,11,0,30.03,NA,6.21,NA,"FEW","BKN","OVC",NA,2100,3000,3700,NA,NA,NA,NA,NA,NA,NA,NA,NA,"LFRH 062200Z AUTO 26011KT 9999 FEW021 BKN030 OVC037 12/10 Q1017 TEMPO BKN003"
"2501","LFRH",2019-12-06 22:30:00,-3.4428,47.7686,51.8,50,93.55,260,10,0,30.03,NA,6.21,NA,"FEW","BKN","OVC",NA,1100,4000,4600,NA,NA,NA,NA,NA,NA,NA,NA,NA,"LFRH 062230Z AUTO 26010KT 9999 FEW011 BKN040 OVC046 11/10 Q1017 TEMPO BKN003"
"2502","LFRH",2019-12-06 23:00:00,-3.4428,47.7686,51.8,50,93.55,260,9,0,30.03,NA,6.21,NA,"BKN","OVC",NA,NA,4200,4800,NA,NA,NA,NA,NA,NA,NA,NA,NA,NA,"LFRH 062300Z AUTO 26009KT 9999 BKN042 OVC048 11/10 Q1017 TEMPO BKN003"
"2503","LFRH",2019-12-06 23:30:00,-3.4428,47.7686,51.8,50,93.55,260,7,0,30.03,NA,6.21,NA,"FEW","OVC",NA,NA,900,4200,NA,NA,NA,NA,NA,NA,NA,NA,NA,NA,"LFRH 062330Z AUTO 26007KT 9999 FEW009 OVC042 11/10 Q1017 TEMPO BKN003"
"2504","LFSX",2019-12-06 00:00:00,6.3639,47.7869,28.4,28.4,100,110,3,0,30.21,NA,0.47,NA,"VV ",NA,NA,NA,NA,NA,NA,NA,"FZFG",NA,NA,NA,NA,NA,NA,24.57,"LFSX 060000Z AUTO 11003KT 0750 0700 R11/0800N FZFG VV/// M02/M02 Q1023"
"2505","LFSX",2019-12-06 00:30:00,6.3639,47.7869,28.4,28.4,100,100,3,0,30.21,NA,0.4,NA,"VV ",NA,NA,NA,NA,NA,NA,NA,"FZFG",NA,NA,NA,NA,NA,NA,24.57,"LFSX 060030Z AUTO 10003KT 0650 0600 R11/0700N FZFG VV/// M02/M02 Q1023"
"2506","LFSX",2019-12-06 01:00:00,6.3639,47.7869,28.4,28.4,100,110,3,0,30.21,NA,0.4,NA,"VV ",NA,NA,NA,NA,NA,NA,NA,"FZFG",NA,NA,NA,NA,NA,NA,24.57,"LFSX 060100Z AUTO 11003KT 0650 0600 R11/0700N FZFG VV/// M02/M02 Q1023"
"2507","LFSX",2019-12-06 01:30:00,6.3639,47.7869,30.2,30.2,100,NA,2,0,30.21,NA,0.4,NA,"VV ",NA,NA,NA,NA,NA,NA,NA,"FZFG",NA,NA,NA,NA,NA,NA,NA,"LFSX 060130Z AUTO VRB02KT 0650 0600 R11/0700N FZFG VV/// M01/M01 Q1023"
"2508","LFSX",2019-12-06 02:00:00,6.3639,47.7869,30.2,30.2,100,120,3,0,30.21,NA,0.5,NA,"VV ",NA,NA,NA,NA,NA,NA,NA,"FZFG",NA,NA,NA,NA,NA,NA,26.63,"LFSX 060200Z AUTO 12003KT 0800 R11/0900N FZFG VV/// M01/M01 Q1023"
"2509","LFSX",2019-12-06 02:30:00,6.3639,47.7869,30.2,30.2,100,140,3,0,30.21,NA,0.43,NA,"VV ",NA,NA,NA,NA,NA,NA,NA,"FZFG",NA,NA,NA,NA,NA,NA,26.63,"LFSX 060230Z AUTO 14003KT 0700 R11/0750N FZFG VV/// M01/M01 Q1023"
"2510","LFSX",2019-12-06 03:00:00,6.3639,47.7869,30.2,30.2,100,130,3,0,30.21,NA,0.4,NA,"VV ",NA,NA,NA,NA,NA,NA,NA,"FZFG",NA,NA,NA,NA,NA,NA,26.63,"LFSX 060300Z AUTO 13003KT 0650 R11/0800N FZFG VV/// M01/M01 Q1023"
"2511","LFSX",2019-12-06 03:30:00,6.3639,47.7869,30.2,30.2,100,NA,3,0,30.21,NA,0.75,NA,"VV ",NA,NA,NA,NA,NA,NA,NA,"BR",NA,NA,NA,NA,NA,NA,26.63,"LFSX 060330Z AUTO VRB03KT 1200 R11/1500D BR VV/// M01/M01 Q1023"
"2512","LFSX",2019-12-06 04:00:00,6.3639,47.7869,30.2,30.2,100,120,4,0,30.21,NA,0.68,NA,"OVC",NA,NA,NA,300,NA,NA,NA,"BR",NA,NA,NA,NA,NA,NA,25.32,"LFSX 060400Z AUTO 12004KT 1100 1000 R11/1300U BR OVC003 M01/M01 Q1023"
"2513","LFSX",2019-12-06 04:30:00,6.3639,47.7869,30.2,30.2,100,110,5,0,30.18,NA,0.56,NA,"VV ",NA,NA,NA,NA,NA,NA,NA,"FZFG",NA,NA,NA,NA,NA,NA,24.26,"LFSX 060430Z AUTO 11005KT 0900 0800 R11/1000N FZFG VV/// M01/M01 Q1022"
"2514","LFSX",2019-12-06 05:00:00,6.3639,47.7869,30.2,30.2,100,120,6,0,30.18,NA,0.99,NA,"VV ",NA,NA,NA,NA,NA,NA,NA,"BR",NA,NA,NA,NA,NA,NA,23.36,"LFSX 060500Z AUTO 12006KT 1600 1400 R11/1700U BR VV/// M01/M01 Q1022"
"2515","LFSX",2019-12-06 05:30:00,6.3639,47.7869,32,32,100,120,4,0,30.18,NA,0.56,NA,"VV ",NA,NA,NA,NA,NA,NA,NA,"FZFG",NA,NA,NA,NA,NA,NA,27.42,"LFSX 060530Z AUTO 12004KT 0900 R11/1100U FZFG VV/// M00/M00 Q1022"
"2516","LFSX",2019-12-06 06:00:00,6.3639,47.7869,32,32,100,130,6,0,30.18,NA,0.56,NA,"VV ",NA,NA,NA,NA,NA,NA,NA,"FZFG",NA,NA,NA,NA,NA,NA,25.53,"LFSX 060600Z AUTO 13006KT 0900 0800 R11/1000D FZFG VV/// M00/M00 Q1022"
"2517","LFSX",2019-12-06 06:30:00,6.3639,47.7869,32,32,100,130,6,0,30.18,NA,0.68,NA,"VV ",NA,NA,NA,NA,NA,NA,NA,"BR",NA,NA,NA,NA,NA,NA,25.53,"LFSX 060630Z AUTO 13006KT 1100 1000 R11/1300N BR VV/// M00/M00 Q1022"
"2518","LFSX",2019-12-06 07:00:00,6.3639,47.7869,32,32,100,130,6,0,30.18,NA,0.81,NA,"VV ",NA,NA,NA,NA,NA,NA,NA,"BR",NA,NA,NA,NA,NA,NA,25.53,"LFSX 060700Z AUTO 13006KT 1300 R11/1600N BR VV/// M00/M00 Q1022"
"2519","LFSX",2019-12-06 07:30:00,6.3639,47.7869,32,32,100,130,7,0,30.18,NA,0.47,NA,"VV ",NA,NA,NA,NA,NA,NA,NA,"FZFG",NA,NA,NA,NA,NA,NA,24.78,"LFSX 060730Z AUTO 13007KT 0750 R11/0900U FZFG VV/// M00/M00 Q1022"
"2520","LFSX",2019-12-06 08:00:00,6.3639,47.7869,32,32,100,130,6,0,30.18,NA,0.5,NA,"VV ",NA,NA,NA,NA,NA,NA,NA,"FZFG",NA,NA,NA,NA,NA,NA,25.53,"LFSX 060800Z AUTO 13006KT 0800 R11/1100D FZFG VV/// M00/M00 Q1022"
"2521","LFSX",2019-12-06 08:30:00,6.3639,47.7869,32,32,100,110,3,0,30.18,NA,0.75,NA,"VV ",NA,NA,NA,NA,NA,NA,NA,"BR",NA,NA,NA,NA,NA,NA,28.69,"LFSX 060830Z AUTO 11003KT 1200 1000 R11/1400U BR VV/// M00/M00 Q1022"
"2522","LFSX",2019-12-06 09:00:00,6.3639,47.7869,32,32,100,120,4,0,30.18,NA,1.37,NA,"OVC",NA,NA,NA,200,NA,NA,NA,"BR",NA,NA,NA,NA,NA,NA,27.42,"LFSX 060900Z AUTO 12004KT 2200 BR OVC002 M00/M00 Q1022"
"2523","LFSX",2019-12-06 09:30:00,6.3639,47.7869,32,32,100,130,5,0,30.18,NA,1.62,NA,"OVC",NA,NA,NA,300,NA,NA,NA,"BR",NA,NA,NA,NA,NA,NA,26.4,"LFSX 060930Z AUTO 13005KT 100V160 2600 BR OVC003 00/00 Q1022"
"2524","LFSX",2019-12-06 10:00:00,6.3639,47.7869,32,32,100,130,4,0,30.18,NA,2.67,NA,"OVC",NA,NA,NA,400,NA,NA,NA,"BR",NA,NA,NA,NA,NA,NA,27.42,"LFSX 061000Z AUTO 13004KT 070V180 4300 BR OVC004 00/00 Q1022"
"2525","LFSX",2019-12-06 10:30:00,6.3639,47.7869,33.8,33.8,100,130,4,0,30.18,NA,3.11,NA,"OVC",NA,NA,NA,400,NA,NA,NA,"BR",NA,NA,NA,NA,NA,NA,29.52,"LFSX 061030Z AUTO 13004KT 080V160 5000 BR OVC004 01/01 Q1022"
"2526","LFSX",2019-12-06 11:00:00,6.3639,47.7869,33.8,33.8,100,130,4,0,30.15,NA,3.11,NA,"OVC",NA,NA,NA,500,NA,NA,NA,"BR",NA,NA,NA,NA,NA,NA,29.52,"LFSX 061100Z AUTO 13004KT 100V160 5000 BR OVC005 01/01 Q1021"
"2527","LFSX",2019-12-06 11:30:00,6.3639,47.7869,35.6,33.8,93.08,NA,2,0,30.15,NA,3.73,NA,"BKN","BKN",NA,NA,500,900,NA,NA,NA,NA,NA,NA,NA,NA,NA,NA,"LFSX 061130Z AUTO VRB02KT 6000 BKN005 BKN009 02/01 Q1021"
"2528","LFSX",2019-12-06 12:00:00,6.3639,47.7869,35.6,33.8,93.08,NA,2,0,30.12,NA,3.73,NA,"SCT",NA,NA,NA,600,NA,NA,NA,NA,NA,NA,NA,NA,NA,NA,NA,"LFSX 061200Z AUTO VRB02KT 6000 SCT006 02/01 Q1020"
"2529","LFSX",2019-12-06 12:30:00,6.3639,47.7869,37.4,35.6,93.14,NA,2,0,30.12,NA,4.35,NA,"FEW","SCT",NA,NA,600,24000,NA,NA,NA,NA,NA,NA,NA,NA,NA,NA,"LFSX 061230Z AUTO VRB02KT 7000 FEW006 SCT240 03/02 Q1020"
"2530","LFSX",2019-12-06 13:00:00,6.3639,47.7869,39.2,35.6,86.79,NA,1,0,30.09,NA,4.97,NA,"FEW","BKN",NA,NA,600,23000,NA,NA,NA,NA,NA,NA,NA,NA,NA,NA,"LFSX 061300Z AUTO VRB01KT 8000 FEW006 BKN230 04/02 Q1019"
"2531","LFSX",2019-12-06 13:30:00,6.3639,47.7869,39.2,35.6,86.79,0,0,0,30.09,NA,4.97,NA,"NSC",NA,NA,NA,NA,NA,NA,NA,NA,NA,NA,NA,NA,NA,NA,NA,"LFSX 061330Z AUTO 00000KT 8000 NSC 04/02 Q1019"
"2532","LFSX",2019-12-06 14:00:00,6.3639,47.7869,39.2,37.4,93.19,NA,2,0,30.09,NA,4.97,NA,"NSC",NA,NA,NA,NA,NA,NA,NA,NA,NA,NA,NA,NA,NA,NA,NA,"LFSX 061400Z AUTO VRB02KT 8000 NSC 04/03 Q1019"
"2533","LFSX",2019-12-06 14:30:00,6.3639,47.7869,39.2,37.4,93.19,NA,1,0,30.09,NA,4.97,NA,"NSC",NA,NA,NA,NA,NA,NA,NA,NA,NA,NA,NA,NA,NA,NA,NA,"LFSX 061430Z AUTO VRB01KT 8000 NSC 04/03 Q1019"
"2534","LFSX",2019-12-06 15:00:00,6.3639,47.7869,39.2,37.4,93.19,0,0,0,30.06,NA,4.35,NA,"NSC",NA,NA,NA,NA,NA,NA,NA,NA,NA,NA,NA,NA,NA,NA,NA,"LFSX 061500Z AUTO 00000KT 7000 NSC 04/03 Q1018"
"2535","LFSX",2019-12-06 15:30:00,6.3639,47.7869,37.4,35.6,93.14,NA,1,0,30.06,NA,3.11,NA,"NSC",NA,NA,NA,NA,NA,NA,NA,"BR",NA,NA,NA,NA,NA,NA,NA,"LFSX 061530Z AUTO VRB01KT 5000 BR NSC 03/02 Q1018"
"2536","LFSX",2019-12-06 16:00:00,6.3639,47.7869,35.6,33.8,93.08,0,0,0,30.06,NA,3.11,NA,"NSC",NA,NA,NA,NA,NA,NA,NA,"BR",NA,NA,NA,NA,NA,NA,NA,"LFSX 061600Z AUTO 00000KT 5000 BR NSC 02/01 Q1018"
"2537","LFSX",2019-12-06 16:30:00,6.3639,47.7869,35.6,33.8,93.08,110,2,0,30.06,NA,3.11,NA,"NSC",NA,NA,NA,NA,NA,NA,NA,"BR",NA,NA,NA,NA,NA,NA,NA,"LFSX 061630Z AUTO 11002KT 5000 BR NSC 02/01 Q1018"
"2538","LFSX",2019-12-06 17:00:00,6.3639,47.7869,35.6,35.6,100,NA,1,0,30.06,NA,3.11,NA,"NSC",NA,NA,NA,NA,NA,NA,NA,"BR",NA,NA,NA,NA,NA,NA,NA,"LFSX 061700Z AUTO VRB01KT 5000 BR NSC 02/02 Q1018"
"2539","LFSX",2019-12-06 17:30:00,6.3639,47.7869,37.4,35.6,93.14,NA,1,0,30.06,NA,3.73,NA,"NSC",NA,NA,NA,NA,NA,NA,NA,NA,NA,NA,NA,NA,NA,NA,NA,"LFSX 061730Z AUTO VRB01KT 6000 NSC 03/02 Q1018"
"2540","LFSX",2019-12-06 18:00:00,6.3639,47.7869,35.6,35.6,100,100,2,0,30.06,NA,4.35,NA,"FEW","OVC",NA,NA,4700,13000,NA,NA,NA,NA,NA,NA,NA,NA,NA,NA,"LFSX 061800Z AUTO 10002KT 7000 FEW047 OVC130 02/02 Q1018"
"2541","LFSX",2019-12-06 18:30:00,6.3639,47.7869,35.6,33.8,93.08,NA,1,0,30.06,NA,4.35,NA,"NSC",NA,NA,NA,NA,NA,NA,NA,NA,NA,NA,NA,NA,NA,NA,NA,"LFSX 061830Z AUTO VRB01KT 7000 NSC 02/01 Q1018"
"2542","LFSX",2019-12-06 19:00:00,6.3639,47.7869,35.6,33.8,93.08,NA,2,0,30.06,NA,4.35,NA,"FEW","BKN","OVC",NA,3800,7600,10000,NA,NA,NA,NA,NA,NA,NA,NA,NA,"LFSX 061900Z AUTO VRB02KT 7000 FEW038 BKN076 OVC100 02/01 Q1018"
"2543","LFSX",2019-12-06 19:30:00,6.3639,47.7869,35.6,33.8,93.08,0,0,0,30.06,NA,4.35,NA,"NSC",NA,NA,NA,NA,NA,NA,NA,NA,NA,NA,NA,NA,NA,NA,NA,"LFSX 061930Z AUTO 00000KT 7000 NSC 02/01 Q1018"
"2544","LFSX",2019-12-06 20:00:00,6.3639,47.7869,37.4,35.6,93.14,NA,2,0,30.06,NA,4.35,NA,"BKN","OVC",NA,NA,4800,6200,NA,NA,"-RA",NA,NA,NA,NA,NA,NA,NA,"LFSX 062000Z AUTO VRB02KT 7000 -RA BKN048 OVC062 03/02 Q1018"
"2545","LFSX",2019-12-06 20:30:00,6.3639,47.7869,37.4,35.6,93.14,70,3,0,30.06,NA,3.11,NA,"BKN","BKN","BKN","///",4300,5800,6800,NA,"-RA BR",NA,NA,NA,NA,NA,NA,34.86,"LFSX 062030Z AUTO 07003KT 5000 -RA BR BKN043/// BKN058/// BKN068/// ///TCU 03/02 Q1018"
"2546","LFSX",2019-12-06 21:00:00,6.3639,47.7869,37.4,35.6,93.14,140,5,0,30.06,NA,3.11,NA,"FEW","BKN","OVC","///",3800,4500,6000,NA,"-RA BR",NA,NA,NA,NA,NA,NA,32.81,"LFSX 062100Z AUTO 14005KT 5000 -RA BR FEW038/// BKN045/// OVC060/// ///TCU 03/02 Q1018"
"2547","LFSX",2019-12-06 21:30:00,6.3639,47.7869,37.4,37.4,100,130,8,0,30.03,NA,3.73,NA,"FEW","BKN","OVC",NA,3400,4400,6600,NA,NA,NA,NA,NA,NA,NA,NA,30.76,"LFSX 062130Z AUTO 13008KT 6000 FEW034 BKN044 OVC066 03/03 Q1017"
"2548","LFSX",2019-12-06 22:00:00,6.3639,47.7869,41,39.2,93.24,110,5,0,30.03,NA,6.21,NA,"FEW","SCT","BKN",NA,3800,4600,5400,NA,NA,NA,NA,NA,NA,NA,NA,37.08,"LFSX 062200Z AUTO 11005KT 090V150 9999 FEW038 SCT046 BKN054 05/04 Q1017"
"2549","LFSX",2019-12-06 22:30:00,6.3639,47.7869,41,39.2,93.24,40,4,0,30.03,NA,6.21,NA,NA,NA,NA,NA,NA,NA,NA,NA,NA,NA,NA,NA,NA,NA,NA,37.93,"LFSX 062230Z AUTO 04004KT 340V120 CAVOK 05/04 Q1017"
"2550","LFSX",2019-12-06 23:00:00,6.3639,47.7869,42.8,39.2,86.99,60,3,0,30.03,NA,6.21,NA,"FEW","BKN","OVC",NA,1200,7400,8600,NA,NA,NA,NA,NA,NA,NA,NA,41.03,"LFSX 062300Z AUTO 06003KT 020V090 9999 FEW012 BKN074 OVC086 06/04 Q1017"
"2551","LFSX",2019-12-06 23:30:00,6.3639,47.7869,42.8,39.2,86.99,150,5,0,30.03,NA,6.21,NA,NA,NA,NA,NA,NA,NA,NA,NA,NA,NA,NA,NA,NA,NA,NA,39.22,"LFSX 062330Z AUTO 15005KT 080V250 CAVOK 06/04 Q1017"
"2552","LFLY",2019-12-06 00:00:00,4.9378,45.7261,30.2,28.4,92.92,NA,1,0,30.24,NA,0.22,NA,"VV ",NA,NA,NA,NA,NA,NA,NA,"FZFG",NA,NA,NA,NA,NA,NA,NA,"LFLY 060000Z AUTO VRB01KT 0350 R34/0400N FZFG VV/// M01/M02 Q1024 NOSIG"
"2553","LFLY",2019-12-06 00:30:00,4.9378,45.7261,30.2,28.4,92.92,0,0,0,30.24,NA,0.22,NA,"VV ",NA,NA,NA,NA,NA,NA,NA,"FZFG",NA,NA,NA,NA,NA,NA,NA,"LFLY 060030Z AUTO 00000KT 0350 R34/0450N FZFG VV/// M01/M02 Q1024 NOSIG"
"2554","LFLY",2019-12-06 01:00:00,4.9378,45.7261,28.4,28.4,100,NA,2,0,30.24,NA,0.22,NA,"VV ",NA,NA,NA,NA,NA,NA,NA,"FZFG",NA,NA,NA,NA,NA,NA,NA,"LFLY 060100Z AUTO VRB02KT 0350 0300 R34/0450N FZFG VV/// M02/M02 Q1024 NOSIG"
"2555","LFLY",2019-12-06 01:30:00,4.9378,45.7261,28.4,28.4,100,120,3,0,30.24,NA,0.25,NA,"VV ",NA,NA,NA,NA,NA,NA,NA,"FZFG",NA,NA,NA,NA,NA,NA,24.57,"LFLY 060130Z AUTO 12003KT 080V160 0400 0350 R34/0450U FZFG VV/// M02/M02 Q1024 BECMG 0300 FZFG"
"2556","LFLY",2019-12-06 02:00:00,4.9378,45.7261,28.4,28.4,100,NA,2,0,30.24,NA,0.34,NA,"VV ",NA,NA,NA,NA,NA,NA,NA,"FZFG",NA,NA,NA,NA,NA,NA,NA,"LFLY 060200Z AUTO VRB02KT 0550 0450 R34/0800N FZFG VV/// M02/M02 Q1024 BECMG 0300 FZFG"
"2557","LFLY",2019-12-06 02:30:00,4.9378,45.7261,28.4,28.4,100,NA,2,0,30.21,NA,0.34,NA,"VV ",NA,NA,NA,NA,NA,NA,NA,"FZFG",NA,NA,NA,NA,NA,NA,NA,"LFLY 060230Z AUTO VRB02KT 0550 R34/0650N FZFG VV/// M02/M02 Q1023 BECMG 0300 FZFG"
"2558","LFLY",2019-12-06 03:00:00,4.9378,45.7261,28.4,28.4,100,0,0,0,30.24,NA,0.31,NA,"VV ",NA,NA,NA,NA,NA,NA,NA,"FZFG",NA,NA,NA,NA,NA,NA,NA,"LFLY 060300Z AUTO 00000KT 0500 0350 R34/0800U FZFG VV/// M02/M02 Q1024 BECMG 0300 FZFG"
"2559","LFLY",2019-12-06 03:30:00,4.9378,45.7261,28.4,28.4,100,0,0,0,30.21,NA,0.25,NA,"VV ",NA,NA,NA,NA,NA,NA,NA,"FZFG",NA,NA,NA,NA,NA,NA,NA,"LFLY 060330Z AUTO 00000KT 0400 0350 R34/0550N FZFG VV/// M02/M02 Q1023 BECMG 0300 FZFG"
"2560","LFLY",2019-12-06 04:00:00,4.9378,45.7261,28.4,28.4,100,NA,2,0,30.24,NA,0.25,NA,"VV ",NA,NA,NA,NA,NA,NA,NA,"FZFG",NA,NA,NA,NA,NA,NA,NA,"LFLY 060400Z AUTO VRB02KT 0400 R34/0450N FZFG VV/// M02/M02 Q1024 BECMG 0300 FZFG"
"2561","LFLY",2019-12-06 04:30:00,4.9378,45.7261,28.4,28.4,100,NA,3,0,30.21,NA,0.34,NA,"VV ",NA,NA,NA,NA,NA,NA,NA,"FZFG",NA,NA,NA,NA,NA,NA,24.57,"LFLY 060430Z AUTO VRB03KT 0550 0400 R34/0700D FZFG VV/// M02/M02 Q1023 BECMG 0300 FZFG"
"2562","LFLY",2019-12-06 05:00:00,4.9378,45.7261,28.4,28.4,100,130,3,0,30.21,NA,0.25,NA,"VV ",NA,NA,NA,NA,NA,NA,NA,"FZFG",NA,NA,NA,NA,NA,NA,24.57,"LFLY 060500Z AUTO 13003KT 0400 0350 R34/0550N FZFG VV/// M02/M02 Q1023 BECMG 0300 FZFG"
"2563","LFLY",2019-12-06 05:30:00,4.9378,45.7261,28.4,28.4,100,NA,2,0,30.21,NA,0.31,NA,"VV ",NA,NA,NA,NA,NA,NA,NA,"FZFG",NA,NA,NA,NA,NA,NA,NA,"LFLY 060530Z AUTO VRB02KT 0500 0450 R34/0700U FZFG VV/// M02/M02 Q1023 BECMG 0300 FZFG"
"2564","LFLY",2019-12-06 06:00:00,4.9378,45.7261,28.4,28.4,100,NA,1,0,30.24,NA,0.34,NA,"VV ",NA,NA,NA,NA,NA,NA,NA,"FZFG",NA,NA,NA,NA,NA,NA,NA,"LFLY 060600Z AUTO VRB01KT 0550 0500 R34/0800U FZFG VV/// M02/M02 Q1024 NOSIG"
"2565","LFLY",2019-12-06 06:30:00,4.9378,45.7261,28.4,28.4,100,NA,2,0,30.24,NA,0.31,NA,"VV ",NA,NA,NA,NA,NA,NA,NA,"FZFG",NA,NA,NA,NA,NA,NA,NA,"LFLY 060630Z AUTO VRB02KT 0500 0450 R34/0750N FZFG VV/// M02/M02 Q1024 BECMG 4000 BR NSC"
"2566","LFLY",2019-12-06 07:00:00,4.9378,45.7261,28.4,28.4,100,NA,2,0,30.24,NA,0.37,NA,"VV ",NA,NA,NA,NA,NA,NA,NA,"FZFG",NA,NA,NA,NA,NA,NA,NA,"LFLY 060700Z AUTO VRB02KT 0600 R34/0750N FZFG VV/// M02/M02 Q1024 BECMG 4000 BR NSC"
"2567","LFLY",2019-12-06 07:30:00,4.9378,45.7261,28.4,28.4,100,NA,3,0,30.24,NA,0.34,NA,"VV ",NA,NA,NA,NA,NA,NA,NA,"FZFG",NA,NA,NA,NA,NA,NA,24.57,"LFLY 060730Z AUTO VRB03KT 0550 0500 R34/0650U FZFG VV/// M02/M02 Q1024 BECMG 4000 BR NSC"
"2568","LFLY",2019-12-06 08:00:00,4.9378,45.7261,28.4,28.4,100,NA,2,0,30.24,NA,0.28,NA,"VV ",NA,NA,NA,NA,NA,NA,NA,"FZFG",NA,NA,NA,NA,NA,NA,NA,"LFLY 060800Z AUTO VRB02KT 0450 0400 R34/0700D FZFG VV/// M02/M02 Q1024 BECMG 4000 BR NSC"
"2569","LFLY",2019-12-06 08:30:00,4.9378,45.7261,28.4,28.4,100,NA,3,0,30.24,NA,0.28,NA,"VV ",NA,NA,NA,NA,NA,NA,NA,"FZFG",NA,NA,NA,NA,NA,NA,24.57,"LFLY 060830Z AUTO VRB03KT 0450 0400 R34/0700U FZFG VV/// M02/M02 Q1024 BECMG CAVOK"
"2570","LFLY",2019-12-06 09:00:00,4.9378,45.7261,28.4,28.4,100,0,0,0,30.24,NA,0.43,NA,"OVC",NA,NA,NA,200,NA,NA,NA,"FZFG",NA,NA,NA,NA,NA,NA,NA,"LFLY 060900Z AUTO 00000KT 0700 0400 R34/1600D FZFG OVC002 M02/M02 Q1024 BECMG CAVOK"
"2571","LFLY",2019-12-06 09:30:00,4.9378,45.7261,30.2,30.2,100,0,0,0,30.24,NA,0.87,NA,"OVC",NA,NA,NA,200,NA,NA,NA,"BR",NA,NA,NA,NA,NA,NA,NA,"LFLY 060930Z AUTO 00000KT 1400 1200 R34/2300N BR OVC002 M01/M01 Q1024 BECMG CAVOK"
"2572","LFLY",2019-12-06 10:00:00,4.9378,45.7261,32,32,100,NA,2,0,30.24,NA,1.68,NA,"OVC",NA,NA,NA,400,NA,NA,NA,"BR",NA,NA,NA,NA,NA,NA,NA,"LFLY 061000Z AUTO VRB02KT 2700 BR OVC004 00/00 Q1024 BECMG CAVOK"
"2573","LFLY",2019-12-06 10:30:00,4.9378,45.7261,33.8,33.8,100,NA,2,0,30.24,NA,2.05,NA,"FEW",NA,NA,NA,500,NA,NA,NA,"BR",NA,NA,NA,NA,NA,NA,NA,"LFLY 061030Z AUTO VRB02KT 3300 BR FEW005 01/01 Q1024 BECMG 9999 NSW"
"2574","LFLY",2019-12-06 11:00:00,4.9378,45.7261,37.4,35.6,93.14,160,3,0,30.21,NA,3.73,NA,"NSC",NA,NA,NA,NA,NA,NA,NA,NA,NA,NA,NA,NA,NA,NA,34.86,"LFLY 061100Z AUTO 16003KT 090V220 6000 NSC 03/02 Q1023 NOSIG"
"2575","LFLY",2019-12-06 11:30:00,4.9378,45.7261,39.2,35.6,86.79,190,3,0,30.21,NA,6.21,NA,NA,NA,NA,NA,NA,NA,NA,NA,NA,NA,NA,NA,NA,NA,NA,36.92,"LFLY 061130Z AUTO 19003KT 140V240 CAVOK 04/02 Q1023 NOSIG"
"2576","LFLY",2019-12-06 12:00:00,4.9378,45.7261,42.8,35.6,75.5,NA,3,0,30.18,NA,6.21,NA,NA,NA,NA,NA,NA,NA,NA,NA,NA,NA,NA,NA,NA,NA,NA,41.03,"LFLY 061200Z AUTO VRB03KT CAVOK 06/02 Q1022 NOSIG"
"2577","LFLY",2019-12-06 12:30:00,4.9378,45.7261,44.6,35.6,70.48,NA,2,0,30.18,NA,6.21,NA,NA,NA,NA,NA,NA,NA,NA,NA,NA,NA,NA,NA,NA,NA,NA,NA,"LFLY 061230Z AUTO VRB02KT CAVOK 07/02 Q1022 NOSIG"
"2578","LFLY",2019-12-06 13:00:00,4.9378,45.7261,46.4,35.6,65.83,NA,2,0,30.15,NA,6.21,NA,NA,NA,NA,NA,NA,NA,NA,NA,NA,NA,NA,NA,NA,NA,NA,NA,"LFLY 061300Z AUTO VRB02KT CAVOK 08/02 Q1021 NOSIG"
"2579","LFLY",2019-12-06 13:30:00,4.9378,45.7261,46.4,37.4,70.68,NA,2,0,30.15,NA,6.21,NA,NA,NA,NA,NA,NA,NA,NA,NA,NA,NA,NA,NA,NA,NA,NA,NA,"LFLY 061330Z AUTO VRB02KT CAVOK 08/03 Q1021 NOSIG"
"2580","LFLY",2019-12-06 14:00:00,4.9378,45.7261,48.2,37.4,66.05,NA,3,0,30.15,NA,6.21,NA,NA,NA,NA,NA,NA,NA,NA,NA,NA,NA,NA,NA,NA,NA,NA,47.21,"LFLY 061400Z AUTO VRB03KT CAVOK 09/03 Q1021 NOSIG"
"2581","LFLY",2019-12-06 14:30:00,4.9378,45.7261,48.2,37.4,66.05,NA,2,0,30.12,NA,6.21,NA,NA,NA,NA,NA,NA,NA,NA,NA,NA,NA,NA,NA,NA,NA,NA,NA,"LFLY 061430Z AUTO VRB02KT CAVOK 09/03 Q1020 NOSIG"
"2582","LFLY",2019-12-06 15:00:00,4.9378,45.7261,48.2,37.4,66.05,NA,1,0,30.12,NA,6.21,NA,NA,NA,NA,NA,NA,NA,NA,NA,NA,NA,NA,NA,NA,NA,NA,NA,"LFLY 061500Z AUTO VRB01KT CAVOK 09/03 Q1020 NOSIG"
"2583","LFLY",2019-12-06 15:30:00,4.9378,45.7261,46.4,37.4,70.68,160,3,0,30.12,NA,6.21,NA,NA,NA,NA,NA,NA,NA,NA,NA,NA,NA,NA,NA,NA,NA,NA,45.15,"LFLY 061530Z AUTO 16003KT CAVOK 08/03 Q1020 NOSIG"
"2584","LFLY",2019-12-06 16:00:00,4.9378,45.7261,44.6,35.6,70.48,NA,2,0,30.12,NA,6.21,NA,NA,NA,NA,NA,NA,NA,NA,NA,NA,NA,NA,NA,NA,NA,NA,NA,"LFLY 061600Z AUTO VRB02KT CAVOK 07/02 Q1020 NOSIG"
"2585","LFLY",2019-12-06 16:30:00,4.9378,45.7261,42.8,35.6,75.5,180,2,0,30.12,NA,6.21,NA,NA,NA,NA,NA,NA,NA,NA,NA,NA,NA,NA,NA,NA,NA,NA,NA,"LFLY 061630Z AUTO 18002KT CAVOK 06/02 Q1020 NOSIG"
"2586","LFLY",2019-12-06 17:00:00,4.9378,45.7261,41,35.6,80.93,0,0,0,30.12,NA,6.21,NA,NA,NA,NA,NA,NA,NA,NA,NA,NA,NA,NA,NA,NA,NA,NA,NA,"LFLY 061700Z AUTO 00000KT CAVOK 05/02 Q1020 NOSIG"
"2587","LFLY",2019-12-06 17:30:00,4.9378,45.7261,39.2,35.6,86.79,NA,1,0,30.12,NA,4.97,NA,"NSC",NA,NA,NA,NA,NA,NA,NA,NA,NA,NA,NA,NA,NA,NA,NA,"LFLY 061730Z AUTO VRB01KT 8000 NSC 04/02 Q1020 NOSIG"
"2588","LFLY",2019-12-06 18:00:00,4.9378,45.7261,39.2,35.6,86.79,NA,2,0,30.12,NA,4.97,NA,"NSC",NA,NA,NA,NA,NA,NA,NA,NA,NA,NA,NA,NA,NA,NA,NA,"LFLY 061800Z AUTO VRB02KT 8000 NSC 04/02 Q1020 NOSIG"
"2589","LFLY",2019-12-06 18:30:00,4.9378,45.7261,39.2,35.6,86.79,0,0,0,30.12,NA,4.97,NA,"NSC",NA,NA,NA,NA,NA,NA,NA,NA,NA,NA,NA,NA,NA,NA,NA,"LFLY 061830Z AUTO 00000KT 8000 NSC 04/02 Q1020 NOSIG"
"2590","LFLY",2019-12-06 19:00:00,4.9378,45.7261,37.4,33.8,86.69,60,1,0,30.12,NA,4.35,NA,"NSC",NA,NA,NA,NA,NA,NA,NA,NA,NA,NA,NA,NA,NA,NA,NA,"LFLY 061900Z AUTO 06001KT 7000 NSC 03/01 Q1020 NOSIG"
"2591","LFLY",2019-12-06 19:30:00,4.9378,45.7261,39.2,35.6,86.79,NA,2,0,30.12,NA,4.35,NA,"NSC",NA,NA,NA,NA,NA,NA,NA,NA,NA,NA,NA,NA,NA,NA,NA,"LFLY 061930Z AUTO VRB02KT 7000 NSC 04/02 Q1020 NOSIG"
"2592","LFLY",2019-12-06 20:00:00,4.9378,45.7261,37.4,35.6,93.14,350,1,0,30.12,NA,4.35,NA,"NSC",NA,NA,NA,NA,NA,NA,NA,NA,NA,NA,NA,NA,NA,NA,NA,"LFLY 062000Z AUTO 35001KT 7000 NSC 03/02 Q1020 NOSIG"
"2593","LFLY",2019-12-06 20:30:00,4.9378,45.7261,39.2,35.6,86.79,NA,1,0,30.12,NA,3.73,NA,"NSC",NA,NA,NA,NA,NA,NA,NA,NA,NA,NA,NA,NA,NA,NA,NA,"LFLY 062030Z AUTO VRB01KT 6000 NSC 04/02 Q1020 NOSIG"
"2594","LFLY",2019-12-06 21:00:00,4.9378,45.7261,39.2,35.6,86.79,110,2,0,30.12,NA,3.73,NA,"NSC",NA,NA,NA,NA,NA,NA,NA,NA,NA,NA,NA,NA,NA,NA,NA,"LFLY 062100Z AUTO 11002KT 6000 NSC 04/02 Q1020 NOSIG"
"2595","LFLY",2019-12-06 21:30:00,4.9378,45.7261,39.2,35.6,86.79,50,2,0,30.12,NA,3.73,NA,"NSC",NA,NA,NA,NA,NA,NA,NA,NA,NA,NA,NA,NA,NA,NA,NA,"LFLY 062130Z AUTO 05002KT 6000 NSC 04/02 Q1020 NOSIG"
"2596","LFLY",2019-12-06 22:00:00,4.9378,45.7261,39.2,37.4,93.19,NA,2,0,30.12,NA,3.73,NA,"NSC",NA,NA,NA,NA,NA,NA,NA,NA,NA,NA,NA,NA,NA,NA,NA,"LFLY 062200Z AUTO VRB02KT 6000 NSC 04/03 Q1020 TEMPO 4000 BR"
"2597","LFLY",2019-12-06 22:30:00,4.9378,45.7261,39.2,37.4,93.19,70,1,0,30.12,NA,3.73,NA,"NSC",NA,NA,NA,NA,NA,NA,NA,NA,NA,NA,NA,NA,NA,NA,NA,"LFLY 062230Z AUTO 07001KT 6000 NSC 04/03 Q1020 TEMPO 4000 BR"
"2598","LFLY",2019-12-06 23:00:00,4.9378,45.7261,41,37.4,86.89,120,2,0,30.12,NA,4.35,NA,"NSC",NA,NA,NA,NA,NA,NA,NA,NA,NA,NA,NA,NA,NA,NA,NA,"LFLY 062300Z AUTO 12002KT 7000 NSC 05/03 Q1020 TEMPO 4000 BR"
"2599","LFLY",2019-12-06 23:30:00,4.9378,45.7261,41,37.4,86.89,NA,3,0,30.12,NA,4.35,NA,"NSC",NA,NA,NA,NA,NA,NA,NA,NA,NA,NA,NA,NA,NA,NA,38.98,"LFLY 062330Z AUTO VRB03KT 7000 NSC 05/03 Q1020 NOSIG"
"2600","LFLL",2019-12-06 00:00:00,5.0778,45.7264,26.6,26.6,100,130,4,0,30.24,NA,0.25,NA,"VV ",NA,NA,NA,NA,NA,NA,NA,"FZFG",NA,NA,NA,NA,NA,NA,21.11,"LFLL 060000Z 13004KT 0400 R35L/0450N R17R/0325N R35R/0400N R17L/0800U FZFG VV/// M03/M03 Q1024 NOSIG"
"2601","LFLL",2019-12-06 00:30:00,5.0778,45.7264,26.6,26.6,100,NA,2,0,30.24,NA,0.19,NA,"VV ",NA,NA,NA,NA,NA,NA,NA,"FZFG",NA,NA,NA,NA,NA,NA,NA,"LFLL 060030Z VRB02KT 0300 R35L/0375N R17R/0325N R35R/0325N R17L/0450N FZFG VV/// M03/M03 Q1024 NOSIG"
"2602","LFLL",2019-12-06 01:00:00,5.0778,45.7264,26.6,26.6,100,150,3,0,30.21,NA,0.19,NA,"VV ",NA,NA,NA,NA,NA,NA,NA,"FZFG",NA,NA,NA,NA,NA,NA,22.52,"LFLL 060100Z 15003KT 0300 R35L/0400N R17R/0400N R35R/0350N R17L/0500N FZFG VV/// M03/M03 Q1023 NOSIG"
"2603","LFLL",2019-12-06 01:30:00,5.0778,45.7264,28.4,28.4,100,0,0,0,30.21,NA,0.22,NA,"VV ",NA,NA,NA,NA,NA,NA,NA,"FZFG",NA,NA,NA,NA,NA,NA,NA,"LFLL 060130Z 00000KT 0350 R35L/0450N R17R/0375N R35R/0400N R17L/0375N FZFG VV/// M02/M02 Q1023 NOSIG"
"2604","LFLL",2019-12-06 02:00:00,5.0778,45.7264,28.4,28.4,100,140,3,0,30.21,NA,0.25,NA,"VV ",NA,NA,NA,NA,NA,NA,NA,"FZFG",NA,NA,NA,NA,NA,NA,24.57,"LFLL 060200Z 14003KT 110V180 0400 R35L/0550N R17R/0325N R35R/0500N R17L/0450N FZFG VV/// M02/M02 Q1023 NOSIG"
"2605","LFLL",2019-12-06 02:30:00,5.0778,45.7264,28.4,28.4,100,NA,3,0,30.21,NA,0.25,NA,"VV ",NA,NA,NA,NA,NA,NA,NA,"FZFG",NA,NA,NA,NA,NA,NA,24.57,"LFLL 060230Z VRB03KT 0400 R35L/0550N R17R/0400N R35R/0450N R17L/0550N FZFG VV/// M02/M02 Q1023 NOSIG"
"2606","LFLL",2019-12-06 03:00:00,5.0778,45.7264,28.4,28.4,100,NA,1,0,30.21,NA,0.25,NA,"VV ",NA,NA,NA,NA,NA,NA,NA,"FZFG",NA,NA,NA,NA,NA,NA,NA,"LFLL 060300Z VRB01KT 0400 R35L/0600N R17R/0350N R35R/0500N R17L/0550N FZFG VV/// M02/M02 Q1023 NOSIG"
"2607","LFLL",2019-12-06 03:30:00,5.0778,45.7264,30.2,30.2,100,NA,2,0,30.21,NA,0.25,NA,"VV ",NA,NA,NA,NA,NA,NA,NA,"FZFG",NA,NA,NA,NA,NA,NA,NA,"LFLL 060330Z VRB02KT 0400 R35L/0750N R17R/0375N R35R/0700N R17L/0450N FZFG VV/// M01/M01 Q1023 NOSIG"
"2608","LFLL",2019-12-06 04:00:00,5.0778,45.7264,28.4,28.4,100,NA,2,0,30.21,NA,0.25,NA,"VV ",NA,NA,NA,NA,NA,NA,NA,"FZFG",NA,NA,NA,NA,NA,NA,NA,"LFLL 060400Z VRB02KT 0400 R35L/1500U R17R/0375N R35R/1200U R17L/0450N FZFG VV/// M02/M02 Q1023 NOSIG"
"2609","LFLL",2019-12-06 04:30:00,5.0778,45.7264,28.4,28.4,100,NA,3,0,30.21,NA,0.25,NA,"VV ",NA,NA,NA,NA,NA,NA,NA,"FZFG",NA,NA,NA,NA,NA,NA,24.57,"LFLL 060430Z VRB03KT 0400 R35L/1300N R17R/0375N R35R/1000U R17L/0550N FZFG VV/// M02/M02 Q1023 NOSIG"
"2610","LFLL",2019-12-06 05:00:00,5.0778,45.7264,28.4,28.4,100,140,4,0,30.21,NA,0.31,NA,"VV ",NA,NA,NA,NA,NA,NA,NA,"FZFG",NA,NA,NA,NA,NA,NA,23.22,"LFLL 060500Z 14004KT 0500 R35L/0400D R17R/1400U R35R/0375D R17L/0500D FZFG VV/// M02/M02 Q1023 NOSIG"
"2611","LFLL",2019-12-06 05:30:00,5.0778,45.7264,28.4,28.4,100,140,8,0,30.21,NA,0.25,NA,"VV ",NA,NA,NA,NA,NA,NA,NA,"FZFG",NA,NA,NA,NA,NA,NA,19.68,"LFLL 060530Z 14008KT 0400 R35L/0600U R17R/0400N R35R/0450N R17L/0600N FZFG VV/// M02/M02 Q1023 NOSIG"
"2612","LFLL",2019-12-06 06:00:00,5.0778,45.7264,28.4,28.4,100,150,4,0,30.21,NA,0.25,NA,"VV ",NA,NA,NA,NA,NA,NA,NA,"FZFG",NA,NA,NA,NA,NA,NA,23.22,"LFLL 060600Z 15004KT 120V190 0400 R35L/0500N R17R/0600D R35R/0400N R17L/0650N FZFG VV/// M02/M02 Q1023 NOSIG"
"2613","LFLL",2019-12-06 06:30:00,5.0778,45.7264,30.2,30.2,100,160,4,0,30.21,NA,0.25,NA,"VV ",NA,NA,NA,NA,NA,NA,NA,"FZFG",NA,NA,NA,NA,NA,NA,25.32,"LFLL 060630Z 16004KT 140V210 0400 R35L/0600N R17R/0450N R35R/0550N R17L/0550N FZFG VV/// M01/M01 Q1023 NOSIG"
"2614","LFLL",2019-12-06 07:00:00,5.0778,45.7264,30.2,30.2,100,160,3,0,30.21,NA,0.25,NA,"VV ",NA,NA,NA,NA,NA,NA,NA,"FZFG",NA,NA,NA,NA,NA,NA,26.63,"LFLL 060700Z 16003KT 130V190 0400 R35L/0600D R17R/0500N R35R/0500D R17L/0600U FZFG VV/// M01/M01 Q1023 NOSIG"
"2615","LFLL",2019-12-06 07:30:00,5.0778,45.7264,28.4,28.4,100,150,3,0,30.21,NA,0.25,NA,"VV ",NA,NA,NA,NA,NA,NA,NA,"FZFG",NA,NA,NA,NA,NA,NA,24.57,"LFLL 060730Z 15003KT 100V180 0400 R35L/0450U R17R/0350N R35R/0400N R17L/0400N FZFG VV/// M02/M02 Q1023 NOSIG"
"2616","LFLL",2019-12-06 08:00:00,5.0778,45.7264,30.2,30.2,100,NA,2,0,30.21,NA,0.22,NA,"VV ",NA,NA,NA,NA,NA,NA,NA,"FZFG",NA,NA,NA,NA,NA,NA,NA,"LFLL 060800Z VRB02KT 0350 R35L/0600N R17R/0300N R35R/0450N R17L/0400N FZFG VV/// M01/M01 Q1023 NOSIG"
"2617","LFLL",2019-12-06 08:30:00,5.0778,45.7264,28.4,28.4,100,NA,2,0,30.24,NA,0.22,NA,"BKN",NA,NA,NA,100,NA,NA,NA,"FZFG",NA,NA,NA,NA,NA,NA,NA,"LFLL 060830Z VRB02KT 0350 R35L/0700U R17R/0350N R35R/0450U R17L/0400N FZFG BKN001 M02/M02 Q1024 NOSIG"
"2618","LFLL",2019-12-06 09:00:00,5.0778,45.7264,30.2,30.2,100,NA,2,0,30.24,NA,0.25,NA,"BKN",NA,NA,NA,100,NA,NA,NA,"FZFG",NA,NA,NA,NA,NA,NA,NA,"LFLL 060900Z VRB02KT 0400 R35L/0700N R17R/0325N R35R/0600N R17L/0450D FZFG BKN001 M01/M01 Q1024 BECMG 0810 4000 BR NSC"
"2619","LFLL",2019-12-06 09:30:00,5.0778,45.7264,32,32,100,NA,2,0,30.24,NA,0.31,NA,"BKN",NA,NA,NA,100,NA,NA,NA,"FG",NA,NA,NA,NA,NA,NA,NA,"LFLL 060930Z VRB02KT 0500 R35L/0650D R17R/0325N R35R/0500D R17L/0500N FG BKN001 M00/M00 Q1024 BECMG CAVOK"
"2620","LFLL",2019-12-06 10:00:00,5.0778,45.7264,32,32,100,130,3,0,30.24,NA,0.22,NA,"BKN",NA,NA,NA,100,NA,NA,NA,"FG",NA,NA,NA,NA,NA,NA,28.69,"LFLL 061000Z 13003KT 100V160 0350 R35L/0400U R17R/0500N R35R/0275N R17L/0375N FG BKN001 00/00 Q1024 BECMG CAVOK"
"2621","LFLL",2019-12-06 10:30:00,5.0778,45.7264,33.8,33.8,100,0,0,0,30.24,NA,0.22,NA,"BKN",NA,NA,NA,100,NA,NA,NA,"FG",NA,NA,NA,NA,NA,NA,NA,"LFLL 061030Z 00000KT 0350 R35L/0600N R17R/0400D R35R/0500N R17L/0450D FG BKN001 01/01 Q1024 BECMG CAVOK"
"2622","LFLL",2019-12-06 11:00:00,5.0778,45.7264,35.6,35.6,100,150,4,0,30.21,NA,1.24,NA,"SCT",NA,NA,NA,200,NA,NA,NA,"BR",NA,NA,NA,NA,NA,NA,31.62,"LFLL 061100Z 15004KT 120V190 2000 R17R/1000U R35R/1300U R17L/1200U BR SCT002 02/02 Q1023 BECMG CAVOK"
"2623","LFLL",2019-12-06 11:30:00,5.0778,45.7264,37.4,35.6,93.14,120,3,0,30.18,NA,3.11,NA,"FEW",NA,NA,NA,200,NA,NA,NA,NA,NA,NA,NA,NA,NA,NA,34.86,"LFLL 061130Z 12003KT 070V160 5000 FEW002 03/02 Q1022 NOSIG"
"2624","LFLL",2019-12-06 12:00:00,5.0778,45.7264,41,37.4,86.89,NA,1,0,30.18,NA,4.97,NA,"FEW",NA,NA,NA,200,NA,NA,NA,NA,NA,NA,NA,NA,NA,NA,NA,"LFLL 061200Z VRB01KT 8000 FEW002 05/03 Q1022 NOSIG"
"2625","LFLL",2019-12-06 12:30:00,5.0778,45.7264,42.8,37.4,81.07,NA,2,0,30.18,NA,4.97,NA,"FEW","SCT",NA,NA,300,26000,NA,NA,NA,NA,NA,NA,NA,NA,NA,NA,"LFLL 061230Z VRB02KT 8000 FEW003 SCT260 06/03 Q1022 NOSIG"
"2626","LFLL",2019-12-06 13:00:00,5.0778,45.7264,44.6,39.2,81.2,NA,3,0,30.15,NA,4.97,NA,"NSC",NA,NA,NA,NA,NA,NA,NA,NA,NA,NA,NA,NA,NA,NA,43.09,"LFLL 061300Z VRB03KT 8000 NSC 07/04 Q1021 NOSIG"
"2627","LFLL",2019-12-06 13:30:00,5.0778,45.7264,44.6,39.2,81.2,NA,2,0,30.15,NA,6.21,NA,NA,NA,NA,NA,NA,NA,NA,NA,NA,NA,NA,NA,NA,NA,NA,NA,"LFLL 061330Z VRB02KT CAVOK 07/04 Q1021 NOSIG"
"2628","LFLL",2019-12-06 14:00:00,5.0778,45.7264,46.4,39.2,75.84,NA,3,0,30.12,NA,6.21,NA,NA,NA,NA,NA,NA,NA,NA,NA,NA,NA,NA,NA,NA,NA,NA,45.15,"LFLL 061400Z VRB03KT CAVOK 08/04 Q1020 NOSIG"
"2629","LFLL",2019-12-06 14:30:00,5.0778,45.7264,48.2,41,76.01,130,3,0,30.12,NA,6.21,NA,NA,NA,NA,NA,NA,NA,NA,NA,NA,NA,NA,NA,NA,NA,NA,47.21,"LFLL 061430Z 13003KT CAVOK 09/05 Q1020 NOSIG"
"2630","LFLL",2019-12-06 15:00:00,5.0778,45.7264,48.2,41,76.01,NA,3,0,30.12,NA,6.21,NA,NA,NA,NA,NA,NA,NA,NA,NA,NA,NA,NA,NA,NA,NA,NA,47.21,"LFLL 061500Z VRB03KT CAVOK 09/05 Q1020 NOSIG"
"2631","LFLL",2019-12-06 15:30:00,5.0778,45.7264,46.4,41,81.34,0,0,0,30.12,NA,6.21,NA,NA,NA,NA,NA,NA,NA,NA,NA,NA,NA,NA,NA,NA,NA,NA,NA,"LFLL 061530Z 00000KT CAVOK 08/05 Q1020 NOSIG"
"2632","LFLL",2019-12-06 16:00:00,5.0778,45.7264,44.6,39.2,81.2,160,3,0,30.12,NA,6.21,NA,NA,NA,NA,NA,NA,NA,NA,NA,NA,NA,NA,NA,NA,NA,NA,43.09,"LFLL 061600Z 16003KT 140V200 CAVOK 07/04 Q1020 NOSIG"
"2633","LFLL",2019-12-06 16:30:00,5.0778,45.7264,41,37.4,86.89,160,5,0,30.12,NA,6.21,NA,NA,NA,NA,NA,NA,NA,NA,NA,NA,NA,NA,NA,NA,NA,NA,37.08,"LFLL 061630Z 16005KT 140V210 CAVOK 05/03 Q1020 NOSIG"
"2634","LFLL",2019-12-06 17:00:00,5.0778,45.7264,39.2,37.4,93.19,NA,2,0,30.12,NA,6.21,NA,NA,NA,NA,NA,NA,NA,NA,NA,NA,NA,NA,NA,NA,NA,NA,NA,"LFLL 061700Z VRB02KT CAVOK 04/03 Q1020 NOSIG"
"2635","LFLL",2019-12-06 17:30:00,5.0778,45.7264,42.8,35.6,75.5,160,5,0,30.12,NA,6.21,NA,NA,NA,NA,NA,NA,NA,NA,NA,NA,NA,NA,NA,NA,NA,NA,39.22,"LFLL 061730Z 16005KT CAVOK 06/02 Q1020 NOSIG"
"2636","LFLL",2019-12-06 18:00:00,5.0778,45.7264,42.8,35.6,75.5,150,3,0,30.12,NA,6.21,NA,NA,NA,NA,NA,NA,NA,NA,NA,NA,NA,NA,NA,NA,NA,NA,41.03,"LFLL 061800Z 15003KT CAVOK 06/02 Q1020 NOSIG"
"2637","LFLL",2019-12-06 18:30:00,5.0778,45.7264,42.8,35.6,75.5,NA,2,0,30.12,NA,6.21,NA,NA,NA,NA,NA,NA,NA,NA,NA,NA,NA,NA,NA,NA,NA,NA,NA,"LFLL 061830Z VRB02KT CAVOK 06/02 Q1020 NOSIG"
"2638","LFLL",2019-12-06 19:04:00,5.0778,45.7264,41,35.6,80.93,NA,2,0,30.12,NA,6.21,NA,NA,NA,NA,NA,NA,NA,NA,NA,NA,NA,NA,NA,NA,NA,NA,NA,"LFLL 061904Z VRB02KT CAVOK 05/02 Q1020 NOSIG"
"2639","LFLL",2019-12-06 19:30:00,5.0778,45.7264,41,35.6,80.93,NA,2,0,30.12,NA,6.21,NA,NA,NA,NA,NA,NA,NA,NA,NA,NA,NA,NA,NA,NA,NA,NA,NA,"LFLL 061930Z VRB02KT CAVOK 05/02 Q1020 NOSIG"
"2640","LFLL",2019-12-06 20:00:00,5.0778,45.7264,41,35.6,80.93,130,5,0,30.12,NA,6.21,NA,NA,NA,NA,NA,NA,NA,NA,NA,NA,NA,NA,NA,NA,NA,NA,37.08,"LFLL 062000Z 13005KT CAVOK 05/02 Q1020 NOSIG"
"2641","LFLL",2019-12-06 20:30:00,5.0778,45.7264,41,35.6,80.93,0,0,0,30.12,NA,6.21,NA,NA,NA,NA,NA,NA,NA,NA,NA,NA,NA,NA,NA,NA,NA,NA,NA,"LFLL 062030Z 00000KT CAVOK 05/02 Q1020 NOSIG"
"2642","LFLL",2019-12-06 21:00:00,5.0778,45.7264,39.2,35.6,86.79,NA,2,0,30.12,NA,6.21,NA,NA,NA,NA,NA,NA,NA,NA,NA,NA,NA,NA,NA,NA,NA,NA,NA,"LFLL 062100Z VRB02KT CAVOK 04/02 Q1020 NOSIG"
"2643","LFLL",2019-12-06 21:30:00,5.0778,45.7264,39.2,35.6,86.79,NA,1,0,30.12,NA,6.21,NA,NA,NA,NA,NA,NA,NA,NA,NA,NA,NA,NA,NA,NA,NA,NA,NA,"LFLL 062130Z VRB01KT CAVOK 04/02 Q1020 NOSIG"
"2644","LFLL",2019-12-06 22:00:00,5.0778,45.7264,41,35.6,80.93,130,4,0,30.12,NA,6.21,NA,NA,NA,NA,NA,NA,NA,NA,NA,NA,NA,NA,NA,NA,NA,NA,37.93,"LFLL 062200Z 13004KT CAVOK 05/02 Q1020 NOSIG"
"2645","LFLL",2019-12-06 22:30:00,5.0778,45.7264,41,35.6,80.93,NA,3,0,30.12,NA,6.21,NA,NA,NA,NA,NA,NA,NA,NA,NA,NA,NA,NA,NA,NA,NA,NA,38.98,"LFLL 062230Z VRB03KT CAVOK 05/02 Q1020 NOSIG"
"2646","LFLL",2019-12-06 23:00:00,5.0778,45.7264,41,35.6,80.93,NA,3,0,30.12,NA,6.21,NA,NA,NA,NA,NA,NA,NA,NA,NA,NA,NA,NA,NA,NA,NA,NA,38.98,"LFLL 062300Z VRB03KT CAVOK 05/02 Q1020 NOSIG"
"2647","LFLL",2019-12-06 23:30:00,5.0778,45.7264,42.8,37.4,81.07,100,4,0,30.12,NA,6.21,NA,"NSC",NA,NA,NA,NA,NA,NA,NA,"-RA",NA,NA,NA,NA,NA,NA,40.03,"LFLL 062330Z 10004KT 9999 -RA NSC 06/03 Q1020 NOSIG"
"2648","LFML",2019-12-06 00:00:00,5.2267,43.4417,53.6,33.8,46.88,80,15,0,30.21,NA,6.21,NA,NA,NA,NA,NA,NA,NA,NA,NA,NA,NA,NA,NA,NA,NA,NA,NA,"LFML 060000Z AUTO 08015KT CAVOK 12/01 Q1023 BECMG VRB04KT"
"2649","LFML",2019-12-06 00:30:00,5.2267,43.4417,55.4,32,40.84,60,9,0,30.21,NA,6.21,NA,"///",NA,NA,NA,NA,NA,NA,NA,NA,NA,NA,NA,NA,NA,NA,NA,"LFML 060030Z AUTO 06009KT 9999 ///TCU 13/00 Q1023 BECMG NSC"
"2650","LFML",2019-12-06 01:00:00,5.2267,43.4417,53.6,37.4,54.07,90,11,0,30.18,NA,6.21,NA,"///",NA,NA,NA,NA,NA,NA,NA,NA,NA,NA,NA,NA,NA,NA,NA,"LFML 060100Z AUTO 09011KT 9999 ///TCU 12/03 Q1022 BECMG NSC"
"2651","LFML",2019-12-06 01:30:00,5.2267,43.4417,51.8,37.4,57.77,120,10,0,30.21,NA,6.21,NA,NA,NA,NA,NA,NA,NA,NA,NA,NA,NA,NA,NA,NA,NA,NA,NA,"LFML 060130Z AUTO 12010KT CAVOK 11/03 Q1023 NOSIG"
"2652","LFML",2019-12-06 02:00:00,5.2267,43.4417,53.6,41,62.23,120,10,0,30.18,NA,6.21,NA,NA,NA,NA,NA,NA,NA,NA,NA,NA,NA,NA,NA,NA,NA,NA,NA,"LFML 060200Z AUTO 12010KT CAVOK 12/05 Q1022 NOSIG"
"2653","LFML",2019-12-06 02:30:00,5.2267,43.4417,51.8,41,66.48,120,9,0,30.18,NA,6.21,NA,NA,NA,NA,NA,NA,NA,NA,NA,NA,NA,NA,NA,NA,NA,NA,NA,"LFML 060230Z AUTO 12009KT CAVOK 11/05 Q1022 NOSIG"
"2654","LFML",2019-12-06 03:00:00,5.2267,43.4417,53.6,37.4,54.07,NA,3,0,30.18,NA,6.21,NA,NA,NA,NA,NA,NA,NA,NA,NA,NA,NA,NA,NA,NA,NA,NA,NA,"LFML 060300Z AUTO VRB03KT CAVOK 12/03 Q1022 NOSIG"
"2655","LFML",2019-12-06 03:30:00,5.2267,43.4417,50,42.8,76.18,NA,3,0,30.18,NA,6.21,NA,NA,NA,NA,NA,NA,NA,NA,NA,NA,NA,NA,NA,NA,NA,NA,49.27,"LFML 060330Z AUTO VRB03KT CAVOK 10/06 Q1022 NOSIG"
"2656","LFML",2019-12-06 04:00:00,5.2267,43.4417,50,42.8,76.18,NA,2,0,30.18,NA,6.21,NA,NA,NA,NA,NA,NA,NA,NA,NA,NA,NA,NA,NA,NA,NA,NA,NA,"LFML 060400Z AUTO VRB02KT CAVOK 10/06 Q1022 NOSIG"
"2657","LFML",2019-12-06 04:30:00,5.2267,43.4417,51.8,42.8,71.26,NA,3,0,30.18,NA,6.21,NA,NA,NA,NA,NA,NA,NA,NA,NA,NA,NA,NA,NA,NA,NA,NA,NA,"LFML 060430Z AUTO VRB03KT CAVOK 11/06 Q1022 NOSIG"
"2658","LFML",2019-12-06 05:00:00,5.2267,43.4417,50,42.8,76.18,NA,3,0,30.18,NA,6.21,NA,NA,NA,NA,NA,NA,NA,NA,NA,NA,NA,NA,NA,NA,NA,NA,49.27,"LFML 060500Z AUTO VRB03KT CAVOK 10/06 Q1022 NOSIG"
"2659","LFML",2019-12-06 05:30:00,5.2267,43.4417,48.2,41,76.01,NA,1,0,30.18,NA,6.21,NA,NA,NA,NA,NA,NA,NA,NA,NA,NA,NA,NA,NA,NA,NA,NA,NA,"LFML 060530Z AUTO VRB01KT CAVOK 09/05 Q1022 NOSIG"
"2660","LFML",2019-12-06 06:00:00,5.2267,43.4417,44.6,41,87.09,NA,1,0,30.18,NA,6.21,NA,NA,NA,NA,NA,NA,NA,NA,NA,NA,NA,NA,NA,NA,NA,NA,NA,"LFML 060600Z AUTO VRB01KT CAVOK 07/05 Q1022 NOSIG"
"2661","LFML",2019-12-06 06:30:00,5.2267,43.4417,44.6,41,87.09,160,5,0,30.21,NA,6.21,NA,NA,NA,NA,NA,NA,NA,NA,NA,NA,NA,NA,NA,NA,NA,NA,41.36,"LFML 060630Z AUTO 16005KT CAVOK 07/05 Q1023 NOSIG"
"2662","LFML",2019-12-06 07:00:00,5.2267,43.4417,44.6,41,87.09,140,6,0,30.21,NA,6.21,NA,"FEW",NA,NA,NA,900,NA,NA,NA,NA,NA,NA,NA,NA,NA,NA,40.71,"LFML 060700Z AUTO 14006KT 9999 FEW009 07/05 Q1023 NOSIG"
"2663","LFML",2019-12-06 07:30:00,5.2267,43.4417,44.6,39.2,81.2,NA,2,0,30.21,NA,6.21,NA,NA,NA,NA,NA,NA,NA,NA,NA,NA,NA,NA,NA,NA,NA,NA,NA,"LFML 060730Z AUTO VRB02KT CAVOK 07/04 Q1023 NOSIG"
"2664","LFML",2019-12-06 08:00:00,5.2267,43.4417,48.2,41,76.01,NA,2,0,30.21,NA,6.21,NA,NA,NA,NA,NA,NA,NA,NA,NA,NA,NA,NA,NA,NA,NA,NA,NA,"LFML 060800Z AUTO VRB02KT CAVOK 09/05 Q1023 NOSIG"
"2665","LFML",2019-12-06 08:30:00,5.2267,43.4417,50,42.8,76.18,NA,1,0,30.21,NA,6.21,NA,NA,NA,NA,NA,NA,NA,NA,NA,NA,NA,NA,NA,NA,NA,NA,NA,"LFML 060830Z AUTO VRB01KT CAVOK 10/06 Q1023 NOSIG"
"2666","LFML",2019-12-06 09:00:00,5.2267,43.4417,51.8,44.6,76.34,280,2,0,30.21,NA,6.21,NA,NA,NA,NA,NA,NA,NA,NA,NA,NA,NA,NA,NA,NA,NA,NA,NA,"LFML 060900Z AUTO 28002KT CAVOK 11/07 Q1023 NOSIG"
"2667","LFML",2019-12-06 09:30:00,5.2267,43.4417,51.8,44.6,76.34,240,2,0,30.24,NA,6.21,NA,NA,NA,NA,NA,NA,NA,NA,NA,NA,NA,NA,NA,NA,NA,NA,NA,"LFML 060930Z AUTO 24002KT CAVOK 11/07 Q1024 NOSIG"
"2668","LFML",2019-12-06 10:00:00,5.2267,43.4417,53.6,42.8,66.7,260,3,0,30.24,NA,6.21,NA,NA,NA,NA,NA,NA,NA,NA,NA,NA,NA,NA,NA,NA,NA,NA,NA,"LFML 061000Z AUTO 26003KT CAVOK 12/06 Q1024 NOSIG"
"2669","LFML",2019-12-06 10:30:00,5.2267,43.4417,53.6,41,62.23,270,3,0,30.21,NA,6.21,NA,NA,NA,NA,NA,NA,NA,NA,NA,NA,NA,NA,NA,NA,NA,NA,NA,"LFML 061030Z AUTO 27003KT CAVOK 12/05 Q1023 NOSIG"
"2670","LFML",2019-12-06 11:00:00,5.2267,43.4417,53.6,42.8,66.7,250,3,0,30.21,NA,6.21,NA,NA,NA,NA,NA,NA,NA,NA,NA,NA,NA,NA,NA,NA,NA,NA,NA,"LFML 061100Z AUTO 25003KT CAVOK 12/06 Q1023 NOSIG"
"2671","LFML",2019-12-06 11:30:00,5.2267,43.4417,55.4,44.6,66.91,260,4,0,30.21,NA,6.21,NA,NA,NA,NA,NA,NA,NA,NA,NA,NA,NA,NA,NA,NA,NA,NA,NA,"LFML 061130Z AUTO 26004KT CAVOK 13/07 Q1023 NOSIG"
"2672","LFML",2019-12-06 12:00:00,5.2267,43.4417,55.4,44.6,66.91,NA,3,0,30.18,NA,6.21,NA,NA,NA,NA,NA,NA,NA,NA,NA,NA,NA,NA,NA,NA,NA,NA,NA,"LFML 061200Z AUTO VRB03KT CAVOK 13/07 Q1022 NOSIG"
"2673","LFML",2019-12-06 12:30:00,5.2267,43.4417,55.4,44.6,66.91,NA,2,0,30.18,NA,6.21,NA,NA,NA,NA,NA,NA,NA,NA,NA,NA,NA,NA,NA,NA,NA,NA,NA,"LFML 061230Z AUTO VRB02KT CAVOK 13/07 Q1022 NOSIG"
"2674","LFML",2019-12-06 13:00:00,5.2267,43.4417,57.2,42.8,58.52,NA,2,0,30.18,NA,6.21,NA,NA,NA,NA,NA,NA,NA,NA,NA,NA,NA,NA,NA,NA,NA,NA,NA,"LFML 061300Z AUTO VRB02KT CAVOK 14/06 Q1022 NOSIG"
"2675","LFML",2019-12-06 13:30:00,5.2267,43.4417,57.2,42.8,58.52,260,3,0,30.15,NA,6.21,NA,NA,NA,NA,NA,NA,NA,NA,NA,NA,NA,NA,NA,NA,NA,NA,NA,"LFML 061330Z AUTO 26003KT CAVOK 14/06 Q1021 NOSIG"
"2676","LFML",2019-12-06 14:00:00,5.2267,43.4417,59,42.8,54.86,NA,2,0,30.15,NA,6.21,NA,NA,NA,NA,NA,NA,NA,NA,NA,NA,NA,NA,NA,NA,NA,NA,NA,"LFML 061400Z AUTO VRB02KT CAVOK 15/06 Q1021 NOSIG"
"2677","LFML",2019-12-06 14:30:00,5.2267,43.4417,60.8,42.8,51.45,NA,2,0,30.15,NA,6.21,NA,NA,NA,NA,NA,NA,NA,NA,NA,NA,NA,NA,NA,NA,NA,NA,NA,"LFML 061430Z AUTO VRB02KT CAVOK 16/06 Q1021 NOSIG"
"2678","LFML",2019-12-06 15:00:00,5.2267,43.4417,59,42.8,54.86,NA,2,0,30.15,NA,6.21,NA,NA,NA,NA,NA,NA,NA,NA,NA,NA,NA,NA,NA,NA,NA,NA,NA,"LFML 061500Z AUTO VRB02KT CAVOK 15/06 Q1021 NOSIG"
"2679","LFML",2019-12-06 15:30:00,5.2267,43.4417,59,39.2,47.72,0,0,0,30.15,NA,6.21,NA,"FEW",NA,NA,NA,1700,NA,NA,NA,NA,NA,NA,NA,NA,NA,NA,NA,"LFML 061530Z AUTO 00000KT 9999 FEW017 15/04 Q1021 NOSIG"
"2680","LFML",2019-12-06 16:00:00,5.2267,43.4417,57.2,39.2,50.91,220,1,0,30.15,NA,6.21,NA,NA,NA,NA,NA,NA,NA,NA,NA,NA,NA,NA,NA,NA,NA,NA,NA,"LFML 061600Z AUTO 22001KT CAVOK 14/04 Q1021 NOSIG"
"2681","LFML",2019-12-06 16:30:00,5.2267,43.4417,53.6,41,62.23,0,0,0,30.15,NA,6.21,NA,NA,NA,NA,NA,NA,NA,NA,NA,NA,NA,NA,NA,NA,NA,NA,NA,"LFML 061630Z AUTO 00000KT CAVOK 12/05 Q1021 NOSIG"
"2682","LFML",2019-12-06 17:00:00,5.2267,43.4417,51.8,41,66.48,190,2,0,30.15,NA,6.21,NA,NA,NA,NA,NA,NA,NA,NA,NA,NA,NA,NA,NA,NA,NA,NA,NA,"LFML 061700Z AUTO 19002KT CAVOK 11/05 Q1021 NOSIG"
"2683","LFML",2019-12-06 17:30:00,5.2267,43.4417,50,41,71.07,NA,2,0,30.15,NA,6.21,NA,NA,NA,NA,NA,NA,NA,NA,NA,NA,NA,NA,NA,NA,NA,NA,NA,"LFML 061730Z AUTO VRB02KT CAVOK 10/05 Q1021 NOSIG"
"2684","LFML",2019-12-06 18:00:00,5.2267,43.4417,48.2,41,76.01,140,5,0,30.15,NA,6.21,NA,NA,NA,NA,NA,NA,NA,NA,NA,NA,NA,NA,NA,NA,NA,NA,45.63,"LFML 061800Z AUTO 14005KT CAVOK 09/05 Q1021 NOSIG"
"2685","LFML",2019-12-06 18:30:00,5.2267,43.4417,46.4,41,81.34,140,7,0,30.15,NA,6.21,NA,NA,NA,NA,NA,NA,NA,NA,NA,NA,NA,NA,NA,NA,NA,NA,42.33,"LFML 061830Z AUTO 14007KT CAVOK 08/05 Q1021 NOSIG"
"2686","LFML",2019-12-06 19:00:00,5.2267,43.4417,48.2,41,76.01,NA,3,0,30.15,NA,6.21,NA,NA,NA,NA,NA,NA,NA,NA,NA,NA,NA,NA,NA,NA,NA,NA,47.21,"LFML 061900Z AUTO VRB03KT CAVOK 09/05 Q1021 NOSIG"
"2687","LFML",2019-12-06 19:30:00,5.2267,43.4417,46.4,41,81.34,150,1,0,30.15,NA,6.21,NA,NA,NA,NA,NA,NA,NA,NA,NA,NA,NA,NA,NA,NA,NA,NA,NA,"LFML 061930Z AUTO 15001KT CAVOK 08/05 Q1021 NOSIG"
"2688","LFML",2019-12-06 20:00:00,5.2267,43.4417,44.6,39.2,81.2,170,2,0,30.18,NA,6.21,NA,NA,NA,NA,NA,NA,NA,NA,NA,NA,NA,NA,NA,NA,NA,NA,NA,"LFML 062000Z AUTO 17002KT CAVOK 07/04 Q1022 NOSIG"
"2689","LFML",2019-12-06 20:30:00,5.2267,43.4417,42.8,39.2,86.99,140,6,0,30.18,NA,6.21,NA,NA,NA,NA,NA,NA,NA,NA,NA,NA,NA,NA,NA,NA,NA,NA,38.54,"LFML 062030Z AUTO 14006KT CAVOK 06/04 Q1022 NOSIG"
"2690","LFML",2019-12-06 21:00:00,5.2267,43.4417,42.8,39.2,86.99,120,3,0,30.18,NA,6.21,NA,NA,NA,NA,NA,NA,NA,NA,NA,NA,NA,NA,NA,NA,NA,NA,41.03,"LFML 062100Z AUTO 12003KT CAVOK 06/04 Q1022 NOSIG"
"2691","LFML",2019-12-06 21:30:00,5.2267,43.4417,41,37.4,86.89,140,5,0,30.18,NA,6.21,NA,"FEW",NA,NA,NA,1500,NA,NA,NA,NA,NA,NA,NA,NA,NA,NA,37.08,"LFML 062130Z AUTO 14005KT 9999 FEW015 05/03 Q1022 NOSIG"
"2692","LFML",2019-12-06 22:00:00,5.2267,43.4417,42.8,41,93.3,NA,2,0,30.18,NA,6.21,NA,NA,NA,NA,NA,NA,NA,NA,NA,NA,NA,NA,NA,NA,NA,NA,NA,"LFML 062200Z AUTO VRB02KT CAVOK 06/05 Q1022 NOSIG"
"2693","LFML",2019-12-06 22:30:00,5.2267,43.4417,41,37.4,86.89,140,6,0,30.18,NA,6.21,NA,"FEW",NA,NA,NA,1300,NA,NA,NA,NA,NA,NA,NA,NA,NA,NA,36.37,"LFML 062230Z AUTO 14006KT 9999 FEW013 05/03 Q1022 NOSIG"
"2694","LFML",2019-12-06 23:00:00,5.2267,43.4417,39.2,37.4,93.19,140,3,0,30.18,NA,6.21,NA,NA,NA,NA,NA,NA,NA,NA,NA,NA,NA,NA,NA,NA,NA,NA,36.92,"LFML 062300Z AUTO 14003KT CAVOK 04/03 Q1022 NOSIG"
"2695","LFML",2019-12-06 23:30:00,5.2267,43.4417,41,35.6,80.93,150,2,0,30.18,NA,6.21,NA,NA,NA,NA,NA,NA,NA,NA,NA,NA,NA,NA,NA,NA,NA,NA,NA,"LFML 062330Z AUTO 15002KT CAVOK 05/02 Q1022 NOSIG"
"2696","LFPM",2019-12-06 00:00:00,2.6794,48.6103,32,30.2,92.97,200,6,0,30.15,NA,0.4,NA,"VV ",NA,NA,NA,NA,NA,NA,NA,"FZFG",NA,NA,NA,NA,NA,NA,25.53,"LFPM 060000Z AUTO 20006KT 180V250 0650 FZFG VV/// M00/M01 Q1021"
"2697","LFPM",2019-12-06 00:30:00,2.6794,48.6103,32,32,100,210,4,0,30.15,NA,0.37,NA,"VV ",NA,NA,NA,NA,NA,NA,NA,"FZFG",NA,NA,NA,NA,NA,NA,27.42,"LFPM 060030Z AUTO 21004KT 0600 FZFG VV/// M00/M00 Q1021"
"2698","LFPM",2019-12-06 01:00:00,2.6794,48.6103,32,32,100,200,5,0,30.15,NA,0.43,NA,"VV ",NA,NA,NA,NA,NA,NA,NA,"FZFG",NA,NA,NA,NA,NA,NA,26.4,"LFPM 060100Z AUTO 20005KT 0700 FZFG VV/// M00/M00 Q1021"
"2699","LFPM",2019-12-06 01:30:00,2.6794,48.6103,32,30.2,92.97,190,4,0,30.15,NA,0.43,NA,"VV ",NA,NA,NA,NA,NA,NA,NA,"FZFG",NA,NA,NA,NA,NA,NA,27.42,"LFPM 060130Z AUTO 19004KT 0700 FZFG VV/// M00/M01 Q1021"
"2700","LFPM",2019-12-06 02:00:00,2.6794,48.6103,32,30.2,92.97,180,5,0,30.15,NA,0.47,NA,"VV ",NA,NA,NA,NA,NA,NA,NA,"FZFG",NA,NA,NA,NA,NA,NA,26.4,"LFPM 060200Z AUTO 18005KT 0750 FZFG VV/// M00/M01 Q1021"
"2701","LFPM",2019-12-06 02:30:00,2.6794,48.6103,32,30.2,92.97,180,7,0,30.12,NA,0.5,NA,"VV ",NA,NA,NA,NA,NA,NA,NA,"FZFG",NA,NA,NA,NA,NA,NA,24.78,"LFPM 060230Z AUTO 18007KT 0800 FZFG VV/// M00/M01 Q1020"
"2702","LFPM",2019-12-06 03:00:00,2.6794,48.6103,32,30.2,92.97,180,6,0,30.12,NA,0.62,NA,"VV ",NA,NA,NA,NA,NA,NA,NA,"BR",NA,NA,NA,NA,NA,NA,25.53,"LFPM 060300Z AUTO 18006KT 1000 BR VV/// M00/M01 Q1020"
"2703","LFPM",2019-12-06 03:30:00,2.6794,48.6103,30.2,30.2,100,190,5,0,30.12,NA,1.18,NA,"OVC",NA,NA,NA,200,NA,NA,NA,"BR",NA,NA,NA,NA,NA,NA,24.26,"LFPM 060330Z AUTO 19005KT 1900 BR OVC002 M01/M01 Q1020"
"2704","LFPM",2019-12-06 04:00:00,2.6794,48.6103,30.2,30.2,100,180,7,0,30.12,NA,1.49,NA,"OVC",NA,NA,NA,200,NA,NA,NA,"BR",NA,NA,NA,NA,NA,NA,22.59,"LFPM 060400Z AUTO 18007KT 2400 BR OVC002 M01/M01 Q1020"
"2705","LFPM",2019-12-06 04:30:00,2.6794,48.6103,30.2,30.2,100,180,8,0,30.09,NA,1.55,NA,"OVC",NA,NA,NA,200,NA,NA,NA,"BR",NA,NA,NA,NA,NA,NA,21.9,"LFPM 060430Z AUTO 18008KT 2500 BR OVC002 M01/M01 Q1019"
"2706","LFPM",2019-12-06 05:00:00,2.6794,48.6103,30.2,30.2,100,190,7,0,30.09,NA,1.86,NA,"BKN","OVC",NA,NA,300,19000,NA,NA,"BR",NA,NA,NA,NA,NA,NA,22.59,"LFPM 060500Z AUTO 19007KT 3000 BR BKN003 OVC190 M01/M01 Q1019"
"2707","LFPM",2019-12-06 05:30:00,2.6794,48.6103,32,30.2,92.97,190,5,0,30.09,NA,1.8,NA,"FEW","BKN","OVC",NA,400,9800,18000,NA,"BR",NA,NA,NA,NA,NA,NA,26.4,"LFPM 060530Z AUTO 19005KT 2900 BR FEW004 BKN098 OVC180 M00/M01 Q1019"
"2708","LFPM",2019-12-06 06:00:00,2.6794,48.6103,32,32,100,200,5,0,30.09,NA,1.68,NA,"NSC",NA,NA,NA,NA,NA,NA,NA,"BR",NA,NA,NA,NA,NA,NA,26.4,"LFPM 060600Z AUTO 20005KT 2700 BR NSC 00/M00 Q1019"
"2709","LFPM",2019-12-06 06:30:00,2.6794,48.6103,32,32,100,200,5,0,30.09,NA,1.62,NA,"BKN","OVC",NA,NA,400,10000,NA,NA,"BR",NA,NA,NA,NA,NA,NA,26.4,"LFPM 060630Z AUTO 20005KT 2600 BR BKN004 OVC100 00/M00 Q1019"
"2710","LFPM",2019-12-06 07:00:00,2.6794,48.6103,32,32,100,190,6,0,30.09,NA,1.74,NA,"BKN","BKN","OVC",NA,400,9200,11000,NA,"BR",NA,NA,NA,NA,NA,NA,25.53,"LFPM 060700Z AUTO 19006KT 2800 BR BKN004 BKN092 OVC110 00/00 Q1019"
"2711","LFPM",2019-12-06 07:30:00,2.6794,48.6103,33.8,32,93.03,200,9,0,30.09,NA,0.99,NA,"BKN","OVC",NA,NA,400,9600,NA,NA,"UP BR",NA,NA,NA,NA,NA,NA,25.75,"LFPM 060730Z AUTO 20009KT 1600 UP BR BKN004 OVC096 01/00 Q1019"
"2712","LFPM",2019-12-06 08:00:00,2.6794,48.6103,33.8,33.8,100,200,11,0,30.09,NA,0.87,NA,"OVC",NA,NA,NA,400,NA,NA,NA,"BR",NA,NA,NA,NA,NA,NA,24.74,"LFPM 060800Z AUTO 20011KT 1400 BR OVC004 01/01 Q1019"
"2713","LFPM",2019-12-06 08:30:00,2.6794,48.6103,33.8,33.8,100,200,10,0,30.09,NA,0.99,NA,"OVC","///",NA,NA,400,NA,NA,NA,"BR",NA,NA,NA,NA,NA,NA,25.23,"LFPM 060830Z AUTO 20010KT 1600 BR OVC004/// ///TCU 01/01 Q1019"
"2714","LFPM",2019-12-06 09:00:00,2.6794,48.6103,33.8,33.8,100,200,9,0,30.09,NA,1.06,NA,"OVC",NA,NA,NA,300,NA,NA,NA,"BR",NA,NA,NA,NA,NA,NA,25.75,"LFPM 060900Z AUTO 20009KT 1700 BR OVC003 01/01 Q1019"
"2715","LFPM",2019-12-06 09:30:00,2.6794,48.6103,35.6,33.8,93.08,200,10,0,30.09,NA,1.18,NA,"OVC","///",NA,NA,300,NA,NA,NA,"BR",NA,NA,NA,NA,NA,NA,27.48,"LFPM 060930Z AUTO 20010KT 1900 BR OVC003/// ///TCU 02/01 Q1019"
"2716","LFPM",2019-12-06 10:00:00,2.6794,48.6103,35.6,33.8,93.08,200,12,0,30.09,NA,1.68,NA,"OVC",NA,NA,NA,500,NA,NA,NA,"-RA BR",NA,NA,NA,NA,NA,NA,26.58,"LFPM 061000Z AUTO 20012KT 2700 -RA BR OVC005 02/01 Q1019"
"2717","LFPM",2019-12-06 10:30:00,2.6794,48.6103,35.6,35.6,100,200,12,0,30.06,NA,1.86,NA,"OVC","///",NA,NA,500,NA,NA,NA,"-RADZ BR",NA,NA,NA,NA,NA,NA,26.58,"LFPM 061030Z AUTO 20012KT 3000 -RADZ BR OVC005/// ///TCU 02/02 Q1018"
"2718","LFPM",2019-12-06 11:00:00,2.6794,48.6103,35.6,35.6,100,200,13,0,30.06,NA,1.74,NA,"OVC","///",NA,NA,500,NA,NA,NA,"-RA BR",NA,NA,NA,NA,NA,NA,26.18,"LFPM 061100Z AUTO 20013KT 2800 -RA BR OVC005/// ///TCU 02/02 Q1018"
"2719","LFPM",2019-12-06 11:30:00,2.6794,48.6103,37.4,35.6,93.14,200,13,0,30.03,NA,1.99,NA,"OVC","///",NA,NA,500,NA,NA,NA,"-RA BR",NA,NA,NA,NA,NA,NA,28.49,"LFPM 061130Z AUTO 20013KT 3200 -RA BR OVC005/// ///TCU 03/02 Q1017"
"2720","LFPM",2019-12-06 12:00:00,2.6794,48.6103,37.4,37.4,100,210,13,0,30.03,NA,2.11,NA,"OVC","///",NA,NA,500,NA,NA,NA,"-RA BR",NA,NA,NA,NA,NA,NA,28.49,"LFPM 061200Z AUTO 21013KT 3400 -RA BR OVC005/// ///CB 03/03 Q1017"
"2721","LFPM",2019-12-06 12:30:00,2.6794,48.6103,37.4,37.4,100,200,10,0,30.03,NA,1.74,NA,"OVC","///",NA,NA,500,NA,NA,NA,"RA BR",NA,NA,NA,NA,NA,NA,29.74,"LFPM 061230Z AUTO 20010KT 2800 RA BR OVC005/// ///CB 03/03 Q1017"
"2722","LFPM",2019-12-06 13:00:00,2.6794,48.6103,39.2,37.4,93.19,210,11,0,30,NA,2.24,NA,"OVC","///",NA,NA,500,NA,NA,NA,"-RA BR",NA,NA,NA,NA,NA,NA,31.57,"LFPM 061300Z AUTO 21011KT 3600 -RA BR OVC005/// ///CB 04/03 Q1016"
"2723","LFPM",2019-12-06 13:30:00,2.6794,48.6103,39.2,39.2,100,200,12,0,29.97,NA,2.8,NA,"OVC","///",NA,NA,500,NA,NA,NA,"BR",NA,NA,NA,NA,NA,NA,31.17,"LFPM 061330Z AUTO 20012KT 4500 BR OVC005/// ///TCU 04/04 Q1015"
"2724","LFPM",2019-12-06 14:00:00,2.6794,48.6103,39.2,39.2,100,200,14,0,29.97,NA,2.73,NA,"OVC",NA,NA,NA,500,NA,NA,NA,"-RA BR",NA,NA,NA,NA,NA,NA,30.44,"LFPM 061400Z AUTO 20014KT 4400 -RA BR OVC005 04/04 Q1015"
"2725","LFPM",2019-12-06 14:30:00,2.6794,48.6103,41,39.2,93.24,200,14,0,29.97,NA,2.86,NA,"OVC",NA,NA,NA,600,NA,NA,NA,"BR",NA,NA,NA,NA,NA,NA,32.76,"LFPM 061430Z AUTO 20014KT 4600 BR OVC006 05/04 Q1015"
"2726","LFPM",2019-12-06 15:00:00,2.6794,48.6103,41,41,100,200,13,0,29.94,NA,2.92,NA,"OVC",NA,NA,NA,600,NA,NA,NA,"BR",NA,NA,NA,NA,NA,NA,33.1,"LFPM 061500Z AUTO 20013KT 4700 BR OVC006 05/05 Q1014"
"2727","LFPM",2019-12-06 15:30:00,2.6794,48.6103,41,41,100,200,14,0,29.94,NA,2.61,NA,"OVC","///",NA,NA,600,NA,NA,NA,"-RA BR",NA,NA,NA,NA,NA,NA,32.76,"LFPM 061530Z AUTO 20014KT 4200 -RA BR OVC006/// ///TCU 05/05 Q1014"
"2728","LFPM",2019-12-06 16:00:00,2.6794,48.6103,42.8,41,93.3,200,13,0,29.94,NA,1.68,NA,"OVC","///",NA,NA,600,NA,NA,NA,"-RA BR",NA,NA,NA,NA,NA,NA,35.4,"LFPM 061600Z AUTO 20013KT 2700 -RA BR OVC006/// ///TCU 06/05 Q1014"
"2729","LFPM",2019-12-06 16:30:00,2.6794,48.6103,42.8,42.8,100,210,14,0,29.94,NA,3.11,NA,"OVC","///",NA,NA,600,NA,NA,NA,"BR",NA,NA,NA,NA,NA,NA,35.08,"LFPM 061630Z AUTO 21014KT 5000 BR OVC006/// ///TCU 06/06 Q1014"
"2730","LFPM",2019-12-06 17:00:00,2.6794,48.6103,44.6,42.8,93.35,200,17,0,29.91,NA,3.11,NA,"OVC",NA,NA,NA,600,NA,NA,NA,"BR",NA,NA,NA,NA,NA,NA,36.58,"LFPM 061700Z AUTO 20017KT 5000 BR OVC006 07/06 Q1013"
"2731","LFPM",2019-12-06 17:30:00,2.6794,48.6103,44.6,44.6,100,210,16,0,29.91,NA,2.61,NA,"OVC",NA,NA,NA,600,NA,NA,NA,"-RA BR",NA,NA,NA,NA,NA,NA,36.84,"LFPM 061730Z AUTO 21016KT 4200 -RA BR OVC006 07/07 Q1013"
"2732","LFPM",2019-12-06 18:00:00,2.6794,48.6103,44.6,44.6,100,220,16,0,29.91,NA,3.73,NA,"OVC",NA,NA,NA,700,NA,NA,NA,NA,NA,NA,NA,NA,NA,NA,36.84,"LFPM 061800Z AUTO 22016KT 6000 OVC007 07/07 Q1013"
"2733","LFPM",2019-12-06 18:30:00,2.6794,48.6103,46.4,44.6,93.4,210,16,0,29.91,NA,3.73,NA,"OVC",NA,NA,NA,800,NA,NA,NA,"DZ",NA,NA,NA,NA,NA,NA,39.19,"LFPM 061830Z AUTO 21016KT 6000 DZ OVC008 08/07 Q1013"
"2734","LFPM",2019-12-06 19:00:00,2.6794,48.6103,46.4,46.4,100,220,17,0,29.91,NA,3.73,NA,"OVC",NA,NA,NA,700,NA,NA,NA,"-DZ",NA,NA,NA,NA,NA,NA,38.94,"LFPM 061900Z AUTO 22017KT 6000 -DZ OVC007 08/08 Q1013"
"2735","LFPM",2019-12-06 19:30:00,2.6794,48.6103,46.4,46.4,100,220,16,0,29.91,NA,3.73,NA,"OVC",NA,NA,NA,800,NA,NA,NA,"-RADZ",NA,NA,NA,NA,NA,NA,39.19,"LFPM 061930Z AUTO 22016KT 6000 -RADZ OVC008 08/08 Q1013"
"2736","LFPM",2019-12-06 20:00:00,2.6794,48.6103,48.2,46.4,93.45,220,19,0,29.91,NA,5.59,NA,"OVC",NA,NA,NA,800,NA,NA,NA,NA,NA,NA,NA,NA,NA,NA,40.86,"LFPM 062000Z AUTO 22019KT 9000 OVC008 09/08 Q1013"
"2737","LFPM",2019-12-06 20:30:00,2.6794,48.6103,48.2,46.4,93.45,220,17,0,29.91,NA,5.59,NA,"OVC",NA,NA,NA,800,NA,NA,NA,NA,NA,NA,NA,NA,NA,NA,41.3,"LFPM 062030Z AUTO 22017KT 9000 OVC008 09/08 Q1013"
"2738","LFPM",2019-12-06 21:00:00,2.6794,48.6103,48.2,46.4,93.45,220,17,0,29.91,NA,3.73,NA,"OVC",NA,NA,NA,800,NA,NA,NA,NA,NA,NA,NA,NA,NA,NA,41.3,"LFPM 062100Z AUTO 22017KT 6000 OVC008 09/08 Q1013"
"2739","LFPM",2019-12-06 21:30:00,2.6794,48.6103,48.2,46.4,93.45,220,16,0,29.91,NA,6.21,NA,"OVC",NA,NA,NA,800,NA,NA,NA,NA,NA,NA,NA,NA,NA,NA,41.53,"LFPM 062130Z AUTO 22016KT 9999 OVC008 09/08 Q1013"
"2740","LFPM",2019-12-06 22:00:00,2.6794,48.6103,48.2,46.4,93.45,230,15,0,29.94,NA,6.21,NA,"BKN","OVC",NA,NA,800,1200,NA,NA,NA,NA,NA,NA,NA,NA,NA,41.78,"LFPM 062200Z AUTO 23015KT 9999 BKN008 OVC012 09/08 Q1014"
"2741","LFPM",2019-12-06 22:30:00,2.6794,48.6103,48.2,46.4,93.45,230,14,0,29.94,NA,6.21,NA,"OVC",NA,NA,NA,900,NA,NA,NA,NA,NA,NA,NA,NA,NA,NA,42.04,"LFPM 062230Z AUTO 23014KT 9999 OVC009 09/08 Q1014"
"2742","LFPM",2019-12-06 23:00:00,2.6794,48.6103,48.2,46.4,93.45,230,12,0,29.94,NA,6.21,NA,"OVC",NA,NA,NA,900,NA,NA,NA,NA,NA,NA,NA,NA,NA,NA,42.62,"LFPM 062300Z AUTO 23012KT 9999 OVC009 09/08 Q1014"
"2743","LFPM",2019-12-06 23:30:00,2.6794,48.6103,48.2,48.2,100,230,11,0,29.94,NA,6.21,NA,"OVC",NA,NA,NA,800,NA,NA,NA,NA,NA,NA,NA,NA,NA,NA,42.94,"LFPM 062330Z AUTO 23011KT 9999 OVC008 09/09 Q1014"
"2744","LFJL",2019-12-06 00:00:00,6.2431,48.9794,28.4,28.4,100,240,10,0,30.18,NA,2.55,NA,"OVC",NA,NA,NA,200,NA,NA,NA,"BR",NA,NA,NA,NA,NA,NA,18.45,"LFJL 060000Z AUTO 24010KT 4100 BR OVC002 M02/M02 Q1022 TEMPO 0300 FZFG VV///"
"2745","LFJL",2019-12-06 00:30:00,6.2431,48.9794,30.2,30.2,100,220,11,0,30.15,NA,1.93,NA,"OVC",NA,NA,NA,200,NA,NA,NA,"BR",NA,NA,NA,NA,NA,NA,20.19,"LFJL 060030Z AUTO 22011KT 3100 BR OVC002 M01/M01 Q1021 TEMPO 0300 FZFG VV///"
"2746","LFJL",2019-12-06 01:00:00,6.2431,48.9794,30.2,30.2,100,210,8,0,30.15,NA,1.3,NA,"OVC",NA,NA,NA,200,NA,NA,NA,"BR",NA,NA,NA,NA,NA,NA,21.9,"LFJL 060100Z AUTO 21008KT 2100 BR OVC002 M01/M01 Q1021 TEMPO 0300 FZFG VV///"
"2747","LFJL",2019-12-06 01:30:00,6.2431,48.9794,30.2,30.2,100,200,9,0,30.15,NA,1.3,NA,"VV ",NA,NA,NA,NA,NA,NA,NA,"BR",NA,NA,NA,NA,NA,NA,21.28,"LFJL 060130Z AUTO 20009KT 2100 BR VV/// M01/M01 Q1021 TEMPO 0300 FZFG"
"2748","LFJL",2019-12-06 02:00:00,6.2431,48.9794,30.2,30.2,100,200,8,0,30.15,NA,0.62,NA,"VV ",NA,NA,NA,NA,NA,NA,NA,"BCFG",NA,NA,NA,NA,NA,NA,21.9,"LFJL 060200Z AUTO 20008KT 1000 0900 R22/1300D R04/1100U BCFG VV/// M01/M01 Q1021 TEMPO 0300 FZFG"
"2749","LFJL",2019-12-06 02:30:00,6.2431,48.9794,30.2,30.2,100,210,9,0,30.15,NA,1.24,NA,"VV ",NA,NA,NA,NA,NA,NA,NA,"BR",NA,NA,NA,NA,NA,NA,21.28,"LFJL 060230Z AUTO 21009KT 2000 BR VV/// M01/M01 Q1021 TEMPO 0300 FZFG"
"2750","LFJL",2019-12-06 03:00:00,6.2431,48.9794,30.2,30.2,100,180,8,0,30.15,NA,0.81,NA,"OVC",NA,NA,NA,200,NA,NA,NA,"BR",NA,NA,NA,NA,NA,NA,21.9,"LFJL 060300Z AUTO 18008KT 1300 1100 R22/1600N R04/1300N BR OVC002 M01/M01 Q1021 TEMPO 0300 FZFG VV///"
"2751","LFJL",2019-12-06 03:30:00,6.2431,48.9794,32,32,100,180,8,0,30.12,NA,0.68,NA,"VV ",NA,NA,NA,NA,NA,NA,NA,"BCFG",NA,NA,NA,NA,NA,NA,24.11,"LFJL 060330Z AUTO 18008KT 1100 0900 R22/1400N R04/1000U BCFG VV/// M00/M00 Q1020 TEMPO 0300 FZFG"
"2752","LFJL",2019-12-06 04:00:00,6.2431,48.9794,32,32,100,170,9,0,30.12,NA,0.56,NA,"VV ",NA,NA,NA,NA,NA,NA,NA,"FZFG",NA,NA,NA,NA,NA,NA,23.51,"LFJL 060400Z AUTO 17009KT 0900 0750 R22/1100D R04/0800D FZFG VV/// M00/M00 Q1020 TEMPO 0300 FZFG"
"2753","LFJL",2019-12-06 04:30:00,6.2431,48.9794,32,32,100,180,10,0,30.12,NA,0.62,NA,"VV ",NA,NA,NA,NA,NA,NA,NA,"BCFG",NA,NA,NA,NA,NA,NA,22.97,"LFJL 060430Z AUTO 18010KT 1000 0750 R22/1200U R04/0800N BCFG VV/// M00/M00 Q1020 TEMPO 0300 FZFG"
"2754","LFJL",2019-12-06 05:00:00,6.2431,48.9794,32,32,100,180,12,0,30.09,NA,0.93,NA,"VV ",NA,NA,NA,NA,NA,NA,NA,"BR",NA,NA,NA,NA,NA,NA,22,"LFJL 060500Z AUTO 18012KT 1500 BR VV/// M00/M00 Q1019 TEMPO 0300 FZFG"
"2755","LFJL",2019-12-06 05:30:00,6.2431,48.9794,32,32,100,180,10,0,30.09,NA,1.18,NA,"OVC",NA,NA,NA,200,NA,NA,NA,"BR",NA,NA,NA,NA,NA,NA,22.97,"LFJL 060530Z AUTO 18010KT 1900 BR OVC002 M00/M00 Q1019 TEMPO 0300 FZFG VV///"
"2756","LFJL",2019-12-06 06:00:00,6.2431,48.9794,32,32,100,170,10,0,30.09,NA,1.06,NA,"OVC",NA,NA,NA,200,NA,NA,NA,"BR",NA,NA,NA,NA,NA,NA,22.97,"LFJL 060600Z AUTO 17010KT 1700 BR OVC002 M00/M00 Q1019 TEMPO 0500 FZFG VV///"
"2757","LFJL",2019-12-06 06:30:00,6.2431,48.9794,32,32,100,190,10,0,30.09,NA,1.06,NA,"VV ",NA,NA,NA,NA,NA,NA,NA,"BR",NA,NA,NA,NA,NA,NA,22.97,"LFJL 060630Z AUTO 19010KT 1700 1400 R22/2000U R04/1800U BR VV/// 00/00 Q1019 BECMG 9999 NSW BKN018"
"2758","LFJL",2019-12-06 07:00:00,6.2431,48.9794,32,32,100,180,9,0,30.09,NA,0.68,NA,"VV ",NA,NA,NA,NA,NA,NA,NA,"BCFG",NA,NA,NA,NA,NA,NA,23.51,"LFJL 060700Z AUTO 18009KT 1100 0800 R22/1400D R04/1000N BCFG VV/// 00/00 Q1019 BECMG 9999 NSW BKN018"
"2759","LFJL",2019-12-06 07:30:00,6.2431,48.9794,32,32,100,170,10,0,30.09,NA,0.43,NA,"VV ",NA,NA,NA,NA,NA,NA,NA,"FZFG",NA,NA,NA,NA,NA,NA,22.97,"LFJL 060730Z AUTO 17010KT 0700 0600 R22/0900N R04/0900U FZFG VV/// M00/M00 Q1019 BECMG 9999 NSW BKN018"
"2760","LFJL",2019-12-06 08:00:00,6.2431,48.9794,32,32,100,170,9,0,30.09,NA,0.56,NA,"VV ",NA,NA,NA,NA,NA,NA,NA,"FG",NA,NA,NA,NA,NA,NA,23.51,"LFJL 060800Z AUTO 17009KT 0900 0800 R22/1200N R04/1100U FG VV/// 00/00 Q1019 BECMG 9999 NSW BKN018"
"2761","LFJL",2019-12-06 08:30:00,6.2431,48.9794,33.8,33.8,100,170,8,0,30.09,NA,0.75,NA,"OVC",NA,NA,NA,200,NA,NA,NA,"BR",NA,NA,NA,NA,NA,NA,26.33,"LFJL 060830Z AUTO 17008KT 1200 1100 R22/1500D R04/1700D BR OVC002 01/01 Q1019 BECMG 9999 NSW BKN018"
"2762","LFJL",2019-12-06 09:00:00,6.2431,48.9794,33.8,33.8,100,180,7,0,30.09,NA,1.24,NA,"OVC",NA,NA,NA,200,NA,NA,NA,"BR",NA,NA,NA,NA,NA,NA,26.97,"LFJL 060900Z AUTO 18007KT 2000 BR OVC002 01/01 Q1019 BECMG 9999 NSW BKN018"
"2763","LFJL",2019-12-06 09:30:00,6.2431,48.9794,35.6,35.6,100,180,10,0,30.09,NA,2.24,NA,"OVC",NA,NA,NA,200,NA,NA,NA,"BR",NA,NA,NA,NA,NA,NA,27.48,"LFJL 060930Z AUTO 18010KT 3600 BR OVC002 02/02 Q1019 TEMPO 9999 NSW BECMG BKN018"
"2764","LFJL",2019-12-06 10:00:00,6.2431,48.9794,35.6,35.6,100,180,10,0,30.09,NA,3.11,NA,"OVC",NA,NA,NA,300,NA,NA,NA,"BR",NA,NA,NA,NA,NA,NA,27.48,"LFJL 061000Z AUTO 18010KT 5000 BR OVC003 02/02 Q1019 BECMG BKN018"
"2765","LFJL",2019-12-06 10:30:00,6.2431,48.9794,35.6,33.8,93.08,170,9,0,30.06,NA,2.3,NA,"OVC",NA,NA,NA,400,NA,NA,NA,"BR",NA,NA,NA,NA,NA,NA,27.99,"LFJL 061030Z AUTO 17009KT 3700 BR OVC004 02/01 Q1018 BECMG BKN018"
"2766","LFJL",2019-12-06 11:00:00,6.2431,48.9794,35.6,35.6,100,160,11,0,30.06,NA,3.11,NA,"FEW","SCT",NA,NA,400,18000,NA,NA,"BR",NA,NA,NA,NA,NA,NA,27.02,"LFJL 061100Z AUTO 16011KT 5000 BR FEW004 SCT180 02/02 Q1018 NOSIG"
"2767","LFJL",2019-12-06 11:30:00,6.2431,48.9794,37.4,35.6,93.14,180,10,0,30.03,NA,5.59,NA,"NSC",NA,NA,NA,NA,NA,NA,NA,NA,NA,NA,NA,NA,NA,NA,29.74,"LFJL 061130Z AUTO 18010KT 9000 NSC 03/02 Q1017 NOSIG"
"2768","LFJL",2019-12-06 12:00:00,6.2431,48.9794,37.4,37.4,100,180,9,0,30.03,NA,6.21,NA,"BKN","BKN",NA,NA,1300,17000,NA,NA,NA,NA,NA,NA,NA,NA,NA,30.23,"LFJL 061200Z AUTO 18009KT 9999 BKN013 BKN170 03/03 Q1017 BECMG BKN016"
"2769","LFJL",2019-12-06 12:30:00,6.2431,48.9794,41,37.4,86.89,210,15,0,30.03,NA,6.21,NA,"OVC",NA,NA,NA,1200,NA,NA,NA,NA,NA,NA,NA,NA,NA,NA,32.45,"LFJL 061230Z AUTO 21015KT 9999 OVC012 05/03 Q1017 TEMPO 4000 -RA"
"2770","LFJL",2019-12-06 13:00:00,6.2431,48.9794,39.2,37.4,93.19,200,14,0,30,NA,6.21,NA,"BKN","OVC",NA,NA,1200,1700,NA,NA,NA,NA,NA,NA,NA,NA,NA,30.44,"LFJL 061300Z AUTO 20014KT 9999 BKN012 OVC017 04/03 Q1016 TEMPO 4000 -RA"
"2771","LFJL",2019-12-06 13:30:00,6.2431,48.9794,39.2,37.4,93.19,190,14,0,30,NA,6.21,NA,"BKN","BKN",NA,NA,1400,11000,NA,NA,NA,NA,NA,NA,NA,NA,NA,30.44,"LFJL 061330Z AUTO 19014KT 9999 BKN014 BKN110 04/03 Q1016 TEMPO 4000 -RA"
"2772","LFJL",2019-12-06 14:00:00,6.2431,48.9794,41,37.4,86.89,200,12,0,29.97,NA,6.21,NA,"BKN","BKN","BKN",NA,1400,7000,13000,NA,NA,NA,NA,NA,NA,NA,NA,33.46,"LFJL 061400Z AUTO 20012KT 9999 BKN014 BKN070 BKN130 05/03 Q1015 TEMPO 4000 -RA"
"2773","LFJL",2019-12-06 14:30:00,6.2431,48.9794,41,37.4,86.89,210,12,0,29.97,NA,6.21,NA,"OVC",NA,NA,NA,1200,NA,NA,NA,NA,NA,NA,NA,NA,NA,NA,33.46,"LFJL 061430Z AUTO 21012KT 9999 OVC012 05/03 Q1015 TEMPO 4000 -RA"
"2774","LFJL",2019-12-06 15:00:00,6.2431,48.9794,39.2,37.4,93.19,210,12,0,29.97,NA,6.21,NA,"OVC",NA,NA,NA,1200,NA,NA,NA,NA,NA,NA,NA,NA,NA,NA,31.17,"LFJL 061500Z AUTO 21012KT 9999 OVC012 04/03 Q1015 TEMPO 4000 -RA"
"2775","LFJL",2019-12-06 15:30:00,6.2431,48.9794,39.2,37.4,93.19,200,15,0,29.97,NA,6.21,NA,NA,NA,NA,NA,NA,NA,NA,NA,NA,NA,NA,NA,NA,NA,NA,30.11,"LFJL 061530Z AUTO 20015KT 9999 ////// 04/03 Q1015"
"2776","LFJL",2019-12-06 16:00:00,6.2431,48.9794,39.2,37.4,93.19,200,15,0,29.97,NA,6.21,NA,"BKN","OVC","///",NA,1500,5800,NA,NA,NA,NA,NA,NA,NA,NA,NA,30.11,"LFJL 061600Z AUTO 20015KT 9999 BKN015/// OVC058/// ///TCU 04/03 Q1015 TEMPO 4000 -RA BKN012"
"2777","LFJL",2019-12-06 16:30:00,6.2431,48.9794,39.2,37.4,93.19,210,15,0,29.97,NA,6.21,NA,"FEW","BKN","BKN","///",1800,5800,7800,NA,NA,NA,NA,NA,NA,NA,NA,30.11,"LFJL 061630Z AUTO 21015KT 9999 FEW018/// BKN058/// BKN078/// ///TCU 04/03 Q1015 TEMPO 4000 -RA BKN012"
"2778","LFJL",2019-12-06 17:00:00,6.2431,48.9794,39.2,37.4,93.19,210,16,0,29.94,NA,6.21,NA,"FEW","SCT","BKN","///",1700,5200,6400,NA,"-RA",NA,NA,NA,NA,NA,NA,29.8,"LFJL 061700Z AUTO 21016KT 9999 -RA FEW017/// SCT052/// BKN064/// ///TCU 04/03 Q1014 TEMPO 4000 -RA BKN012"
"2779","LFJL",2019-12-06 17:30:00,6.2431,48.9794,39.2,37.4,93.19,200,16,0,29.97,NA,6.21,NA,"///",NA,NA,NA,NA,NA,NA,NA,"-RA",NA,NA,NA,NA,NA,NA,29.8,"LFJL 061730Z AUTO 20016KT 9999 -RA ///TCU 04/03 Q1015 TEMPO 4000 -RA BECMG OVC012"
"2780","LFJL",2019-12-06 18:00:00,6.2431,48.9794,41,37.4,86.89,190,16,0,29.94,NA,6.21,NA,"SCT","OVC",NA,NA,4400,5200,NA,NA,"-RA",NA,NA,NA,NA,NA,NA,32.15,"LFJL 061800Z AUTO 19016KT 9999 -RA SCT044 OVC052 05/03 Q1014 TEMPO 23015G25KT 4500 -RA BECMG OVC012"
"2781","LFJL",2019-12-06 18:30:00,6.2431,48.9794,41,37.4,86.89,200,14,0,29.94,NA,6.21,NA,"SCT","OVC",NA,NA,4200,5600,NA,NA,NA,NA,NA,NA,NA,NA,NA,32.76,"LFJL 061830Z AUTO 20014KT 9999 SCT042 OVC056 05/03 Q1014 TEMPO 23015G25KT 3000 RA OVC007"
"2782","LFJL",2019-12-06 19:00:00,6.2431,48.9794,41,37.4,86.89,200,14,0,29.94,NA,6.21,NA,"SCT","BKN","OVC","///",3100,3900,5600,NA,NA,NA,NA,NA,NA,NA,NA,32.76,"LFJL 061900Z AUTO 20014KT 9999 SCT031/// BKN039/// OVC056/// ///TCU 05/03 Q1014 TEMPO 23015G25KT 3000 RA OVC007"
"2783","LFJL",2019-12-06 19:30:00,6.2431,48.9794,41,37.4,86.89,200,16,0,29.94,NA,6.21,NA,"BKN","BKN","BKN","///",1800,3100,3700,NA,"-RA",NA,NA,NA,NA,NA,NA,32.15,"LFJL 061930Z AUTO 20016KT 9999 -RA BKN018/// BKN031/// BKN037/// ///TCU 05/03 Q1014 TEMPO 23015G25KT 3000 RA OVC007"
"2784","LFJL",2019-12-06 20:00:00,6.2431,48.9794,41,39.2,93.24,190,17,0,29.91,NA,6.21,NA,"FEW","SCT","BKN",NA,1500,3000,3700,NA,NA,NA,NA,NA,NA,NA,NA,31.87,"LFJL 062000Z AUTO 19017KT 9999 FEW015 SCT030 BKN037 05/04 Q1013 TEMPO 23015G25KT 3000 RA OVC007"
"2785","LFJL",2019-12-06 20:30:00,6.2431,48.9794,41,39.2,93.24,190,15,0,29.91,NA,6.21,NA,"FEW","OVC","///",NA,2100,3000,NA,NA,NA,NA,NA,NA,NA,NA,NA,32.45,"LFJL 062030Z AUTO 19015KT 9999 FEW021/// OVC030/// ///TCU 05/04 Q1013 TEMPO 23015G25KT 3000 RA OVC007"
"2786","LFJL",2019-12-06 21:00:00,6.2431,48.9794,42.8,41,93.3,210,17,0,29.91,NA,3.73,NA,"OVC",NA,NA,NA,1400,NA,NA,NA,"-RA",NA,NA,NA,NA,NA,NA,34.22,"LFJL 062100Z AUTO 21017KT 6000 -RA OVC014 06/05 Q1013 TEMPO 23015G25KT 3000 RA OVC007"
"2787","LFJL",2019-12-06 21:30:00,6.2431,48.9794,42.8,42.8,100,210,18,0,29.91,NA,3.73,NA,"OVC",NA,NA,NA,700,NA,NA,NA,"-RA",NA,NA,NA,NA,NA,NA,33.97,"LFJL 062130Z AUTO 21018KT 6000 -RA OVC007 06/06 Q1013 TEMPO 23015G25KT 3000 RA"
"2788","LFJL",2019-12-06 22:00:00,6.2431,48.9794,42.8,42.8,100,210,17,0,29.91,NA,3.11,NA,"BKN","OVC",NA,NA,500,900,NA,NA,"-RA BR",NA,NA,NA,NA,NA,NA,34.22,"LFJL 062200Z AUTO 21017KT 5000 -RA BR BKN005 OVC009 06/06 Q1013 TEMPO 23015G25KT RA"
"2789","LFJL",2019-12-06 22:30:00,6.2431,48.9794,42.8,42.8,100,210,16,0,29.91,NA,3.11,NA,"OVC",NA,NA,NA,500,NA,NA,NA,"-DZ BR",NA,NA,NA,NA,NA,NA,34.5,"LFJL 062230Z AUTO 21016KT 5000 -DZ BR OVC005 06/06 Q1013 TEMPO 23015G25KT RA"
"2790","LFJL",2019-12-06 23:00:00,6.2431,48.9794,44.6,42.8,93.35,210,16,0,29.91,NA,3.11,NA,"OVC",NA,NA,NA,500,NA,NA,NA,"-DZ BR",NA,NA,NA,NA,NA,NA,36.84,"LFJL 062300Z AUTO 21016KT 5000 -DZ BR OVC005 07/06 Q1013 TEMPO 23015G25KT RA"
"2791","LFJL",2019-12-06 23:30:00,6.2431,48.9794,44.6,44.6,100,220,16,0,29.91,NA,3.73,NA,"OVC",NA,NA,NA,500,NA,NA,NA,"-DZ",NA,NA,NA,NA,NA,NA,36.84,"LFJL 062330Z AUTO 22016KT 6000 -DZ OVC005 07/07 Q1013 TEMPO 23015G25KT 3000 RA"
"2792","LFBM",2019-12-06 00:00:00,-0.5075,43.9117,32,32,100,0,0,0,30.24,NA,0.47,NA,"VV ",NA,NA,NA,NA,NA,NA,NA,"FG",NA,NA,NA,NA,NA,NA,NA,"LFBM 060000Z AUTO 00000KT 0750 0550 R27/1200U FG VV/// 00/M00 Q1024 NOSIG"
"2793","LFBM",2019-12-06 00:30:00,-0.5075,43.9117,33.8,32,93.03,NA,2,0,30.24,NA,1.43,NA,"VV ",NA,NA,NA,NA,NA,NA,NA,"BR",NA,NA,NA,NA,NA,NA,NA,"LFBM 060030Z AUTO VRB02KT 2300 BR VV/// 01/00 Q1024 TEMPO 0600 FG"
"2794","LFBM",2019-12-06 01:00:00,-0.5075,43.9117,35.6,33.8,93.08,0,0,0,30.24,NA,0.16,NA,"VV ",NA,NA,NA,NA,NA,NA,NA,"FG",NA,NA,NA,NA,NA,NA,NA,"LFBM 060100Z AUTO 00000KT 0250 R27/0325N FG VV/// 02/01 Q1024 TEMPO 0600 FG"
"2795","LFBM",2019-12-06 01:30:00,-0.5075,43.9117,35.6,35.6,100,0,0,0,30.24,NA,0.12,NA,"VV ",NA,NA,NA,NA,NA,NA,NA,"FG",NA,NA,NA,NA,NA,NA,NA,"LFBM 060130Z AUTO 00000KT 0200 R27/M0200N FG VV/// 02/02 Q1024 TEMPO 0600 FG"
"2796","LFBM",2019-12-06 02:00:00,-0.5075,43.9117,35.6,35.6,100,NA,1,0,30.24,NA,0.19,NA,"VV ",NA,NA,NA,NA,NA,NA,NA,"FG",NA,NA,NA,NA,NA,NA,NA,"LFBM 060200Z AUTO VRB01KT 0300 0250 R27/0300N FG VV/// 02/02 Q1024 TEMPO 0600 FG"
"2797","LFBM",2019-12-06 02:30:00,-0.5075,43.9117,35.6,33.8,93.08,0,0,0,30.24,NA,0.28,NA,"VV ",NA,NA,NA,NA,NA,NA,NA,"FG",NA,NA,NA,NA,NA,NA,NA,"LFBM 060230Z AUTO 00000KT 0450 0350 R27/0550U FG VV/// 02/01 Q1024 TEMPO 0600 FG"
"2798","LFBM",2019-12-06 03:00:00,-0.5075,43.9117,33.8,33.8,100,0,0,0,30.24,NA,0.31,NA,"VV ",NA,NA,NA,NA,NA,NA,NA,"FG",NA,NA,NA,NA,NA,NA,NA,"LFBM 060300Z AUTO 00000KT 0500 0450 R27/0550N FG VV/// 01/01 Q1024 TEMPO 0600 FG"
"2799","LFBM",2019-12-06 03:30:00,-0.5075,43.9117,33.8,33.8,100,0,0,0,30.24,NA,0.28,NA,"VV ",NA,NA,NA,NA,NA,NA,NA,"FG",NA,NA,NA,NA,NA,NA,NA,"LFBM 060330Z AUTO 00000KT 0450 R27/0600N FG VV/// 01/01 Q1024 TEMPO 0600 FG"
"2800","LFBM",2019-12-06 04:00:00,-0.5075,43.9117,33.8,33.8,100,NA,3,0,30.24,NA,0.19,NA,"VV ",NA,NA,NA,NA,NA,NA,NA,"FG",NA,NA,NA,NA,NA,NA,30.75,"LFBM 060400Z AUTO VRB03KT 0300 0250 R27/0400U FG VV/// 01/01 Q1024 TEMPO 0600 FG"
"2801","LFBM",2019-12-06 04:30:00,-0.5075,43.9117,33.8,33.8,100,NA,2,0,30.24,NA,0.43,NA,"VV ",NA,NA,NA,NA,NA,NA,NA,"FG",NA,NA,NA,NA,NA,NA,NA,"LFBM 060430Z AUTO VRB02KT 0700 0650 R27/0750N FG VV/// 01/01 Q1024 NOSIG"
"2802","LFBM",2019-12-06 05:00:00,-0.5075,43.9117,35.6,33.8,93.08,NA,1,0,30.24,NA,0.28,NA,"VV ",NA,NA,NA,NA,NA,NA,NA,"FG",NA,NA,NA,NA,NA,NA,NA,"LFBM 060500Z AUTO VRB01KT 0450 R27/0550N FG VV/// 02/01 Q1024 TEMPO 0600 FG"
"2803","LFBM",2019-12-06 05:30:00,-0.5075,43.9117,35.6,33.8,93.08,80,2,0,30.24,NA,0.31,NA,"VV ",NA,NA,NA,NA,NA,NA,NA,"FG",NA,NA,NA,NA,NA,NA,NA,"LFBM 060530Z AUTO 08002KT 0500 0450 R27/0550N FG VV/// 02/01 Q1024 BECMG 3000 BR NSC"
"2804","LFBM",2019-12-06 06:00:00,-0.5075,43.9117,35.6,33.8,93.08,NA,3,0,30.24,NA,0.31,NA,"VV ",NA,NA,NA,NA,NA,NA,NA,"FG",NA,NA,NA,NA,NA,NA,32.8,"LFBM 060600Z AUTO VRB03KT 0500 R27/0600N FG VV/// 02/01 Q1024 BECMG 3000 BR NSC"
"2805","LFBM",2019-12-06 06:30:00,-0.5075,43.9117,35.6,33.8,93.08,30,2,0,30.24,NA,0.25,NA,"VV ",NA,NA,NA,NA,NA,NA,NA,"FG",NA,NA,NA,NA,NA,NA,NA,"LFBM 060630Z AUTO 03002KT 0400 R27/0450N FG VV/// 02/01 Q1024 BECMG 7000 NSW OVC004"
"2806","LFBM",2019-12-06 07:00:00,-0.5075,43.9117,35.6,35.6,100,NA,1,0,30.24,NA,0.43,NA,"VV ",NA,NA,NA,NA,NA,NA,NA,"FG",NA,NA,NA,NA,NA,NA,NA,"LFBM 060700Z AUTO VRB01KT 0700 0650 R27/0800N FG VV/// 02/02 Q1024 BECMG 7000 NSW OVC004"
"2807","LFBM",2019-12-06 07:30:00,-0.5075,43.9117,37.4,35.6,93.14,NA,2,0,30.24,NA,0.28,NA,"VV ",NA,NA,NA,NA,NA,NA,NA,"FG",NA,NA,NA,NA,NA,NA,NA,"LFBM 060730Z AUTO VRB02KT 0450 R27/0500N FG VV/// 03/02 Q1024 BECMG 7000 NSW OVC004"
"2808","LFBM",2019-12-06 08:00:00,-0.5075,43.9117,37.4,37.4,100,70,2,0,30.24,NA,0.28,NA,"OVC",NA,NA,NA,300,NA,NA,NA,"FG",NA,NA,NA,NA,NA,NA,NA,"LFBM 060800Z AUTO 07002KT 0450 R27/0550N FG OVC003 03/03 Q1024 BECMG 7000 NSW"
"2809","LFBM",2019-12-06 08:30:00,-0.5075,43.9117,39.2,39.2,100,30,2,0,30.24,NA,0.37,NA,"OVC",NA,NA,NA,300,NA,NA,NA,"FG",NA,NA,NA,NA,NA,NA,NA,"LFBM 060830Z AUTO 03002KT 0600 0550 R27/0800N FG OVC003 04/04 Q1024 BECMG 7000 NSW"
"2810","LFBM",2019-12-06 09:00:00,-0.5075,43.9117,39.2,39.2,100,NA,2,0,30.24,NA,0.47,NA,"OVC",NA,NA,NA,200,NA,NA,NA,"FG",NA,NA,NA,NA,NA,NA,NA,"LFBM 060900Z AUTO VRB02KT 0750 0700 R27/1000U FG OVC002 04/04 Q1024 BECMG 6000 NSW BKN005"
"2811","LFBM",2019-12-06 09:30:00,-0.5075,43.9117,41,41,100,40,3,0,30.24,NA,1.06,NA,"BKN","OVC",NA,NA,200,600,NA,NA,"BR",NA,NA,NA,NA,NA,NA,38.98,"LFBM 060930Z AUTO 04003KT 1700 BR BKN002 OVC006 05/05 Q1024 BECMG 6000 NSW BKN005"
"2812","LFBM",2019-12-06 10:00:00,-0.5075,43.9117,42.8,42.8,100,100,2,0,30.24,NA,1.8,NA,"OVC",NA,NA,NA,200,NA,NA,NA,"BR",NA,NA,NA,NA,NA,NA,NA,"LFBM 061000Z AUTO 10002KT 2900 BR OVC002 06/06 Q1024 BECMG 6000 NSW BKN005"
"2813","LFBM",2019-12-06 10:30:00,-0.5075,43.9117,48.2,46.4,93.45,NA,3,0,30.24,NA,2.67,NA,"OVC",NA,NA,NA,200,NA,NA,NA,"BR",NA,NA,NA,NA,NA,NA,47.21,"LFBM 061030Z AUTO VRB03KT 4300 BR OVC002 09/08 Q1024 BECMG CAVOK"
"2814","LFBM",2019-12-06 11:00:00,-0.5075,43.9117,48.2,48.2,100,50,3,0,30.24,NA,4.35,NA,"OVC",NA,NA,NA,600,NA,NA,NA,NA,NA,NA,NA,NA,NA,NA,47.21,"LFBM 061100Z AUTO 05003KT 020V090 7000 OVC006 09/09 Q1024 BECMG NSC"
"2815","LFBM",2019-12-06 11:30:00,-0.5075,43.9117,50,50,100,110,6,0,30.21,NA,6.21,NA,"BKN",NA,NA,NA,800,NA,NA,NA,NA,NA,NA,NA,NA,NA,NA,47.21,"LFBM 061130Z AUTO 11006KT 9999 BKN008 10/10 Q1023 BECMG NSC"
"2816","LFBM",2019-12-06 12:00:00,-0.5075,43.9117,50,48.2,93.5,140,5,0,30.21,NA,4.97,NA,"SCT",NA,NA,NA,700,NA,NA,NA,NA,NA,NA,NA,NA,NA,NA,47.77,"LFBM 061200Z AUTO 14005KT 8000 SCT007 10/09 Q1023 NOSIG"
"2817","LFBM",2019-12-06 12:30:00,-0.5075,43.9117,50,50,100,130,4,0,30.18,NA,5.59,NA,"BKN",NA,NA,NA,700,NA,NA,NA,NA,NA,NA,NA,NA,NA,NA,48.44,"LFBM 061230Z AUTO 13004KT 080V170 9000 BKN007 10/10 Q1022 BECMG NSC"
"2818","LFBM",2019-12-06 13:00:00,-0.5075,43.9117,51.8,50,93.55,90,4,0,30.18,NA,6.21,NA,NA,NA,NA,NA,NA,NA,NA,NA,NA,NA,NA,NA,NA,NA,NA,NA,"LFBM 061300Z AUTO 09004KT 040V130 CAVOK 11/10 Q1022 NOSIG"
"2819","LFBM",2019-12-06 13:30:00,-0.5075,43.9117,53.6,48.2,81.87,110,4,0,30.18,NA,6.21,NA,NA,NA,NA,NA,NA,NA,NA,NA,NA,NA,NA,NA,NA,NA,NA,NA,"LFBM 061330Z AUTO 11004KT 070V160 CAVOK 12/09 Q1022 NOSIG"
"2820","LFBM",2019-12-06 14:00:00,-0.5075,43.9117,53.6,48.2,81.87,80,3,0,30.15,NA,6.21,NA,NA,NA,NA,NA,NA,NA,NA,NA,NA,NA,NA,NA,NA,NA,NA,NA,"LFBM 061400Z AUTO 08003KT 040V120 CAVOK 12/09 Q1021 NOSIG"
"2821","LFBM",2019-12-06 14:30:00,-0.5075,43.9117,53.6,48.2,81.87,100,4,0,30.15,NA,6.21,NA,NA,NA,NA,NA,NA,NA,NA,NA,NA,NA,NA,NA,NA,NA,NA,NA,"LFBM 061430Z AUTO 10004KT 080V150 CAVOK 12/09 Q1021 BECMG 4000 BR"
"2822","LFBM",2019-12-06 15:00:00,-0.5075,43.9117,55.4,46.4,71.64,90,4,0,30.15,NA,6.21,NA,NA,NA,NA,NA,NA,NA,NA,NA,NA,NA,NA,NA,NA,NA,NA,NA,"LFBM 061500Z AUTO 09004KT CAVOK 13/08 Q1021 BECMG 4000 BR"
"2823","LFBM",2019-12-06 15:30:00,-0.5075,43.9117,51.8,46.4,81.74,90,5,0,30.15,NA,6.21,NA,NA,NA,NA,NA,NA,NA,NA,NA,NA,NA,NA,NA,NA,NA,NA,NA,"LFBM 061530Z AUTO 09005KT CAVOK 11/08 Q1021 BECMG 4000 BR"
"2824","LFBM",2019-12-06 16:00:00,-0.5075,43.9117,50,44.6,81.61,80,4,0,30.15,NA,6.21,NA,NA,NA,NA,NA,NA,NA,NA,NA,NA,NA,NA,NA,NA,NA,NA,48.44,"LFBM 061600Z AUTO 08004KT CAVOK 10/07 Q1021 BECMG 4000 BR"
"2825","LFBM",2019-12-06 16:30:00,-0.5075,43.9117,48.2,44.6,87.28,70,3,0,30.15,NA,6.21,NA,NA,NA,NA,NA,NA,NA,NA,NA,NA,NA,NA,NA,NA,NA,NA,47.21,"LFBM 061630Z AUTO 07003KT CAVOK 09/07 Q1021 BECMG 4000 BR"
"2826","LFBM",2019-12-06 17:00:00,-0.5075,43.9117,46.4,42.8,87.19,50,3,0,30.15,NA,6.21,NA,NA,NA,NA,NA,NA,NA,NA,NA,NA,NA,NA,NA,NA,NA,NA,45.15,"LFBM 061700Z AUTO 05003KT CAVOK 08/06 Q1021 BECMG 4000 BR"
"2827","LFBM",2019-12-06 17:30:00,-0.5075,43.9117,44.6,41,87.09,100,3,0,30.15,NA,4.35,NA,"NSC",NA,NA,NA,NA,NA,NA,NA,NA,NA,NA,NA,NA,NA,NA,43.09,"LFBM 061730Z AUTO 10003KT 7000 3100 NSC 07/05 Q1021 BECMG 4000 BR"
"2828","LFBM",2019-12-06 18:00:00,-0.5075,43.9117,44.6,42.8,93.35,80,2,0,30.15,NA,3.11,NA,"NSC",NA,NA,NA,NA,NA,NA,NA,"BR",NA,NA,NA,NA,NA,NA,NA,"LFBM 061800Z AUTO 08002KT 5000 BR NSC 07/06 Q1021 NOSIG"
"2829","LFBM",2019-12-06 18:30:00,-0.5075,43.9117,42.8,41,93.3,80,3,0,30.15,NA,3.11,NA,"NSC",NA,NA,NA,NA,NA,NA,NA,"BR",NA,NA,NA,NA,NA,NA,41.03,"LFBM 061830Z AUTO 08003KT 5000 BR NSC 06/05 Q1021 NOSIG"
"2830","LFBM",2019-12-06 19:00:00,-0.5075,43.9117,42.8,41,93.3,100,3,0,30.15,NA,3.11,NA,"NSC",NA,NA,NA,NA,NA,NA,NA,"BR",NA,NA,NA,NA,NA,NA,41.03,"LFBM 061900Z AUTO 10003KT 5000 BR NSC 06/05 Q1021 NOSIG"
"2831","LFBM",2019-12-06 19:30:00,-0.5075,43.9117,41,39.2,93.24,80,4,0,30.18,NA,0.68,NA,"VV ",NA,NA,NA,NA,NA,NA,NA,"BCFG",NA,NA,NA,NA,NA,NA,37.93,"LFBM 061930Z AUTO 08004KT 1100 0900 R27/1200D BCFG VV/// 05/04 Q1022 TEMPO 2000 MIFG BECMG NSC"
"2832","LFBM",2019-12-06 20:00:00,-0.5075,43.9117,41,41,100,60,3,0,30.18,NA,0.34,NA,"VV ",NA,NA,NA,NA,NA,NA,NA,"FG",NA,NA,NA,NA,NA,NA,38.98,"LFBM 062000Z AUTO 06003KT 0550 R27/0800U FG VV/// 05/05 Q1022 TEMPO 2000 MIFG BECMG NSC"
"2833","LFBM",2019-12-06 20:30:00,-0.5075,43.9117,41,41,100,80,3,0,30.18,NA,0.5,NA,"VV ",NA,NA,NA,NA,NA,NA,NA,"FG",NA,NA,NA,NA,NA,NA,38.98,"LFBM 062030Z AUTO 08003KT 0800 0650 R27/1100D FG VV/// 05/05 Q1022 TEMPO 3000 BR"
"2834","LFBM",2019-12-06 21:00:00,-0.5075,43.9117,41,39.2,93.24,NA,1,0,30.21,NA,0.37,NA,"VV ",NA,NA,NA,NA,NA,NA,NA,"FG",NA,NA,NA,NA,NA,NA,NA,"LFBM 062100Z AUTO VRB01KT 0600 0200 R27/0900U FG VV/// 05/04 Q1023 TEMPO 3000 BR"
"2835","LFBM",2019-12-06 21:30:00,-0.5075,43.9117,41,39.2,93.24,90,2,0,30.21,NA,0.31,NA,"VV ",NA,NA,NA,NA,NA,NA,NA,"FG",NA,NA,NA,NA,NA,NA,NA,"LFBM 062130Z AUTO 09002KT 0500 R27/0650D FG VV/// 05/04 Q1023 TEMPO 3000 BR"
"2836","LFBM",2019-12-06 22:00:00,-0.5075,43.9117,41,39.2,93.24,0,0,0,30.21,NA,0.31,NA,"VV ",NA,NA,NA,NA,NA,NA,NA,"FG",NA,NA,NA,NA,NA,NA,NA,"LFBM 062200Z AUTO 00000KT 0500 0300 R27/0800U FG VV/// 05/04 Q1023 TEMPO 3000 BR"
"2837","LFBM",2019-12-06 22:30:00,-0.5075,43.9117,41,41,100,130,1,0,30.21,NA,1.55,NA,"VV ",NA,NA,NA,NA,NA,NA,NA,"BR",NA,NA,NA,NA,NA,NA,NA,"LFBM 062230Z AUTO 13001KT 2500 BR VV/// 05/05 Q1023 TEMPO 3000 BR"
"2838","LFBM",2019-12-06 23:00:00,-0.5075,43.9117,41,41,100,0,0,0,30.21,NA,3.11,NA,"NSC",NA,NA,NA,NA,NA,NA,NA,"BR",NA,NA,NA,NA,NA,NA,NA,"LFBM 062300Z AUTO 00000KT 5000 BR NSC 05/05 Q1023 BECMG VV///"
"2839","LFBM",2019-12-06 23:30:00,-0.5075,43.9117,41,41,100,130,1,0,30.21,NA,3.11,NA,"NSC",NA,NA,NA,NA,NA,NA,NA,"BR",NA,NA,NA,NA,NA,NA,NA,"LFBM 062330Z AUTO 13001KT 5000 BR NSC 05/05 Q1023 BECMG VV///"
"2840","LFSN",2019-12-06 00:00:00,6.2217,48.6878,28.4,26.6,92.86,180,5,0,30.18,NA,3.73,NA,"OVC",NA,NA,NA,600,NA,NA,NA,NA,NA,NA,NA,NA,NA,NA,22.12,"LFSN 060000Z AUTO 18005KT 140V210 6000 OVC006 M02/M03 Q1022"
"2841","LFSN",2019-12-06 00:30:00,6.2217,48.6878,28.4,26.6,92.86,190,5,0,30.18,NA,3.11,NA,"OVC",NA,NA,NA,500,NA,NA,NA,"BR",NA,NA,NA,NA,NA,NA,22.12,"LFSN 060030Z AUTO 19005KT 5000 BR OVC005 M02/M03 Q1022"
"2842","LFSN",2019-12-06 01:00:00,6.2217,48.6878,28.4,26.6,92.86,180,5,0,30.18,NA,3.73,NA,"OVC",NA,NA,NA,600,NA,NA,NA,NA,NA,NA,NA,NA,NA,NA,22.12,"LFSN 060100Z AUTO 18005KT 6000 OVC006 M02/M03 Q1022"
"2843","LFSN",2019-12-06 01:30:00,6.2217,48.6878,28.4,26.6,92.86,190,5,0,30.18,NA,3.73,NA,"OVC",NA,NA,NA,700,NA,NA,NA,NA,NA,NA,NA,NA,NA,NA,22.12,"LFSN 060130Z AUTO 19005KT 160V220 6000 OVC007 M02/M03 Q1022"
"2844","LFSN",2019-12-06 02:00:00,6.2217,48.6878,28.4,26.6,92.86,180,6,0,30.18,NA,3.73,NA,"OVC",NA,NA,NA,600,NA,NA,NA,NA,NA,NA,NA,NA,NA,NA,21.19,"LFSN 060200Z AUTO 18006KT 6000 OVC006 M02/M03 Q1022"
"2845","LFSN",2019-12-06 02:30:00,6.2217,48.6878,28.4,26.6,92.86,170,8,0,30.18,NA,4.97,NA,"OVC",NA,NA,NA,600,NA,NA,NA,NA,NA,NA,NA,NA,NA,NA,19.68,"LFSN 060230Z AUTO 17008KT 8000 OVC006 M02/M03 Q1022"
"2846","LFSN",2019-12-06 03:00:00,6.2217,48.6878,30.2,28.4,92.92,180,7,0,30.15,NA,4.35,NA,"OVC",NA,NA,NA,500,NA,NA,NA,NA,NA,NA,NA,NA,NA,NA,22.59,"LFSN 060300Z AUTO 18007KT 7000 OVC005 M01/M02 Q1021"
"2847","LFSN",2019-12-06 03:30:00,6.2217,48.6878,30.2,28.4,92.92,180,5,0,30.15,NA,3.11,NA,"OVC",NA,NA,NA,400,NA,NA,NA,"BR",NA,NA,NA,NA,NA,NA,24.26,"LFSN 060330Z AUTO 18005KT 5000 BR OVC004 M01/M02 Q1021"
"2848","LFSN",2019-12-06 04:00:00,6.2217,48.6878,30.2,28.4,92.92,190,6,0,30.15,NA,3.73,NA,"OVC",NA,NA,NA,400,NA,NA,NA,NA,NA,NA,NA,NA,NA,NA,23.36,"LFSN 060400Z AUTO 19006KT 150V220 6000 OVC004 M01/M02 Q1021"
"2849","LFSN",2019-12-06 04:30:00,6.2217,48.6878,30.2,28.4,92.92,190,6,0,30.15,NA,3.11,NA,"OVC",NA,NA,NA,400,NA,NA,NA,"BR",NA,NA,NA,NA,NA,NA,23.36,"LFSN 060430Z AUTO 19006KT 5000 BR OVC004 M01/M02 Q1021"
"2850","LFSN",2019-12-06 05:00:00,6.2217,48.6878,30.2,30.2,100,180,6,0,30.15,NA,3.11,NA,"OVC",NA,NA,NA,400,NA,NA,NA,"BR",NA,NA,NA,NA,NA,NA,23.36,"LFSN 060500Z AUTO 18006KT 5000 BR OVC004 M01/M01 Q1021"
"2851","LFSN",2019-12-06 05:30:00,6.2217,48.6878,30.2,30.2,100,170,7,0,30.12,NA,3.11,NA,"OVC",NA,NA,NA,400,NA,NA,NA,"BR",NA,NA,NA,NA,NA,NA,22.59,"LFSN 060530Z AUTO 17007KT 5000 BR OVC004 M01/M01 Q1020"
"2852","LFSN",2019-12-06 06:00:00,6.2217,48.6878,32,30.2,92.97,170,6,0,30.12,NA,3.73,NA,"OVC",NA,NA,NA,400,NA,NA,NA,NA,NA,NA,NA,NA,NA,NA,25.53,"LFSN 060600Z AUTO 17006KT 140V210 6000 OVC004 M00/M01 Q1020"
"2853","LFSN",2019-12-06 06:30:00,6.2217,48.6878,32,30.2,92.97,160,5,0,30.12,NA,4.35,NA,"OVC",NA,NA,NA,500,NA,NA,NA,NA,NA,NA,NA,NA,NA,NA,26.4,"LFSN 060630Z AUTO 16005KT 7000 OVC005 M00/M01 Q1020"
"2854","LFSN",2019-12-06 07:00:00,6.2217,48.6878,32,30.2,92.97,170,5,0,30.12,NA,3.73,NA,"OVC",NA,NA,NA,400,NA,NA,NA,NA,NA,NA,NA,NA,NA,NA,26.4,"LFSN 060700Z AUTO 17005KT 130V200 6000 OVC004 M00/M01 Q1020"
"2855","LFSN",2019-12-06 07:30:00,6.2217,48.6878,32,30.2,92.97,190,6,0,30.12,NA,3.73,NA,"OVC",NA,NA,NA,400,NA,NA,NA,NA,NA,NA,NA,NA,NA,NA,25.53,"LFSN 060730Z AUTO 19006KT 140V230 6000 OVC004 00/M01 Q1020"
"2856","LFSN",2019-12-06 08:00:00,6.2217,48.6878,32,32,100,170,4,0,30.12,NA,3.73,NA,"OVC",NA,NA,NA,400,NA,NA,NA,NA,NA,NA,NA,NA,NA,NA,27.42,"LFSN 060800Z AUTO 17004KT 140V230 6000 OVC004 00/M00 Q1020"
"2857","LFSN",2019-12-06 08:30:00,6.2217,48.6878,33.8,32,93.03,170,6,0,30.12,NA,4.35,NA,"OVC",NA,NA,NA,500,NA,NA,NA,NA,NA,NA,NA,NA,NA,NA,27.7,"LFSN 060830Z AUTO 17006KT 130V200 7000 OVC005 01/M00 Q1020"
"2858","LFSN",2019-12-06 09:00:00,6.2217,48.6878,33.8,32,93.03,160,6,0,30.12,NA,4.97,NA,"OVC",NA,NA,NA,500,NA,NA,NA,NA,NA,NA,NA,NA,NA,NA,27.7,"LFSN 060900Z AUTO 16006KT 120V200 8000 OVC005 01/M00 Q1020"
"2859","LFSN",2019-12-06 09:30:00,6.2217,48.6878,33.8,32,93.03,170,7,0,30.12,NA,5.59,NA,"OVC",NA,NA,NA,600,NA,NA,NA,NA,NA,NA,NA,NA,NA,NA,26.97,"LFSN 060930Z AUTO 17007KT 150V210 9000 OVC006 01/M00 Q1020"
"2860","LFSN",2019-12-06 10:00:00,6.2217,48.6878,33.8,32,93.03,180,8,0,30.12,NA,6.21,NA,"OVC",NA,NA,NA,600,NA,NA,NA,NA,NA,NA,NA,NA,NA,NA,26.33,"LFSN 061000Z AUTO 18008KT 150V210 9999 OVC006 01/M00 Q1020"
"2861","LFSN",2019-12-06 10:30:00,6.2217,48.6878,35.6,32,86.59,190,9,0,30.09,NA,6.21,NA,"OVC",NA,NA,NA,700,NA,NA,NA,NA,NA,NA,NA,NA,NA,NA,27.99,"LFSN 061030Z AUTO 19009KT 160V220 9999 OVC007 02/00 Q1019"
"2862","LFSN",2019-12-06 11:00:00,6.2217,48.6878,35.6,32,86.59,180,9,0,30.09,NA,6.21,NA,"OVC",NA,NA,NA,700,NA,NA,NA,NA,NA,NA,NA,NA,NA,NA,27.99,"LFSN 061100Z AUTO 18009KT 150V210 9999 OVC007 02/00 Q1019"
"2863","LFSN",2019-12-06 11:30:00,6.2217,48.6878,37.4,33.8,86.69,170,10,0,30.06,NA,6.21,NA,"BKN",NA,NA,NA,900,NA,NA,NA,NA,NA,NA,NA,NA,NA,NA,29.74,"LFSN 061130Z AUTO 17010KT 150V210 9999 BKN009 03/01 Q1018"
"2864","LFSN",2019-12-06 12:00:00,6.2217,48.6878,37.4,33.8,86.69,190,10,0,30.06,NA,6.21,NA,NA,NA,NA,NA,NA,NA,NA,NA,NA,NA,NA,NA,NA,NA,NA,29.74,"LFSN 061200Z AUTO 19010KT 150V210 CAVOK 03/01 Q1018"
"2865","LFSN",2019-12-06 12:30:00,6.2217,48.6878,37.4,33.8,86.69,180,9,0,30.06,NA,6.21,NA,"BKN","OVC",NA,NA,1300,17000,NA,NA,NA,NA,NA,NA,NA,NA,NA,30.23,"LFSN 061230Z AUTO 18009KT 9999 BKN013 OVC170 03/01 Q1018"
"2866","LFSN",2019-12-06 13:00:00,6.2217,48.6878,39.2,33.8,80.79,190,8,0,30.03,NA,6.21,NA,"BKN","OVC",NA,NA,1400,16000,NA,NA,NA,NA,NA,NA,NA,NA,NA,32.98,"LFSN 061300Z AUTO 19008KT 9999 BKN014 OVC160 04/01 Q1017"
"2867","LFSN",2019-12-06 13:30:00,6.2217,48.6878,39.2,33.8,80.79,190,10,0,30.03,NA,6.21,NA,"FEW","BKN",NA,NA,1400,14000,NA,NA,NA,NA,NA,NA,NA,NA,NA,32,"LFSN 061330Z AUTO 19010KT 9999 FEW014 BKN140 04/01 Q1017"
"2868","LFSN",2019-12-06 14:00:00,6.2217,48.6878,39.2,35.6,86.79,200,10,0,30.03,NA,6.21,NA,NA,NA,NA,NA,NA,NA,NA,NA,NA,NA,NA,NA,NA,NA,NA,32,"LFSN 061400Z AUTO 20010KT CAVOK 04/02 Q1017"
"2869","LFSN",2019-12-06 14:30:00,6.2217,48.6878,39.2,33.8,80.79,180,7,0,30,NA,6.21,NA,NA,NA,NA,NA,NA,NA,NA,NA,NA,NA,NA,NA,NA,NA,NA,33.56,"LFSN 061430Z AUTO 18007KT CAVOK 04/01 Q1016"
"2870","LFSN",2019-12-06 15:00:00,6.2217,48.6878,39.2,33.8,80.79,180,7,0,30,NA,6.21,NA,NA,NA,NA,NA,NA,NA,NA,NA,NA,NA,NA,NA,NA,NA,NA,33.56,"LFSN 061500Z AUTO 18007KT CAVOK 04/01 Q1016"
"2871","LFSN",2019-12-06 15:30:00,6.2217,48.6878,39.2,35.6,86.79,170,8,0,30,NA,6.21,NA,NA,NA,NA,NA,NA,NA,NA,NA,NA,NA,NA,NA,NA,NA,NA,32.98,"LFSN 061530Z AUTO 17008KT CAVOK 04/02 Q1016"
"2872","LFSN",2019-12-06 16:00:00,6.2217,48.6878,39.2,33.8,80.79,160,8,0,30,NA,6.21,NA,NA,NA,NA,NA,NA,NA,NA,NA,NA,NA,NA,NA,NA,NA,NA,32.98,"LFSN 061600Z AUTO 16008KT CAVOK 04/01 Q1016"
"2873","LFSN",2019-12-06 16:30:00,6.2217,48.6878,39.2,33.8,80.79,150,6,0,30,NA,6.21,NA,NA,NA,NA,NA,NA,NA,NA,NA,NA,NA,NA,NA,NA,NA,NA,34.2,"LFSN 061630Z AUTO 15006KT CAVOK 04/01 Q1016"
"2874","LFSN",2019-12-06 17:00:00,6.2217,48.6878,39.2,33.8,80.79,180,4,0,30,NA,6.21,NA,"///",NA,NA,NA,NA,NA,NA,NA,NA,NA,NA,NA,NA,NA,NA,35.83,"LFSN 061700Z AUTO 18004KT 140V220 9999 ///TCU 04/01 Q1016"
"2875","LFSN",2019-12-06 17:30:00,6.2217,48.6878,39.2,35.6,86.79,190,6,0,30,NA,5.59,NA,"NSC",NA,NA,NA,NA,NA,NA,NA,"-RA",NA,NA,NA,NA,NA,NA,34.2,"LFSN 061730Z AUTO 19006KT 150V230 9000 -RA NSC 04/02 Q1016"
"2876","LFSN",2019-12-06 18:00:00,6.2217,48.6878,39.2,35.6,86.79,180,6,0,30,NA,6.21,NA,"FEW","BKN","OVC",NA,4100,5400,7000,NA,NA,NA,NA,NA,NA,NA,NA,34.2,"LFSN 061800Z AUTO 18006KT 150V210 9999 FEW041 BKN054 OVC070 04/02 Q1016"
"2877","LFSN",2019-12-06 18:30:00,6.2217,48.6878,39.2,35.6,86.79,170,6,0,29.97,NA,5.59,NA,"SCT","SCT","OVC",NA,4100,4700,6600,NA,"-RA",NA,NA,NA,NA,NA,NA,34.2,"LFSN 061830Z AUTO 17006KT 150V210 9000 -RA SCT041 SCT047 OVC066 04/02 Q1015"
"2878","LFSN",2019-12-06 19:00:00,6.2217,48.6878,39.2,35.6,86.79,150,5,0,29.97,NA,6.21,NA,"FEW","BKN","OVC","///",4400,5600,6800,NA,NA,NA,NA,NA,NA,NA,NA,34.95,"LFSN 061900Z AUTO 15005KT 120V190 9999 FEW044/// BKN056/// OVC068/// ///TCU 04/02 Q1015"
"2879","LFSN",2019-12-06 19:30:00,6.2217,48.6878,41,35.6,80.93,NA,3,0,29.97,NA,6.21,NA,"FEW","BKN","OVC","///",2200,5600,6800,NA,"-RA",NA,NA,NA,NA,NA,NA,38.98,"LFSN 061930Z AUTO VRB03KT 9999 -RA FEW022/// BKN056/// OVC068/// ///TCU 05/02 Q1015"
"2880","LFSN",2019-12-06 20:00:00,6.2217,48.6878,41,37.4,86.89,170,9,0,29.94,NA,6.21,NA,"FEW","BKN","BKN",NA,1900,3300,4300,NA,NA,NA,NA,NA,NA,NA,NA,34.7,"LFSN 062000Z AUTO 17009KT 9999 FEW019 BKN033 BKN043 05/03 Q1014"
"2881","LFSN",2019-12-06 20:30:00,6.2217,48.6878,41,37.4,86.89,130,8,0,29.94,NA,6.21,NA,"BKN","BKN","BKN",NA,1800,3500,4600,NA,NA,NA,NA,NA,NA,NA,NA,35.2,"LFSN 062030Z AUTO 13008KT 9999 BKN018 BKN035 BKN046 05/03 Q1014"
"2882","LFSN",2019-12-06 21:00:00,6.2217,48.6878,42.8,39.2,86.99,200,8,0,29.94,NA,6.21,NA,"OVC",NA,NA,NA,1800,NA,NA,NA,NA,NA,NA,NA,NA,NA,NA,37.42,"LFSN 062100Z AUTO 20008KT 140V240 9999 OVC018 06/04 Q1014"
"2883","LFSN",2019-12-06 21:30:00,6.2217,48.6878,44.6,39.2,81.2,210,10,0,29.94,NA,6.21,NA,"OVC","///",NA,NA,1700,NA,NA,NA,NA,NA,NA,NA,NA,NA,NA,38.77,"LFSN 062130Z AUTO 21010KT 170V240 9999 OVC017/// ///TCU 07/04 Q1014"
"2884","LFSN",2019-12-06 22:00:00,6.2217,48.6878,44.6,41,87.09,210,11,0,29.94,NA,3.73,NA,"OVC",NA,NA,NA,1600,NA,NA,NA,"RA",NA,NA,NA,NA,NA,NA,38.39,"LFSN 062200Z AUTO 21011KT 170V240 6000 RA OVC016 07/05 Q1014"
"2885","LFSN",2019-12-06 22:30:00,6.2217,48.6878,44.6,41,87.09,210,10,0,29.94,NA,4.97,NA,"BKN","OVC",NA,NA,1400,2500,NA,NA,"-RA",NA,NA,NA,NA,NA,NA,38.77,"LFSN 062230Z AUTO 21010KT 180V240 8000 -RA BKN014 OVC025 07/05 Q1014"
"2886","LFSN",2019-12-06 23:00:00,6.2217,48.6878,44.6,42.8,93.35,210,12,0,29.94,NA,4.35,NA,"OVC",NA,NA,NA,1200,NA,NA,NA,"-RA",NA,NA,NA,NA,NA,NA,38.04,"LFSN 062300Z AUTO 21012KT 180V240 7000 -RA OVC012 07/06 Q1014"
"2887","LFSN",2019-12-06 23:30:00,6.2217,48.6878,44.6,42.8,93.35,210,9,0,29.94,NA,6.21,NA,"OVC",NA,NA,NA,900,NA,NA,NA,NA,NA,NA,NA,NA,NA,NA,39.18,"LFSN 062330Z AUTO 21009KT 160V240 9999 OVC009 07/06 Q1014"
"2888","LFSO",2019-12-06 00:00:00,5.9597,48.5811,28.4,26.6,92.86,220,8,0,30.18,NA,1.8,NA,"OVC",NA,NA,NA,200,NA,NA,NA,"BR",NA,NA,NA,NA,NA,NA,19.68,"LFSO 060000Z AUTO 22008KT 2900 BR OVC002 M02/M03 Q1022"
"2889","LFSO",2019-12-06 00:30:00,5.9597,48.5811,28.4,26.6,92.86,220,11,0,30.18,NA,2.36,NA,"OVC",NA,NA,NA,300,NA,NA,NA,"BR",NA,NA,NA,NA,NA,NA,17.92,"LFSO 060030Z AUTO 22011KT 3800 BR OVC003 M02/M03 Q1022"
"2890","LFSO",2019-12-06 01:00:00,5.9597,48.5811,28.4,26.6,92.86,210,10,0,30.15,NA,1.3,NA,"OVC",NA,NA,NA,200,NA,NA,NA,"BR",NA,NA,NA,NA,NA,NA,18.45,"LFSO 060100Z AUTO 21010KT 2100 BR OVC002 M02/M03 Q1021"
"2891","LFSO",2019-12-06 01:30:00,5.9597,48.5811,28.4,26.6,92.86,200,8,0,30.15,NA,0.93,NA,"OVC",NA,NA,NA,300,NA,NA,NA,"BR",NA,NA,NA,NA,NA,NA,19.68,"LFSO 060130Z AUTO 20008KT 1500 1300 R20/1700U BR OVC003 M02/M03 Q1021"
"2892","LFSO",2019-12-06 02:00:00,5.9597,48.5811,28.4,28.4,100,190,9,0,30.15,NA,3.11,NA,"OVC",NA,NA,NA,300,NA,NA,NA,"BR",NA,NA,NA,NA,NA,NA,19.04,"LFSO 060200Z AUTO 19009KT 5000 BR OVC003 M02/M02 Q1021"
"2893","LFSO",2019-12-06 02:30:00,5.9597,48.5811,28.4,28.4,100,190,12,0,30.15,NA,0.5,NA,"OVC",NA,NA,NA,300,NA,NA,NA,"FZFG",NA,NA,NA,NA,NA,NA,17.42,"LFSO 060230Z AUTO 19012KT 0800 0700 R20/0800D FZFG OVC003 M02/M02 Q1021"
"2894","LFSO",2019-12-06 03:00:00,5.9597,48.5811,30.2,30.2,100,200,12,0,30.12,NA,0.56,NA,"OVC",NA,NA,NA,300,NA,NA,NA,"FZFG",NA,NA,NA,NA,NA,NA,19.71,"LFSO 060300Z AUTO 20012KT 0900 0800 R20/1000U FZFG OVC003 M01/M01 Q1020"
"2895","LFSO",2019-12-06 03:30:00,5.9597,48.5811,30.2,30.2,100,200,7,0,30.12,NA,0.68,NA,"OVC",NA,NA,NA,300,NA,NA,NA,"BR",NA,NA,NA,NA,NA,NA,22.59,"LFSO 060330Z AUTO 20007KT 1100 1000 R20/1200D BR OVC003 M01/M01 Q1020"
"2896","LFSO",2019-12-06 04:00:00,5.9597,48.5811,30.2,28.4,92.92,200,9,0,30.12,NA,0.81,NA,"OVC",NA,NA,NA,300,NA,NA,NA,"BR",NA,NA,NA,NA,NA,NA,21.28,"LFSO 060400Z AUTO 20009KT 1300 1200 R20/1500U BR OVC003 M01/M02 Q1020"
"2897","LFSO",2019-12-06 04:30:00,5.9597,48.5811,30.2,28.4,92.92,210,8,0,30.12,NA,0.99,NA,"OVC",NA,NA,NA,300,NA,NA,NA,"BR",NA,NA,NA,NA,NA,NA,21.9,"LFSO 060430Z AUTO 21008KT 1600 BR OVC003 M01/M02 Q1020 BECMG 0400 FZFG"
"2898","LFSO",2019-12-06 05:00:00,5.9597,48.5811,30.2,30.2,100,190,9,0,30.12,NA,0.62,NA,"OVC",NA,NA,NA,300,NA,NA,NA,"BCFG",NA,NA,NA,NA,NA,NA,21.28,"LFSO 060500Z AUTO 19009KT 1000 0750 R20/1000D BCFG OVC003 M01/M01 Q1020 BECMG 0400 FZFG"
"2899","LFSO",2019-12-06 05:30:00,5.9597,48.5811,30.2,30.2,100,180,6,0,30.12,NA,1.49,NA,"OVC",NA,NA,NA,300,NA,NA,NA,"BR",NA,NA,NA,NA,NA,NA,23.36,"LFSO 060530Z AUTO 18006KT 150V210 2400 BR OVC003 M01/M01 Q1020 BECMG 0400 FZFG"
"2900","LFSO",2019-12-06 06:00:00,5.9597,48.5811,30.2,30.2,100,160,5,0,30.12,NA,1.43,NA,"OVC",NA,NA,NA,300,NA,NA,NA,"BR",NA,NA,NA,NA,NA,NA,24.26,"LFSO 060600Z AUTO 16005KT 130V190 2300 BR OVC003 M01/M01 Q1020 TEMPO 0600 FZFG"
"2901","LFSO",2019-12-06 06:30:00,5.9597,48.5811,32,30.2,92.97,180,7,0,30.12,NA,0.93,NA,"OVC",NA,NA,NA,300,NA,NA,NA,"BR",NA,NA,NA,NA,NA,NA,24.78,"LFSO 060630Z AUTO 18007KT 150V210 1500 1300 R20/1600D BR OVC003 M00/M01 Q1020 BECMG 4000 BR BKN006"
"2902","LFSO",2019-12-06 07:00:00,5.9597,48.5811,32,32,100,180,7,0,30.12,NA,0.68,NA,"OVC",NA,NA,NA,300,NA,NA,NA,"BR",NA,NA,NA,NA,NA,NA,24.78,"LFSO 060700Z AUTO 18007KT 1100 1000 R20/1300D BR OVC003 00/M00 Q1020 BECMG 4000 BR BKN006"
"2903","LFSO",2019-12-06 07:30:00,5.9597,48.5811,32,32,100,200,10,0,30.09,NA,1.62,NA,"OVC",NA,NA,NA,300,NA,NA,NA,"BR",NA,NA,NA,NA,NA,NA,22.97,"LFSO 060730Z AUTO 20010KT 2600 BR OVC003 00/M00 Q1019 BECMG 4000 BR BKN006"
"2904","LFSO",2019-12-06 08:00:00,5.9597,48.5811,32,32,100,190,7,0,30.09,NA,2.61,NA,"OVC",NA,NA,NA,300,NA,NA,NA,"BR",NA,NA,NA,NA,NA,NA,24.78,"LFSO 060800Z AUTO 19007KT 4200 BR OVC003 00/M00 Q1019 BECMG BKN006"
"2905","LFSO",2019-12-06 08:30:00,5.9597,48.5811,32,32,100,200,9,0,30.09,NA,2.86,NA,"OVC",NA,NA,NA,300,NA,NA,NA,"BR",NA,NA,NA,NA,NA,NA,23.51,"LFSO 060830Z AUTO 20009KT 4600 BR OVC003 00/M00 Q1019 BECMG 6000 NSW BKN010"
"2906","LFSO",2019-12-06 09:00:00,5.9597,48.5811,33.8,32,93.03,190,7,0,30.12,NA,4.35,NA,"OVC",NA,NA,NA,400,NA,NA,NA,NA,NA,NA,NA,NA,NA,NA,26.97,"LFSO 060900Z AUTO 19007KT 7000 OVC004 01/00 Q1020 BECMG BKN010"
"2907","LFSO",2019-12-06 09:30:00,5.9597,48.5811,33.8,33.8,100,190,9,0,30.09,NA,5.59,NA,"OVC",NA,NA,NA,500,NA,NA,NA,NA,NA,NA,NA,NA,NA,NA,25.75,"LFSO 060930Z AUTO 19009KT 9000 OVC005 01/01 Q1019 BECMG BKN010"
"2908","LFSO",2019-12-06 10:00:00,5.9597,48.5811,35.6,33.8,93.08,190,10,0,30.09,NA,6.21,NA,"SCT","BKN",NA,NA,500,24000,NA,NA,NA,NA,NA,NA,NA,NA,NA,27.48,"LFSO 061000Z AUTO 19010KT 9999 SCT005 BKN240 02/01 Q1019 BECMG BKN010"
"2909","LFSO",2019-12-06 10:30:00,5.9597,48.5811,37.4,35.6,93.14,200,11,0,30.09,NA,6.21,NA,NA,NA,NA,NA,NA,NA,NA,NA,NA,NA,NA,NA,NA,NA,NA,29.29,"LFSO 061030Z AUTO 20011KT CAVOK 03/02 Q1019 TEMPO BKN010"
"2910","LFSO",2019-12-06 11:00:00,5.9597,48.5811,37.4,33.8,86.69,200,16,0,30.06,NA,6.21,NA,NA,NA,NA,NA,NA,NA,NA,NA,NA,NA,NA,NA,NA,NA,NA,27.46,"LFSO 061100Z AUTO 20016KT CAVOK 03/01 Q1018 TEMPO BKN010"
"2911","LFSO",2019-12-06 11:30:00,5.9597,48.5811,37.4,33.8,86.69,200,15,0,30.06,NA,6.21,NA,NA,NA,NA,NA,NA,NA,NA,NA,NA,NA,NA,NA,NA,NA,NA,27.78,"LFSO 061130Z AUTO 20015KT CAVOK 03/01 Q1018 NOSIG"
"2912","LFSO",2019-12-06 12:00:00,5.9597,48.5811,37.4,33.8,86.69,220,16,0,30.06,NA,6.21,NA,"FEW","BKN","BKN",NA,900,17000,22000,NA,NA,NA,NA,NA,NA,NA,NA,27.46,"LFSO 061200Z AUTO 22016KT 9999 FEW009 BKN170 BKN220 03/01 Q1018 NOSIG"
"2913","LFSO",2019-12-06 12:30:00,5.9597,48.5811,39.2,35.6,86.79,210,13,0,30.03,NA,6.21,NA,"SCT","OVC",NA,NA,1100,17000,NA,NA,NA,NA,NA,NA,NA,NA,NA,30.79,"LFSO 061230Z AUTO 21013KT 9999 SCT011 OVC170 04/02 Q1017 NOSIG"
"2914","LFSO",2019-12-06 13:00:00,5.9597,48.5811,39.2,33.8,80.79,210,15,0,30.03,NA,6.21,NA,"SCT","BKN",NA,NA,1100,15000,NA,NA,NA,NA,NA,NA,NA,NA,NA,30.11,"LFSO 061300Z AUTO 21015KT 9999 SCT011 BKN150 04/01 Q1017 NOSIG"
"2915","LFSO",2019-12-06 13:30:00,5.9597,48.5811,39.2,35.6,86.79,210,15,0,30.03,NA,6.21,NA,NA,NA,NA,NA,NA,NA,NA,NA,NA,NA,NA,NA,NA,NA,NA,30.11,"LFSO 061330Z AUTO 21015KT CAVOK 04/02 Q1017 BECMG 21015G25KT 4000 -RA BKN010 BKN040"
"2916","LFSO",2019-12-06 14:00:00,5.9597,48.5811,39.2,35.6,86.79,220,14,0,30,NA,6.21,NA,NA,NA,NA,NA,NA,NA,NA,NA,NA,NA,NA,NA,NA,NA,NA,30.44,"LFSO 061400Z AUTO 22014KT CAVOK 04/02 Q1016 BECMG 21015G25KT 4000 -RA BKN010 BKN040"
"2917","LFSO",2019-12-06 14:30:00,5.9597,48.5811,39.2,35.6,86.79,210,14,0,30,NA,6.21,NA,NA,NA,NA,NA,NA,NA,NA,NA,NA,NA,NA,NA,NA,NA,NA,30.44,"LFSO 061430Z AUTO 21014KT CAVOK 04/02 Q1016"
"2918","LFSO",2019-12-06 15:00:00,5.9597,48.5811,39.2,35.6,86.79,220,11,0,30,NA,6.21,NA,NA,NA,NA,NA,NA,NA,NA,NA,NA,NA,NA,NA,NA,NA,NA,31.57,"LFSO 061500Z AUTO 22011KT CAVOK 04/02 Q1016"
"2919","LFSO",2019-12-06 15:30:00,5.9597,48.5811,39.2,33.8,80.79,220,11,0,30,NA,6.21,NA,NA,NA,NA,NA,NA,NA,NA,NA,NA,NA,NA,NA,NA,NA,NA,31.57,"LFSO 061530Z AUTO 22011KT CAVOK 04/01 Q1016"
"2920","LFSO",2019-12-06 16:00:00,5.9597,48.5811,39.2,33.8,80.79,210,12,0,30,NA,6.21,NA,NA,NA,NA,NA,NA,NA,NA,NA,NA,NA,NA,NA,NA,NA,NA,31.17,"LFSO 061600Z AUTO 21012KT CAVOK 04/01 Q1016"
"2921","LFSO",2019-12-06 16:30:00,5.9597,48.5811,41,33.8,75.33,210,13,0,29.97,NA,6.21,NA,NA,NA,NA,NA,NA,NA,NA,NA,NA,NA,NA,NA,NA,NA,NA,33.1,"LFSO 061630Z AUTO 21013KT CAVOK 05/01 Q1015"
"2922","LFSO",2019-12-06 17:00:00,5.9597,48.5811,41,33.8,75.33,210,11,0,29.97,NA,6.21,NA,NA,NA,NA,NA,NA,NA,NA,NA,NA,NA,NA,NA,NA,NA,NA,33.84,"LFSO 061700Z AUTO 21011KT CAVOK 05/01 Q1015"
"2923","LFSO",2019-12-06 17:30:00,5.9597,48.5811,41,33.8,75.33,210,12,0,29.97,NA,6.21,NA,"FEW","BKN","OVC",NA,4900,7400,8800,NA,NA,NA,NA,NA,NA,NA,NA,33.46,"LFSO 061730Z AUTO 21012KT 9999 FEW049 BKN074 OVC088 05/01 Q1015"
"2924","LFSO",2019-12-06 18:00:00,5.9597,48.5811,41,33.8,75.33,210,16,0,29.97,NA,6.21,NA,"SCT","BKN","OVC",NA,4200,5800,7400,NA,NA,NA,NA,NA,NA,NA,NA,32.15,"LFSO 061800Z AUTO 21016KT 9999 SCT042 BKN058 OVC074 05/01 Q1015"
"2925","LFSO",2019-12-06 18:30:00,5.9597,48.5811,39.2,33.8,80.79,210,17,0,29.97,NA,6.21,NA,"FEW","BKN","OVC","///",4000,6800,8200,NA,"-RA",NA,NA,NA,NA,NA,NA,29.51,"LFSO 061830Z AUTO 21017KT 9999 -RA FEW040/// BKN068/// OVC082/// ///TCU 04/01 Q1015"
"2926","LFSO",2019-12-06 19:00:00,5.9597,48.5811,41,37.4,86.89,210,20,0,29.94,NA,6.21,NA,"///",NA,NA,NA,NA,NA,NA,NA,NA,NA,NA,NA,NA,NA,NA,31.09,"LFSO 061900Z AUTO 21020KT 9999 ///TCU 05/03 Q1014"
"2927","LFSO",2019-12-06 19:30:00,5.9597,48.5811,41,37.4,86.89,220,17,0,29.94,NA,6.21,NA,"SCT","BKN","OVC","///",4700,6800,7800,NA,"-RA",NA,NA,NA,NA,NA,NA,31.87,"LFSO 061930Z AUTO 22017KT 9999 -RA SCT047/// BKN068/// OVC078/// ///TCU 05/03 Q1014"
"2928","LFSO",2019-12-06 20:00:00,5.9597,48.5811,41,39.2,93.24,210,16,0,29.94,NA,6.21,NA,"FEW","BKN","BKN",NA,900,4800,6000,NA,NA,NA,NA,NA,NA,NA,NA,32.15,"LFSO 062000Z AUTO 21016KT 9999 FEW009 BKN048 BKN060 05/04 Q1014"
"2929","LFSO",2019-12-06 20:30:00,5.9597,48.5811,42.8,39.2,86.99,200,17,0,29.94,NA,6.21,NA,"BKN","OVC",NA,NA,1500,4700,NA,NA,NA,NA,NA,NA,NA,NA,NA,34.22,"LFSO 062030Z AUTO 20017KT 9999 BKN015 OVC047 06/04 Q1014"
"2930","LFSO",2019-12-06 21:00:00,5.9597,48.5811,42.8,39.2,86.99,210,16,0,29.94,NA,6.21,NA,"OVC","///",NA,NA,1300,NA,NA,NA,NA,NA,NA,NA,NA,NA,NA,34.5,"LFSO 062100Z AUTO 21016KT 9999 OVC013/// ///TCU 06/04 Q1014"
"2931","LFSO",2019-12-06 21:30:00,5.9597,48.5811,42.8,41,93.3,210,17,0,29.94,NA,4.97,NA,"OVC","///",NA,NA,1000,NA,NA,NA,"-RA",NA,NA,NA,NA,NA,NA,34.22,"LFSO 062130Z AUTO 21017KT 8000 -RA OVC010/// ///TCU 06/05 Q1014"
"2932","LFSO",2019-12-06 22:00:00,5.9597,48.5811,42.8,41,93.3,210,17,0,29.94,NA,3.11,NA,"OVC","///",NA,NA,1100,NA,NA,NA,"-RA BR",NA,NA,NA,NA,NA,NA,34.22,"LFSO 062200Z AUTO 21017KT 5000 -RA BR OVC011/// ///TCU 06/05 Q1014"
"2933","LFSO",2019-12-06 22:30:00,5.9597,48.5811,42.8,42.8,100,210,17,0,29.94,NA,3.73,NA,"OVC",NA,NA,NA,700,NA,NA,NA,"-RA",NA,NA,NA,NA,NA,NA,34.22,"LFSO 062230Z AUTO 21017KT 6000 -RA OVC007 06/06 Q1014"
"2934","LFSO",2019-12-06 23:00:00,5.9597,48.5811,44.6,42.8,93.35,220,17,0,29.94,NA,2.49,NA,"OVC",NA,NA,NA,500,NA,NA,NA,"-DZ BR",NA,NA,NA,NA,NA,NA,36.58,"LFSO 062300Z AUTO 22017KT 4000 -DZ BR OVC005 07/06 Q1014"
"2935","LFSO",2019-12-06 23:30:00,5.9597,48.5811,44.6,42.8,93.35,220,15,0,29.94,NA,3.11,NA,"OVC",NA,NA,NA,500,NA,NA,NA,"-DZ BR",NA,NA,NA,NA,NA,NA,37.11,"LFSO 062330Z AUTO 22015KT 5000 -DZ BR OVC005 07/06 Q1014"
"2936","LFRS",2019-12-06 00:00:00,-1.6089,47.15,33.8,33.8,100,NA,2,0,30.21,NA,0.19,NA,"VV ",NA,NA,NA,NA,NA,NA,NA,"FG",NA,NA,NA,NA,NA,NA,NA,"LFRS 060000Z AUTO VRB02KT 0300 R03/0350N R21/0400N FG VV/// 01/01 Q1023"
"2937","LFRS",2019-12-06 00:30:00,-1.6089,47.15,33.8,33.8,100,180,3,0,30.21,NA,0.22,NA,"VV ",NA,NA,NA,NA,NA,NA,NA,"FG",NA,NA,NA,NA,NA,NA,30.75,"LFRS 060030Z AUTO 18003KT 150V220 0350 R03/0375N R21/0400N FG VV/// 01/01 Q1023"
"2938","LFRS",2019-12-06 01:00:00,-1.6089,47.15,33.8,33.8,100,160,7,0,30.18,NA,0.25,NA,"VV ",NA,NA,NA,NA,NA,NA,NA,"FG",NA,NA,NA,NA,NA,NA,26.97,"LFRS 060100Z AUTO 16007KT 0400 R03/0450U R21/0500N FG VV/// 01/01 Q1022"
"2939","LFRS",2019-12-06 01:30:00,-1.6089,47.15,33.8,33.8,100,160,8,0,30.18,NA,0.31,NA,"VV ",NA,NA,NA,NA,NA,NA,NA,"FG",NA,NA,NA,NA,NA,NA,26.33,"LFRS 060130Z AUTO 16008KT 0500 0450 R03/0550N R21/0650N FG VV/// 01/01 Q1022"
"2940","LFRS",2019-12-06 02:00:00,-1.6089,47.15,33.8,33.8,100,170,6,0,30.18,NA,0.37,NA,"VV ",NA,NA,NA,NA,NA,NA,NA,"FG",NA,NA,NA,NA,NA,NA,27.7,"LFRS 060200Z AUTO 17006KT 0600 0550 R03/0650N R21/0700N FG VV/// 01/01 Q1022"
"2941","LFRS",2019-12-06 02:30:00,-1.6089,47.15,33.8,33.8,100,170,5,0,30.18,NA,0.5,NA,"VV ",NA,NA,NA,NA,NA,NA,NA,"FG",NA,NA,NA,NA,NA,NA,28.53,"LFRS 060230Z AUTO 17005KT 140V200 0800 0700 R03/0900U R21/1100U FG VV/// 01/01 Q1022"
"2942","LFRS",2019-12-06 03:00:00,-1.6089,47.15,33.8,33.8,100,150,5,0,30.15,NA,0.5,NA,"VV ",NA,NA,NA,NA,NA,NA,NA,"FG",NA,NA,NA,NA,NA,NA,28.53,"LFRS 060300Z AUTO 15005KT 0800 0750 R03/0900D R21/1600D FG VV/// 01/01 Q1021"
"2943","LFRS",2019-12-06 03:30:00,-1.6089,47.15,33.8,33.8,100,160,6,0,30.15,NA,0.87,NA,"VV ",NA,NA,NA,NA,NA,NA,NA,"BR",NA,NA,NA,NA,NA,NA,27.7,"LFRS 060330Z AUTO 16006KT 1400 1000 R03/1700U R21/2000U BR VV/// 01/01 Q1021"
"2944","LFRS",2019-12-06 04:00:00,-1.6089,47.15,33.8,33.8,100,180,4,0,30.15,NA,1.12,NA,"VV ",NA,NA,NA,NA,NA,NA,NA,"BR",NA,NA,NA,NA,NA,NA,29.52,"LFRS 060400Z AUTO 18004KT 1800 BR VV/// 01/01 Q1021"
"2945","LFRS",2019-12-06 04:30:00,-1.6089,47.15,33.8,33.8,100,180,5,0,30.15,NA,2.49,NA,"BKN","OVC",NA,NA,200,2100,NA,NA,"BR",NA,NA,NA,NA,NA,NA,28.53,"LFRS 060430Z AUTO 18005KT 4000 BR BKN002 OVC021 01/01 Q1021"
"2946","LFRS",2019-12-06 05:00:00,-1.6089,47.15,33.8,33.8,100,170,6,0,30.15,NA,3.11,NA,"FEW","OVC",NA,NA,300,2000,NA,NA,"BR",NA,NA,NA,NA,NA,NA,27.7,"LFRS 060500Z AUTO 17006KT 5000 BR FEW003 OVC020 01/01 Q1021"
"2947","LFRS",2019-12-06 05:30:00,-1.6089,47.15,35.6,35.6,100,180,6,0,30.15,NA,3.11,NA,"FEW","OVC",NA,NA,400,2200,NA,NA,"BR",NA,NA,NA,NA,NA,NA,29.87,"LFRS 060530Z AUTO 18006KT 5000 BR FEW004 OVC022 02/02 Q1021"
"2948","LFRS",2019-12-06 06:00:00,-1.6089,47.15,35.6,35.6,100,190,6,0,30.15,NA,3.11,NA,"BKN","OVC",NA,NA,400,2300,NA,NA,"BR",NA,NA,NA,NA,NA,NA,29.87,"LFRS 060600Z AUTO 19006KT 5000 BR BKN004 OVC023 02/02 Q1021"
"2949","LFRS",2019-12-06 06:30:00,-1.6089,47.15,35.6,35.6,100,170,8,0,30.12,NA,2.73,NA,"OVC","///",NA,NA,400,NA,NA,NA,"BR",NA,NA,NA,NA,NA,NA,28.55,"LFRS 060630Z AUTO 17008KT 4400 BR OVC004/// ///TCU 02/02 Q1020"
"2950","LFRS",2019-12-06 07:00:00,-1.6089,47.15,37.4,37.4,100,170,7,0,30.12,NA,2.67,NA,"OVC","///",NA,NA,300,NA,NA,NA,"BR",NA,NA,NA,NA,NA,NA,31.36,"LFRS 060700Z AUTO 17007KT 4300 BR OVC003/// ///TCU 03/03 Q1020"
"2951","LFRS",2019-12-06 07:30:00,-1.6089,47.15,39.2,39.2,100,180,6,0,30.12,NA,3.04,NA,"OVC","///",NA,NA,300,NA,NA,NA,"BR",NA,NA,NA,NA,NA,NA,34.2,"LFRS 060730Z AUTO 18006KT 4900 BR OVC003/// ///TCU 04/04 Q1020"
"2952","LFRS",2019-12-06 08:00:00,-1.6089,47.15,39.2,39.2,100,180,7,0,30.12,NA,2.24,NA,"OVC","///",NA,NA,2100,NA,NA,NA,"BR///",NA,NA,NA,NA,NA,NA,33.56,"LFRS 060800Z AUTO 18007KT 3600 BR BKN003/// OVC021/// ///TCU 04/04 Q1020 TEMPO RADZ BECMG BKN003"
"2953","LFRS",2019-12-06 08:30:00,-1.6089,47.15,41,41,100,180,7,0,30.12,NA,2.42,NA,"OVC","///",NA,NA,2100,NA,NA,NA,"BR///",NA,NA,NA,NA,NA,NA,35.75,"LFRS 060830Z AUTO 18007KT 3900 BR BKN003/// OVC021/// ///TCU 05/05 Q1020 TEMPO RADZ BECMG BKN003"
"2954","LFRS",2019-12-06 09:00:00,-1.6089,47.15,41,41,100,180,7,0,30.12,NA,2.92,NA,"FEW","BKN","OVC",NA,400,1900,10000,NA,"BR",NA,NA,NA,NA,NA,NA,35.75,"LFRS 060900Z AUTO 18007KT 4700 BR FEW004 BKN019 OVC100 05/05 Q1020 TEMPO RADZ BECMG BKN003"
"2955","LFRS",2019-12-06 09:30:00,-1.6089,47.15,42.8,42.8,100,180,5,0,30.12,NA,3.11,NA,"FEW","OVC","///",NA,2000,9400,NA,NA,"BR",NA,NA,NA,NA,NA,NA,39.22,"LFRS 060930Z AUTO 18005KT 5000 BR FEW020/// OVC094/// ///TCU 06/06 Q1020 TEMPO RADZ BECMG BKN003"
"2956","LFRS",2019-12-06 10:00:00,-1.6089,47.15,44.6,44.6,100,180,5,0,30.12,NA,4.35,NA,"FEW","BKN","OVC","///",2500,8600,10000,NA,NA,NA,NA,NA,NA,NA,NA,41.36,"LFRS 061000Z AUTO 18005KT 7000 FEW025/// BKN086/// OVC100/// ///CB 07/07 Q1020 TEMPO 3000 RADZ BKN005"
"2957","LFRS",2019-12-06 10:30:00,-1.6089,47.15,46.4,44.6,93.4,200,7,0,30.12,NA,4.97,NA,"FEW","SCT","OVC","///",2100,2600,7800,NA,"-RA",NA,NA,NA,NA,NA,NA,42.33,"LFRS 061030Z AUTO 20007KT 8000 -RA FEW021/// SCT026/// OVC078/// ///CB 08/07 Q1020 TEMPO 3000 RADZ BECMG SCT010 BKN040"
"2958","LFRS",2019-12-06 11:00:00,-1.6089,47.15,46.4,46.4,100,190,7,0,30.09,NA,3.11,NA,"SCT","BKN","BKN","///",2100,2700,6800,NA,"-RA BR",NA,NA,NA,NA,NA,NA,42.33,"LFRS 061100Z AUTO 19007KT 5000 -RA BR SCT021/// BKN027/// BKN068/// ///TCU 08/08 Q1019 BECMG SCT010 BKN040"
"2959","LFRS",2019-12-06 11:30:00,-1.6089,47.15,48.2,48.2,100,200,5,0,30.09,NA,4.35,NA,"SCT","BKN","BKN","///",2000,3400,6600,NA,"-RA",NA,NA,NA,NA,NA,NA,45.63,"LFRS 061130Z AUTO 20005KT 7000 -RA SCT020/// BKN034/// BKN066/// ///CB 09/09 Q1019 TEMPO 24015G25KT BECMG SCT010 BKN040"
"2960","LFRS",2019-12-06 12:00:00,-1.6089,47.15,48.2,48.2,100,200,8,0,30.06,NA,6.21,NA,"OVC","///",NA,NA,1600,NA,NA,NA,NA,NA,NA,NA,NA,NA,NA,44.07,"LFRS 061200Z AUTO 20008KT 9999 OVC016/// ///TCU 09/09 Q1018 TEMPO 24015G25KT BECMG SCT010 BKN040"
"2961","LFRS",2019-12-06 12:30:00,-1.6089,47.15,50,50,100,210,8,0,30.06,NA,6.21,NA,"BKN","OVC",NA,NA,1700,3000,NA,NA,NA,NA,NA,NA,NA,NA,NA,46.29,"LFRS 061230Z AUTO 21008KT 180V250 9999 BKN017 OVC030 10/10 Q1018 TEMPO 24015G25KT"
"2962","LFRS",2019-12-06 13:00:00,-1.6089,47.15,51.8,50,93.55,210,10,0,30.03,NA,6.21,NA,"BKN","OVC",NA,NA,1500,2800,NA,NA,NA,NA,NA,NA,NA,NA,NA,NA,"LFRS 061300Z AUTO 21010KT 9999 BKN015 OVC028 11/10 Q1017 TEMPO 24015G25KT"
"2963","LFRS",2019-12-06 13:30:00,-1.6089,47.15,51.8,50,93.55,220,9,0,30.03,NA,6.21,NA,"SCT","BKN","BKN",NA,1400,2300,4700,NA,NA,NA,NA,NA,NA,NA,NA,NA,"LFRS 061330Z AUTO 22009KT 180V250 9999 SCT014 BKN023 BKN047 11/10 Q1017 TEMPO 24015G25KT"
"2964","LFRS",2019-12-06 14:00:00,-1.6089,47.15,51.8,50,93.55,220,9,0,30.03,NA,6.21,NA,"BKN","OVC",NA,NA,1500,6600,NA,NA,NA,NA,NA,NA,NA,NA,NA,NA,"LFRS 061400Z AUTO 22009KT 9999 BKN015 OVC066 11/10 Q1017 TEMPO 24015G25KT"
"2965","LFRS",2019-12-06 14:30:00,-1.6089,47.15,51.8,50,93.55,230,10,0,30,NA,6.21,NA,"SCT","BKN",NA,NA,1700,4000,NA,NA,NA,NA,NA,NA,NA,NA,NA,NA,"LFRS 061430Z AUTO 23010KT 9999 SCT017 BKN040 11/10 Q1016 TEMPO BKN013"
"2966","LFRS",2019-12-06 15:00:00,-1.6089,47.15,51.8,50,93.55,230,11,0,30,NA,6.21,NA,"BKN","BKN","BKN",NA,1900,2700,3600,NA,NA,NA,NA,NA,NA,NA,NA,NA,"LFRS 061500Z AUTO 23011KT 200V260 9999 BKN019 BKN027 BKN036 11/10 Q1016 TEMPO BKN013"
"2967","LFRS",2019-12-06 15:30:00,-1.6089,47.15,51.8,48.2,87.47,230,11,0,30,NA,6.21,NA,"BKN","OVC",NA,NA,2300,23000,NA,NA,NA,NA,NA,NA,NA,NA,NA,NA,"LFRS 061530Z AUTO 23011KT 200V270 9999 BKN023 OVC230 11/09 Q1016 TEMPO 3000 RA BKN004"
"2968","LFRS",2019-12-06 16:00:00,-1.6089,47.15,53.6,48.2,81.87,250,11,0,30.03,NA,6.21,NA,"OVC",NA,NA,NA,2100,NA,NA,NA,NA,NA,NA,NA,NA,NA,NA,NA,"LFRS 061600Z AUTO 25011KT 9999 OVC021 12/09 Q1017 TEMPO 3000 RA BKN004"
"2969","LFRS",2019-12-06 16:30:00,-1.6089,47.15,51.8,50,93.55,230,10,0,30.03,NA,3.73,NA,"FEW","BKN","BKN",NA,1100,1900,2400,NA,"-RA",NA,NA,NA,NA,NA,NA,NA,"LFRS 061630Z AUTO 23010KT 200V270 6000 -RA FEW011 BKN019 BKN024 11/10 Q1017 TEMPO 3000 RA BKN004"
"2970","LFRS",2019-12-06 17:00:00,-1.6089,47.15,50,50,100,230,11,0,30.03,NA,4.97,NA,"BKN","BKN","OVC",NA,1000,2300,3200,NA,NA,NA,NA,NA,NA,NA,NA,45.21,"LFRS 061700Z AUTO 23011KT 8000 BKN010 BKN023 OVC032 10/10 Q1017 TEMPO 3000 RA BKN004"
"2971","LFRS",2019-12-06 17:30:00,-1.6089,47.15,50,50,100,220,11,0,30,NA,2.86,NA,"OVC",NA,NA,NA,600,NA,NA,NA,"-DZ BR",NA,NA,NA,NA,NA,NA,45.21,"LFRS 061730Z AUTO 22011KT 190V250 4600 -DZ BR OVC006 10/10 Q1016 NOSIG"
"2972","LFRS",2019-12-06 18:00:00,-1.6089,47.15,50,50,100,220,12,0,30,NA,3.11,NA,"OVC",NA,NA,NA,400,NA,NA,NA,"BR",NA,NA,NA,NA,NA,NA,44.91,"LFRS 061800Z AUTO 22012KT 5000 BR OVC004 10/10 Q1016 TEMPO BKN008"
"2973","LFRS",2019-12-06 18:30:00,-1.6089,47.15,51.8,50,93.55,230,10,0,30,NA,3.11,NA,"OVC",NA,NA,NA,400,NA,NA,NA,"-DZ BR",NA,NA,NA,NA,NA,NA,NA,"LFRS 061830Z AUTO 23010KT 200V260 5000 -DZ BR OVC004 11/10 Q1016 TEMPO BKN008"
"2974","LFRS",2019-12-06 19:00:00,-1.6089,47.15,51.8,51.8,100,230,11,0,30,NA,3.11,NA,"OVC",NA,NA,NA,400,NA,NA,NA,"-DZ BR",NA,NA,NA,NA,NA,NA,NA,"LFRS 061900Z AUTO 23011KT 200V260 5000 -DZ BR OVC004 11/11 Q1016 NOSIG"
"2975","LFRS",2019-12-06 19:30:00,-1.6089,47.15,51.8,51.8,100,240,11,0,30.03,NA,2.86,NA,"OVC",NA,NA,NA,300,NA,NA,NA,"+DZ BR",NA,NA,NA,NA,NA,NA,NA,"LFRS 061930Z AUTO 24011KT 210V270 4600 +DZ BR OVC003 11/11 Q1017 TEMPO 2000 BR"
"2976","LFRS",2019-12-06 20:00:00,-1.6089,47.15,51.8,51.8,100,270,10,0,30.03,NA,3.11,NA,"OVC",NA,NA,NA,300,NA,NA,NA,"-RA BR",NA,NA,NA,NA,NA,NA,NA,"LFRS 062000Z AUTO 27010KT 5000 -RA BR OVC003 11/11 Q1017 TEMPO 2000 BR"
"2977","LFRS",2019-12-06 20:30:00,-1.6089,47.15,51.8,51.8,100,240,7,0,30.03,NA,6.21,NA,"FEW","SCT","OVC",NA,900,2600,3400,NA,NA,NA,NA,NA,NA,NA,NA,NA,"LFRS 062030Z AUTO 24007KT 9999 FEW009 SCT026 OVC034 11/11 Q1017 TEMPO 2000 BR BKN002"
"2978","LFRS",2019-12-06 21:00:00,-1.6089,47.15,51.8,50,93.55,240,7,0,30.03,NA,6.21,NA,"BKN","OVC",NA,NA,3600,4200,NA,NA,NA,NA,NA,NA,NA,NA,NA,NA,"LFRS 062100Z AUTO 24007KT 9999 BKN036 OVC042 11/10 Q1017 TEMPO 2000 BR BKN002"
"2979","LFRS",2019-12-06 21:30:00,-1.6089,47.15,51.8,50,93.55,230,6,0,30.03,NA,6.21,NA,"OVC",NA,NA,NA,3800,NA,NA,NA,NA,NA,NA,NA,NA,NA,NA,NA,"LFRS 062130Z AUTO 23006KT 9999 OVC038 11/10 Q1017 TEMPO 2000 BR BKN002"
"2980","LFRS",2019-12-06 22:00:00,-1.6089,47.15,50,50,100,230,6,0,30.03,NA,6.21,NA,"OVC",NA,NA,NA,4100,NA,NA,NA,NA,NA,NA,NA,NA,NA,NA,47.21,"LFRS 062200Z AUTO 23006KT 9999 OVC041 10/10 Q1017 TEMPO 2000 BR BKN002"
"2981","LFRS",2019-12-06 22:30:00,-1.6089,47.15,50,50,100,230,4,0,30.06,NA,6.21,NA,"FEW","OVC",NA,NA,1000,4000,NA,NA,NA,NA,NA,NA,NA,NA,NA,48.44,"LFRS 062230Z AUTO 23004KT 200V270 9999 FEW010 OVC040 10/10 Q1018 TEMPO 2000 BR BKN002"
"2982","LFRS",2019-12-06 23:00:00,-1.6089,47.15,50,50,100,210,6,0,30.06,NA,6.21,NA,"FEW",NA,NA,NA,1700,NA,NA,NA,NA,NA,NA,NA,NA,NA,NA,47.21,"LFRS 062300Z AUTO 21006KT 9999 FEW017 10/10 Q1018 TEMPO 2000 BR BKN002"
"2983","LFRS",2019-12-06 23:30:00,-1.6089,47.15,50,50,100,210,5,0,30.06,NA,6.21,NA,"BKN",NA,NA,NA,4600,NA,NA,NA,NA,NA,NA,NA,NA,NA,NA,47.77,"LFRS 062330Z AUTO 21005KT 9999 BKN046 10/10 Q1018 NOSIG"
"2984","LFQG",2019-12-06 06:00:00,3.1128,46.9983,24.8,24.8,100,0,0,0,30.18,NA,0.4,NA,"FEW",NA,NA,NA,300,NA,NA,NA,"FZFG",NA,NA,NA,NA,NA,NA,NA,"LFQG 060600Z AUTO 00000KT 0650 FZFG FEW003 M04/M04 Q1022"
"2985","LFQG",2019-12-06 06:30:00,3.1128,46.9983,23,23,100,0,0,0,30.18,NA,0.43,NA,"FEW",NA,NA,NA,300,NA,NA,NA,"FZFG",NA,NA,NA,NA,NA,NA,NA,"LFQG 060630Z AUTO 00000KT 0700 FZFG FEW003 M05/M05 Q1022"
"2986","LFQG",2019-12-06 07:00:00,3.1128,46.9983,26.6,24.8,92.8,150,3,0,30.18,NA,3.11,NA,"NSC",NA,NA,NA,NA,NA,NA,NA,"BR",NA,NA,NA,NA,NA,NA,22.52,"LFQG 060700Z AUTO 15003KT 5000 BR NSC M03/M04 Q1022"
"2987","LFQG",2019-12-06 07:30:00,3.1128,46.9983,28.4,28.4,100,0,0,0,30.18,NA,3.73,NA,"NSC",NA,NA,NA,NA,NA,NA,NA,NA,NA,NA,NA,NA,NA,NA,NA,"LFQG 060730Z AUTO 00000KT 6000 NSC M02/M02 Q1022"
"2988","LFQG",2019-12-06 08:00:00,3.1128,46.9983,26.6,26.6,100,310,1,0,30.18,NA,3.73,NA,"NSC",NA,NA,NA,NA,NA,NA,NA,NA,NA,NA,NA,NA,NA,NA,NA,"LFQG 060800Z AUTO 31001KT 6000 NSC M03/M03 Q1022"
"2989","LFQG",2019-12-06 08:30:00,3.1128,46.9983,30.2,28.4,92.92,300,3,0,30.18,NA,1.99,NA,"NSC",NA,NA,NA,NA,NA,NA,NA,"BR",NA,NA,NA,NA,NA,NA,26.63,"LFQG 060830Z AUTO 30003KT 3200 BR NSC M01/M02 Q1022"
"2990","LFQG",2019-12-06 09:00:00,3.1128,46.9983,32,30.2,92.97,0,0,0,30.18,NA,2.55,NA,"NSC",NA,NA,NA,NA,NA,NA,NA,"BR",NA,NA,NA,NA,NA,NA,NA,"LFQG 060900Z AUTO 00000KT 4100 BR NSC M00/M01 Q1022"
"2991","LFQG",2019-12-06 09:30:00,3.1128,46.9983,32,30.2,92.97,0,0,0,30.18,NA,2.05,NA,"NSC",NA,NA,NA,NA,NA,NA,NA,"BR",NA,NA,NA,NA,NA,NA,NA,"LFQG 060930Z AUTO 00000KT 3300 BR NSC M00/M01 Q1022"
"2992","LFQG",2019-12-06 10:00:00,3.1128,46.9983,32,32,100,NA,2,0,30.18,NA,3.04,NA,"FEW",NA,NA,NA,400,NA,NA,NA,"BR",NA,NA,NA,NA,NA,NA,NA,"LFQG 061000Z AUTO VRB02KT 4900 BR FEW004 00/M00 Q1022"
"2993","LFQG",2019-12-06 10:30:00,3.1128,46.9983,32,32,100,NA,3,0,30.18,NA,0.5,NA,"BKN","BKN",NA,NA,300,23000,NA,NA,"FG",NA,NA,NA,NA,NA,NA,28.69,"LFQG 061030Z AUTO VRB03KT 0800 0600 FG BKN003 BKN230 00/M00 Q1022"
"2994","LFQG",2019-12-06 11:00:00,3.1128,46.9983,32,32,100,0,0,0,30.18,NA,0.5,NA,"VV ",NA,NA,NA,NA,NA,NA,NA,"FG",NA,NA,NA,NA,NA,NA,NA,"LFQG 061100Z AUTO 00000KT 0800 FG VV/// 00/00 Q1022"
"2995","LFQG",2019-12-06 11:30:00,3.1128,46.9983,33.8,33.8,100,0,0,0,30.15,NA,0.93,NA,"VV ",NA,NA,NA,NA,NA,NA,NA,"BR",NA,NA,NA,NA,NA,NA,NA,"LFQG 061130Z AUTO 00000KT 1500 BR VV/// 01/01 Q1021"
"2996","LFQG",2019-12-06 12:00:00,3.1128,46.9983,35.6,35.6,100,NA,2,0,30.15,NA,2.92,NA,"BKN",NA,NA,NA,400,NA,NA,NA,"BR",NA,NA,NA,NA,NA,NA,NA,"LFQG 061200Z AUTO VRB02KT 4700 BR BKN004 02/02 Q1021"
"2997","LFQG",2019-12-06 12:30:00,3.1128,46.9983,37.4,35.6,93.14,NA,3,0,30.12,NA,5.59,NA,"FEW","SCT",NA,NA,600,18000,NA,NA,NA,NA,NA,NA,NA,NA,NA,34.86,"LFQG 061230Z AUTO VRB03KT 9000 FEW006 SCT180 03/02 Q1020"
"2998","LFQG",2019-12-06 13:00:00,3.1128,46.9983,39.2,37.4,93.19,170,3,0,30.12,NA,6.21,NA,NA,NA,NA,NA,NA,NA,NA,NA,NA,NA,NA,NA,NA,NA,NA,36.92,"LFQG 061300Z AUTO 17003KT 140V200 CAVOK 04/03 Q1020"
"2999","LFQG",2019-12-06 13:30:00,3.1128,46.9983,41,37.4,86.89,NA,2,0,30.09,NA,6.21,NA,NA,NA,NA,NA,NA,NA,NA,NA,NA,NA,NA,NA,NA,NA,NA,NA,"LFQG 061330Z AUTO VRB02KT CAVOK 05/03 Q1019"
"3000","LFQG",2019-12-06 14:00:00,3.1128,46.9983,41,37.4,86.89,NA,2,0,30.09,NA,6.21,NA,NA,NA,NA,NA,NA,NA,NA,NA,NA,NA,NA,NA,NA,NA,NA,NA,"LFQG 061400Z AUTO VRB02KT CAVOK 05/03 Q1019"
"3001","LFQG",2019-12-06 14:30:00,3.1128,46.9983,41,37.4,86.89,NA,1,0,30.09,NA,6.21,NA,NA,NA,NA,NA,NA,NA,NA,NA,NA,NA,NA,NA,NA,NA,NA,NA,"LFQG 061430Z AUTO VRB01KT CAVOK 05/03 Q1019"
"3002","LFQG",2019-12-06 15:00:00,3.1128,46.9983,41,37.4,86.89,0,0,0,30.09,NA,6.21,NA,"BKN","BKN",NA,NA,800,12000,NA,NA,NA,NA,NA,NA,NA,NA,NA,NA,"LFQG 061500Z AUTO 00000KT 9999 BKN008 BKN120 05/03 Q1019"
"3003","LFQG",2019-12-06 15:30:00,3.1128,46.9983,41,37.4,86.89,0,0,0,30.09,NA,6.21,NA,"BKN","OVC",NA,NA,700,14000,NA,NA,NA,NA,NA,NA,NA,NA,NA,NA,"LFQG 061530Z AUTO 00000KT 9999 BKN007 OVC140 05/03 Q1019"
"3004","LFQG",2019-12-06 16:00:00,3.1128,46.9983,39.2,37.4,93.19,130,3,0,30.09,NA,5.59,NA,"NSC",NA,NA,NA,NA,NA,NA,NA,"-RA",NA,NA,NA,NA,NA,NA,36.92,"LFQG 061600Z AUTO 13003KT 9000 -RA NSC 04/03 Q1019"
"3005","LFQG",2019-12-06 16:30:00,3.1128,46.9983,39.2,37.4,93.19,140,3,0,30.09,NA,4.35,NA,"NSC",NA,NA,NA,NA,NA,NA,NA,NA,NA,NA,NA,NA,NA,NA,36.92,"LFQG 061630Z AUTO 14003KT 7000 NSC 04/03 Q1019"
"3006","LFQG",2019-12-06 17:00:00,3.1128,46.9983,41,37.4,86.89,130,3,0,30.09,NA,5.59,NA,"NSC",NA,NA,NA,NA,NA,NA,NA,NA,NA,NA,NA,NA,NA,NA,38.98,"LFQG 061700Z AUTO 13003KT 9000 NSC 05/03 Q1019"
"3007","LFQG",2019-12-06 17:30:00,3.1128,46.9983,41,39.2,93.24,140,4,0,30.09,NA,4.35,NA,"FEW","OVC",NA,NA,4200,9800,NA,NA,NA,NA,NA,NA,NA,NA,NA,37.93,"LFQG 061730Z AUTO 14004KT 7000 FEW042 OVC098 05/04 Q1019"
"3008","LFQG",2019-12-06 18:00:00,3.1128,46.9983,41,39.2,93.24,NA,2,0,30.09,NA,4.35,NA,"NSC",NA,NA,NA,NA,NA,NA,NA,NA,NA,NA,NA,NA,NA,NA,NA,"LFQG 061800Z AUTO VRB02KT 7000 NSC 05/04 Q1019"
"3009","LFMN",2019-12-06 00:00:00,7.2089,43.6489,51.8,41,66.48,330,8,0,30.21,NA,6.21,NA,"FEW","BKN",NA,NA,3000,6600,NA,NA,NA,NA,NA,NA,NA,NA,NA,NA,"LFMN 060000Z 33008KT 9999 FEW030 BKN066 11/05 Q1023 NOSIG"
"3010","LFMN",2019-12-06 00:30:00,7.2089,43.6489,51.8,41,66.48,330,6,0,30.21,NA,6.21,NA,"FEW","BKN",NA,NA,3000,6600,NA,NA,NA,NA,NA,NA,NA,NA,NA,NA,"LFMN 060030Z 33006KT 9999 FEW030 BKN066 11/05 Q1023 NOSIG"
"3011","LFMN",2019-12-06 01:00:00,7.2089,43.6489,51.8,41,66.48,330,8,0,30.21,NA,6.21,NA,"FEW","BKN",NA,NA,3000,6600,NA,NA,NA,NA,NA,NA,NA,NA,NA,NA,"LFMN 060100Z 33008KT 9999 FEW030 BKN066 11/05 Q1023 NOSIG"
"3012","LFMN",2019-12-06 01:30:00,7.2089,43.6489,51.8,39.2,61.99,330,9,0,30.21,NA,6.21,NA,"FEW","BKN",NA,NA,3600,5000,NA,NA,NA,NA,NA,NA,NA,NA,NA,NA,"LFMN 060130Z 33009KT 9999 FEW036 BKN050 11/04 Q1023 NOSIG"
"3013","LFMN",2019-12-06 02:00:00,7.2089,43.6489,51.8,39.2,61.99,330,9,0,30.21,NA,6.21,NA,"FEW","BKN",NA,NA,3600,5000,NA,NA,NA,NA,NA,NA,NA,NA,NA,NA,"LFMN 060200Z 33009KT 9999 FEW036 BKN050 11/04 Q1023 NOSIG"
"3014","LFMN",2019-12-06 02:30:00,7.2089,43.6489,51.8,39.2,61.99,320,11,0,30.21,NA,6.21,NA,"FEW","BKN",NA,NA,3600,5000,NA,NA,NA,NA,NA,NA,NA,NA,NA,NA,"LFMN 060230Z 32011KT 9999 FEW036 BKN050 11/04 Q1023 NOSIG"
"3015","LFMN",2019-12-06 03:00:00,7.2089,43.6489,51.8,37.4,57.77,320,9,0,30.21,NA,6.21,NA,"FEW","BKN",NA,NA,3600,5000,NA,NA,NA,NA,NA,NA,NA,NA,NA,NA,"LFMN 060300Z 32009KT 9999 FEW036 BKN050 11/03 Q1023 NOSIG"
"3016","LFMN",2019-12-06 03:30:00,7.2089,43.6489,51.8,37.4,57.77,330,7,0,30.18,NA,6.21,NA,"SCT","BKN",NA,NA,3300,4300,NA,NA,NA,NA,NA,NA,NA,NA,NA,NA,"LFMN 060330Z 33007KT 9999 SCT033 BKN043 11/03 Q1022 NOSIG"
"3017","LFMN",2019-12-06 04:00:00,7.2089,43.6489,51.8,39.2,61.99,320,7,0,30.18,NA,6.21,NA,"SCT","BKN",NA,NA,3300,4300,NA,NA,NA,NA,NA,NA,NA,NA,NA,NA,"LFMN 060400Z 32007KT 9999 SCT033 BKN043 11/04 Q1022 NOSIG"
"3018","LFMN",2019-12-06 05:00:00,7.2089,43.6489,51.8,37.4,57.77,320,9,0,30.18,NA,6.21,NA,"SCT","BKN","BKN",NA,3300,4600,10000,NA,NA,NA,NA,NA,NA,NA,NA,NA,"LFMN 060500Z 32009KT 9999 SCT033 BKN046 BKN100 11/03 Q1022 NOSIG"
"3019","LFMN",2019-12-06 05:30:00,7.2089,43.6489,51.8,37.4,57.77,330,8,0,30.18,NA,6.21,NA,"BKN","BKN",NA,NA,4500,10000,NA,NA,NA,NA,NA,NA,NA,NA,NA,NA,"LFMN 060530Z 33008KT 9999 BKN045 BKN100 11/03 Q1022 NOSIG"
"3020","LFMN",2019-12-06 06:00:00,7.2089,43.6489,51.8,37.4,57.77,330,8,0,30.18,NA,6.21,NA,"FEW","BKN","BKN",NA,3000,4500,10000,NA,NA,NA,NA,NA,NA,NA,NA,NA,"LFMN 060600Z 33008KT 9999 FEW030 BKN045 BKN100 11/03 Q1022 NOSIG"
"3021","LFMN",2019-12-06 06:30:00,7.2089,43.6489,50,37.4,61.76,330,10,0,30.21,NA,6.21,NA,"FEW","SCT",NA,NA,3300,4600,NA,NA,NA,NA,NA,NA,NA,NA,NA,45.54,"LFMN 060630Z 33010KT 9999 FEW033 SCT046 10/03 Q1023 NOSIG"
"3022","LFMN",2019-12-06 07:00:00,7.2089,43.6489,50,37.4,61.76,330,9,0,30.21,NA,6.21,NA,"BKN","BKN",NA,NA,3300,9300,NA,NA,NA,NA,NA,NA,NA,NA,NA,45.9,"LFMN 060700Z 33009KT 9999 BKN033 BKN093 10/03 Q1023 NOSIG"
"3023","LFMN",2019-12-06 07:30:00,7.2089,43.6489,50,37.4,61.76,330,10,0,30.21,NA,6.21,NA,"BKN","BKN",NA,NA,3500,9300,NA,NA,NA,NA,NA,NA,NA,NA,NA,45.54,"LFMN 060730Z 33010KT 9999 BKN035 BKN093 10/03 Q1023 NOSIG"
"3024","LFMN",2019-12-06 08:00:00,7.2089,43.6489,50,37.4,61.76,330,11,0,30.21,NA,6.21,NA,"BKN","SCT",NA,NA,3600,26000,NA,NA,NA,NA,NA,NA,NA,NA,NA,45.21,"LFMN 060800Z 33011KT 9999 BKN036 SCT260 10/03 Q1023 NOSIG"
"3025","LFMN",2019-12-06 08:30:00,7.2089,43.6489,50,37.4,61.76,330,10,0,30.21,NA,6.21,NA,"BKN","SCT",NA,NA,3600,26000,NA,NA,NA,NA,NA,NA,NA,NA,NA,45.54,"LFMN 060830Z 33010KT 9999 BKN036 SCT260 10/03 Q1023 NOSIG"
"3026","LFMN",2019-12-06 09:04:00,7.2089,43.6489,51.8,37.4,57.77,340,9,0,30.21,NA,6.21,NA,"FEW","BKN",NA,NA,4000,5000,NA,NA,NA,NA,NA,NA,NA,NA,NA,NA,"LFMN 060904Z 34009KT 9999 FEW040 BKN050 11/03 Q1023 NOSIG"
"3027","LFMN",2019-12-06 09:30:00,7.2089,43.6489,51.8,37.4,57.77,330,7,0,30.24,NA,6.21,NA,"BKN",NA,NA,NA,5000,NA,NA,NA,NA,NA,NA,NA,NA,NA,NA,NA,"LFMN 060930Z 33007KT 9999 BKN050 11/03 Q1024 NOSIG"
"3028","LFMN",2019-12-06 10:00:00,7.2089,43.6489,51.8,39.2,61.99,330,7,0,30.21,NA,6.21,NA,"SCT",NA,NA,NA,5300,NA,NA,NA,NA,NA,NA,NA,NA,NA,NA,NA,"LFMN 061000Z 33007KT 9999 SCT053 11/04 Q1023 NOSIG"
"3029","LFMN",2019-12-06 10:30:00,7.2089,43.6489,55.4,39.2,54.34,330,7,0,30.21,NA,6.21,NA,"SCT",NA,NA,NA,5300,NA,NA,NA,NA,NA,NA,NA,NA,NA,NA,NA,"LFMN 061030Z 33007KT 9999 SCT053 13/04 Q1023 NOSIG"
"3030","LFMN",2019-12-06 11:00:00,7.2089,43.6489,57.2,39.2,50.91,320,6,0,30.21,NA,6.21,NA,"FEW",NA,NA,NA,5300,NA,NA,NA,NA,NA,NA,NA,NA,NA,NA,NA,"LFMN 061100Z 32006KT 9999 FEW053 14/04 Q1023 NOSIG"
"3031","LFMN",2019-12-06 11:30:00,7.2089,43.6489,60.8,39.2,44.76,320,3,0,30.18,NA,6.21,NA,"FEW","SCT",NA,NA,5300,6300,NA,NA,NA,NA,NA,NA,NA,NA,NA,NA,"LFMN 061130Z 32003KT 9999 FEW053 SCT063 16/04 Q1022 NOSIG"
"3032","LFMN",2019-12-06 12:00:00,7.2089,43.6489,60.8,41,48,NA,3,0,30.18,NA,6.21,NA,"BKN",NA,NA,NA,6000,NA,NA,NA,NA,NA,NA,NA,NA,NA,NA,NA,"LFMN 061200Z VRB03KT 9999 BKN060 16/05 Q1022 NOSIG"
"3033","LFMN",2019-12-06 12:30:00,7.2089,43.6489,60.8,41,48,0,0,0,30.18,NA,6.21,NA,"SCT",NA,NA,NA,6000,NA,NA,NA,NA,NA,NA,NA,NA,NA,NA,NA,"LFMN 061230Z 00000KT 9999 SCT060 16/05 Q1022 NOSIG"
"3034","LFMN",2019-12-06 13:00:00,7.2089,43.6489,62.6,42.8,48.28,NA,2,0,30.15,NA,6.21,NA,"FEW",NA,NA,NA,6000,NA,NA,NA,NA,NA,NA,NA,NA,NA,NA,NA,"LFMN 061300Z VRB02KT 9999 FEW060 17/06 Q1021 NOSIG"
"3035","LFMN",2019-12-06 13:30:00,7.2089,43.6489,60.8,42.8,51.45,170,3,0,30.15,NA,6.21,NA,NA,NA,NA,NA,NA,NA,NA,NA,NA,NA,NA,NA,NA,NA,NA,NA,"LFMN 061330Z 17003KT 130V220 CAVOK 16/06 Q1021 NOSIG"
"3036","LFMN",2019-12-06 14:00:00,7.2089,43.6489,60.8,44.6,55.12,NA,3,0,30.15,NA,6.21,NA,NA,NA,NA,NA,NA,NA,NA,NA,NA,NA,NA,NA,NA,NA,NA,NA,"LFMN 061400Z VRB03KT CAVOK 16/07 Q1021 NOSIG"
"3037","LFMN",2019-12-06 14:30:00,7.2089,43.6489,60.8,44.6,55.12,NA,3,0,30.15,NA,6.21,NA,NA,NA,NA,NA,NA,NA,NA,NA,NA,NA,NA,NA,NA,NA,NA,NA,"LFMN 061430Z VRB03KT CAVOK 16/07 Q1021 NOSIG"
"3038","LFMN",2019-12-06 15:00:00,7.2089,43.6489,59,46.4,62.92,230,3,0,30.12,NA,6.21,NA,NA,NA,NA,NA,NA,NA,NA,NA,NA,NA,NA,NA,NA,NA,NA,NA,"LFMN 061500Z 23003KT CAVOK 15/08 Q1020 NOSIG"
"3039","LFMN",2019-12-06 15:30:00,7.2089,43.6489,57.2,48.2,71.83,NA,2,0,30.12,NA,6.21,NA,"FEW",NA,NA,NA,2600,NA,NA,NA,NA,NA,NA,NA,NA,NA,NA,NA,"LFMN 061530Z VRB02KT 9999 FEW026 14/09 Q1020 NOSIG"
"3040","LFMN",2019-12-06 16:00:00,7.2089,43.6489,57.2,48.2,71.83,200,3,0,30.12,NA,6.21,NA,"FEW",NA,NA,NA,2600,NA,NA,NA,NA,NA,NA,NA,NA,NA,NA,NA,"LFMN 061600Z 20003KT 9999 FEW026 14/09 Q1020 NOSIG"
"3041","LFMN",2019-12-06 16:30:00,7.2089,43.6489,57.2,48.2,71.83,190,3,0,30.12,NA,6.21,NA,"FEW",NA,NA,NA,3000,NA,NA,NA,NA,NA,NA,NA,NA,NA,NA,NA,"LFMN 061630Z 19003KT 9999 FEW030 14/09 Q1020 NOSIG"
"3042","LFMN",2019-12-06 17:00:00,7.2089,43.6489,55.4,48.2,76.66,210,3,0,30.15,NA,6.21,NA,"FEW",NA,NA,NA,2600,NA,NA,NA,NA,NA,NA,NA,NA,NA,NA,NA,"LFMN 061700Z 21003KT 9999 FEW026 13/09 Q1021 NOSIG"
"3043","LFMN",2019-12-06 17:30:00,7.2089,43.6489,51.8,46.4,81.74,320,4,0,30.15,NA,6.21,NA,"SCT",NA,NA,NA,3000,NA,NA,NA,NA,NA,NA,NA,NA,NA,NA,NA,"LFMN 061730Z 32004KT 9999 SCT030 11/08 Q1021 NOSIG"
"3044","LFMN",2019-12-06 18:00:00,7.2089,43.6489,51.8,46.4,81.74,320,5,0,30.15,NA,6.21,NA,"SCT",NA,NA,NA,3300,NA,NA,NA,NA,NA,NA,NA,NA,NA,NA,NA,"LFMN 061800Z 32005KT 9999 SCT033 11/08 Q1021 NOSIG"
"3045","LFMN",2019-12-06 18:30:00,7.2089,43.6489,51.8,46.4,81.74,320,6,0,30.15,NA,6.21,NA,"SCT",NA,NA,NA,3300,NA,NA,NA,NA,NA,NA,NA,NA,NA,NA,NA,"LFMN 061830Z 32006KT 9999 SCT033 11/08 Q1021 NOSIG"
"3046","LFMN",2019-12-06 19:00:00,7.2089,43.6489,51.8,46.4,81.74,320,6,0,30.15,NA,6.21,NA,"SCT","BKN",NA,NA,2200,3000,NA,NA,NA,NA,NA,NA,NA,NA,NA,NA,"LFMN 061900Z 32006KT 9999 SCT022 BKN030 11/08 Q1021 NOSIG"
"3047","LFMN",2019-12-06 19:30:00,7.2089,43.6489,53.6,46.4,76.5,330,6,0,30.15,NA,6.21,NA,"SCT","BKN","BKN",NA,2200,2400,3000,NA,NA,NA,NA,NA,NA,NA,NA,NA,"LFMN 061930Z 33006KT 9999 SCT022 BKN024 BKN030 12/08 Q1021 NOSIG"
"3048","LFMN",2019-12-06 20:00:00,7.2089,43.6489,53.6,44.6,71.45,320,8,0,30.15,NA,6.21,NA,"FEW","BKN","BKN",NA,2200,2400,3000,NA,NA,NA,NA,NA,NA,NA,NA,NA,"LFMN 062000Z 32008KT 9999 FEW022 BKN024 BKN030 12/07 Q1021 NOSIG"
"3049","LFMN",2019-12-06 20:30:00,7.2089,43.6489,53.6,44.6,71.45,320,8,0,30.15,NA,6.21,NA,"BKN","BKN",NA,NA,2300,3300,NA,NA,NA,NA,NA,NA,NA,NA,NA,NA,"LFMN 062030Z 32008KT 9999 BKN023 BKN033 12/07 Q1021 NOSIG"
"3050","LFMN",2019-12-06 21:00:00,7.2089,43.6489,51.8,44.6,76.34,330,8,0,30.15,NA,6.21,NA,"BKN","BKN",NA,NA,2300,3100,NA,NA,NA,NA,NA,NA,NA,NA,NA,NA,"LFMN 062100Z 33008KT 9999 BKN023 BKN031 11/07 Q1021 NOSIG"
"3051","LFMN",2019-12-06 21:30:00,7.2089,43.6489,51.8,42.8,71.26,330,9,0,30.15,NA,6.21,NA,"SCT","BKN","BKN",NA,1800,2300,3100,NA,NA,NA,NA,NA,NA,NA,NA,NA,"LFMN 062130Z 33009KT 9999 SCT018 BKN023 BKN031 11/06 Q1021 NOSIG"
"3052","LFMN",2019-12-06 22:00:00,7.2089,43.6489,51.8,42.8,71.26,330,9,0,30.12,NA,6.21,NA,"BKN","BKN",NA,NA,2300,3100,NA,NA,NA,NA,NA,NA,NA,NA,NA,NA,"LFMN 062200Z 33009KT 9999 BKN023 BKN031 11/06 Q1020 NOSIG"
"3053","LFMN",2019-12-06 22:30:00,7.2089,43.6489,50,42.8,76.18,330,9,0,30.12,NA,6.21,NA,"BKN",NA,NA,NA,2200,NA,NA,NA,NA,NA,NA,NA,NA,NA,NA,45.9,"LFMN 062230Z 33009KT 9999 BKN022 10/06 Q1020 NOSIG"
"3054","LFMN",2019-12-06 23:00:00,7.2089,43.6489,50,42.8,76.18,330,9,0,30.12,NA,6.21,NA,"BKN",NA,NA,NA,2200,NA,NA,NA,NA,NA,NA,NA,NA,NA,NA,45.9,"LFMN 062300Z 33009KT 9999 BKN022 10/06 Q1020 NOSIG"
"3055","LFMN",2019-12-06 23:30:00,7.2089,43.6489,50,42.8,76.18,330,9,0,30.12,NA,6.21,NA,"SCT",NA,NA,NA,2200,NA,NA,NA,NA,NA,NA,NA,NA,NA,NA,45.9,"LFMN 062330Z 33009KT 9999 SCT022 10/06 Q1020 NOSIG"
"3056","LFTW",2019-12-06 00:00:00,4.4119,43.7581,44.6,37.4,75.68,50,3,0,30.21,NA,6.21,NA,NA,NA,NA,NA,NA,NA,NA,NA,NA,NA,NA,NA,NA,NA,NA,43.09,"LFTW 060000Z AUTO 05003KT 020V080 CAVOK 07/03 Q1023"
"3057","LFTW",2019-12-06 00:30:00,4.4119,43.7581,44.6,37.4,75.68,60,5,0,30.21,NA,6.21,NA,NA,NA,NA,NA,NA,NA,NA,NA,NA,NA,NA,NA,NA,NA,NA,41.36,"LFTW 060030Z AUTO 06005KT CAVOK 07/03 Q1023"
"3058","LFTW",2019-12-06 01:00:00,4.4119,43.7581,44.6,37.4,75.68,40,4,0,30.21,NA,6.21,NA,NA,NA,NA,NA,NA,NA,NA,NA,NA,NA,NA,NA,NA,NA,NA,42.13,"LFTW 060100Z AUTO 04004KT CAVOK 07/03 Q1023"
"3059","LFTW",2019-12-06 01:30:00,4.4119,43.7581,42.8,37.4,81.07,30,4,0,30.21,NA,6.21,NA,NA,NA,NA,NA,NA,NA,NA,NA,NA,NA,NA,NA,NA,NA,NA,40.03,"LFTW 060130Z AUTO 03004KT 010V070 CAVOK 06/03 Q1023"
"3060","LFTW",2019-12-06 02:00:00,4.4119,43.7581,42.8,37.4,81.07,20,3,0,30.21,NA,6.21,NA,NA,NA,NA,NA,NA,NA,NA,NA,NA,NA,NA,NA,NA,NA,NA,41.03,"LFTW 060200Z AUTO 02003KT 350V060 CAVOK 06/03 Q1023"
"3061","LFTW",2019-12-06 02:30:00,4.4119,43.7581,42.8,37.4,81.07,30,4,0,30.21,NA,6.21,NA,NA,NA,NA,NA,NA,NA,NA,NA,NA,NA,NA,NA,NA,NA,NA,40.03,"LFTW 060230Z AUTO 03004KT CAVOK 06/03 Q1023 NOSIG"
"3062","LFTW",2019-12-06 03:00:00,4.4119,43.7581,42.8,37.4,81.07,20,2,0,30.21,NA,6.21,NA,NA,NA,NA,NA,NA,NA,NA,NA,NA,NA,NA,NA,NA,NA,NA,NA,"LFTW 060300Z AUTO 02002KT CAVOK 06/03 Q1023 NOSIG"
"3063","LFTW",2019-12-06 03:30:00,4.4119,43.7581,42.8,37.4,81.07,10,4,0,30.21,NA,6.21,NA,NA,NA,NA,NA,NA,NA,NA,NA,NA,NA,NA,NA,NA,NA,NA,40.03,"LFTW 060330Z AUTO 01004KT CAVOK 06/03 Q1023 NOSIG"
"3064","LFTW",2019-12-06 04:00:00,4.4119,43.7581,41,37.4,86.89,20,4,0,30.21,NA,6.21,NA,NA,NA,NA,NA,NA,NA,NA,NA,NA,NA,NA,NA,NA,NA,NA,37.93,"LFTW 060400Z AUTO 02004KT CAVOK 05/03 Q1023 NOSIG"
"3065","LFTW",2019-12-06 04:30:00,4.4119,43.7581,41,37.4,86.89,40,3,0,30.21,NA,6.21,NA,NA,NA,NA,NA,NA,NA,NA,NA,NA,NA,NA,NA,NA,NA,NA,38.98,"LFTW 060430Z AUTO 04003KT CAVOK 05/03 Q1023 NOSIG"
"3066","LFTW",2019-12-06 05:00:00,4.4119,43.7581,41,35.6,80.93,50,4,0,30.21,NA,6.21,NA,NA,NA,NA,NA,NA,NA,NA,NA,NA,NA,NA,NA,NA,NA,NA,37.93,"LFTW 060500Z AUTO 05004KT CAVOK 05/02 Q1023 NOSIG"
"3067","LFTW",2019-12-06 05:30:00,4.4119,43.7581,37.4,35.6,93.14,20,3,0,30.21,NA,6.21,NA,NA,NA,NA,NA,NA,NA,NA,NA,NA,NA,NA,NA,NA,NA,NA,34.86,"LFTW 060530Z AUTO 02003KT CAVOK 03/02 Q1023 NOSIG"
"3068","LFTW",2019-12-06 06:00:00,4.4119,43.7581,37.4,35.6,93.14,20,4,0,30.21,NA,6.21,NA,NA,NA,NA,NA,NA,NA,NA,NA,NA,NA,NA,NA,NA,NA,NA,33.73,"LFTW 060600Z AUTO 02004KT 350V050 CAVOK 03/02 Q1023 NOSIG"
"3069","LFTW",2019-12-06 06:30:00,4.4119,43.7581,37.4,35.6,93.14,30,4,0,30.21,NA,6.21,NA,NA,NA,NA,NA,NA,NA,NA,NA,NA,NA,NA,NA,NA,NA,NA,33.73,"LFTW 060630Z AUTO 03004KT CAVOK 03/02 Q1023 NOSIG"
"3070","LFTW",2019-12-06 07:00:00,4.4119,43.7581,39.2,35.6,86.79,60,4,0,30.21,NA,6.21,NA,NA,NA,NA,NA,NA,NA,NA,NA,NA,NA,NA,NA,NA,NA,NA,35.83,"LFTW 060700Z AUTO 06004KT CAVOK 04/02 Q1023 NOSIG"
"3071","LFTW",2019-12-06 07:30:00,4.4119,43.7581,39.2,35.6,86.79,50,4,0,30.21,NA,6.21,NA,NA,NA,NA,NA,NA,NA,NA,NA,NA,NA,NA,NA,NA,NA,NA,35.83,"LFTW 060730Z AUTO 05004KT CAVOK 04/02 Q1023 NOSIG"
"3072","LFTW",2019-12-06 08:00:00,4.4119,43.7581,41,37.4,86.89,40,4,0,30.21,NA,6.21,NA,NA,NA,NA,NA,NA,NA,NA,NA,NA,NA,NA,NA,NA,NA,NA,37.93,"LFTW 060800Z AUTO 04004KT CAVOK 05/03 Q1023 NOSIG"
"3073","LFTW",2019-12-06 08:30:00,4.4119,43.7581,42.8,39.2,86.99,40,3,0,30.24,NA,6.21,NA,NA,NA,NA,NA,NA,NA,NA,NA,NA,NA,NA,NA,NA,NA,NA,41.03,"LFTW 060830Z AUTO 04003KT 350V060 CAVOK 06/04 Q1024 NOSIG"
"3074","LFTW",2019-12-06 09:00:00,4.4119,43.7581,44.6,39.2,81.2,20,4,0,30.24,NA,6.21,NA,NA,NA,NA,NA,NA,NA,NA,NA,NA,NA,NA,NA,NA,NA,NA,42.13,"LFTW 060900Z AUTO 02004KT 350V050 CAVOK 07/04 Q1024 NOSIG"
"3075","LFTW",2019-12-06 09:30:00,4.4119,43.7581,48.2,39.2,70.88,30,4,0,30.24,NA,6.21,NA,NA,NA,NA,NA,NA,NA,NA,NA,NA,NA,NA,NA,NA,NA,NA,46.34,"LFTW 060930Z AUTO 03004KT 360V060 CAVOK 09/04 Q1024 NOSIG"
"3076","LFTW",2019-12-06 10:00:00,4.4119,43.7581,50,37.4,61.76,60,5,0,30.24,NA,6.21,NA,NA,NA,NA,NA,NA,NA,NA,NA,NA,NA,NA,NA,NA,NA,NA,47.77,"LFTW 061000Z AUTO 06005KT 030V090 CAVOK 10/03 Q1024 NOSIG"
"3077","LFTW",2019-12-06 10:30:00,4.4119,43.7581,51.8,37.4,57.77,60,5,0,30.24,NA,6.21,NA,NA,NA,NA,NA,NA,NA,NA,NA,NA,NA,NA,NA,NA,NA,NA,NA,"LFTW 061030Z AUTO 06005KT CAVOK 11/03 Q1024 NOSIG"
"3078","LFTW",2019-12-06 11:00:00,4.4119,43.7581,51.8,39.2,61.99,40,4,0,30.21,NA,6.21,NA,NA,NA,NA,NA,NA,NA,NA,NA,NA,NA,NA,NA,NA,NA,NA,NA,"LFTW 061100Z AUTO 04004KT 350V100 CAVOK 11/04 Q1023 NOSIG"
"3079","LFTW",2019-12-06 11:30:00,4.4119,43.7581,53.6,39.2,58.02,NA,3,0,30.21,NA,6.21,NA,NA,NA,NA,NA,NA,NA,NA,NA,NA,NA,NA,NA,NA,NA,NA,NA,"LFTW 061130Z AUTO VRB03KT CAVOK 12/04 Q1023 NOSIG"
"3080","LFTW",2019-12-06 12:00:00,4.4119,43.7581,57.2,39.2,50.91,NA,2,0,30.21,NA,6.21,NA,NA,NA,NA,NA,NA,NA,NA,NA,NA,NA,NA,NA,NA,NA,NA,NA,"LFTW 061200Z AUTO VRB02KT CAVOK 14/04 Q1023 NOSIG"
"3081","LFTW",2019-12-06 12:30:00,4.4119,43.7581,59,41,51.18,NA,1,0,30.18,NA,6.21,NA,NA,NA,NA,NA,NA,NA,NA,NA,NA,NA,NA,NA,NA,NA,NA,NA,"LFTW 061230Z AUTO VRB01KT CAVOK 15/05 Q1022 NOSIG"
"3082","LFTW",2019-12-06 13:00:00,4.4119,43.7581,59,39.2,47.72,NA,2,0,30.18,NA,6.21,NA,NA,NA,NA,NA,NA,NA,NA,NA,NA,NA,NA,NA,NA,NA,NA,NA,"LFTW 061300Z AUTO VRB02KT CAVOK 15/04 Q1022 NOSIG"
"3083","LFTW",2019-12-06 13:30:00,4.4119,43.7581,60.8,39.2,44.76,NA,2,0,30.18,NA,6.21,NA,NA,NA,NA,NA,NA,NA,NA,NA,NA,NA,NA,NA,NA,NA,NA,NA,"LFTW 061330Z AUTO VRB02KT CAVOK 16/04 Q1022 NOSIG"
"3084","LFTW",2019-12-06 14:00:00,4.4119,43.7581,60.8,41,48,0,0,0,30.15,NA,6.21,NA,NA,NA,NA,NA,NA,NA,NA,NA,NA,NA,NA,NA,NA,NA,NA,NA,"LFTW 061400Z AUTO 00000KT CAVOK 16/05 Q1021 NOSIG"
"3085","LFTW",2019-12-06 14:30:00,4.4119,43.7581,59,42.8,54.86,NA,2,0,30.15,NA,6.21,NA,NA,NA,NA,NA,NA,NA,NA,NA,NA,NA,NA,NA,NA,NA,NA,NA,"LFTW 061430Z AUTO VRB02KT CAVOK 15/06 Q1021 NOSIG"
"3086","LFTW",2019-12-06 15:00:00,4.4119,43.7581,59,42.8,54.86,190,3,0,30.15,NA,6.21,NA,NA,NA,NA,NA,NA,NA,NA,NA,NA,NA,NA,NA,NA,NA,NA,NA,"LFTW 061500Z AUTO 19003KT CAVOK 15/06 Q1021 NOSIG"
"3087","LFTW",2019-12-06 15:30:00,4.4119,43.7581,55.4,41,58.27,NA,2,0,30.15,NA,6.21,NA,NA,NA,NA,NA,NA,NA,NA,NA,NA,NA,NA,NA,NA,NA,NA,NA,"LFTW 061530Z AUTO VRB02KT CAVOK 13/05 Q1021 NOSIG"
"3088","LFTW",2019-12-06 16:00:00,4.4119,43.7581,53.6,41,62.23,160,3,0,30.15,NA,6.21,NA,NA,NA,NA,NA,NA,NA,NA,NA,NA,NA,NA,NA,NA,NA,NA,NA,"LFTW 061600Z AUTO 16003KT CAVOK 12/05 Q1021 NOSIG"
"3089","LFTW",2019-12-06 16:30:00,4.4119,43.7581,50,41,71.07,150,4,0,30.15,NA,6.21,NA,NA,NA,NA,NA,NA,NA,NA,NA,NA,NA,NA,NA,NA,NA,NA,48.44,"LFTW 061630Z AUTO 15004KT CAVOK 10/05 Q1021 NOSIG"
"3090","LFTW",2019-12-06 17:00:00,4.4119,43.7581,48.2,39.2,70.88,160,1,0,30.15,NA,6.21,NA,NA,NA,NA,NA,NA,NA,NA,NA,NA,NA,NA,NA,NA,NA,NA,NA,"LFTW 061700Z AUTO 16001KT CAVOK 09/04 Q1021 NOSIG"
"3091","LFTW",2019-12-06 17:30:00,4.4119,43.7581,48.2,39.2,70.88,130,3,0,30.15,NA,6.21,NA,NA,NA,NA,NA,NA,NA,NA,NA,NA,NA,NA,NA,NA,NA,NA,47.21,"LFTW 061730Z AUTO 13003KT CAVOK 09/04 Q1021 NOSIG"
"3092","LFTW",2019-12-06 18:00:00,4.4119,43.7581,44.6,37.4,75.68,200,3,0,30.15,NA,6.21,NA,NA,NA,NA,NA,NA,NA,NA,NA,NA,NA,NA,NA,NA,NA,NA,43.09,"LFTW 061800Z AUTO 20003KT CAVOK 07/03 Q1021 NOSIG"
"3093","LFTW",2019-12-06 18:30:00,4.4119,43.7581,44.6,39.2,81.2,NA,1,0,30.15,NA,6.21,NA,NA,NA,NA,NA,NA,NA,NA,NA,NA,NA,NA,NA,NA,NA,NA,NA,"LFTW 061830Z AUTO VRB01KT CAVOK 07/04 Q1021 NOSIG"
"3094","LFTW",2019-12-06 19:00:00,4.4119,43.7581,44.6,37.4,75.68,350,2,0,30.15,NA,6.21,NA,NA,NA,NA,NA,NA,NA,NA,NA,NA,NA,NA,NA,NA,NA,NA,NA,"LFTW 061900Z AUTO 35002KT CAVOK 07/03 Q1021 NOSIG"
"3095","LFTW",2019-12-06 19:30:00,4.4119,43.7581,42.8,37.4,81.07,20,1,0,30.15,NA,6.21,NA,NA,NA,NA,NA,NA,NA,NA,NA,NA,NA,NA,NA,NA,NA,NA,NA,"LFTW 061930Z AUTO 02001KT CAVOK 06/03 Q1021 TEMPO 4000 BR OVC010"
"3096","LFTW",2019-12-06 20:00:00,4.4119,43.7581,42.8,37.4,81.07,140,2,0,30.15,NA,6.21,NA,NA,NA,NA,NA,NA,NA,NA,NA,NA,NA,NA,NA,NA,NA,NA,NA,"LFTW 062000Z AUTO 14002KT CAVOK 06/03 Q1021 TEMPO 4000 BR OVC010"
"3097","LFTW",2019-12-06 20:30:00,4.4119,43.7581,42.8,37.4,81.07,100,2,0,30.15,NA,6.21,NA,NA,NA,NA,NA,NA,NA,NA,NA,NA,NA,NA,NA,NA,NA,NA,NA,"LFTW 062030Z AUTO 10002KT CAVOK 06/03 Q1021"
"3098","LFTW",2019-12-06 21:00:00,4.4119,43.7581,42.8,37.4,81.07,130,3,0,30.15,NA,5.59,NA,"NSC",NA,NA,NA,NA,NA,NA,NA,NA,NA,NA,NA,NA,NA,NA,41.03,"LFTW 062100Z AUTO 13003KT 9000 NSC 06/03 Q1021"
"3099","LFTW",2019-12-06 21:30:00,4.4119,43.7581,42.8,39.2,86.99,110,2,0,30.15,NA,4.97,NA,"NSC",NA,NA,NA,NA,NA,NA,NA,NA,NA,NA,NA,NA,NA,NA,NA,"LFTW 062130Z AUTO 11002KT 8000 NSC 06/04 Q1021"
"3100","LFTW",2019-12-06 22:00:00,4.4119,43.7581,42.8,39.2,86.99,NA,2,0,30.18,NA,4.97,NA,"NSC",NA,NA,NA,NA,NA,NA,NA,NA,NA,NA,NA,NA,NA,NA,NA,"LFTW 062200Z AUTO VRB02KT 8000 NSC 06/04 Q1022"
"3101","LFTW",2019-12-06 22:30:00,4.4119,43.7581,42.8,39.2,86.99,120,2,0,30.18,NA,4.97,NA,"NSC",NA,NA,NA,NA,NA,NA,NA,NA,NA,NA,NA,NA,NA,NA,NA,"LFTW 062230Z AUTO 12002KT 8000 NSC 06/04 Q1022"
"3102","LFTW",2019-12-06 23:00:00,4.4119,43.7581,41,39.2,93.24,120,2,0,30.18,NA,4.35,NA,"NSC",NA,NA,NA,NA,NA,NA,NA,NA,NA,NA,NA,NA,NA,NA,NA,"LFTW 062300Z AUTO 12002KT 7000 NSC 05/04 Q1022"
"3103","LFTW",2019-12-06 23:30:00,4.4119,43.7581,41,37.4,86.89,120,2,0,30.18,NA,4.97,NA,"NSC",NA,NA,NA,NA,NA,NA,NA,NA,NA,NA,NA,NA,NA,NA,NA,"LFTW 062330Z AUTO 12002KT 8000 NSC 05/03 Q1022"
"3104","LFMO",2019-12-06 00:00:00,4.8611,44.1447,33.8,33.8,100,40,3,0,30.24,NA,2.17,NA,"NSC",NA,NA,NA,NA,NA,NA,NA,"BR",NA,NA,NA,NA,NA,NA,30.75,"LFMO 060000Z AUTO 04003KT 3500 BR NSC 01/01 Q1024 NOSIG"
"3105","LFMO",2019-12-06 00:30:00,4.8611,44.1447,33.8,33.8,100,NA,2,0,30.24,NA,2.73,NA,"NSC",NA,NA,NA,NA,NA,NA,NA,"BR",NA,NA,NA,NA,NA,NA,NA,"LFMO 060030Z AUTO VRB02KT 4400 BR NSC 01/01 Q1024 NOSIG"
"3106","LFMO",2019-12-06 01:00:00,4.8611,44.1447,32,32,100,0,0,0,30.24,NA,2.11,NA,"NSC",NA,NA,NA,NA,NA,NA,NA,"BCFG",NA,NA,NA,NA,NA,NA,NA,"LFMO 060100Z AUTO 00000KT 3400 0650 R14/0900D BCFG NSC 00/M00 Q1024 NOSIG"
"3107","LFMO",2019-12-06 01:30:00,4.8611,44.1447,32,32,100,10,1,0,30.24,NA,2.3,NA,"FEW",NA,NA,NA,700,NA,NA,NA,"BR",NA,NA,NA,NA,NA,NA,NA,"LFMO 060130Z AUTO 01001KT 3700 R14/1200U BR FEW007 00/M00 Q1024 NOSIG"
"3108","LFMO",2019-12-06 02:00:00,4.8611,44.1447,32,32,100,40,2,0,30.24,NA,3.11,NA,"NSC",NA,NA,NA,NA,NA,NA,NA,"BR",NA,NA,NA,NA,NA,NA,NA,"LFMO 060200Z AUTO 04002KT 5000 BR NSC 00/M00 Q1024 NOSIG"
"3109","LFMO",2019-12-06 02:30:00,4.8611,44.1447,33.8,32,93.03,0,0,0,30.24,NA,3.11,NA,"NSC",NA,NA,NA,NA,NA,NA,NA,"BR",NA,NA,NA,NA,NA,NA,NA,"LFMO 060230Z AUTO 00000KT 5000 BR NSC 01/00 Q1024 NOSIG"
"3110","LFMO",2019-12-06 03:00:00,4.8611,44.1447,33.8,32,93.03,330,2,0,30.21,NA,2.8,NA,"NSC",NA,NA,NA,NA,NA,NA,NA,"BR",NA,NA,NA,NA,NA,NA,NA,"LFMO 060300Z AUTO 33002KT 4500 BR NSC 01/00 Q1023 NOSIG"
"3111","LFMO",2019-12-06 03:30:00,4.8611,44.1447,32,32,100,0,0,0,30.21,NA,2.67,NA,"NSC",NA,NA,NA,NA,NA,NA,NA,"BR",NA,NA,NA,NA,NA,NA,NA,"LFMO 060330Z AUTO 00000KT 4300 BR NSC 00/M00 Q1023 NOSIG"
"3112","LFMO",2019-12-06 04:00:00,4.8611,44.1447,32,32,100,0,0,0,30.24,NA,2.42,NA,"NSC",NA,NA,NA,NA,NA,NA,NA,"BCFG",NA,NA,NA,NA,NA,NA,NA,"LFMO 060400Z AUTO 00000KT 3900 0750 R14/0900D BCFG NSC M00/M00 Q1024 NOSIG"
"3113","LFMO",2019-12-06 04:30:00,4.8611,44.1447,32,30.2,92.97,330,2,0,30.21,NA,2.8,NA,"NSC",NA,NA,NA,NA,NA,NA,NA,"BR",NA,NA,NA,NA,NA,NA,NA,"LFMO 060430Z AUTO 33002KT 4500 BR NSC M00/M01 Q1023 BECMG 9999 NSW"
"3114","LFMO",2019-12-06 05:00:00,4.8611,44.1447,32,32,100,330,2,0,30.21,NA,2.3,NA,"NSC",NA,NA,NA,NA,NA,NA,NA,"BR",NA,NA,NA,NA,NA,NA,NA,"LFMO 060500Z AUTO 33002KT 3700 BR NSC M00/M00 Q1023 BECMG 9999 NSW"
"3115","LFMO",2019-12-06 05:30:00,4.8611,44.1447,32,32,100,0,0,0,30.21,NA,2.3,NA,"NSC",NA,NA,NA,NA,NA,NA,NA,"BR",NA,NA,NA,NA,NA,NA,NA,"LFMO 060530Z AUTO 00000KT 3700 BR NSC M00/M00 Q1023 BECMG 9999 NSW"
"3116","LFMO",2019-12-06 06:00:00,4.8611,44.1447,32,30.2,92.97,0,0,0,30.24,NA,1.24,NA,"NSC",NA,NA,NA,NA,NA,NA,NA,"BCFG",NA,NA,NA,NA,NA,NA,NA,"LFMO 060600Z AUTO 00000KT 2000 0550 R14/0650D BCFG NSC M00/M01 Q1024 BECMG 9999 NSW"
"3117","LFMO",2019-12-06 06:30:00,4.8611,44.1447,28.4,28.4,100,0,0,0,30.24,NA,2.3,NA,"NSC",NA,NA,NA,NA,NA,NA,NA,"BR",NA,NA,NA,NA,NA,NA,NA,"LFMO 060630Z AUTO 00000KT 3700 R14/1200U BR NSC M02/M02 Q1024 BECMG 9999 NSW"
"3118","LFMO",2019-12-06 07:00:00,4.8611,44.1447,30.2,30.2,100,300,3,0,30.24,NA,1.99,NA,"NSC",NA,NA,NA,NA,NA,NA,NA,"BR",NA,NA,NA,NA,NA,NA,26.63,"LFMO 060700Z AUTO 30003KT 280V350 3200 BR NSC M01/M01 Q1024 BECMG 9999 NSW"
"3119","LFMO",2019-12-06 07:30:00,4.8611,44.1447,32,32,100,360,1,0,30.24,NA,1.3,NA,"NSC",NA,NA,NA,NA,NA,NA,NA,"BR",NA,NA,NA,NA,NA,NA,NA,"LFMO 060730Z AUTO 36001KT 2100 BR NSC M00/M00 Q1024 BECMG 9999 NSW"
"3120","LFMO",2019-12-06 08:00:00,4.8611,44.1447,33.8,33.8,100,300,1,0,30.24,NA,1.86,NA,"NSC",NA,NA,NA,NA,NA,NA,NA,"BR",NA,NA,NA,NA,NA,NA,NA,"LFMO 060800Z AUTO 30001KT 3000 BR NSC 01/01 Q1024 BECMG 9999 NSW"
"3121","LFMO",2019-12-06 08:30:00,4.8611,44.1447,35.6,35.6,100,0,0,0,30.24,NA,3.11,NA,"NSC",NA,NA,NA,NA,NA,NA,NA,"BR",NA,NA,NA,NA,NA,NA,NA,"LFMO 060830Z AUTO 00000KT 5000 BR NSC 02/02 Q1024 NOSIG"
"3122","LFMO",2019-12-06 09:00:00,4.8611,44.1447,37.4,35.6,93.14,NA,2,0,30.24,NA,3.11,NA,"NSC",NA,NA,NA,NA,NA,NA,NA,"BR",NA,NA,NA,NA,NA,NA,NA,"LFMO 060900Z AUTO VRB02KT 5000 BR NSC 03/02 Q1024 NOSIG"
"3123","LFMO",2019-12-06 09:30:00,4.8611,44.1447,41,37.4,86.89,0,0,0,30.24,NA,6.21,NA,NA,NA,NA,NA,NA,NA,NA,NA,NA,NA,NA,NA,NA,NA,NA,NA,"LFMO 060930Z AUTO 00000KT CAVOK 05/03 Q1024 NOSIG"
"3124","LFMO",2019-12-06 10:00:00,4.8611,44.1447,42.8,37.4,81.07,0,0,0,30.24,NA,6.21,NA,NA,NA,NA,NA,NA,NA,NA,NA,NA,NA,NA,NA,NA,NA,NA,NA,"LFMO 061000Z AUTO 00000KT CAVOK 06/03 Q1024 NOSIG"
"3125","LFMO",2019-12-06 10:30:00,4.8611,44.1447,44.6,37.4,75.68,NA,2,0,30.24,NA,6.21,NA,NA,NA,NA,NA,NA,NA,NA,NA,NA,NA,NA,NA,NA,NA,NA,NA,"LFMO 061030Z AUTO VRB02KT CAVOK 07/03 Q1024 NOSIG"
"3126","LFMO",2019-12-06 11:00:00,4.8611,44.1447,46.4,37.4,70.68,NA,3,0,30.24,NA,6.21,NA,NA,NA,NA,NA,NA,NA,NA,NA,NA,NA,NA,NA,NA,NA,NA,45.15,"LFMO 061100Z AUTO VRB03KT CAVOK 08/03 Q1024 NOSIG"
"3127","LFMO",2019-12-06 11:30:00,4.8611,44.1447,48.2,37.4,66.05,NA,2,0,30.21,NA,6.21,NA,NA,NA,NA,NA,NA,NA,NA,NA,NA,NA,NA,NA,NA,NA,NA,NA,"LFMO 061130Z AUTO VRB02KT CAVOK 09/03 Q1023 NOSIG"
"3128","LFMO",2019-12-06 12:00:00,4.8611,44.1447,51.8,37.4,57.77,0,0,0,30.21,NA,6.21,NA,NA,NA,NA,NA,NA,NA,NA,NA,NA,NA,NA,NA,NA,NA,NA,NA,"LFMO 061200Z AUTO 00000KT CAVOK 11/03 Q1023 NOSIG"
"3129","LFMO",2019-12-06 12:30:00,4.8611,44.1447,53.6,37.4,54.07,0,0,0,30.21,NA,6.21,NA,NA,NA,NA,NA,NA,NA,NA,NA,NA,NA,NA,NA,NA,NA,NA,NA,"LFMO 061230Z AUTO 00000KT CAVOK 12/03 Q1023 NOSIG"
"3130","LFMO",2019-12-06 13:00:00,4.8611,44.1447,53.6,37.4,54.07,0,0,0,30.18,NA,6.21,NA,NA,NA,NA,NA,NA,NA,NA,NA,NA,NA,NA,NA,NA,NA,NA,NA,"LFMO 061300Z AUTO 00000KT CAVOK 12/03 Q1022 NOSIG"
"3131","LFMO",2019-12-06 13:30:00,4.8611,44.1447,57.2,37.4,47.44,0,0,0,30.18,NA,6.21,NA,NA,NA,NA,NA,NA,NA,NA,NA,NA,NA,NA,NA,NA,NA,NA,NA,"LFMO 061330Z AUTO 00000KT CAVOK 14/03 Q1022 NOSIG"
"3132","LFMO",2019-12-06 14:00:00,4.8611,44.1447,55.4,37.4,50.64,NA,2,0,30.15,NA,6.21,NA,NA,NA,NA,NA,NA,NA,NA,NA,NA,NA,NA,NA,NA,NA,NA,NA,"LFMO 061400Z AUTO VRB02KT CAVOK 13/03 Q1021 NOSIG"
"3133","LFMO",2019-12-06 14:30:00,4.8611,44.1447,57.2,39.2,50.91,0,0,0,30.15,NA,6.21,NA,"NSC",NA,NA,NA,NA,NA,NA,NA,NA,NA,NA,NA,NA,NA,NA,NA,"LFMO 061430Z AUTO 00000KT 9999 1500 NSC 14/04 Q1021 NOSIG"
"3134","LFMO",2019-12-06 15:00:00,4.8611,44.1447,55.4,39.2,54.34,0,0,0,30.15,NA,6.21,NA,NA,NA,NA,NA,NA,NA,NA,NA,NA,NA,NA,NA,NA,NA,NA,NA,"LFMO 061500Z AUTO 00000KT CAVOK 13/04 Q1021 NOSIG"
"3135","LFMO",2019-12-06 15:30:00,4.8611,44.1447,55.4,37.4,50.64,0,0,0,30.15,NA,6.21,NA,NA,NA,NA,NA,NA,NA,NA,NA,NA,NA,NA,NA,NA,NA,NA,NA,"LFMO 061530Z AUTO 00000KT CAVOK 13/03 Q1021 NOSIG"
"3136","LFMO",2019-12-06 16:00:00,4.8611,44.1447,50,39.2,66.27,0,0,0,30.15,NA,6.21,NA,NA,NA,NA,NA,NA,NA,NA,NA,NA,NA,NA,NA,NA,NA,NA,NA,"LFMO 061600Z AUTO 00000KT CAVOK 10/04 Q1021 NOSIG"
"3137","LFMO",2019-12-06 16:30:00,4.8611,44.1447,44.6,37.4,75.68,0,0,0,30.15,NA,6.21,NA,NA,NA,NA,NA,NA,NA,NA,NA,NA,NA,NA,NA,NA,NA,NA,NA,"LFMO 061630Z AUTO 00000KT CAVOK 07/03 Q1021 NOSIG"
"3138","LFMO",2019-12-06 17:00:00,4.8611,44.1447,42.8,37.4,81.07,340,1,0,30.15,NA,6.21,NA,NA,NA,NA,NA,NA,NA,NA,NA,NA,NA,NA,NA,NA,NA,NA,NA,"LFMO 061700Z AUTO 34001KT CAVOK 06/03 Q1021 NOSIG"
"3139","LFMO",2019-12-06 17:30:00,4.8611,44.1447,41,37.4,86.89,50,2,0,30.15,NA,6.21,NA,NA,NA,NA,NA,NA,NA,NA,NA,NA,NA,NA,NA,NA,NA,NA,NA,"LFMO 061730Z AUTO 05002KT CAVOK 05/03 Q1021 BECMG 3000 BR"
"3140","LFMO",2019-12-06 18:00:00,4.8611,44.1447,39.2,35.6,86.79,20,2,0,30.15,NA,6.21,NA,NA,NA,NA,NA,NA,NA,NA,NA,NA,NA,NA,NA,NA,NA,NA,NA,"LFMO 061800Z AUTO 02002KT CAVOK 04/02 Q1021 BECMG 3000 BR"
"3141","LFMO",2019-12-06 18:30:00,4.8611,44.1447,37.4,35.6,93.14,60,2,0,30.18,NA,5.59,NA,"NSC",NA,NA,NA,NA,NA,NA,NA,NA,NA,NA,NA,NA,NA,NA,NA,"LFMO 061830Z AUTO 06002KT 9000 NSC 03/02 Q1022 BECMG 3000 BR"
"3142","LFMO",2019-12-06 19:00:00,4.8611,44.1447,39.2,35.6,86.79,60,5,0,30.18,NA,6.21,NA,NA,NA,NA,NA,NA,NA,NA,NA,NA,NA,NA,NA,NA,NA,NA,34.95,"LFMO 061900Z AUTO 06005KT CAVOK 04/02 Q1022 BECMG 3000 BR"
"3143","LFMO",2019-12-06 19:30:00,4.8611,44.1447,37.4,35.6,93.14,30,2,0,30.18,NA,6.21,NA,NA,NA,NA,NA,NA,NA,NA,NA,NA,NA,NA,NA,NA,NA,NA,NA,"LFMO 061930Z AUTO 03002KT CAVOK 03/02 Q1022 BECMG 3000 BR"
"3144","LFMO",2019-12-06 20:00:00,4.8611,44.1447,37.4,35.6,93.14,0,0,0,30.18,NA,6.21,NA,NA,NA,NA,NA,NA,NA,NA,NA,NA,NA,NA,NA,NA,NA,NA,NA,"LFMO 062000Z AUTO 00000KT CAVOK 03/02 Q1022 BECMG 3000 BR"
"3145","LFMO",2019-12-06 20:30:00,4.8611,44.1447,37.4,35.6,93.14,NA,2,0,30.18,NA,6.21,NA,NA,NA,NA,NA,NA,NA,NA,NA,NA,NA,NA,NA,NA,NA,NA,NA,"LFMO 062030Z AUTO VRB02KT CAVOK 03/02 Q1022 BECMG 3000 BR"
"3146","LFMO",2019-12-06 21:00:00,4.8611,44.1447,37.4,35.6,93.14,70,3,0,30.18,NA,6.21,NA,NA,NA,NA,NA,NA,NA,NA,NA,NA,NA,NA,NA,NA,NA,NA,34.86,"LFMO 062100Z AUTO 07003KT CAVOK 03/02 Q1022 BECMG 3000 BR"
"3147","LFMO",2019-12-06 21:30:00,4.8611,44.1447,35.6,33.8,93.08,20,3,0,30.18,NA,6.21,NA,NA,NA,NA,NA,NA,NA,NA,NA,NA,NA,NA,NA,NA,NA,NA,32.8,"LFMO 062130Z AUTO 02003KT CAVOK 02/01 Q1022 TEMPO 0800 FG VV///"
"3148","LFMO",2019-12-06 22:00:00,4.8611,44.1447,37.4,33.8,86.69,NA,2,0,30.18,NA,6.21,NA,NA,NA,NA,NA,NA,NA,NA,NA,NA,NA,NA,NA,NA,NA,NA,NA,"LFMO 062200Z AUTO VRB02KT CAVOK 03/01 Q1022 TEMPO 0800 FG VV///"
"3149","LFMO",2019-12-06 22:30:00,4.8611,44.1447,35.6,33.8,93.08,320,3,0,30.18,NA,6.21,NA,NA,NA,NA,NA,NA,NA,NA,NA,NA,NA,NA,NA,NA,NA,NA,32.8,"LFMO 062230Z AUTO 32003KT CAVOK 02/01 Q1022 TEMPO 0800 FG VV///"
"3150","LFMO",2019-12-06 23:00:00,4.8611,44.1447,35.6,33.8,93.08,0,0,0,30.18,NA,6.21,NA,NA,NA,NA,NA,NA,NA,NA,NA,NA,NA,NA,NA,NA,NA,NA,NA,"LFMO 062300Z AUTO 00000KT CAVOK 02/01 Q1022 TEMPO 0800 FG VV///"
"3151","LFMO",2019-12-06 23:30:00,4.8611,44.1447,33.8,32,93.03,0,0,0,30.18,NA,6.21,NA,NA,NA,NA,NA,NA,NA,NA,NA,NA,NA,NA,NA,NA,NA,NA,NA,"LFMO 062330Z AUTO 00000KT CAVOK 01/00 Q1022 TEMPO 0800 FG VV///"
"3152","LFOJ",2019-12-06 00:00:00,1.7767,47.9833,28.4,28.4,100,200,3,0,30.15,NA,0.47,NA,"VV ",NA,NA,NA,NA,NA,NA,NA,"FZFG",NA,NA,NA,NA,NA,NA,24.57,"LFOJ 060000Z AUTO 20003KT 0750 R25/0800U FZFG VV/// M02/M02 Q1021"
"3153","LFOJ",2019-12-06 00:30:00,1.7767,47.9833,28.4,28.4,100,200,3,0,30.15,NA,0.47,NA,"VV ",NA,NA,NA,NA,NA,NA,NA,"FZFG",NA,NA,NA,NA,NA,NA,24.57,"LFOJ 060030Z AUTO 20003KT 0750 0700 R25/1000N FZFG VV/// M02/M02 Q1021"
"3154","LFOJ",2019-12-06 01:00:00,1.7767,47.9833,28.4,28.4,100,250,3,0,30.15,NA,0.22,NA,"VV ",NA,NA,NA,NA,NA,NA,NA,"FZFG",NA,NA,NA,NA,NA,NA,24.57,"LFOJ 060100Z AUTO 25003KT 0350 R25/0400N FZFG VV/// M02/M02 Q1021"
"3155","LFOJ",2019-12-06 01:30:00,1.7767,47.9833,26.6,26.6,100,260,2,0,30.15,NA,0.25,NA,"VV ",NA,NA,NA,NA,NA,NA,NA,"FZFG",NA,NA,NA,NA,NA,NA,NA,"LFOJ 060130Z AUTO 26002KT 0400 R25/0550N FZFG VV/// M03/M03 Q1021"
"3156","LFOJ",2019-12-06 02:00:00,1.7767,47.9833,26.6,26.6,100,200,4,0,30.15,NA,0.28,NA,"VV ",NA,NA,NA,NA,NA,NA,NA,"FZFG",NA,NA,NA,NA,NA,NA,21.11,"LFOJ 060200Z AUTO 20004KT 0450 R25/0550N FZFG VV/// M03/M03 Q1021"
"3157","LFOJ",2019-12-06 02:30:00,1.7767,47.9833,26.6,26.6,100,160,6,0,30.12,NA,0.4,NA,"VV ",NA,NA,NA,NA,NA,NA,NA,"FZFG",NA,NA,NA,NA,NA,NA,19.03,"LFOJ 060230Z AUTO 16006KT 0650 0600 R25/0800U FZFG VV/// M03/M03 Q1020"
"3158","LFOJ",2019-12-06 03:00:00,1.7767,47.9833,28.4,28.4,100,200,3,0,30.12,NA,2.11,NA,"SCT","BKN",NA,NA,100,21000,NA,NA,"BR",NA,NA,NA,NA,NA,NA,24.57,"LFOJ 060300Z AUTO 20003KT 3400 BR SCT001 BKN210 M02/M02 Q1020"
"3159","LFOJ",2019-12-06 03:30:00,1.7767,47.9833,28.4,28.4,100,190,4,0,30.12,NA,2.61,NA,"BKN","OVC",NA,NA,200,22000,NA,NA,"BR",NA,NA,NA,NA,NA,NA,23.22,"LFOJ 060330Z AUTO 19004KT 4200 BR BKN002 OVC220 M02/M02 Q1020"
"3160","LFOJ",2019-12-06 04:00:00,1.7767,47.9833,28.4,28.4,100,210,5,0,30.12,NA,2.8,NA,"BKN","OVC",NA,NA,300,21000,NA,NA,"BR",NA,NA,NA,NA,NA,NA,22.12,"LFOJ 060400Z AUTO 21005KT 4500 BR BKN003 OVC210 M02/M02 Q1020"
"3161","LFOJ",2019-12-06 04:30:00,1.7767,47.9833,28.4,28.4,100,200,7,0,30.12,NA,2.11,NA,"OVC",NA,NA,NA,200,NA,NA,NA,"BR",NA,NA,NA,NA,NA,NA,20.39,"LFOJ 060430Z AUTO 20007KT 3400 BR OVC002 M02/M02 Q1020"
"3162","LFOJ",2019-12-06 05:00:00,1.7767,47.9833,30.2,30.2,100,210,7,0,30.12,NA,1.55,NA,"OVC",NA,NA,NA,200,NA,NA,NA,"BR",NA,NA,NA,NA,NA,NA,22.59,"LFOJ 060500Z AUTO 21007KT 2500 BR OVC002 M01/M01 Q1020"
"3163","LFOJ",2019-12-06 05:30:00,1.7767,47.9833,30.2,30.2,100,210,8,0,30.09,NA,0.62,NA,"VV ",NA,NA,NA,NA,NA,NA,NA,"BCFG",NA,NA,NA,NA,NA,NA,21.9,"LFOJ 060530Z AUTO 21008KT 1000 0900 R25/1400U BCFG VV/// M01/M01 Q1019"
"3164","LFOJ",2019-12-06 06:00:00,1.7767,47.9833,30.2,30.2,100,210,10,0,30.09,NA,0.62,NA,"VV ",NA,NA,NA,NA,NA,NA,NA,"BR",NA,NA,NA,NA,NA,NA,20.71,"LFOJ 060600Z AUTO 21010KT 1000 R25/1300D BR VV/// M01/M01 Q1019"
"3165","LFOJ",2019-12-06 06:30:00,1.7767,47.9833,30.2,30.2,100,220,10,0,30.12,NA,0.56,NA,"VV ",NA,NA,NA,NA,NA,NA,NA,"FZFG",NA,NA,NA,NA,NA,NA,20.71,"LFOJ 060630Z AUTO 22010KT 0900 R25/1100N FZFG VV/// M01/M01 Q1020 TEMPO 0700 FZFG"
"3166","LFOJ",2019-12-06 07:00:00,1.7767,47.9833,30.2,30.2,100,210,10,0,30.12,NA,0.56,NA,"VV ",NA,NA,NA,NA,NA,NA,NA,"FZFG",NA,NA,NA,NA,NA,NA,20.71,"LFOJ 060700Z AUTO 21010KT 0900 R25/1200N FZFG VV/// M01/M01 Q1020 TEMPO 0700 FZFG"
"3167","LFOJ",2019-12-06 07:30:00,1.7767,47.9833,30.2,30.2,100,210,9,0,30.12,NA,0.5,NA,"VV ",NA,NA,NA,NA,NA,NA,NA,"FZFG",NA,NA,NA,NA,NA,NA,21.28,"LFOJ 060730Z AUTO 21009KT 0800 R25/1000N FZFG VV/// M01/M01 Q1020 BECMG 1500 BR OVC002"
"3168","LFOJ",2019-12-06 08:00:00,1.7767,47.9833,30.2,30.2,100,200,10,0,30.09,NA,0.68,NA,"VV ",NA,NA,NA,NA,NA,NA,NA,"BR",NA,NA,NA,NA,NA,NA,20.71,"LFOJ 060800Z AUTO 20010KT 1100 R25/1600U BR VV/// M01/M01 Q1019 BECMG 1500 BR OVC002"
"3169","LFOJ",2019-12-06 08:30:00,1.7767,47.9833,30.2,30.2,100,190,8,0,30.12,NA,0.56,NA,"VV ",NA,NA,NA,NA,NA,NA,NA,"FZFG",NA,NA,NA,NA,NA,NA,21.9,"LFOJ 060830Z AUTO 19008KT 0900 0800 R25/1600D FZFG VV/// M01/M01 Q1020 BECMG 4000 -RA OVC009"
"3170","LFOJ",2019-12-06 09:00:00,1.7767,47.9833,32,32,100,200,10,0,30.12,NA,1.06,NA,"OVC",NA,NA,NA,200,NA,NA,NA,"BR",NA,NA,NA,NA,NA,NA,22.97,"LFOJ 060900Z AUTO 20010KT 1700 BR OVC002 M00/M00 Q1020 BECMG 4000 -RA OVC009"
"3171","LFOJ",2019-12-06 09:30:00,1.7767,47.9833,32,32,100,200,10,0,30.12,NA,1.86,NA,"OVC",NA,NA,NA,200,NA,NA,NA,"BR",NA,NA,NA,NA,NA,NA,22.97,"LFOJ 060930Z AUTO 20010KT 3000 BR OVC002 M00/M00 Q1020 BECMG OVC009"
"3172","LFOJ",2019-12-06 10:00:00,1.7767,47.9833,32,32,100,190,11,0,30.12,NA,2.05,NA,"OVC",NA,NA,NA,300,NA,NA,NA,"BR",NA,NA,NA,NA,NA,NA,22.47,"LFOJ 061000Z AUTO 19011KT 3300 BR OVC003 00/00 Q1020 BECMG OVC009"
"3173","LFOJ",2019-12-06 10:30:00,1.7767,47.9833,33.8,33.8,100,190,12,0,30.09,NA,1.43,NA,"OVC",NA,NA,NA,200,NA,NA,NA,"BR",NA,NA,NA,NA,NA,NA,24.29,"LFOJ 061030Z AUTO 19012KT 2300 BR OVC002 01/01 Q1019 BECMG 4000 -RA OVC009"
"3174","LFOJ",2019-12-06 11:00:00,1.7767,47.9833,33.8,33.8,100,200,13,0,30.09,NA,1.43,NA,"OVC",NA,NA,NA,200,NA,NA,NA,"BR",NA,NA,NA,NA,NA,NA,23.87,"LFOJ 061100Z AUTO 20013KT 2300 BR OVC002 01/01 Q1019 BECMG 4000 -RA OVC009"
"3175","LFOJ",2019-12-06 11:30:00,1.7767,47.9833,35.6,35.6,100,200,13,0,30.06,NA,3.11,NA,"OVC",NA,NA,NA,300,NA,NA,NA,"BR",NA,NA,NA,NA,NA,NA,26.18,"LFOJ 061130Z AUTO 20013KT 5000 BR OVC003 02/02 Q1018 BECMG 21020G30KT OVC009"
"3176","LFOJ",2019-12-06 12:00:00,1.7767,47.9833,37.4,37.4,100,210,14,0,30.06,NA,3.04,NA,"OVC","///",NA,NA,300,NA,NA,NA,"BR",NA,NA,NA,NA,NA,NA,28.12,"LFOJ 061200Z AUTO 21014KT 4900 BR OVC003/// ///TCU 03/03 Q1018 BECMG 21020G30KT OVC009"
"3177","LFOJ",2019-12-06 12:30:00,1.7767,47.9833,39.2,39.2,100,210,15,0,30.03,NA,2.61,NA,"OVC","///",NA,NA,400,NA,NA,NA,"-RA BR",NA,NA,NA,NA,NA,NA,30.11,"LFOJ 061230Z AUTO 21015KT 4200 -RA BR OVC004/// ///TCU 04/04 Q1017 BECMG 21020G30KT OVC009"
"3178","LFOJ",2019-12-06 13:00:00,1.7767,47.9833,39.2,39.2,100,210,15,0,30.03,NA,2.67,NA,"OVC","///",NA,NA,400,NA,NA,NA,"-RA BR",NA,NA,NA,NA,NA,NA,30.11,"LFOJ 061300Z AUTO 21015KT 4300 -RA BR OVC004/// ///CB 04/04 Q1017 BECMG 21020G30KT OVC009"
"3179","LFOJ",2019-12-06 13:30:00,1.7767,47.9833,41,41,100,210,15,0,30,NA,3.04,NA,"OVC","///",NA,NA,500,NA,NA,NA,"DZ BR",NA,NA,NA,NA,NA,NA,32.45,"LFOJ 061330Z AUTO 21015KT 4900 DZ BR OVC005/// ///TCU 05/05 Q1016 BECMG 21020G30KT NSW OVC009"
"3180","LFOJ",2019-12-06 14:00:00,1.7767,47.9833,41,41,100,200,15,0,30,NA,2.92,NA,"OVC","///",NA,NA,500,NA,NA,NA,"-RA BR",NA,NA,NA,NA,NA,NA,32.45,"LFOJ 061400Z AUTO 20015KT 4700 -RA BR OVC005/// ///TCU 05/05 Q1016 BECMG 21020G30KT OVC009"
"3181","LFOJ",2019-12-06 14:30:00,1.7767,47.9833,42.8,42.8,100,200,16,0,29.97,NA,3.11,NA,"BKN","OVC",NA,NA,600,1000,NA,NA,"BR",NA,NA,NA,NA,NA,NA,34.5,"LFOJ 061430Z AUTO 20016KT 5000 BR BKN006 OVC010 06/06 Q1015 BECMG 20015G25KT"
"3182","LFOJ",2019-12-06 15:00:00,1.7767,47.9833,42.8,42.8,100,200,17,0,29.97,NA,3.73,NA,"OVC",NA,NA,NA,600,NA,NA,NA,"-DZ",NA,NA,NA,NA,NA,NA,34.22,"LFOJ 061500Z AUTO 20017KT 6000 -DZ OVC006 06/06 Q1015 BECMG 20015G25KT 4000 -RA"
"3183","LFOJ",2019-12-06 15:30:00,1.7767,47.9833,44.6,44.6,100,220,17,0,29.97,NA,3.73,NA,"OVC",NA,NA,NA,600,NA,NA,NA,NA,NA,NA,NA,NA,NA,NA,36.58,"LFOJ 061530Z AUTO 22017KT 6000 OVC006 07/07 Q1015 BECMG 20015G25KT 4000 -RA"
"3184","LFOJ",2019-12-06 16:00:00,1.7767,47.9833,44.6,44.6,100,210,16,0,29.97,NA,4.35,NA,"OVC",NA,NA,NA,600,NA,NA,NA,NA,NA,NA,NA,NA,NA,NA,36.84,"LFOJ 061600Z AUTO 21016KT 7000 OVC006 07/07 Q1015 BECMG 20015G25KT 4000 -RA"
"3185","LFOJ",2019-12-06 16:30:00,1.7767,47.9833,44.6,44.6,100,210,16,0,29.97,NA,4.35,NA,"OVC",NA,NA,NA,600,NA,NA,NA,NA,NA,NA,NA,NA,NA,NA,36.84,"LFOJ 061630Z AUTO 21016KT 7000 OVC006 07/07 Q1015 BECMG 20015G25KT 4000 -RA"
"3186","LFOJ",2019-12-06 17:00:00,1.7767,47.9833,46.4,44.6,93.4,210,17,0,29.97,NA,4.35,NA,"OVC",NA,NA,NA,500,NA,NA,NA,NA,NA,NA,NA,NA,NA,NA,38.94,"LFOJ 061700Z AUTO 21017KT 7000 OVC005 08/07 Q1015 BECMG 20015G25KT 4000 -RA"
"3187","LFOJ",2019-12-06 17:30:00,1.7767,47.9833,46.4,46.4,100,210,20,0,29.94,NA,5.59,NA,"OVC",NA,NA,NA,600,NA,NA,NA,NA,NA,NA,NA,NA,NA,NA,38.26,"LFOJ 061730Z AUTO 21020KT 9000 OVC006 08/08 Q1014 BECMG 20015G25KT 4000 -RA"
"3188","LFOJ",2019-12-06 18:00:00,1.7767,47.9833,46.4,46.4,100,220,20,0,29.94,NA,5.59,NA,"OVC",NA,NA,NA,700,NA,NA,NA,NA,NA,NA,NA,NA,NA,NA,38.26,"LFOJ 061800Z AUTO 22020KT 9000 OVC007 08/08 Q1014"
"3189","LFOJ",2019-12-06 18:30:00,1.7767,47.9833,48.2,46.4,93.45,220,20,0,29.94,NA,5.59,NA,"OVC",NA,NA,NA,700,NA,NA,NA,NA,NA,NA,NA,NA,NA,NA,40.66,"LFOJ 061830Z AUTO 22020KT 9000 OVC007 09/08 Q1014"
"3190","LFOJ",2019-12-06 19:00:00,1.7767,47.9833,48.2,46.4,93.45,220,20,0,29.94,NA,3.73,NA,"OVC",NA,NA,NA,700,NA,NA,NA,NA,NA,NA,NA,NA,NA,NA,40.66,"LFOJ 061900Z AUTO 22020KT 6000 OVC007 09/08 Q1014"
"3191","LFOJ",2019-12-06 19:30:00,1.7767,47.9833,48.2,46.4,93.45,220,19,0,29.94,NA,4.35,NA,"BKN","OVC",NA,NA,800,1500,NA,NA,NA,NA,NA,NA,NA,NA,NA,40.86,"LFOJ 061930Z AUTO 22019KT 7000 BKN008 OVC015 09/08 Q1014"
"3192","LFOJ",2019-12-06 20:00:00,1.7767,47.9833,48.2,48.2,100,220,18,0,29.97,NA,3.73,NA,"OVC",NA,NA,NA,600,NA,NA,NA,NA,NA,NA,NA,NA,NA,NA,41.07,"LFOJ 062000Z AUTO 22018KT 6000 OVC006 09/09 Q1015"
"3193","LFOJ",2019-12-06 20:30:00,1.7767,47.9833,48.2,48.2,100,220,18,0,29.97,NA,3.73,NA,"OVC",NA,NA,NA,600,NA,NA,NA,NA,NA,NA,NA,NA,NA,NA,41.07,"LFOJ 062030Z AUTO 22018KT 6000 OVC006 09/09 Q1015"
"3194","LFOJ",2019-12-06 21:00:00,1.7767,47.9833,48.2,48.2,100,220,18,0,29.97,NA,3.73,NA,"OVC",NA,NA,NA,600,NA,NA,NA,NA,NA,NA,NA,NA,NA,NA,41.07,"LFOJ 062100Z AUTO 22018KT 6000 OVC006 09/09 Q1015"
"3195","LFOJ",2019-12-06 21:30:00,1.7767,47.9833,48.2,48.2,100,220,18,0,29.97,NA,6.21,NA,"OVC",NA,NA,NA,600,NA,NA,NA,NA,NA,NA,NA,NA,NA,NA,41.07,"LFOJ 062130Z AUTO 22018KT 9999 OVC006 09/09 Q1015"
"3196","LFOJ",2019-12-06 22:00:00,1.7767,47.9833,48.2,48.2,100,220,15,0,29.97,NA,3.11,NA,"BKN","OVC",NA,NA,500,900,NA,NA,"-DZ BR",NA,NA,NA,NA,NA,NA,41.78,"LFOJ 062200Z AUTO 22015KT 5000 -DZ BR BKN005 OVC009 09/09 Q1015"
"3197","LFOJ",2019-12-06 22:30:00,1.7767,47.9833,48.2,48.2,100,220,14,0,29.97,NA,4.97,NA,"BKN","BKN","BKN",NA,500,1000,2000,NA,NA,NA,NA,NA,NA,NA,NA,42.04,"LFOJ 062230Z AUTO 22014KT 8000 BKN005 BKN010 BKN020 09/09 Q1015"
"3198","LFOJ",2019-12-06 23:00:00,1.7767,47.9833,48.2,48.2,100,220,13,0,30,NA,6.21,NA,"BKN","OVC",NA,NA,700,1300,NA,NA,NA,NA,NA,NA,NA,NA,NA,42.32,"LFOJ 062300Z AUTO 22013KT 9999 BKN007 OVC013 09/09 Q1016"
"3199","LFOJ",2019-12-06 23:30:00,1.7767,47.9833,48.2,48.2,100,220,11,0,30,NA,6.21,NA,"FEW","BKN","BKN",NA,800,1200,2300,NA,NA,NA,NA,NA,NA,NA,NA,42.94,"LFOJ 062330Z AUTO 22011KT 9999 FEW008 BKN012 BKN023 09/09 Q1016"
"3200","LFPB",2019-12-06 00:00:00,2.4272,48.9672,32,32,100,160,8,0,30.18,NA,2.17,NA,"OVC",NA,NA,NA,200,NA,NA,NA,"BR",NA,NA,NA,NA,NA,NA,24.11,"LFPB 060000Z AUTO 16008KT 3500 BR OVC002/// 00/M00 Q1022 TEMPO 1200 BR"
"3201","LFPB",2019-12-06 00:30:00,2.4272,48.9672,32,32,100,170,6,0,30.15,NA,3.11,NA,"OVC",NA,NA,NA,300,NA,NA,NA,"BR",NA,NA,NA,NA,NA,NA,25.53,"LFPB 060030Z AUTO 17006KT 5000 BR OVC003/// 00/M00 Q1021 NOSIG"
"3202","LFPB",2019-12-06 01:00:00,2.4272,48.9672,32,32,100,170,8,0,30.15,NA,3.73,NA,"OVC",NA,NA,NA,400,NA,NA,NA,NA,NA,NA,NA,NA,NA,NA,24.11,"LFPB 060100Z AUTO 17008KT 6000 OVC004 00/M00 Q1021 BECMG 3500 BR"
"3203","LFPB",2019-12-06 01:30:00,2.4272,48.9672,32,32,100,170,8,0,30.12,NA,3.73,NA,"OVC",NA,NA,NA,500,NA,NA,NA,NA,NA,NA,NA,NA,NA,NA,24.11,"LFPB 060130Z AUTO 17008KT 6000 OVC005 00/M00 Q1020 BECMG 3500 BR"
"3204","LFPB",2019-12-06 02:00:00,2.4272,48.9672,32,30.2,92.97,180,5,0,30.12,NA,4.35,NA,"BKN","BKN","OVC",NA,700,21000,24000,NA,NA,NA,NA,NA,NA,NA,NA,26.4,"LFPB 060200Z AUTO 18005KT 7000 BKN007 BKN210 OVC240 00/M01 Q1020 BECMG 3500 BR BKN002"
"3205","LFPB",2019-12-06 02:30:00,2.4272,48.9672,32,30.2,92.97,170,5,0,30.12,NA,4.35,NA,"FEW","BKN","OVC",NA,700,20000,24000,NA,NA,NA,NA,NA,NA,NA,NA,26.4,"LFPB 060230Z AUTO 17005KT 7000 FEW007 BKN200 OVC240 00/M01 Q1020 TEMPO 3500 BR BKN002"
"3206","LFPB",2019-12-06 03:00:00,2.4272,48.9672,32,30.2,92.97,170,7,0,30.12,NA,3.73,NA,"FEW","OVC",NA,NA,800,20000,NA,NA,NA,NA,NA,NA,NA,NA,NA,24.78,"LFPB 060300Z AUTO 17007KT 6000 FEW008 OVC200 00/M01 Q1020 TEMPO 3500 BR BKN002"
"3207","LFPB",2019-12-06 03:30:00,2.4272,48.9672,33.8,32,93.03,170,7,0,30.09,NA,4.35,NA,"FEW","BKN","OVC",NA,800,10000,18000,NA,NA,NA,NA,NA,NA,NA,NA,26.97,"LFPB 060330Z AUTO 17007KT 7000 FEW008 BKN100 OVC180 01/00 Q1019 TEMPO 3500 BR BKN002"
"3208","LFPB",2019-12-06 04:00:00,2.4272,48.9672,33.8,32,93.03,170,6,0,30.09,NA,4.35,NA,"FEW","OVC",NA,NA,800,10000,NA,NA,NA,NA,NA,NA,NA,NA,NA,27.7,"LFPB 060400Z AUTO 17006KT 7000 FEW008 OVC100 01/00 Q1019 TEMPO 3500 BR BKN002"
"3209","LFPB",2019-12-06 04:30:00,2.4272,48.9672,35.6,32,86.59,180,8,0,30.09,NA,4.97,NA,"FEW","OVC",NA,NA,700,10000,NA,NA,NA,NA,NA,NA,NA,NA,NA,28.55,"LFPB 060430Z AUTO 18008KT 8000 FEW007 OVC100 02/00 Q1019 TEMPO 3500 BR BECMG BKN007"
"3210","LFPB",2019-12-06 05:00:00,2.4272,48.9672,35.6,32,86.59,180,8,0,30.09,NA,5.59,NA,"NSC",NA,NA,NA,NA,NA,NA,NA,NA,NA,NA,NA,NA,NA,NA,28.55,"LFPB 060500Z AUTO 18008KT 9000 NSC 02/00 Q1019 TEMPO BKN008"
"3211","LFPB",2019-12-06 05:30:00,2.4272,48.9672,35.6,32,86.59,170,8,0,30.06,NA,5.59,NA,"///",NA,NA,NA,NA,NA,NA,NA,NA,NA,NA,NA,NA,NA,NA,28.55,"LFPB 060530Z AUTO 17008KT 9000 ///CB 02/M00 Q1018 TEMPO BKN008"
"3212","LFPB",2019-12-06 06:00:00,2.4272,48.9672,35.6,32,86.59,170,7,0,30.06,NA,6.21,NA,NA,NA,NA,NA,NA,NA,NA,NA,NA,NA,NA,NA,NA,NA,NA,29.17,"LFPB 060600Z AUTO 17007KT CAVOK 02/00 Q1018 TEMPO BKN008"
"3213","LFPB",2019-12-06 06:30:00,2.4272,48.9672,35.6,32,86.59,170,6,0,30.06,NA,6.21,NA,"FEW","OVC",NA,NA,1300,13000,NA,NA,NA,NA,NA,NA,NA,NA,NA,29.87,"LFPB 060630Z AUTO 17006KT 9999 FEW013 OVC130 02/00 Q1018 TEMPO BKN008"
"3214","LFPB",2019-12-06 07:00:00,2.4272,48.9672,37.4,33.8,86.69,170,7,0,30.06,NA,6.21,NA,"BKN","BKN","BKN","///",1200,9800,13000,NA,NA,NA,NA,NA,NA,NA,NA,31.36,"LFPB 060700Z AUTO 17007KT 9999 BKN012/// BKN098/// BKN130/// ///TCU 03/01 Q1018 TEMPO BKN008"
"3215","LFPB",2019-12-06 07:30:00,2.4272,48.9672,37.4,33.8,86.69,180,8,0,30.06,NA,6.21,NA,"SCT","BKN","BKN",NA,1200,7200,8600,NA,NA,NA,NA,NA,NA,NA,NA,30.76,"LFPB 060730Z AUTO 18008KT 9999 SCT012 BKN072 BKN086 03/01 Q1018 BECMG 4000 -RA BKN008"
"3216","LFPB",2019-12-06 08:00:00,2.4272,48.9672,37.4,35.6,93.14,180,6,0,30.06,NA,6.21,NA,"BKN","BKN","BKN",NA,1100,3700,4700,NA,"-RA",NA,NA,NA,NA,NA,NA,32.03,"LFPB 060800Z AUTO 18006KT 9999 -RA BKN011 BKN037 BKN047 03/02 Q1018 BECMG 20017KT 4000 -RA BKN008"
"3217","LFPB",2019-12-06 08:30:00,2.4272,48.9672,39.2,35.6,86.79,180,7,0,30.06,NA,5.59,NA,"BKN","BKN","OVC","///",1100,2800,4400,NA,NA,NA,NA,NA,NA,NA,NA,33.56,"LFPB 060830Z AUTO 18007KT 9000 BKN011/// BKN028/// OVC044/// ///TCU 04/02 Q1018 TEMPO 20017G32KT 2500 RA BECMG BKN008"
"3218","LFPB",2019-12-06 09:00:00,2.4272,48.9672,39.2,35.6,86.79,190,8,0,30.06,NA,5.59,NA,"OVC",NA,NA,NA,1000,NA,NA,NA,"-RADZ",NA,NA,NA,NA,NA,NA,32.98,"LFPB 060900Z AUTO 19008KT 9000 -RADZ OVC010/// 04/02 Q1018 TEMPO 20017G32KT 2500 RA"
"3219","LFPB",2019-12-06 09:30:00,2.4272,48.9672,39.2,37.4,93.19,180,9,0,30.06,NA,4.35,NA,"OVC","///",NA,NA,900,NA,NA,NA,"-RA",NA,NA,NA,NA,NA,NA,32.47,"LFPB 060930Z AUTO 18009KT 7000 -RA OVC009/// ///TCU 04/03 Q1018 TEMPO 20017G32KT 2500 RA BECMG BKN008"
"3220","LFPB",2019-12-06 10:00:00,2.4272,48.9672,39.2,37.4,93.19,190,10,0,30.06,NA,4.35,NA,"OVC","///",NA,NA,900,NA,NA,NA,"-RA",NA,NA,NA,NA,NA,NA,32,"LFPB 061000Z AUTO 19010KT 7000 -RA OVC009/// ///TCU 04/03 Q1018 TEMPO 20017G32KT 2500 RA BECMG BKN008"
"3221","LFPB",2019-12-06 10:30:00,2.4272,48.9672,39.2,37.4,93.19,190,10,0,30.03,NA,3.11,NA,"OVC","///",NA,NA,800,NA,NA,NA,"-RA BR",NA,NA,NA,NA,NA,NA,32,"LFPB 061030Z AUTO 19010KT 5000 -RA BR OVC008/// ///TCU 04/03 Q1017 TEMPO 20017G32KT 2500 RA BECMG BKN008"
"3222","LFPB",2019-12-06 11:00:00,2.4272,48.9672,39.2,37.4,93.19,190,10,0,30.03,NA,2.73,NA,"OVC","///",NA,NA,800,NA,NA,NA,"-RA BR",NA,NA,NA,NA,NA,NA,32,"LFPB 061100Z AUTO 19010KT 4400 -RA BR OVC008/// ///CB 04/03 Q1017 TEMPO 20017G32KT 2500 RA BECMG BKN008"
"3223","LFPB",2019-12-06 11:30:00,2.4272,48.9672,39.2,37.4,93.19,190,10,0,30,NA,3.11,NA,"OVC","///",NA,NA,800,NA,NA,NA,"-RA BR",NA,NA,NA,NA,NA,NA,32,"LFPB 061130Z AUTO 19010KT 5000 -RA BR OVC008/// ///CB 04/03 Q1016 TEMPO 20015G30KT 2500 RA BKN005"
"3224","LFPB",2019-12-06 12:00:00,2.4272,48.9672,39.2,37.4,93.19,190,10,0,30,NA,3.73,NA,"OVC","///",NA,NA,800,NA,NA,NA,"-RA",NA,NA,NA,NA,NA,NA,32,"LFPB 061200Z AUTO 19010KT 6000 -RA OVC008/// ///CB 04/03 Q1016 TEMPO 20015G30KT 2500 RA BKN005"
"3225","LFPB",2019-12-06 12:30:00,2.4272,48.9672,39.2,37.4,93.19,190,10,0,29.97,NA,5.59,NA,"OVC","///",NA,NA,800,NA,NA,NA,"-RA",NA,NA,NA,NA,NA,NA,32,"LFPB 061230Z AUTO 19010KT 9000 -RA OVC008/// ///CB 04/03 Q1015 TEMPO 20015G30KT 2500 RA BKN005"
"3226","LFPB",2019-12-06 13:00:00,2.4272,48.9672,41,39.2,93.24,190,10,0,29.97,NA,3.11,NA,"BKN","OVC",NA,NA,900,1400,NA,NA,"-RA BR",NA,NA,NA,NA,NA,NA,34.25,"LFPB 061300Z AUTO 19010KT 5000 -RA BR BKN009/// OVC014/// 05/04 Q1015 TEMPO 20015G30KT 2500 RA"
"3227","LFPB",2019-12-06 13:30:00,2.4272,48.9672,39.2,37.4,93.19,190,12,0,29.94,NA,6.21,NA,"BKN","OVC",NA,NA,800,1400,NA,NA,"-RA",NA,NA,NA,NA,NA,NA,31.17,"LFPB 061330Z AUTO 19012KT 9999 -RA BKN008 OVC014 04/03 Q1014 TEMPO 20015G30KT BECMG 4000 -DZRA"
"3228","LFPB",2019-12-06 14:00:00,2.4272,48.9672,39.2,37.4,93.19,190,13,0,29.94,NA,6.21,NA,"OVC",NA,NA,NA,800,NA,NA,NA,NA,NA,NA,NA,NA,NA,NA,30.79,"LFPB 061400Z AUTO 19013KT 9999 OVC008 04/03 Q1014 TEMPO 20015G30KT BECMG 4000 -DZRA"
"3229","LFPB",2019-12-06 14:30:00,2.4272,48.9672,41,39.2,93.24,190,12,0,29.91,NA,6.21,NA,"OVC",NA,NA,NA,900,NA,NA,NA,NA,NA,NA,NA,NA,NA,NA,33.46,"LFPB 061430Z AUTO 19012KT 9999 OVC009 05/04 Q1013 TEMPO 20015G30KT BECMG 4000 -DZRA"
"3230","LFPB",2019-12-06 15:00:00,2.4272,48.9672,42.8,39.2,86.99,200,15,0,29.91,NA,6.21,NA,"OVC",NA,NA,NA,1000,NA,NA,NA,NA,NA,NA,NA,NA,NA,NA,34.78,"LFPB 061500Z AUTO 20015KT 9999 OVC010 06/04 Q1013 TEMPO 20015G30KT BECMG 4000 -DZRA"
"3231","LFPB",2019-12-06 15:30:00,2.4272,48.9672,42.8,41,93.3,200,12,0,29.91,NA,6.21,22,"OVC",NA,NA,NA,900,NA,NA,NA,NA,NA,NA,NA,NA,NA,NA,35.75,"LFPB 061530Z AUTO 20012G22KT 170V230 9999 OVC009 06/05 Q1013 BECMG 4000 -DZRA"
"3232","LFPB",2019-12-06 16:00:00,2.4272,48.9672,44.6,41,87.09,200,10,0,29.91,NA,6.21,NA,"OVC","///",NA,NA,1000,NA,NA,NA,NA,NA,NA,NA,NA,NA,NA,38.77,"LFPB 061600Z AUTO 20010KT 9999 OVC010/// ///TCU 07/05 Q1013 TEMPO 20015G30KT BKN005 BECMG 4000 -DZRA"
"3233","LFPB",2019-12-06 16:30:00,2.4272,48.9672,44.6,42.8,93.35,190,11,0,29.88,NA,6.21,21,"OVC",NA,NA,NA,1000,NA,NA,NA,NA,NA,NA,NA,NA,NA,NA,38.39,"LFPB 061630Z AUTO 19011G21KT 9999 OVC010 07/06 Q1012 BECMG 4000 -DZRA"
"3234","LFPB",2019-12-06 17:00:00,2.4272,48.9672,46.4,42.8,87.19,200,13,0,29.88,NA,3.73,NA,"OVC",NA,NA,NA,1000,NA,NA,NA,"-DZ",NA,NA,NA,NA,NA,NA,40.02,"LFPB 061700Z AUTO 20013KT 6000 -DZ OVC010 08/06 Q1012 TEMPO 20015G30KT BECMG 4000 -DZRA"
"3235","LFPB",2019-12-06 17:30:00,2.4272,48.9672,46.4,44.6,93.4,200,13,0,29.88,NA,3.11,NA,"OVC",NA,NA,NA,900,NA,NA,NA,"-RADZ BR",NA,NA,NA,NA,NA,NA,40.02,"LFPB 061730Z AUTO 20013KT 5000 -RADZ BR OVC009 08/07 Q1012 TEMPO 20015G30KT"
"3236","LFPB",2019-12-06 18:00:00,2.4272,48.9672,46.4,44.6,93.4,200,13,0,29.88,NA,3.11,NA,"OVC",NA,NA,NA,800,NA,NA,NA,"DZ BR",NA,NA,NA,NA,NA,NA,40.02,"LFPB 061800Z AUTO 20013KT 5000 DZ BR OVC008 08/07 Q1012 TEMPO 20015G30KT BECMG NSW"
"3237","LFPB",2019-12-06 18:30:00,2.4272,48.9672,48.2,44.6,87.28,210,13,0,29.88,NA,6.21,NA,"OVC",NA,NA,NA,900,NA,NA,NA,NA,NA,NA,NA,NA,NA,NA,42.32,"LFPB 061830Z AUTO 21013KT 9999 OVC009 09/07 Q1012 TEMPO 20015G30KT BECMG 4000 -RADZ"
"3238","LFPB",2019-12-06 19:00:00,2.4272,48.9672,48.2,46.4,93.45,210,13,0,29.88,NA,6.21,NA,"OVC",NA,NA,NA,1100,NA,NA,NA,NA,NA,NA,NA,NA,NA,NA,42.32,"LFPB 061900Z AUTO 21013KT 9999 OVC011 09/08 Q1012 TEMPO 20015G30KT BKN007 BECMG 4000 -RADZ"
"3239","LFPB",2019-12-06 19:30:00,2.4272,48.9672,48.2,46.4,93.45,210,12,0,29.88,NA,6.21,NA,"OVC",NA,NA,NA,1200,NA,NA,NA,NA,NA,NA,NA,NA,NA,NA,42.62,"LFPB 061930Z AUTO 21012KT 9999 OVC012 09/08 Q1012 TEMPO 20015G30KT 4000 -RADZ BECMG BKN040"
"3240","LFPB",2019-12-06 20:00:00,2.4272,48.9672,50,46.4,87.37,210,14,0,29.88,NA,6.21,NA,"BKN","BKN","OVC",NA,1200,2400,2900,NA,NA,NA,NA,NA,NA,NA,NA,44.36,"LFPB 062000Z AUTO 21014KT 9999 BKN012 BKN024 OVC029 10/08 Q1012 TEMPO 20015G30KT 4000 -RADZ BECMG BKN040"
"3241","LFPB",2019-12-06 20:30:00,2.4272,48.9672,50,48.2,93.5,220,10,0,29.88,NA,3.11,NA,"OVC",NA,NA,NA,1100,NA,NA,NA,"-RADZ BR",NA,NA,NA,NA,NA,NA,45.54,"LFPB 062030Z AUTO 22010KT 180V240 5000 -RADZ BR OVC011 10/09 Q1012 BECMG BKN040"
"3242","LFPB",2019-12-06 21:00:00,2.4272,48.9672,50,48.2,93.5,210,8,0,29.88,NA,6.21,NA,"OVC",NA,NA,NA,1200,NA,NA,NA,NA,NA,NA,NA,NA,NA,NA,46.29,"LFPB 062100Z AUTO 21008KT 9999 OVC012 10/09 Q1012 BECMG BKN040"
"3243","LFPB",2019-12-06 21:30:00,2.4272,48.9672,50,46.4,87.37,220,7,0,29.91,NA,6.21,NA,"SCT","BKN","BKN",NA,1600,2100,2600,NA,NA,NA,NA,NA,NA,NA,NA,46.72,"LFPB 062130Z AUTO 22007KT 180V250 9999 SCT016 BKN021 BKN026 10/08 Q1013 NOSIG"
"3244","LFPB",2019-12-06 22:00:00,2.4272,48.9672,51.8,46.4,81.74,230,10,0,29.91,NA,6.21,NA,"BKN","BKN","BKN",NA,2000,3300,4300,NA,NA,NA,NA,NA,NA,NA,NA,NA,"LFPB 062200Z AUTO 23010KT 9999 BKN020 BKN033 BKN043 11/08 Q1013 NOSIG"
"3245","LFPB",2019-12-06 22:30:00,2.4272,48.9672,51.8,46.4,81.74,230,9,0,29.91,NA,6.21,NA,"FEW","BKN","BKN",NA,2000,2900,3800,NA,NA,NA,NA,NA,NA,NA,NA,NA,"LFPB 062230Z AUTO 23009KT 9999 FEW020 BKN029 BKN038 11/08 Q1013 NOSIG"
"3246","LFPB",2019-12-06 23:00:00,2.4272,48.9672,51.8,46.4,81.74,220,10,0,29.94,NA,6.21,NA,"BKN","BKN","BKN",NA,2100,2700,3400,NA,NA,NA,NA,NA,NA,NA,NA,NA,"LFPB 062300Z AUTO 22010KT 9999 BKN021 BKN027 BKN034 11/08 Q1014 NOSIG"
"3247","LFPB",2019-12-06 23:30:00,2.4272,48.9672,50,46.4,87.37,230,10,0,29.94,NA,3.73,NA,"BKN","BKN","OVC",NA,1500,2000,2700,NA,"-RADZ",NA,NA,NA,NA,NA,NA,45.54,"LFPB 062330Z AUTO 23010KT 6000 -RADZ BKN015 BKN020 OVC027 10/08 Q1014 TEMPO 4000 BR"
"3248","LFPO",2019-12-06 00:00:00,2.3833,48.7167,30.2,30.2,100,210,6,0,30.18,NA,0.75,NA,"VV ",NA,NA,NA,NA,NA,NA,NA,"BCFG",NA,NA,NA,NA,NA,NA,23.36,"LFPO 060000Z AUTO 21006KT 1200 0800 R02/2000U R25/1300U R07/1300N R24/1000U R06/1500U BCFG VV/// M01/M01 Q1022"
"3249","LFPO",2019-12-06 00:30:00,2.3833,48.7167,30.2,30.2,100,210,4,0,30.15,NA,0.75,NA,"VV ",NA,NA,NA,NA,NA,NA,NA,"BCFG",NA,NA,NA,NA,NA,NA,25.32,"LFPO 060030Z AUTO 21004KT 170V240 1200 0900 R02/1500D R25/1200D R07/1400D R24/1700N R06/P2000 BCFG VV/// M01/M01 Q1021"
"3250","LFPO",2019-12-06 01:00:00,2.3833,48.7167,32,30.2,92.97,NA,3,0,30.15,NA,0.56,NA,"VV ",NA,NA,NA,NA,NA,NA,NA,"FZFG",NA,NA,NA,NA,NA,NA,28.69,"LFPO 060100Z AUTO VRB03KT 0900 0600 R02/1100N R25/0800N R07/0900U R24/1200N R06/P2000 FZFG VV/// M00/M01 Q1021"
"3251","LFPO",2019-12-06 01:30:00,2.3833,48.7167,32,32,100,180,5,0,30.15,NA,0.68,NA,"VV ",NA,NA,NA,NA,NA,NA,NA,"BCFG",NA,NA,NA,NA,NA,NA,26.4,"LFPO 060130Z AUTO 18005KT 150V210 1100 0900 R02/1600U R25/1100D R07/1200U R24/1300D R06/1700U BCFG VV/// M00/M00 Q1021"
"3252","LFPO",2019-12-06 02:00:00,2.3833,48.7167,32,32,100,190,7,0,30.12,NA,0.81,NA,"VV ",NA,NA,NA,NA,NA,NA,NA,"BCFG",NA,NA,NA,NA,NA,NA,24.78,"LFPO 060200Z AUTO 19007KT 1300 0900 R02/1600N R25/1200U R07/P2000 R24/1700U R06/1500U BCFG VV/// M00/M00 Q1020"
"3253","LFPO",2019-12-06 02:30:00,2.3833,48.7167,32,32,100,200,8,0,30.12,NA,1.49,NA,"VV ",NA,NA,NA,NA,NA,NA,NA,"BR",NA,NA,NA,NA,NA,NA,24.11,"LFPO 060230Z AUTO 20008KT 2400 1100 R02/P2000 R25/1400U R07/P2000 R24/P2000 R06/P2000 BR VV/// M00/M00 Q1020"
"3254","LFPO",2019-12-06 03:00:00,2.3833,48.7167,32,32,100,190,6,0,30.12,NA,2.05,NA,"VV ",NA,NA,NA,NA,NA,NA,NA,"BR",NA,NA,NA,NA,NA,NA,25.53,"LFPO 060300Z AUTO 19006KT 3300 BR VV/// M00/M00 Q1020"
"3255","LFPO",2019-12-06 03:30:00,2.3833,48.7167,30.2,30.2,100,190,7,0,30.09,NA,2.61,NA,"BKN","OVC",NA,NA,200,20000,NA,NA,"BR",NA,NA,NA,NA,NA,NA,22.59,"LFPO 060330Z AUTO 19007KT 4200 BR BKN002 OVC200 M01/M01 Q1019"
"3256","LFPO",2019-12-06 04:00:00,2.3833,48.7167,30.2,30.2,100,190,8,0,30.09,NA,3.11,NA,"BKN","BKN","BKN",NA,300,17000,19000,NA,"BR",NA,NA,NA,NA,NA,NA,21.9,"LFPO 060400Z AUTO 19008KT 5000 BR BKN003 BKN170 BKN190 M01/M01 Q1019"
"3257","LFPO",2019-12-06 04:30:00,2.3833,48.7167,30.2,30.2,100,200,7,0,30.09,NA,3.73,NA,"SCT","BKN","OVC",NA,400,9400,19000,NA,NA,NA,NA,NA,NA,NA,NA,22.59,"LFPO 060430Z AUTO 20007KT 160V230 6000 SCT004 BKN094 OVC190 M01/M01 Q1019"
"3258","LFPO",2019-12-06 05:00:00,2.3833,48.7167,30.2,30.2,100,190,9,0,30.09,NA,3.73,NA,"FEW","OVC",NA,NA,400,9600,NA,NA,NA,NA,NA,NA,NA,NA,NA,21.28,"LFPO 060500Z AUTO 19009KT 6000 FEW004 OVC096 M01/M01 Q1019"
"3259","LFPO",2019-12-06 05:30:00,2.3833,48.7167,32,30.2,92.97,210,7,0,30.09,NA,3.73,NA,"FEW","OVC",NA,NA,500,9400,NA,NA,NA,NA,NA,NA,NA,NA,NA,24.78,"LFPO 060530Z AUTO 21007KT 6000 FEW005 OVC094 M00/M01 Q1019"
"3260","LFPO",2019-12-06 06:00:00,2.3833,48.7167,32,32,100,190,5,0,30.09,NA,4.97,NA,"NSC",NA,NA,NA,NA,NA,NA,NA,NA,NA,NA,NA,NA,NA,NA,26.4,"LFPO 060600Z 19005KT 8000 NSC M00/M00 Q1019"
"3261","LFPO",2019-12-06 06:30:00,2.3833,48.7167,32,32,100,190,6,0,30.09,NA,3.73,NA,"NSC",NA,NA,NA,NA,NA,NA,NA,NA,NA,NA,NA,NA,NA,NA,25.53,"LFPO 060630Z 19006KT 6000 NSC 00/M00 Q1019"
"3262","LFPO",2019-12-06 07:00:00,2.3833,48.7167,32,32,100,190,5,0,30.09,NA,3.73,NA,"FEW","BKN","BKN",NA,1100,8600,12000,NA,NA,NA,NA,NA,NA,NA,NA,26.4,"LFPO 060700Z 19005KT 6000 FEW011 BKN086 BKN120 00/00 Q1019"
"3263","LFPO",2019-12-06 07:30:00,2.3833,48.7167,33.8,32,93.03,190,7,0,30.06,NA,3.73,NA,"SCT","SCT","BKN",NA,900,7300,9000,NA,NA,NA,NA,NA,NA,NA,NA,26.97,"LFPO 060730Z 19007KT 6000 SCT009 SCT073 BKN090 01/00 Q1018"
"3264","LFPO",2019-12-06 08:00:00,2.3833,48.7167,33.8,32,93.03,190,8,0,30.06,NA,2.8,NA,"BKN","BKN",NA,NA,800,7300,NA,NA,"BR",NA,NA,NA,NA,NA,NA,26.33,"LFPO 060800Z 19008KT 4500 BR BKN008 BKN073 01/00 Q1018 NOSIG"
"3265","LFPO",2019-12-06 08:30:00,2.3833,48.7167,33.8,33.8,100,200,8,0,30.06,NA,2.49,NA,"BKN",NA,NA,NA,600,NA,NA,NA,"-RA BR",NA,NA,NA,NA,NA,NA,26.33,"LFPO 060830Z 20008KT 4000 -RA BR BKN006 01/01 Q1018"
"3266","LFPO",2019-12-06 09:00:00,2.3833,48.7167,35.6,33.8,93.08,210,8,0,30.09,NA,2.49,NA,"BKN",NA,NA,NA,600,NA,NA,NA,"-RA BR",NA,NA,NA,NA,NA,NA,28.55,"LFPO 060900Z 21008KT 180V250 4000 -RA BR BKN006 02/01 Q1019"
"3267","LFPO",2019-12-06 09:30:00,2.3833,48.7167,35.6,33.8,93.08,200,10,0,30.09,NA,2.49,NA,"BKN",NA,NA,NA,600,NA,NA,NA,"-RA BR",NA,NA,NA,NA,NA,NA,27.48,"LFPO 060930Z 20010KT 4000 -RA BR BKN006 02/01 Q1019"
"3268","LFPO",2019-12-06 10:00:00,2.3833,48.7167,35.6,33.8,93.08,200,10,0,30.09,NA,2.36,NA,"BKN",NA,NA,NA,500,NA,NA,NA,"-RA BR",NA,NA,NA,NA,NA,NA,27.48,"LFPO 061000Z 20010KT 3800 -RA BR BKN005 02/01 Q1019"
"3269","LFPO",2019-12-06 10:30:00,2.3833,48.7167,35.6,33.8,93.08,200,12,0,30.06,NA,2.36,NA,"BKN",NA,NA,NA,500,NA,NA,NA,"-RA BR",NA,NA,NA,NA,NA,NA,26.58,"LFPO 061030Z 20012KT 3800 -RA BR BKN005 02/01 Q1018"
"3270","LFPO",2019-12-06 11:00:00,2.3833,48.7167,35.6,33.8,93.08,200,11,0,30.06,NA,2.8,NA,"BKN",NA,NA,NA,500,NA,NA,NA,"-RA BR",NA,NA,NA,NA,NA,NA,27.02,"LFPO 061100Z 20011KT 4500 -RA BR BKN005 02/01 Q1018"
"3271","LFPO",2019-12-06 11:30:00,2.3833,48.7167,35.6,35.6,100,200,10,0,30.03,NA,2.49,NA,"BKN",NA,NA,NA,500,NA,NA,NA,"-RA BR",NA,NA,NA,NA,NA,NA,27.48,"LFPO 061130Z 20010KT 4000 -RA BR BKN005 02/02 Q1017"
"3272","LFPO",2019-12-06 12:00:00,2.3833,48.7167,37.4,35.6,93.14,200,13,0,30,NA,1.99,NA,"BKN",NA,NA,NA,500,NA,NA,NA,"-RA BR",NA,NA,NA,NA,NA,NA,28.49,"LFPO 061200Z 20013KT 3200 -RA BR BKN005 03/02 Q1016"
"3273","LFPO",2019-12-06 12:30:00,2.3833,48.7167,37.4,35.6,93.14,210,13,0,30,NA,2.8,NA,"BKN",NA,NA,NA,500,NA,NA,NA,"-RA BR",NA,NA,NA,NA,NA,NA,28.49,"LFPO 061230Z 21013KT 4500 -RA BR BKN005 03/02 Q1016"
"3274","LFPO",2019-12-06 13:00:00,2.3833,48.7167,37.4,37.4,100,200,12,0,29.97,NA,3.73,NA,"BKN",NA,NA,NA,600,NA,NA,NA,"-RA",NA,NA,NA,NA,NA,NA,28.87,"LFPO 061300Z 20012KT 6000 -RA BKN006 03/03 Q1015"
"3275","LFPO",2019-12-06 13:30:00,2.3833,48.7167,39.2,37.4,93.19,200,12,0,29.97,NA,2.8,NA,"BKN",NA,NA,NA,500,NA,NA,NA,"-RA BR",NA,NA,NA,NA,NA,NA,31.17,"LFPO 061330Z 20012KT 4500 -RA BR BKN005 04/03 Q1015"
"3276","LFPO",2019-12-06 14:00:00,2.3833,48.7167,39.2,39.2,100,200,11,0,29.94,NA,3.11,NA,"BKN",NA,NA,NA,500,NA,NA,NA,NA,NA,NA,NA,NA,NA,NA,31.57,"LFPO 061400Z 20011KT 5000 BKN005 04/04 Q1014"
"3277","LFPO",2019-12-06 14:30:00,2.3833,48.7167,41,39.2,93.24,210,12,0,29.94,NA,3.73,NA,"BKN",NA,NA,NA,500,NA,NA,NA,NA,NA,NA,NA,NA,NA,NA,33.46,"LFPO 061430Z 21012KT 180V240 6000 BKN005 05/04 Q1014"
"3278","LFPO",2019-12-06 15:00:00,2.3833,48.7167,41,41,100,210,13,0,29.94,NA,2.8,NA,"BKN",NA,NA,NA,500,NA,NA,NA,NA,NA,NA,NA,NA,NA,NA,33.1,"LFPO 061500Z 21013KT 180V240 4500 BKN005 05/05 Q1014"
"3279","LFPO",2019-12-06 15:30:00,2.3833,48.7167,42.8,41,93.3,210,12,0,29.91,NA,1.86,NA,"BKN",NA,NA,NA,600,NA,NA,NA,"-RA BR",NA,NA,NA,NA,NA,NA,35.75,"LFPO 061530Z 21012KT 180V240 3000 -RA BR BKN006 06/05 Q1013"
"3280","LFPO",2019-12-06 16:00:00,2.3833,48.7167,42.8,42.8,100,210,11,0,29.91,NA,3.11,NA,"BKN",NA,NA,NA,600,NA,NA,NA,"BR",NA,NA,NA,NA,NA,NA,36.11,"LFPO 061600Z 21011KT 180V240 5000 BR BKN006 06/06 Q1013"
"3281","LFPO",2019-12-06 16:30:00,2.3833,48.7167,42.8,42.8,100,210,15,0,29.91,NA,2.8,NA,"BKN",NA,NA,NA,600,NA,NA,NA,"BR",NA,NA,NA,NA,NA,NA,34.78,"LFPO 061630Z 21015KT 4500 BR BKN006 06/06 Q1013"
"3282","LFPO",2019-12-06 17:00:00,2.3833,48.7167,44.6,42.8,93.35,210,13,0,29.91,NA,2.49,NA,"BKN",NA,NA,NA,600,NA,NA,NA,"-RA BR",NA,NA,NA,NA,NA,NA,37.71,"LFPO 061700Z 21013KT 4000 -RA BR BKN006 07/06 Q1013"
"3283","LFPO",2019-12-06 17:30:00,2.3833,48.7167,46.4,44.6,93.4,230,12,0,29.91,NA,1.74,NA,"BKN",NA,NA,NA,600,NA,NA,NA,"-RADZ BR",NA,NA,NA,NA,NA,NA,40.33,"LFPO 061730Z 23012KT 2800 -RADZ BR BKN006 08/07 Q1013"
"3284","LFPO",2019-12-06 18:00:00,2.3833,48.7167,46.4,44.6,93.4,210,13,0,29.91,NA,1.55,NA,"BKN",NA,NA,NA,600,NA,NA,NA,"-RADZ BR",NA,NA,NA,NA,NA,NA,40.02,"LFPO 061800Z 21013KT 2500 -RADZ BR BKN006 08/07 Q1013"
"3285","LFPO",2019-12-06 18:30:00,2.3833,48.7167,46.4,44.6,93.4,220,11,0,29.91,NA,1.86,NA,"BKN",NA,NA,NA,700,NA,NA,NA,"-RADZ BR",NA,NA,NA,NA,NA,NA,40.66,"LFPO 061830Z 22011KT 3000 -RADZ BR BKN007 08/07 Q1013"
"3286","LFPO",2019-12-06 19:00:00,2.3833,48.7167,46.4,46.4,100,220,12,0,29.91,NA,3.73,NA,"BKN",NA,NA,NA,900,NA,NA,NA,NA,NA,NA,NA,NA,NA,NA,40.33,"LFPO 061900Z 22012KT 6000 BKN009 08/08 Q1013"
"3287","LFPO",2019-12-06 19:30:00,2.3833,48.7167,48.2,46.4,93.45,230,13,0,29.91,NA,4.97,NA,"BKN",NA,NA,NA,800,NA,NA,NA,NA,NA,NA,NA,NA,NA,NA,42.32,"LFPO 061930Z 23013KT 8000 BKN008 09/08 Q1013"
"3288","LFPO",2019-12-06 20:00:00,2.3833,48.7167,48.2,46.4,93.45,230,10,0,29.91,NA,2.49,NA,"BKN",NA,NA,NA,800,NA,NA,NA,"-DZ BR",NA,NA,NA,NA,NA,NA,43.28,"LFPO 062000Z 23010KT 4000 -DZ BR BKN008 09/08 Q1013 NOSIG"
"3289","LFPO",2019-12-06 20:30:00,2.3833,48.7167,48.2,46.4,93.45,230,12,0,29.91,NA,2.49,NA,"BKN",NA,NA,NA,700,NA,NA,NA,"-DZ BR",NA,NA,NA,NA,NA,NA,42.62,"LFPO 062030Z 23012KT 4000 -DZ BR BKN007 09/08 Q1013 NOSIG"
"3290","LFPO",2019-12-06 21:00:00,2.3833,48.7167,48.2,46.4,93.45,240,12,0,29.91,NA,6.21,NA,"SCT","BKN","BKN",NA,1000,1700,5600,NA,NA,NA,NA,NA,NA,NA,NA,42.62,"LFPO 062100Z 24012KT 9999 SCT010 BKN017 BKN056 09/08 Q1013 BECMG BKN030"
"3291","LFPO",2019-12-06 21:30:00,2.3833,48.7167,48.2,48.2,100,230,12,0,29.91,NA,6.21,NA,"BKN","BKN",NA,NA,1000,4900,NA,NA,NA,NA,NA,NA,NA,NA,NA,42.62,"LFPO 062130Z 23012KT 9999 BKN010 BKN049 09/09 Q1013 BECMG BKN030"
"3292","LFPO",2019-12-06 22:00:00,2.3833,48.7167,50,48.2,93.5,230,10,0,29.94,NA,6.21,NA,"BKN","BKN",NA,NA,1100,5600,NA,NA,NA,NA,NA,NA,NA,NA,NA,45.54,"LFPO 062200Z 23010KT 9999 BKN011 BKN056 10/09 Q1014 BECMG BKN030"
"3293","LFPO",2019-12-06 22:30:00,2.3833,48.7167,50,48.2,93.5,240,8,0,29.94,NA,6.21,NA,"SCT","BKN","BKN",NA,1100,2000,5300,NA,NA,NA,NA,NA,NA,NA,NA,46.29,"LFPO 062230Z 24008KT 9999 SCT011 BKN020 BKN053 10/09 Q1014 BECMG BKN030"
"3294","LFPO",2019-12-06 23:00:00,2.3833,48.7167,50,48.2,93.5,230,9,0,29.94,NA,6.21,NA,"SCT","BKN","BKN",NA,1200,1900,3100,NA,"-DZ",NA,NA,NA,NA,NA,NA,45.9,"LFPO 062300Z 23009KT 9999 -DZ SCT012 BKN019 BKN031 10/09 Q1014 BECMG BKN030"
"3295","LFPO",2019-12-06 23:30:00,2.3833,48.7167,50,48.2,93.5,230,10,0,29.94,NA,6.21,NA,"SCT","BKN","BKN",NA,1100,1600,2400,NA,"-DZRA",NA,NA,NA,NA,NA,NA,45.54,"LFPO 062330Z 23010KT 9999 -DZRA SCT011 BKN016 BKN024 10/09 Q1014 BECMG BKN030"
"3296","LFMP",2019-12-06 00:00:00,2.8728,42.7372,50,44.6,81.61,270,3,0,30.24,NA,6.21,NA,"BKN","OVC",NA,NA,4700,6600,NA,NA,NA,NA,NA,NA,NA,NA,NA,49.27,"LFMP 060000Z AUTO 27003KT 9999 BKN047 OVC066 10/07 Q1024"
"3297","LFMP",2019-12-06 00:30:00,2.8728,42.7372,50,44.6,81.61,290,3,0,30.21,NA,6.21,NA,"SCT","OVC",NA,NA,4600,6400,NA,NA,NA,NA,NA,NA,NA,NA,NA,49.27,"LFMP 060030Z AUTO 29003KT 9999 SCT046 OVC064 10/07 Q1023"
"3298","LFMP",2019-12-06 01:00:00,2.8728,42.7372,50,44.6,81.61,0,0,0,30.21,NA,6.21,NA,"FEW","OVC",NA,NA,4600,6200,NA,NA,NA,NA,NA,NA,NA,NA,NA,NA,"LFMP 060100Z AUTO 00000KT 9999 FEW046 OVC062 10/07 Q1023"
"3299","LFMP",2019-12-06 01:30:00,2.8728,42.7372,50,44.6,81.61,0,0,0,30.21,NA,6.21,NA,"OVC",NA,NA,NA,6000,NA,NA,NA,NA,NA,NA,NA,NA,NA,NA,NA,"LFMP 060130Z AUTO 00000KT 9999 OVC060 10/07 Q1023"
"3300","LFMP",2019-12-06 02:00:00,2.8728,42.7372,50,44.6,81.61,NA,2,0,30.21,NA,6.21,NA,"OVC",NA,NA,NA,6000,NA,NA,NA,NA,NA,NA,NA,NA,NA,NA,NA,"LFMP 060200Z AUTO VRB02KT 9999 OVC060 10/07 Q1023"
"3301","LFMP",2019-12-06 02:30:00,2.8728,42.7372,50,46.4,87.37,NA,3,0,30.21,NA,6.21,NA,"OVC",NA,NA,NA,6600,NA,NA,NA,NA,NA,NA,NA,NA,NA,NA,49.27,"LFMP 060230Z AUTO VRB03KT 9999 OVC066 10/08 Q1023"
"3302","LFMP",2019-12-06 03:00:00,2.8728,42.7372,50,46.4,87.37,NA,2,0,30.21,NA,6.21,NA,"OVC",NA,NA,NA,6600,NA,NA,NA,NA,NA,NA,NA,NA,NA,NA,NA,"LFMP 060300Z AUTO VRB02KT 9999 OVC066 10/08 Q1023"
"3303","LFMP",2019-12-06 03:30:00,2.8728,42.7372,50,46.4,87.37,280,4,0,30.21,NA,6.21,NA,"OVC",NA,NA,NA,6400,NA,NA,NA,NA,NA,NA,NA,NA,NA,NA,48.44,"LFMP 060330Z AUTO 28004KT 9999 OVC064 10/08 Q1023"
"3304","LFMP",2019-12-06 04:00:00,2.8728,42.7372,50,44.6,81.61,230,2,0,30.21,NA,6.21,NA,"OVC",NA,NA,NA,6800,NA,NA,NA,NA,NA,NA,NA,NA,NA,NA,NA,"LFMP 060400Z AUTO 23002KT 9999 OVC068 10/07 Q1023"
"3305","LFMP",2019-12-06 04:30:00,2.8728,42.7372,48.2,44.6,87.28,160,1,0,30.21,NA,6.21,NA,"FEW","BKN",NA,NA,7000,11000,NA,NA,NA,NA,NA,NA,NA,NA,NA,NA,"LFMP 060430Z AUTO 16001KT 9999 FEW070 BKN110 09/07 Q1023"
"3306","LFMP",2019-12-06 05:00:00,2.8728,42.7372,46.4,44.6,93.4,100,2,0,30.21,NA,6.21,NA,NA,NA,NA,NA,NA,NA,NA,NA,NA,NA,NA,NA,NA,NA,NA,NA,"LFMP 060500Z AUTO 10002KT CAVOK 08/07 Q1023"
"3307","LFMP",2019-12-06 05:30:00,2.8728,42.7372,44.6,42.8,93.35,0,0,0,30.21,NA,6.21,NA,NA,NA,NA,NA,NA,NA,NA,NA,NA,NA,NA,NA,NA,NA,NA,NA,"LFMP 060530Z AUTO 00000KT CAVOK 07/06 Q1023"
"3308","LFMP",2019-12-06 06:00:00,2.8728,42.7372,44.6,42.8,93.35,NA,2,0,30.21,NA,6.21,NA,NA,NA,NA,NA,NA,NA,NA,NA,NA,NA,NA,NA,NA,NA,NA,NA,"LFMP 060600Z AUTO VRB02KT CAVOK 07/06 Q1023"
"3309","LFMP",2019-12-06 06:30:00,2.8728,42.7372,42.8,41,93.3,NA,2,0,30.21,NA,6.21,NA,NA,NA,NA,NA,NA,NA,NA,NA,NA,NA,NA,NA,NA,NA,NA,NA,"LFMP 060630Z AUTO VRB02KT CAVOK 06/05 Q1023"
"3310","LFMP",2019-12-06 07:00:00,2.8728,42.7372,42.8,41,93.3,260,1,0,30.21,NA,6.21,NA,NA,NA,NA,NA,NA,NA,NA,NA,NA,NA,NA,NA,NA,NA,NA,NA,"LFMP 060700Z AUTO 26001KT CAVOK 06/05 Q1023 NOSIG"
"3311","LFMP",2019-12-06 07:30:00,2.8728,42.7372,42.8,41,93.3,220,3,0,30.21,NA,6.21,NA,NA,NA,NA,NA,NA,NA,NA,NA,NA,NA,NA,NA,NA,NA,NA,41.03,"LFMP 060730Z AUTO 22003KT CAVOK 06/05 Q1023 NOSIG"
"3312","LFMP",2019-12-06 08:00:00,2.8728,42.7372,44.6,42.8,93.35,240,4,0,30.24,NA,6.21,NA,NA,NA,NA,NA,NA,NA,NA,NA,NA,NA,NA,NA,NA,NA,NA,42.13,"LFMP 060800Z AUTO 24004KT CAVOK 07/06 Q1024 NOSIG"
"3313","LFMP",2019-12-06 08:30:00,2.8728,42.7372,48.2,44.6,87.28,240,3,0,30.24,NA,6.21,NA,NA,NA,NA,NA,NA,NA,NA,NA,NA,NA,NA,NA,NA,NA,NA,47.21,"LFMP 060830Z AUTO 24003KT CAVOK 09/07 Q1024 NOSIG"
"3314","LFMP",2019-12-06 09:00:00,2.8728,42.7372,51.8,46.4,81.74,NA,2,0,30.24,NA,6.21,NA,NA,NA,NA,NA,NA,NA,NA,NA,NA,NA,NA,NA,NA,NA,NA,NA,"LFMP 060900Z AUTO VRB02KT CAVOK 11/08 Q1024 NOSIG"
"3315","LFMP",2019-12-06 09:30:00,2.8728,42.7372,53.6,44.6,71.45,NA,3,0,30.24,NA,6.21,NA,"FEW",NA,NA,NA,6800,NA,NA,NA,NA,NA,NA,NA,NA,NA,NA,NA,"LFMP 060930Z AUTO VRB03KT 9999 FEW068 12/07 Q1024 NOSIG"
"3316","LFMP",2019-12-06 10:00:00,2.8728,42.7372,55.4,44.6,66.91,NA,3,0,30.24,NA,6.21,NA,NA,NA,NA,NA,NA,NA,NA,NA,NA,NA,NA,NA,NA,NA,NA,NA,"LFMP 061000Z AUTO VRB03KT CAVOK 13/07 Q1024 NOSIG"
"3317","LFMP",2019-12-06 10:30:00,2.8728,42.7372,57.2,44.6,62.69,170,3,0,30.24,NA,6.21,NA,"FEW",NA,NA,NA,6800,NA,NA,NA,NA,NA,NA,NA,NA,NA,NA,NA,"LFMP 061030Z AUTO 17003KT 130V190 9999 FEW068 14/07 Q1024 NOSIG"
"3318","LFMP",2019-12-06 11:00:00,2.8728,42.7372,57.2,42.8,58.52,160,4,0,30.24,NA,6.21,NA,"FEW",NA,NA,NA,6800,NA,NA,NA,NA,NA,NA,NA,NA,NA,NA,NA,"LFMP 061100Z AUTO 16004KT 130V190 9999 FEW068 14/06 Q1024 NOSIG"
"3319","LFMP",2019-12-06 11:30:00,2.8728,42.7372,59,42.8,54.86,180,4,0,30.21,NA,6.21,NA,NA,NA,NA,NA,NA,NA,NA,NA,NA,NA,NA,NA,NA,NA,NA,NA,"LFMP 061130Z AUTO 18004KT 130V220 CAVOK 15/06 Q1023 NOSIG"
"3320","LFMP",2019-12-06 12:00:00,2.8728,42.7372,59,42.8,54.86,120,3,0,30.21,NA,6.21,NA,NA,NA,NA,NA,NA,NA,NA,NA,NA,NA,NA,NA,NA,NA,NA,NA,"LFMP 061200Z AUTO 12003KT 090V160 CAVOK 15/06 Q1023 NOSIG"
"3321","LFMP",2019-12-06 12:30:00,2.8728,42.7372,60.8,42.8,51.45,110,3,0,30.18,NA,6.21,NA,NA,NA,NA,NA,NA,NA,NA,NA,NA,NA,NA,NA,NA,NA,NA,NA,"LFMP 061230Z AUTO 11003KT 050V140 CAVOK 16/06 Q1022 NOSIG"
"3322","LFMP",2019-12-06 13:00:00,2.8728,42.7372,60.8,41,48,NA,2,0,30.18,NA,6.21,NA,NA,NA,NA,NA,NA,NA,NA,NA,NA,NA,NA,NA,NA,NA,NA,NA,"LFMP 061300Z AUTO VRB02KT CAVOK 16/05 Q1022 NOSIG"
"3323","LFMP",2019-12-06 13:30:00,2.8728,42.7372,60.8,42.8,51.45,NA,3,0,30.18,NA,6.21,NA,NA,NA,NA,NA,NA,NA,NA,NA,NA,NA,NA,NA,NA,NA,NA,NA,"LFMP 061330Z AUTO VRB03KT CAVOK 16/06 Q1022 NOSIG"
"3324","LFMP",2019-12-06 14:00:00,2.8728,42.7372,59,41,51.18,110,5,0,30.18,NA,6.21,NA,NA,NA,NA,NA,NA,NA,NA,NA,NA,NA,NA,NA,NA,NA,NA,NA,"LFMP 061400Z AUTO 11005KT 080V140 CAVOK 15/05 Q1022 NOSIG"
"3325","LFMP",2019-12-06 14:30:00,2.8728,42.7372,59,42.8,54.86,100,5,0,30.18,NA,6.21,NA,NA,NA,NA,NA,NA,NA,NA,NA,NA,NA,NA,NA,NA,NA,NA,NA,"LFMP 061430Z AUTO 10005KT 070V130 CAVOK 15/06 Q1022 NOSIG"
"3326","LFMP",2019-12-06 15:00:00,2.8728,42.7372,57.2,41,54.6,120,4,0,30.15,NA,6.21,NA,NA,NA,NA,NA,NA,NA,NA,NA,NA,NA,NA,NA,NA,NA,NA,NA,"LFMP 061500Z AUTO 12004KT 090V160 CAVOK 14/05 Q1021 NOSIG"
"3327","LFMP",2019-12-06 15:30:00,2.8728,42.7372,55.4,39.2,54.34,120,3,0,30.15,NA,6.21,NA,NA,NA,NA,NA,NA,NA,NA,NA,NA,NA,NA,NA,NA,NA,NA,NA,"LFMP 061530Z AUTO 12003KT 090V150 CAVOK 13/04 Q1021 NOSIG"
"3328","LFMP",2019-12-06 16:00:00,2.8728,42.7372,53.6,39.2,58.02,110,3,0,30.15,NA,6.21,NA,NA,NA,NA,NA,NA,NA,NA,NA,NA,NA,NA,NA,NA,NA,NA,NA,"LFMP 061600Z AUTO 11003KT CAVOK 12/04 Q1021 NOSIG"
"3329","LFMP",2019-12-06 16:30:00,2.8728,42.7372,51.8,39.2,61.99,NA,1,0,30.18,NA,6.21,NA,NA,NA,NA,NA,NA,NA,NA,NA,NA,NA,NA,NA,NA,NA,NA,NA,"LFMP 061630Z AUTO VRB01KT CAVOK 11/04 Q1022 NOSIG"
"3330","LFMP",2019-12-06 17:00:00,2.8728,42.7372,50,41,71.07,190,2,0,30.18,NA,6.21,NA,NA,NA,NA,NA,NA,NA,NA,NA,NA,NA,NA,NA,NA,NA,NA,NA,"LFMP 061700Z AUTO 19002KT CAVOK 10/05 Q1022 NOSIG"
"3331","LFMP",2019-12-06 17:30:00,2.8728,42.7372,48.2,41,76.01,230,3,0,30.18,NA,6.21,NA,NA,NA,NA,NA,NA,NA,NA,NA,NA,NA,NA,NA,NA,NA,NA,47.21,"LFMP 061730Z AUTO 23003KT 170V240 CAVOK 09/05 Q1022 NOSIG"
"3332","LFMP",2019-12-06 18:00:00,2.8728,42.7372,46.4,41,81.34,240,4,0,30.18,NA,6.21,NA,NA,NA,NA,NA,NA,NA,NA,NA,NA,NA,NA,NA,NA,NA,NA,44.24,"LFMP 061800Z AUTO 24004KT CAVOK 08/05 Q1022 NOSIG"
"3333","LFMP",2019-12-06 18:30:00,2.8728,42.7372,44.6,41,87.09,240,3,0,30.18,NA,6.21,NA,NA,NA,NA,NA,NA,NA,NA,NA,NA,NA,NA,NA,NA,NA,NA,43.09,"LFMP 061830Z AUTO 24003KT CAVOK 07/05 Q1022 NOSIG"
"3334","LFMP",2019-12-06 19:00:00,2.8728,42.7372,44.6,41,87.09,230,4,0,30.18,NA,6.21,NA,NA,NA,NA,NA,NA,NA,NA,NA,NA,NA,NA,NA,NA,NA,NA,42.13,"LFMP 061900Z AUTO 23004KT CAVOK 07/05 Q1022 NOSIG"
"3335","LFMP",2019-12-06 19:30:00,2.8728,42.7372,42.8,39.2,86.99,0,0,0,30.18,NA,6.21,NA,NA,NA,NA,NA,NA,NA,NA,NA,NA,NA,NA,NA,NA,NA,NA,NA,"LFMP 061930Z AUTO 00000KT CAVOK 06/04 Q1022 TEMPO 4000 BR BKN010"
"3336","LFMP",2019-12-06 20:00:00,2.8728,42.7372,42.8,39.2,86.99,240,3,0,30.18,NA,6.21,NA,NA,NA,NA,NA,NA,NA,NA,NA,NA,NA,NA,NA,NA,NA,NA,41.03,"LFMP 062000Z AUTO 24003KT CAVOK 06/04 Q1022 TEMPO 4000 BR BKN010"
"3337","LFMP",2019-12-06 20:30:00,2.8728,42.7372,44.6,41,87.09,220,4,0,30.18,NA,6.21,NA,NA,NA,NA,NA,NA,NA,NA,NA,NA,NA,NA,NA,NA,NA,NA,42.13,"LFMP 062030Z AUTO 22004KT CAVOK 07/05 Q1022 TEMPO 4000 BR BKN010"
"3338","LFMP",2019-12-06 21:00:00,2.8728,42.7372,44.6,41,87.09,240,7,0,30.15,NA,6.21,NA,NA,NA,NA,NA,NA,NA,NA,NA,NA,NA,NA,NA,NA,NA,NA,40.14,"LFMP 062100Z AUTO 24007KT CAVOK 07/05 Q1021 TEMPO 4000 BR BKN010"
"3339","LFMP",2019-12-06 21:30:00,2.8728,42.7372,44.6,41,87.09,260,5,0,30.18,NA,6.21,NA,NA,NA,NA,NA,NA,NA,NA,NA,NA,NA,NA,NA,NA,NA,NA,41.36,"LFMP 062130Z AUTO 26005KT CAVOK 07/05 Q1022 TEMPO 4000 BR BKN010"
"3340","LFMP",2019-12-06 22:00:00,2.8728,42.7372,44.6,41,87.09,220,4,0,30.18,NA,6.21,NA,NA,NA,NA,NA,NA,NA,NA,NA,NA,NA,NA,NA,NA,NA,NA,42.13,"LFMP 062200Z AUTO 22004KT 170V250 CAVOK 07/05 Q1022"
"3341","LFMP",2019-12-06 22:30:00,2.8728,42.7372,44.6,41,87.09,280,4,0,30.18,NA,6.21,NA,NA,NA,NA,NA,NA,NA,NA,NA,NA,NA,NA,NA,NA,NA,NA,42.13,"LFMP 062230Z AUTO 28004KT CAVOK 07/05 Q1022"
"3342","LFMP",2019-12-06 23:00:00,2.8728,42.7372,44.6,41,87.09,250,5,0,30.18,NA,6.21,NA,NA,NA,NA,NA,NA,NA,NA,NA,NA,NA,NA,NA,NA,NA,NA,41.36,"LFMP 062300Z AUTO 25005KT CAVOK 07/05 Q1022"
"3343","LFMP",2019-12-06 23:30:00,2.8728,42.7372,46.4,42.8,87.19,260,6,0,30.18,NA,6.21,NA,NA,NA,NA,NA,NA,NA,NA,NA,NA,NA,NA,NA,NA,NA,NA,42.87,"LFMP 062330Z AUTO 26006KT CAVOK 08/06 Q1022"
"3344","LFBI",2019-12-06 00:00:00,0.3144,46.5939,28.4,28.4,100,300,3,0,30.21,NA,1.3,NA,"VV ",NA,NA,NA,NA,NA,NA,NA,"BR",NA,NA,NA,NA,NA,NA,24.57,"LFBI 060000Z AUTO 30003KT 2100 1400 R21/3100D BR VV/// M02/M02 Q1023"
"3345","LFBI",2019-12-06 00:30:00,0.3144,46.5939,30.2,30.2,100,120,2,0,30.21,NA,0.31,NA,"VV ",NA,NA,NA,NA,NA,NA,NA,"FZFG",NA,NA,NA,NA,NA,NA,NA,"LFBI 060030Z AUTO 12002KT 0500 R21/0600N FZFG VV/// M01/M01 Q1023"
"3346","LFBI",2019-12-06 01:00:00,0.3144,46.5939,30.2,30.2,100,NA,1,0,30.18,NA,0.31,NA,"VV ",NA,NA,NA,NA,NA,NA,NA,"FZFG",NA,NA,NA,NA,NA,NA,NA,"LFBI 060100Z AUTO VRB01KT 0500 0450 R21/0600N FZFG VV/// M01/M01 Q1022"
"3347","LFBI",2019-12-06 01:30:00,0.3144,46.5939,32,32,100,220,1,0,30.21,NA,0.34,NA,"VV ",NA,NA,NA,NA,NA,NA,NA,"FZFG",NA,NA,NA,NA,NA,NA,NA,"LFBI 060130Z AUTO 22001KT 0550 0500 R21/0700N FZFG VV/// M00/M00 Q1023"
"3348","LFBI",2019-12-06 02:00:00,0.3144,46.5939,32,32,100,250,3,0,30.21,NA,0.37,NA,"VV ",NA,NA,NA,NA,NA,NA,NA,"FZFG",NA,NA,NA,NA,NA,NA,28.69,"LFBI 060200Z AUTO 25003KT 0600 0550 R21/0800N FZFG VV/// M00/M00 Q1023"
"3349","LFBI",2019-12-06 02:30:00,0.3144,46.5939,32,32,100,220,4,0,30.21,NA,0.5,NA,"VV ",NA,NA,NA,NA,NA,NA,NA,"FG",NA,NA,NA,NA,NA,NA,27.42,"LFBI 060230Z AUTO 22004KT 0800 0700 R21/1100U FG VV/// 00/00 Q1023"
"3350","LFBI",2019-12-06 03:00:00,0.3144,46.5939,33.8,33.8,100,200,3,0,30.18,NA,0.62,NA,"VV ",NA,NA,NA,NA,NA,NA,NA,"BCFG",NA,NA,NA,NA,NA,NA,30.75,"LFBI 060300Z AUTO 20003KT 180V240 1000 0900 R21/1600D BCFG VV/// 01/01 Q1022"
"3351","LFBI",2019-12-06 03:30:00,0.3144,46.5939,35.6,35.6,100,190,5,0,30.18,NA,0.62,NA,"VV ",NA,NA,NA,NA,NA,NA,NA,"BR",NA,NA,NA,NA,NA,NA,30.67,"LFBI 060330Z AUTO 19005KT 160V220 1000 R21/1400U BR VV/// 02/02 Q1022"
"3352","LFBI",2019-12-06 04:00:00,0.3144,46.5939,37.4,37.4,100,230,7,0,30.18,NA,2.36,NA,"OVC",NA,NA,NA,200,NA,NA,NA,"BR",NA,NA,NA,NA,NA,NA,31.36,"LFBI 060400Z AUTO 23007KT 3800 BR OVC002 03/03 Q1022"
"3353","LFBI",2019-12-06 04:30:00,0.3144,46.5939,37.4,37.4,100,210,9,0,30.18,NA,3.04,NA,"OVC",NA,NA,NA,300,NA,NA,NA,"BR",NA,NA,NA,NA,NA,NA,30.23,"LFBI 060430Z AUTO 21009KT 4900 BR OVC003 03/03 Q1022"
"3354","LFBI",2019-12-06 05:00:00,0.3144,46.5939,37.4,37.4,100,200,10,0,30.18,NA,2.92,NA,"OVC",NA,NA,NA,300,NA,NA,NA,"BR",NA,NA,NA,NA,NA,NA,29.74,"LFBI 060500Z AUTO 20010KT 4700 BR OVC003 03/03 Q1022"
"3355","LFBI",2019-12-06 05:30:00,0.3144,46.5939,37.4,37.4,100,210,10,0,30.18,NA,3.11,NA,"OVC",NA,NA,NA,400,NA,NA,NA,"BR",NA,NA,NA,NA,NA,NA,29.74,"LFBI 060530Z AUTO 21010KT 5000 BR OVC004 03/03 Q1022"
"3356","LFBI",2019-12-06 06:00:00,0.3144,46.5939,37.4,37.4,100,230,8,0,30.18,NA,2.67,NA,"OVC",NA,NA,NA,300,NA,NA,NA,"BR",NA,NA,NA,NA,NA,NA,30.76,"LFBI 060600Z AUTO 23008KT 4300 BR OVC003 03/03 Q1022"
"3357","LFBI",2019-12-06 06:30:00,0.3144,46.5939,37.4,37.4,100,200,8,0,30.18,NA,2.8,NA,"OVC",NA,NA,NA,300,NA,NA,NA,"BR",NA,NA,NA,NA,NA,NA,30.76,"LFBI 060630Z AUTO 20008KT 4500 BR OVC003 03/03 Q1022"
"3358","LFBI",2019-12-06 07:00:00,0.3144,46.5939,37.4,37.4,100,200,9,0,30.18,NA,2.55,NA,"OVC",NA,NA,NA,300,NA,NA,NA,"BR",NA,NA,NA,NA,NA,NA,30.23,"LFBI 060700Z AUTO 20009KT 4100 BR OVC003 03/03 Q1022 TEMPO 2000 BR"
"3359","LFBI",2019-12-06 07:30:00,0.3144,46.5939,37.4,37.4,100,200,10,0,30.18,NA,1.68,NA,"OVC",NA,NA,NA,200,NA,NA,NA,"BR",NA,NA,NA,NA,NA,NA,29.74,"LFBI 060730Z AUTO 20010KT 2700 BR OVC002 03/03 Q1022 NOSIG"
"3360","LFBI",2019-12-06 08:00:00,0.3144,46.5939,37.4,37.4,100,200,7,0,30.18,NA,0.75,NA,"VV ",NA,NA,NA,NA,NA,NA,NA,"BR",NA,NA,NA,NA,NA,NA,31.36,"LFBI 060800Z AUTO 20007KT 1200 1100 R21/2000U BR VV/// 03/03 Q1022 TEMPO 2000 BR OVC002"
"3361","LFBI",2019-12-06 08:30:00,0.3144,46.5939,37.4,37.4,100,180,7,0,30.18,NA,0.62,NA,"VV ",NA,NA,NA,NA,NA,NA,NA,"BCFG",NA,NA,NA,NA,NA,NA,31.36,"LFBI 060830Z AUTO 18007KT 1000 0900 R21/1600N BCFG VV/// 03/03 Q1022 TEMPO 2000 BR OVC002"
"3362","LFBI",2019-12-06 09:00:00,0.3144,46.5939,39.2,39.2,100,190,7,0,30.18,NA,1.55,NA,"OVC",NA,NA,NA,200,NA,NA,NA,"BR",NA,NA,NA,NA,NA,NA,33.56,"LFBI 060900Z AUTO 19007KT 2500 BR OVC002 04/04 Q1022 TEMPO 0800 FG VV///"
"3363","LFBI",2019-12-06 09:30:00,0.3144,46.5939,39.2,39.2,100,190,8,0,30.18,NA,3.11,NA,"OVC",NA,NA,NA,400,NA,NA,NA,"BR",NA,NA,NA,NA,NA,NA,32.98,"LFBI 060930Z AUTO 19008KT 5000 BR OVC004 04/04 Q1022 TEMPO 2000 BR"
"3364","LFBI",2019-12-06 10:00:00,0.3144,46.5939,41,39.2,93.24,180,9,0,30.18,NA,3.73,NA,"OVC",NA,NA,NA,500,NA,NA,NA,NA,NA,NA,NA,NA,NA,NA,34.7,"LFBI 061000Z AUTO 18009KT 6000 OVC005 05/04 Q1022 TEMPO 2000 BR"
"3365","LFBI",2019-12-06 10:30:00,0.3144,46.5939,41,41,100,180,10,0,30.18,NA,3.11,NA,"OVC",NA,NA,NA,400,NA,NA,NA,"BR",NA,NA,NA,NA,NA,NA,34.25,"LFBI 061030Z AUTO 18010KT 5000 BR OVC004 05/05 Q1022 TEMPO 2000 BR"
"3366","LFBI",2019-12-06 11:00:00,0.3144,46.5939,42.8,42.8,100,190,11,0,30.15,NA,2.92,NA,"OVC",NA,NA,NA,400,NA,NA,NA,"BR",NA,NA,NA,NA,NA,NA,36.11,"LFBI 061100Z AUTO 19011KT 4700 BR OVC004 06/06 Q1021 TEMPO 2000 BR"
"3367","LFBI",2019-12-06 11:30:00,0.3144,46.5939,42.8,42.8,100,200,8,0,30.15,NA,3.73,NA,"OVC",NA,NA,NA,400,NA,NA,NA,NA,NA,NA,NA,NA,NA,NA,37.42,"LFBI 061130Z AUTO 20008KT 6000 OVC004 06/06 Q1021 TEMPO 2000 BR"
"3368","LFBI",2019-12-06 12:00:00,0.3144,46.5939,44.6,44.6,100,200,9,0,30.15,NA,4.35,NA,"OVC",NA,NA,NA,400,NA,NA,NA,NA,NA,NA,NA,NA,NA,NA,39.18,"LFBI 061200Z AUTO 20009KT 7000 OVC004 07/07 Q1021 TEMPO 2000 BR"
"3369","LFBI",2019-12-06 12:30:00,0.3144,46.5939,44.6,44.6,100,190,10,0,30.12,NA,2.49,NA,"OVC",NA,NA,NA,300,NA,NA,NA,"BR",NA,NA,NA,NA,NA,NA,38.77,"LFBI 061230Z AUTO 19010KT 4000 BR OVC003 07/07 Q1020 TEMPO 2000 BR"
"3370","LFBI",2019-12-06 13:00:00,0.3144,46.5939,44.6,44.6,100,200,11,0,30.12,NA,3.73,NA,"OVC",NA,NA,NA,300,NA,NA,NA,NA,NA,NA,NA,NA,NA,NA,38.39,"LFBI 061300Z AUTO 20011KT 6000 OVC003 07/07 Q1020 TEMPO 2000 BR"
"3371","LFBI",2019-12-06 13:30:00,0.3144,46.5939,46.4,44.6,93.4,200,10,0,30.09,NA,6.21,NA,"OVC",NA,NA,NA,500,NA,NA,NA,NA,NA,NA,NA,NA,NA,NA,41.03,"LFBI 061330Z AUTO 20010KT 9999 OVC005 08/07 Q1019 TEMPO 2000 BR"
"3372","LFBI",2019-12-06 14:00:00,0.3144,46.5939,46.4,46.4,100,210,12,0,30.09,NA,6.21,NA,"OVC","///",NA,NA,600,NA,NA,NA,NA,NA,NA,NA,NA,NA,NA,40.33,"LFBI 061400Z AUTO 21012KT 9999 OVC006/// ///TCU 08/08 Q1019 TEMPO 2000 BR OVC002"
"3373","LFBI",2019-12-06 14:30:00,0.3144,46.5939,46.4,46.4,100,200,12,0,30.09,NA,3.73,NA,"OVC","///",NA,NA,600,NA,NA,NA,"-RA",NA,NA,NA,NA,NA,NA,40.33,"LFBI 061430Z AUTO 20012KT 6000 -RA OVC006/// ///TCU 08/08 Q1019 TEMPO 2000 BR OVC002"
"3374","LFBI",2019-12-06 15:00:00,0.3144,46.5939,46.4,46.4,100,200,13,0,30.09,NA,3.11,NA,"OVC","///",NA,NA,500,NA,NA,NA,"-RA BR",NA,NA,NA,NA,NA,NA,40.02,"LFBI 061500Z AUTO 20013KT 5000 -RA BR OVC005/// ///TCU 08/08 Q1019 TEMPO 2000 BR OVC002"
"3375","LFBI",2019-12-06 15:30:00,0.3144,46.5939,46.4,46.4,100,200,11,0,30.06,NA,4.35,NA,"OVC",NA,NA,NA,500,NA,NA,NA,"-RA",NA,NA,NA,NA,NA,NA,40.66,"LFBI 061530Z AUTO 20011KT 7000 -RA OVC005 08/08 Q1018 TEMPO 2000 BR"
"3376","LFBI",2019-12-06 16:00:00,0.3144,46.5939,46.4,46.4,100,200,12,0,30.06,NA,3.73,NA,"OVC",NA,NA,NA,500,NA,NA,NA,"-DZ",NA,NA,NA,NA,NA,NA,40.33,"LFBI 061600Z AUTO 20012KT 6000 -DZ OVC005 08/08 Q1018 TEMPO 2000 BR"
"3377","LFBI",2019-12-06 16:30:00,0.3144,46.5939,46.4,46.4,100,210,10,0,30.09,NA,3.73,NA,"OVC",NA,NA,NA,400,NA,NA,NA,"-RA",NA,NA,NA,NA,NA,NA,41.03,"LFBI 061630Z AUTO 21010KT 6000 -RA OVC004 08/08 Q1019 BECMG OVC005"
"3378","LFBI",2019-12-06 17:00:00,0.3144,46.5939,46.4,46.4,100,200,11,0,30.06,NA,3.73,NA,"OVC",NA,NA,NA,400,NA,NA,NA,NA,NA,NA,NA,NA,NA,NA,40.66,"LFBI 061700Z AUTO 20011KT 6000 OVC004 08/08 Q1018 BECMG OVC005"
"3379","LFBI",2019-12-06 17:30:00,0.3144,46.5939,46.4,46.4,100,210,9,0,30.09,NA,3.11,NA,"OVC",NA,NA,NA,400,NA,NA,NA,"BR",NA,NA,NA,NA,NA,NA,41.42,"LFBI 061730Z AUTO 21009KT 5000 BR OVC004 08/08 Q1019 NOSIG"
"3380","LFBI",2019-12-06 18:00:00,0.3144,46.5939,46.4,46.4,100,200,10,0,30.09,NA,3.11,NA,"OVC",NA,NA,NA,300,NA,NA,NA,"BR",NA,NA,NA,NA,NA,NA,41.03,"LFBI 061800Z AUTO 20010KT 5000 BR OVC003 08/08 Q1019 NOSIG"
"3381","LFBI",2019-12-06 18:30:00,0.3144,46.5939,46.4,46.4,100,200,11,0,30.09,NA,2.42,NA,"OVC",NA,NA,NA,200,NA,NA,NA,"BR",NA,NA,NA,NA,NA,NA,40.66,"LFBI 061830Z AUTO 20011KT 3900 BR OVC002 08/08 Q1019 NOSIG"
"3382","LFBI",2019-12-06 19:00:00,0.3144,46.5939,46.4,46.4,100,200,10,0,30.09,NA,3.04,NA,"OVC",NA,NA,NA,200,NA,NA,NA,"BR",NA,NA,NA,NA,NA,NA,41.03,"LFBI 061900Z AUTO 20010KT 4900 BR OVC002 08/08 Q1019 NOSIG"
"3383","LFBI",2019-12-06 19:30:00,0.3144,46.5939,46.4,46.4,100,210,11,0,30.09,NA,3.73,NA,"OVC",NA,NA,NA,400,NA,NA,NA,NA,NA,NA,NA,NA,NA,NA,40.66,"LFBI 061930Z AUTO 21011KT 6000 OVC004 08/08 Q1019 TEMPO 3000 -DZ BR"
"3384","LFBI",2019-12-06 20:00:00,0.3144,46.5939,46.4,46.4,100,210,12,0,30.09,NA,3.73,NA,"OVC",NA,NA,NA,400,NA,NA,NA,NA,NA,NA,NA,NA,NA,NA,40.33,"LFBI 062000Z AUTO 21012KT 6000 OVC004 08/08 Q1019 TEMPO 3000 -DZ BR"
"3385","LFBI",2019-12-06 20:30:00,0.3144,46.5939,46.4,46.4,100,210,10,0,30.09,NA,3.73,NA,"OVC",NA,NA,NA,400,NA,NA,NA,NA,NA,NA,NA,NA,NA,NA,41.03,"LFBI 062030Z AUTO 21010KT 6000 OVC004 08/08 Q1019 TEMPO 3000 -DZ BR"
"3386","LFBI",2019-12-06 21:00:00,0.3144,46.5939,46.4,46.4,100,200,13,0,30.09,NA,3.11,NA,"OVC",NA,NA,NA,300,NA,NA,NA,"BR",NA,NA,NA,NA,NA,NA,40.02,"LFBI 062100Z AUTO 20013KT 5000 BR OVC003 08/08 Q1019 NOSIG"
"3387","LFBI",2019-12-06 21:30:00,0.3144,46.5939,46.4,46.4,100,210,13,0,30.09,NA,2.8,NA,"OVC",NA,NA,NA,300,NA,NA,NA,"BR",NA,NA,NA,NA,NA,NA,40.02,"LFBI 062130Z AUTO 21013KT 4500 BR OVC003 08/08 Q1019 NOSIG"
"3388","LFBI",2019-12-06 22:00:00,0.3144,46.5939,46.4,46.4,100,200,12,0,30.09,NA,1.99,NA,"OVC",NA,NA,NA,300,NA,NA,NA,"BR",NA,NA,NA,NA,NA,NA,40.33,"LFBI 062200Z AUTO 20012KT 3200 BR OVC003 08/08 Q1019 NOSIG"
"3389","LFBI",2019-12-06 22:30:00,0.3144,46.5939,46.4,46.4,100,200,11,0,30.09,NA,2.05,NA,"OVC",NA,NA,NA,300,NA,NA,NA,"-DZ BR",NA,NA,NA,NA,NA,NA,40.66,"LFBI 062230Z AUTO 20011KT 3300 -DZ BR OVC003 08/08 Q1019 NOSIG"
"3390","LFBI",2019-12-06 23:00:00,0.3144,46.5939,46.4,46.4,100,200,12,0,30.09,NA,2.36,NA,"OVC",NA,NA,NA,300,NA,NA,NA,"BR",NA,NA,NA,NA,NA,NA,40.33,"LFBI 062300Z AUTO 20012KT 3800 BR OVC003 08/08 Q1019 NOSIG"
"3391","LFBI",2019-12-06 23:30:00,0.3144,46.5939,46.4,46.4,100,200,13,0,30.09,NA,1.74,NA,"OVC",NA,NA,NA,300,NA,NA,NA,"-DZ BR",NA,NA,NA,NA,NA,NA,40.02,"LFBI 062330Z AUTO 20013KT 2800 -DZ BR OVC003 08/08 Q1019 TEMPO 3000 -DZ"
"3392","LFBP",2019-12-06 00:00:00,-0.4186,43.38,42.8,41,93.3,0,0,0,30.24,NA,3.04,NA,"BKN","BKN",NA,NA,800,1400,NA,NA,"BR",NA,NA,NA,NA,NA,NA,NA,"LFBP 060000Z AUTO 00000KT 4900 BR BKN008 BKN014 06/05 Q1024"
"3393","LFBP",2019-12-06 00:30:00,-0.4186,43.38,41,39.2,93.24,150,2,0,30.21,NA,2.49,NA,"SCT","SCT",NA,NA,700,1300,NA,NA,"BR",NA,NA,NA,NA,NA,NA,NA,"LFBP 060030Z AUTO 15002KT 4000 1800 BR SCT007 SCT013 05/04 Q1023"
"3394","LFBP",2019-12-06 01:00:00,-0.4186,43.38,41,41,100,360,1,0,30.21,NA,2.67,NA,"BKN","BKN",NA,NA,600,1300,NA,NA,"BR",NA,NA,NA,NA,NA,NA,NA,"LFBP 060100Z AUTO 36001KT 4300 BR BKN006 BKN013 05/05 Q1023"
"3395","LFBP",2019-12-06 01:30:00,-0.4186,43.38,42.8,42.8,100,170,2,0,30.21,NA,3.11,NA,"OVC",NA,NA,NA,300,NA,NA,NA,"BR",NA,NA,NA,NA,NA,NA,NA,"LFBP 060130Z AUTO 17002KT 5000 BR OVC003 06/06 Q1023"
"3396","LFBP",2019-12-06 02:00:00,-0.4186,43.38,42.8,42.8,100,190,1,0,30.21,NA,2.11,NA,"VV ",NA,NA,NA,NA,NA,NA,NA,"BCFG",NA,NA,NA,NA,NA,NA,NA,"LFBP 060200Z AUTO 19001KT 3400 0700 R31/P2000 R13/0700D BCFG VV/// 06/06 Q1023"
"3397","LFBP",2019-12-06 02:30:00,-0.4186,43.38,42.8,42.8,100,0,0,0,30.24,NA,0.25,NA,"VV ",NA,NA,NA,NA,NA,NA,NA,"FG",NA,NA,NA,NA,NA,NA,NA,"LFBP 060230Z AUTO 00000KT 0400 0350 R31/0500D R13/0400N FG VV/// 06/06 Q1024"
"3398","LFBP",2019-12-06 03:00:00,-0.4186,43.38,42.8,42.8,100,130,3,0,30.24,NA,0.22,NA,"VV ",NA,NA,NA,NA,NA,NA,NA,"FG",NA,NA,NA,NA,NA,NA,41.03,"LFBP 060300Z AUTO 13003KT 0350 R31/0400N R13/0500N FG VV/// 06/06 Q1024"
"3399","LFBP",2019-12-06 03:30:00,-0.4186,43.38,42.8,42.8,100,130,3,0,30.24,NA,0.28,NA,"VV ",NA,NA,NA,NA,NA,NA,NA,"FG",NA,NA,NA,NA,NA,NA,41.03,"LFBP 060330Z AUTO 13003KT 0450 0400 R31/0550U R13/0600U FG VV/// 06/06 Q1024"
"3400","LFBP",2019-12-06 04:00:00,-0.4186,43.38,42.8,42.8,100,130,3,0,30.24,NA,0.31,NA,"VV ",NA,NA,NA,NA,NA,NA,NA,"FG",NA,NA,NA,NA,NA,NA,41.03,"LFBP 060400Z AUTO 13003KT 0500 0400 R31/0800U R13/0450N FG VV/// 06/06 Q1024"
"3401","LFBP",2019-12-06 04:30:00,-0.4186,43.38,44.6,44.6,100,130,4,0,30.24,NA,0.5,NA,"VV ",NA,NA,NA,NA,NA,NA,NA,"FG",NA,NA,NA,NA,NA,NA,42.13,"LFBP 060430Z AUTO 13004KT 0800 0550 R31/0750D R13/0650U FG VV/// 07/07 Q1024"
"3402","LFBP",2019-12-06 05:00:00,-0.4186,43.38,44.6,44.6,100,140,4,0,30.24,NA,2.67,NA,"VV ",NA,NA,NA,NA,NA,NA,NA,"BR",NA,NA,NA,NA,NA,NA,42.13,"LFBP 060500Z AUTO 14004KT 4300 BR VV/// 07/07 Q1024"
"3403","LFBP",2019-12-06 05:30:00,-0.4186,43.38,44.6,44.6,100,120,4,0,30.21,NA,3.73,NA,"OVC",NA,NA,NA,1000,NA,NA,NA,NA,NA,NA,NA,NA,NA,NA,42.13,"LFBP 060530Z AUTO 12004KT 6000 OVC010 07/07 Q1023"
"3404","LFBP",2019-12-06 06:00:00,-0.4186,43.38,44.6,44.6,100,NA,3,0,30.24,NA,3.73,NA,"OVC",NA,NA,NA,1000,NA,NA,NA,NA,NA,NA,NA,NA,NA,NA,43.09,"LFBP 060600Z AUTO VRB03KT 6000 OVC010 07/07 Q1024 TEMPO 0300 FG VV///"
"3405","LFBP",2019-12-06 06:30:00,-0.4186,43.38,44.6,42.8,93.35,NA,2,0,30.24,NA,3.11,NA,"OVC",NA,NA,NA,1000,NA,NA,NA,"BR",NA,NA,NA,NA,NA,NA,NA,"LFBP 060630Z AUTO VRB02KT 5000 BR OVC010 07/06 Q1024 TEMPO 0300 FG VV///"
"3406","LFBP",2019-12-06 07:00:00,-0.4186,43.38,44.6,44.6,100,NA,2,0,30.24,NA,3.73,NA,"OVC",NA,NA,NA,1000,NA,NA,NA,NA,NA,NA,NA,NA,NA,NA,NA,"LFBP 060700Z AUTO VRB02KT 6000 OVC010 07/07 Q1024 TEMPO 0500 FG VV///"
"3407","LFBP",2019-12-06 07:30:00,-0.4186,43.38,44.6,42.8,93.35,NA,3,0,30.24,NA,2.8,NA,"OVC",NA,NA,NA,1000,NA,NA,NA,"BR",NA,NA,NA,NA,NA,NA,43.09,"LFBP 060730Z AUTO VRB03KT 4500 BR OVC010 07/06 Q1024 TEMPO VV/// BECMG 5000 NSW"
"3408","LFBP",2019-12-06 08:00:00,-0.4186,43.38,44.6,44.6,100,140,3,0,30.24,NA,3.11,NA,"BKN",NA,NA,NA,800,NA,NA,NA,"BR",NA,NA,NA,NA,NA,NA,43.09,"LFBP 060800Z AUTO 14003KT 5000 BR BKN008 07/07 Q1024 TEMPO 0500 FG VV///"
"3409","LFBP",2019-12-06 08:30:00,-0.4186,43.38,44.6,44.6,100,150,6,0,30.24,NA,3.11,NA,"BKN",NA,NA,NA,500,NA,NA,NA,"BR",NA,NA,NA,NA,NA,NA,40.71,"LFBP 060830Z AUTO 15006KT 5000 BR BKN005 07/07 Q1024 BECMG OVC010"
"3410","LFBP",2019-12-06 09:00:00,-0.4186,43.38,44.6,44.6,100,120,5,0,30.24,NA,2.36,NA,"OVC",NA,NA,NA,400,NA,NA,NA,"BR",NA,NA,NA,NA,NA,NA,41.36,"LFBP 060900Z AUTO 12005KT 3800 BR OVC004 07/07 Q1024 BECMG 5000 NSW OVC010"
"3411","LFBP",2019-12-06 09:30:00,-0.4186,43.38,44.6,44.6,100,140,6,0,30.24,NA,2.05,NA,"OVC",NA,NA,NA,300,NA,NA,NA,"BR",NA,NA,NA,NA,NA,NA,40.71,"LFBP 060930Z AUTO 14006KT 3300 BR OVC003 07/07 Q1024 BECMG 6000 NSW OVC010"
"3412","LFBP",2019-12-06 10:00:00,-0.4186,43.38,44.6,44.6,100,140,6,0,30.24,NA,2.49,NA,"OVC",NA,NA,NA,300,NA,NA,NA,"BR",NA,NA,NA,NA,NA,NA,40.71,"LFBP 061000Z AUTO 14006KT 110V170 4000 BR OVC003 07/07 Q1024 BECMG 6000 NSW OVC010"
"3413","LFBP",2019-12-06 10:30:00,-0.4186,43.38,48.2,44.6,87.28,120,5,0,30.24,NA,6.21,NA,"FEW",NA,NA,NA,400,NA,NA,NA,NA,NA,NA,NA,NA,NA,NA,45.63,"LFBP 061030Z AUTO 12005KT 090V150 9999 FEW004 09/07 Q1024 TEMPO OVC010"
"3414","LFBP",2019-12-06 11:00:00,-0.4186,43.38,50,44.6,81.61,140,4,0,30.21,NA,6.21,NA,NA,NA,NA,NA,NA,NA,NA,NA,NA,NA,NA,NA,NA,NA,NA,48.44,"LFBP 061100Z AUTO 14004KT 100V170 CAVOK 10/07 Q1023 TEMPO OVC010"
"3415","LFBP",2019-12-06 11:30:00,-0.4186,43.38,53.6,44.6,71.45,NA,3,0,30.21,NA,6.21,NA,NA,NA,NA,NA,NA,NA,NA,NA,NA,NA,NA,NA,NA,NA,NA,NA,"LFBP 061130Z AUTO VRB03KT CAVOK 12/07 Q1023 NOSIG"
"3416","LFBP",2019-12-06 12:00:00,-0.4186,43.38,55.4,44.6,66.91,160,4,0,30.18,NA,6.21,NA,NA,NA,NA,NA,NA,NA,NA,NA,NA,NA,NA,NA,NA,NA,NA,NA,"LFBP 061200Z AUTO 16004KT CAVOK 13/07 Q1022 NOSIG"
"3417","LFBP",2019-12-06 12:30:00,-0.4186,43.38,57.2,44.6,62.69,NA,2,0,30.18,NA,6.21,NA,NA,NA,NA,NA,NA,NA,NA,NA,NA,NA,NA,NA,NA,NA,NA,NA,"LFBP 061230Z AUTO VRB02KT CAVOK 14/07 Q1022 NOSIG"
"3418","LFBP",2019-12-06 13:00:00,-0.4186,43.38,59,44.6,58.77,160,2,0,30.15,NA,6.21,NA,NA,NA,NA,NA,NA,NA,NA,NA,NA,NA,NA,NA,NA,NA,NA,NA,"LFBP 061300Z AUTO 16002KT CAVOK 15/07 Q1021 NOSIG"
"3419","LFBP",2019-12-06 13:30:00,-0.4186,43.38,60.8,42.8,51.45,140,3,0,30.15,NA,6.21,NA,NA,NA,NA,NA,NA,NA,NA,NA,NA,NA,NA,NA,NA,NA,NA,NA,"LFBP 061330Z AUTO 14003KT 100V190 CAVOK 16/06 Q1021 NOSIG"
"3420","LFBP",2019-12-06 14:00:00,-0.4186,43.38,60.8,42.8,51.45,NA,2,0,30.15,NA,6.21,NA,NA,NA,NA,NA,NA,NA,NA,NA,NA,NA,NA,NA,NA,NA,NA,NA,"LFBP 061400Z AUTO VRB02KT CAVOK 16/06 Q1021 NOSIG"
"3421","LFBP",2019-12-06 14:30:00,-0.4186,43.38,60.8,44.6,55.12,NA,1,0,30.12,NA,6.21,NA,NA,NA,NA,NA,NA,NA,NA,NA,NA,NA,NA,NA,NA,NA,NA,NA,"LFBP 061430Z AUTO VRB01KT CAVOK 16/07 Q1020 NOSIG"
"3422","LFBP",2019-12-06 15:00:00,-0.4186,43.38,60.8,46.4,59.01,NA,1,0,30.12,NA,6.21,NA,NA,NA,NA,NA,NA,NA,NA,NA,NA,NA,NA,NA,NA,NA,NA,NA,"LFBP 061500Z AUTO VRB01KT CAVOK 16/08 Q1020 NOSIG"
"3423","LFBP",2019-12-06 15:30:00,-0.4186,43.38,59,46.4,62.92,NA,2,0,30.12,NA,6.21,NA,NA,NA,NA,NA,NA,NA,NA,NA,NA,NA,NA,NA,NA,NA,NA,NA,"LFBP 061530Z AUTO VRB02KT CAVOK 15/08 Q1020 NOSIG"
"3424","LFBP",2019-12-06 16:00:00,-0.4186,43.38,57.2,46.4,67.12,340,3,0,30.12,NA,6.21,NA,NA,NA,NA,NA,NA,NA,NA,NA,NA,NA,NA,NA,NA,NA,NA,NA,"LFBP 061600Z AUTO 34003KT CAVOK 14/08 Q1020 NOSIG"
"3425","LFBP",2019-12-06 16:30:00,-0.4186,43.38,53.6,46.4,76.5,330,3,0,30.12,NA,6.21,NA,NA,NA,NA,NA,NA,NA,NA,NA,NA,NA,NA,NA,NA,NA,NA,NA,"LFBP 061630Z AUTO 33003KT CAVOK 12/08 Q1020 NOSIG"
"3426","LFBP",2019-12-06 17:00:00,-0.4186,43.38,50,44.6,81.61,340,4,0,30.15,NA,6.21,NA,NA,NA,NA,NA,NA,NA,NA,NA,NA,NA,NA,NA,NA,NA,NA,48.44,"LFBP 061700Z AUTO 34004KT CAVOK 10/07 Q1021 NOSIG"
"3427","LFBP",2019-12-06 17:30:00,-0.4186,43.38,50,44.6,81.61,350,3,0,30.15,NA,6.21,NA,NA,NA,NA,NA,NA,NA,NA,NA,NA,NA,NA,NA,NA,NA,NA,49.27,"LFBP 061730Z AUTO 35003KT CAVOK 10/07 Q1021 NOSIG"
"3428","LFBP",2019-12-06 18:00:00,-0.4186,43.38,48.2,44.6,87.28,70,2,0,30.15,NA,6.21,NA,NA,NA,NA,NA,NA,NA,NA,NA,NA,NA,NA,NA,NA,NA,NA,NA,"LFBP 061800Z AUTO 07002KT CAVOK 09/07 Q1021 NOSIG"
"3429","LFBP",2019-12-06 18:30:00,-0.4186,43.38,46.4,42.8,87.19,140,3,0,30.15,NA,6.21,NA,NA,NA,NA,NA,NA,NA,NA,NA,NA,NA,NA,NA,NA,NA,NA,45.15,"LFBP 061830Z AUTO 14003KT CAVOK 08/06 Q1021 NOSIG"
"3430","LFBP",2019-12-06 19:00:00,-0.4186,43.38,44.6,42.8,93.35,150,2,0,30.15,NA,6.21,NA,NA,NA,NA,NA,NA,NA,NA,NA,NA,NA,NA,NA,NA,NA,NA,NA,"LFBP 061900Z AUTO 15002KT CAVOK 07/06 Q1021 NOSIG"
"3431","LFBP",2019-12-06 19:30:00,-0.4186,43.38,44.6,42.8,93.35,130,3,0,30.18,NA,6.21,NA,NA,NA,NA,NA,NA,NA,NA,NA,NA,NA,NA,NA,NA,NA,NA,43.09,"LFBP 061930Z AUTO 13003KT CAVOK 07/06 Q1022 NOSIG"
"3432","LFBP",2019-12-06 20:00:00,-0.4186,43.38,42.8,41,93.3,NA,2,0,30.18,NA,6.21,NA,NA,NA,NA,NA,NA,NA,NA,NA,NA,NA,NA,NA,NA,NA,NA,NA,"LFBP 062000Z AUTO VRB02KT CAVOK 06/05 Q1022 NOSIG"
"3433","LFBP",2019-12-06 20:30:00,-0.4186,43.38,42.8,41,93.3,110,3,0,30.18,NA,6.21,NA,NA,NA,NA,NA,NA,NA,NA,NA,NA,NA,NA,NA,NA,NA,NA,41.03,"LFBP 062030Z AUTO 11003KT CAVOK 06/05 Q1022 NOSIG"
"3434","LFBP",2019-12-06 21:00:00,-0.4186,43.38,42.8,41,93.3,120,3,0,30.18,NA,6.21,NA,NA,NA,NA,NA,NA,NA,NA,NA,NA,NA,NA,NA,NA,NA,NA,41.03,"LFBP 062100Z AUTO 12003KT CAVOK 06/05 Q1022 NOSIG"
"3435","LFBP",2019-12-06 21:30:00,-0.4186,43.38,41,39.2,93.24,170,2,0,30.21,NA,6.21,NA,NA,NA,NA,NA,NA,NA,NA,NA,NA,NA,NA,NA,NA,NA,NA,NA,"LFBP 062130Z AUTO 17002KT CAVOK 05/04 Q1023 NOSIG"
"3436","LFBP",2019-12-06 22:00:00,-0.4186,43.38,42.8,41,93.3,230,3,0,30.21,NA,6.21,NA,NA,NA,NA,NA,NA,NA,NA,NA,NA,NA,NA,NA,NA,NA,NA,41.03,"LFBP 062200Z AUTO 23003KT CAVOK 06/05 Q1023 NOSIG"
"3437","LFBP",2019-12-06 22:30:00,-0.4186,43.38,41,39.2,93.24,140,3,0,30.21,NA,5.59,NA,"NSC",NA,NA,NA,NA,NA,NA,NA,NA,NA,NA,NA,NA,NA,NA,38.98,"LFBP 062230Z AUTO 14003KT 9000 NSC 05/04 Q1023 NOSIG"
"3438","LFBP",2019-12-06 23:00:00,-0.4186,43.38,41,39.2,93.24,150,4,0,30.24,NA,4.97,NA,"NSC",NA,NA,NA,NA,NA,NA,NA,NA,NA,NA,NA,NA,NA,NA,37.93,"LFBP 062300Z AUTO 15004KT 8000 NSC 05/04 Q1024 NOSIG"
"3439","LFBP",2019-12-06 23:30:00,-0.4186,43.38,41,41,100,130,4,0,30.24,NA,4.97,NA,"NSC",NA,NA,NA,NA,NA,NA,NA,NA,NA,NA,NA,NA,NA,NA,37.93,"LFBP 062330Z AUTO 13004KT 8000 NSC 05/05 Q1024 TEMPO 4000 BR"
"3440","LFRQ",2019-12-06 00:30:00,-4.1725,47.9728,50,46.4,87.37,230,9,0,30.12,NA,6.21,NA,"BKN","OVC",NA,NA,2000,7800,NA,NA,NA,NA,NA,NA,NA,NA,NA,45.9,"LFRQ 060030Z AUTO 23009KT 9999 BKN020 OVC078 10/08 Q1020"
"3441","LFRQ",2019-12-06 01:00:00,-4.1725,47.9728,50,46.4,87.37,240,12,0,30.12,NA,6.21,NA,"OVC",NA,NA,NA,2100,NA,NA,NA,NA,NA,NA,NA,NA,NA,NA,44.91,"LFRQ 060100Z AUTO 24012KT 9999 OVC021 10/08 Q1020"
"3442","LFRQ",2019-12-06 01:30:00,-4.1725,47.9728,50,46.4,87.37,240,11,0,30.12,NA,6.21,NA,"BKN","OVC",NA,NA,2000,2500,NA,NA,NA,NA,NA,NA,NA,NA,NA,45.21,"LFRQ 060130Z AUTO 24011KT 9999 BKN020 OVC025 10/08 Q1020"
"3443","LFRQ",2019-12-06 02:00:00,-4.1725,47.9728,51.8,46.4,81.74,240,11,0,30.12,NA,6.21,NA,"BKN","BKN","OVC",NA,1800,2300,3500,NA,NA,NA,NA,NA,NA,NA,NA,NA,"LFRQ 060200Z AUTO 24011KT 9999 BKN018 BKN023 OVC035 11/08 Q1020"
"3444","LFRQ",2019-12-06 02:30:00,-4.1725,47.9728,51.8,48.2,87.47,230,11,0,30.09,NA,4.97,NA,"OVC",NA,NA,NA,1500,NA,NA,NA,NA,NA,NA,NA,NA,NA,NA,NA,"LFRQ 060230Z AUTO 23011KT 8000 OVC015 11/09 Q1019"
"3445","LFRQ",2019-12-06 03:00:00,-4.1725,47.9728,51.8,48.2,87.47,240,12,0,30.09,NA,6.21,NA,"OVC",NA,NA,NA,1500,NA,NA,NA,NA,NA,NA,NA,NA,NA,NA,NA,"LFRQ 060300Z AUTO 24012KT 9999 OVC015 11/09 Q1019"
"3446","LFRQ",2019-12-06 03:30:00,-4.1725,47.9728,51.8,48.2,87.47,240,12,0,30.09,NA,6.21,NA,"OVC",NA,NA,NA,1400,NA,NA,NA,"-DZ",NA,NA,NA,NA,NA,NA,NA,"LFRQ 060330Z AUTO 24012KT 9999 -DZ OVC014 11/09 Q1019"
"3447","LFRQ",2019-12-06 04:00:00,-4.1725,47.9728,51.8,48.2,87.47,240,11,0,30.06,NA,6.21,NA,"OVC",NA,NA,NA,1200,NA,NA,NA,"-DZ",NA,NA,NA,NA,NA,NA,NA,"LFRQ 060400Z AUTO 24011KT 210V270 9999 -DZ OVC012 11/09 Q1018"
"3448","LFRQ",2019-12-06 04:30:00,-4.1725,47.9728,51.8,48.2,87.47,240,12,0,30.06,NA,6.21,NA,"OVC",NA,NA,NA,1100,NA,NA,NA,NA,NA,NA,NA,NA,NA,NA,NA,"LFRQ 060430Z AUTO 24012KT 9999 OVC011 11/09 Q1018"
"3449","LFRQ",2019-12-06 05:00:00,-4.1725,47.9728,51.8,48.2,87.47,230,11,0,30.06,NA,6.21,NA,"OVC","///",NA,NA,1100,NA,NA,NA,"-DZ",NA,NA,NA,NA,NA,NA,NA,"LFRQ 060500Z AUTO 23011KT 9999 -DZ OVC011/// ///TCU 11/09 Q1018"
"3450","LFRQ",2019-12-06 05:30:00,-4.1725,47.9728,51.8,50,93.55,220,10,0,30.06,NA,6.21,NA,"OVC","///",NA,NA,1100,NA,NA,NA,"-RA",NA,NA,NA,NA,NA,NA,NA,"LFRQ 060530Z AUTO 22010KT 190V260 9999 -RA OVC011/// ///TCU 11/10 Q1018"
"3451","LFRQ",2019-12-06 06:00:00,-4.1725,47.9728,51.8,50,93.55,230,11,0,30.06,NA,6.21,NA,"OVC","///",NA,NA,900,NA,NA,NA,"-RA",NA,NA,NA,NA,NA,NA,NA,"LFRQ 060600Z AUTO 23011KT 9999 -RA OVC009/// ///TCU 11/10 Q1018 TEMPO 3000 RA OVC005"
"3452","LFRQ",2019-12-06 06:30:00,-4.1725,47.9728,51.8,50,93.55,240,12,0,30.06,NA,6.21,NA,"OVC","///",NA,NA,700,NA,NA,NA,"-RA",NA,NA,NA,NA,NA,NA,NA,"LFRQ 060630Z AUTO 24012KT 9999 -RA OVC007/// ///TCU 11/10 Q1018 TEMPO 3000 RA OVC005"
"3453","LFRQ",2019-12-06 07:00:00,-4.1725,47.9728,51.8,50,93.55,230,12,0,30.06,NA,6.21,NA,"OVC",NA,NA,NA,600,NA,NA,NA,"-RA",NA,NA,NA,NA,NA,NA,NA,"LFRQ 060700Z AUTO 23012KT 210V270 9999 -RA OVC006 11/10 Q1018 TEMPO 3000 RA"
"3454","LFRQ",2019-12-06 07:30:00,-4.1725,47.9728,51.8,50,93.55,230,11,0,30.06,NA,5.59,NA,"OVC",NA,NA,NA,500,NA,NA,NA,"-DZ",NA,NA,NA,NA,NA,NA,NA,"LFRQ 060730Z AUTO 23011KT 9000 -DZ OVC005 11/10 Q1018 TEMPO 3000 RA"
"3455","LFRQ",2019-12-06 08:00:00,-4.1725,47.9728,51.8,51.8,100,230,13,0,30.03,NA,1.99,NA,"OVC",NA,NA,NA,400,NA,NA,NA,"-DZ BR",NA,NA,NA,NA,NA,NA,NA,"LFRQ 060800Z AUTO 23013KT 3200 -DZ BR OVC004 11/11 Q1017 TEMPO RA OVC005"
"3456","LFRQ",2019-12-06 08:30:00,-4.1725,47.9728,51.8,51.8,100,230,14,0,30.03,NA,1.37,NA,"OVC",NA,NA,NA,400,NA,NA,NA,"-DZ BR",NA,NA,NA,NA,NA,NA,NA,"LFRQ 060830Z AUTO 23014KT 2200 -DZ BR OVC004 11/11 Q1017 TEMPO 3000 RA OVC005"
"3457","LFRQ",2019-12-06 09:00:00,-4.1725,47.9728,51.8,51.8,100,230,13,0,30.03,NA,1.55,NA,"OVC",NA,NA,NA,300,NA,NA,NA,"-DZ BR",NA,NA,NA,NA,NA,NA,NA,"LFRQ 060900Z AUTO 23013KT 2500 -DZ BR OVC003 11/11 Q1017 TEMPO 3000 RA OVC005"
"3458","LFRQ",2019-12-06 09:30:00,-4.1725,47.9728,51.8,51.8,100,240,15,0,30.03,NA,1.49,NA,"OVC",NA,NA,NA,300,NA,NA,NA,"-DZ BR",NA,NA,NA,NA,NA,NA,NA,"LFRQ 060930Z AUTO 24015KT 2400 -DZ BR OVC003 11/11 Q1017 TEMPO 3000 RA OVC005 BECMG 24014G24KT"
"3459","LFRQ",2019-12-06 10:00:00,-4.1725,47.9728,53.6,51.8,93.6,230,16,0,30.03,NA,2.92,NA,"OVC",NA,NA,NA,300,NA,NA,NA,"-DZ BR",NA,NA,NA,NA,NA,NA,NA,"LFRQ 061000Z AUTO 23016KT 4700 -DZ BR OVC003 12/11 Q1017 TEMPO RA OVC005 BECMG 24014G24KT"
"3460","LFRQ",2019-12-06 10:30:00,-4.1725,47.9728,53.6,51.8,93.6,240,16,0,30.03,NA,6.21,NA,"OVC",NA,NA,NA,400,NA,NA,NA,NA,NA,NA,NA,NA,NA,NA,NA,"LFRQ 061030Z AUTO 24016KT 9999 OVC004 12/11 Q1017 TEMPO 3000 RA OVC005 BECMG 24014G24KT"
"3461","LFRQ",2019-12-06 11:00:00,-4.1725,47.9728,53.6,51.8,93.6,240,15,0,30,NA,6.21,NA,"BKN","BKN","OVC",NA,700,1100,1600,NA,NA,NA,NA,NA,NA,NA,NA,NA,"LFRQ 061100Z AUTO 24015KT 9999 BKN007 BKN011 OVC016 12/11 Q1016 TEMPO 3000 RA BECMG 24014G24KT"
"3462","LFRQ",2019-12-06 11:30:00,-4.1725,47.9728,53.6,51.8,93.6,240,15,0,30,NA,1.62,NA,"BKN","BKN","OVC",NA,600,1000,1400,NA,"DZ BR",NA,NA,NA,NA,NA,NA,NA,"LFRQ 061130Z AUTO 24015KT 2600 DZ BR BKN006 BKN010 OVC014 12/11 Q1016 TEMPO 22015G25KT 3000 -RADZ OVC003"
"3463","LFRQ",2019-12-06 12:00:00,-4.1725,47.9728,53.6,51.8,93.6,240,16,0,29.97,NA,1.37,NA,"OVC",NA,NA,NA,400,NA,NA,NA,"-DZ BR",NA,NA,NA,NA,NA,NA,NA,"LFRQ 061200Z AUTO 24016KT 2200 -DZ BR OVC004 12/11 Q1015 TEMPO 22015G25KT 3000 -RADZ"
"3464","LFRQ",2019-12-06 12:30:00,-4.1725,47.9728,53.6,51.8,93.6,230,17,0,29.94,NA,1.68,28,"OVC",NA,NA,NA,400,NA,NA,NA,"-DZ BR",NA,NA,NA,NA,NA,NA,NA,"LFRQ 061230Z AUTO 23017G28KT 2700 -DZ BR OVC004 12/11 Q1014 TEMPO 3000 -RADZ"
"3465","LFRQ",2019-12-06 13:00:00,-4.1725,47.9728,53.6,53.6,100,240,17,0,29.94,NA,1.49,NA,"OVC",NA,NA,NA,300,NA,NA,NA,"-DZ BR",NA,NA,NA,NA,NA,NA,NA,"LFRQ 061300Z AUTO 24017KT 2400 -DZ BR OVC003 12/12 Q1014 TEMPO 22015G25KT 3000 -RADZ"
"3466","LFRQ",2019-12-06 13:30:00,-4.1725,47.9728,53.6,53.6,100,250,17,0,29.94,NA,0.93,NA,"OVC",NA,NA,NA,300,NA,NA,NA,"-RA BR",NA,NA,NA,NA,NA,NA,NA,"LFRQ 061330Z AUTO 25017KT 1500 1400 R28/1900U -RA BR OVC003 12/12 Q1014 TEMPO 22015G25KT 3000 -RADZ"
"3467","LFRQ",2019-12-06 14:00:00,-4.1725,47.9728,53.6,53.6,100,260,16,0,29.94,NA,1.62,NA,"OVC",NA,NA,NA,400,NA,NA,NA,"DZ BR",NA,NA,NA,NA,NA,NA,NA,"LFRQ 061400Z AUTO 26016KT 2600 DZ BR OVC004 12/12 Q1014 TEMPO 22015G25KT 3000 -RADZ"
"3468","LFRQ",2019-12-06 14:30:00,-4.1725,47.9728,53.6,53.6,100,270,17,0,29.94,NA,2.98,27,"OVC",NA,NA,NA,400,NA,NA,NA,"-DZ BR",NA,NA,NA,NA,NA,NA,NA,"LFRQ 061430Z AUTO 27017G27KT 4800 -DZ BR OVC004 12/12 Q1014 NOSIG"
"3469","LFRQ",2019-12-06 15:00:00,-4.1725,47.9728,53.6,51.8,93.6,280,11,0,29.94,NA,6.21,NA,"FEW","SCT","OVC",NA,600,3200,3800,NA,NA,NA,NA,NA,NA,NA,NA,NA,"LFRQ 061500Z AUTO 28011KT 9999 FEW006 SCT032 OVC038 12/11 Q1014 TEMPO 22015G25KT 3000 -RADZ OVC003"
"3470","LFRQ",2019-12-06 15:30:00,-4.1725,47.9728,53.6,51.8,93.6,270,10,0,29.94,NA,6.21,NA,"SCT","SCT","BKN",NA,900,1300,3400,NA,NA,NA,NA,NA,NA,NA,NA,NA,"LFRQ 061530Z AUTO 27010KT 9999 SCT009 SCT013 BKN034 12/11 Q1014 TEMPO 22015G25KT 3000 -RADZ OVC003"
"3471","LFRQ",2019-12-06 16:00:00,-4.1725,47.9728,53.6,51.8,93.6,270,11,0,29.94,NA,6.21,NA,"BKN","OVC",NA,NA,1100,3600,NA,NA,NA,NA,NA,NA,NA,NA,NA,NA,"LFRQ 061600Z AUTO 27011KT 9999 BKN011 OVC036 12/11 Q1014 TEMPO 22015G25KT 3000 -RADZ OVC003"
"3472","LFRQ",2019-12-06 16:30:00,-4.1725,47.9728,53.6,50,87.56,270,10,0,29.94,NA,6.21,NA,"BKN","BKN","OVC",NA,1000,1400,4100,NA,NA,NA,NA,NA,NA,NA,NA,NA,"LFRQ 061630Z AUTO 27010KT 9999 BKN010 BKN014 OVC041 12/10 Q1014 TEMPO 22015G25KT 3000 -RADZ OVC003"
"3473","LFRQ",2019-12-06 17:00:00,-4.1725,47.9728,53.6,51.8,93.6,260,11,0,29.97,NA,6.21,NA,"FEW","SCT","BKN",NA,1000,1700,3300,NA,NA,NA,NA,NA,NA,NA,NA,NA,"LFRQ 061700Z AUTO 26011KT 9999 FEW010 SCT017 BKN033 12/11 Q1015 TEMPO 22015G25KT 3000 -RADZ OVC003"
"3474","LFRQ",2019-12-06 17:30:00,-4.1725,47.9728,51.8,50,93.55,270,10,0,29.97,NA,6.21,NA,"FEW","BKN",NA,NA,900,3900,NA,NA,NA,NA,NA,NA,NA,NA,NA,NA,"LFRQ 061730Z AUTO 27010KT 250V310 9999 FEW009 BKN039 11/10 Q1015 TEMPO 22015G25KT 3000 -RADZ OVC003"
"3475","LFRQ",2019-12-06 18:00:00,-4.1725,47.9728,51.8,50,93.55,270,8,0,29.97,NA,6.21,NA,"OVC",NA,NA,NA,4200,NA,NA,NA,NA,NA,NA,NA,NA,NA,NA,NA,"LFRQ 061800Z AUTO 27008KT 9999 OVC042 11/10 Q1015 NOSIG"
"3476","LFRQ",2019-12-06 18:30:00,-4.1725,47.9728,51.8,50,93.55,260,8,0,29.97,NA,6.21,NA,"OVC",NA,NA,NA,3800,NA,NA,NA,NA,NA,NA,NA,NA,NA,NA,NA,"LFRQ 061830Z AUTO 26008KT 9999 OVC038 11/10 Q1015 NOSIG"
"3477","LFRQ",2019-12-06 19:00:00,-4.1725,47.9728,53.6,50,87.56,260,9,0,29.97,NA,6.21,NA,"SCT","BKN","OVC",NA,2200,3200,3800,NA,NA,NA,NA,NA,NA,NA,NA,NA,"LFRQ 061900Z AUTO 26009KT 9999 SCT022 BKN032 OVC038 12/10 Q1015 NOSIG"
"3478","LFRQ",2019-12-06 19:30:00,-4.1725,47.9728,51.8,50,93.55,290,8,0,30,NA,6.21,NA,"SCT","BKN","BKN",NA,1400,2000,2600,NA,NA,NA,NA,NA,NA,NA,NA,NA,"LFRQ 061930Z AUTO 29008KT 270V330 9999 SCT014 BKN020 BKN026 11/10 Q1016 TEMPO 3000 BR SCT007 BKN011"
"3479","LFRQ",2019-12-06 20:00:00,-4.1725,47.9728,53.6,50,87.56,260,8,0,30,NA,6.21,NA,"FEW","OVC",NA,NA,1300,3800,NA,NA,NA,NA,NA,NA,NA,NA,NA,NA,"LFRQ 062000Z AUTO 26008KT 9999 FEW013 OVC038 12/10 Q1016 TEMPO 3000 BR SCT007 BKN011"
"3480","LFRQ",2019-12-06 20:30:00,-4.1725,47.9728,53.6,50,87.56,270,9,0,30,NA,6.21,NA,"FEW","OVC",NA,NA,2200,3900,NA,NA,NA,NA,NA,NA,NA,NA,NA,NA,"LFRQ 062030Z AUTO 27009KT 9999 FEW022 OVC039 12/10 Q1016 TEMPO 3000 BR SCT007 BKN011"
"3481","LFRQ",2019-12-06 21:00:00,-4.1725,47.9728,53.6,50,87.56,280,10,0,30,NA,6.21,NA,"BKN","BKN","OVC",NA,1700,2200,3900,NA,NA,NA,NA,NA,NA,NA,NA,NA,"LFRQ 062100Z AUTO 28010KT 9999 BKN017 BKN022 OVC039 12/10 Q1016 TEMPO 3000 BR SCT007 BKN011"
"3482","LFRQ",2019-12-06 21:30:00,-4.1725,47.9728,51.8,50,93.55,270,10,0,30,NA,6.21,NA,"BKN","BKN","OVC",NA,1300,1800,3500,NA,NA,NA,NA,NA,NA,NA,NA,NA,"LFRQ 062130Z AUTO 27010KT 9999 BKN013 BKN018 OVC035 11/10 Q1016 TEMPO 3000 BR"
"3483","LFRQ",2019-12-06 22:00:00,-4.1725,47.9728,51.8,50,93.55,270,8,0,30.03,NA,6.21,NA,"FEW","OVC",NA,NA,1100,3700,NA,NA,NA,NA,NA,NA,NA,NA,NA,NA,"LFRQ 062200Z AUTO 27008KT 9999 FEW011 OVC037 11/10 Q1017 TEMPO 3000 BR SCT007 BKN011"
"3484","LFRQ",2019-12-06 22:30:00,-4.1725,47.9728,51.8,50,93.55,270,5,0,30.03,NA,6.21,NA,"BKN",NA,NA,NA,4200,NA,NA,NA,NA,NA,NA,NA,NA,NA,NA,NA,"LFRQ 062230Z AUTO 27005KT 9999 BKN042 11/10 Q1017 TEMPO 3000 BR SCT007 BKN011"
"3485","LFRQ",2019-12-06 23:00:00,-4.1725,47.9728,51.8,50,93.55,270,6,0,30.03,NA,6.21,NA,"SCT","OVC",NA,NA,3400,4400,NA,NA,NA,NA,NA,NA,NA,NA,NA,NA,"LFRQ 062300Z AUTO 27006KT 250V310 9999 SCT034 OVC044 11/10 Q1017 TEMPO 3000 BR SCT007 BKN011"
"3486","LFRQ",2019-12-06 23:30:00,-4.1725,47.9728,51.8,50,93.55,270,5,0,30.03,NA,6.21,NA,"FEW","BKN","OVC",NA,1500,3500,4200,NA,NA,NA,NA,NA,NA,NA,NA,NA,"LFRQ 062330Z AUTO 27005KT 9999 4300 FEW015 BKN035 OVC042 11/10 Q1017"
"3487","LFQA",2019-12-06 00:00:00,4.1566,49.2087,30.2,30.2,100,NA,3,0,30.15,NA,1.93,NA,"OVC",NA,NA,NA,300,NA,NA,NA,"BR",NA,NA,NA,NA,NA,NA,26.63,"LFQA 060000Z AUTO VRB03KT 3100 BR OVC003 M01/M01 Q1021"
"3488","LFQA",2019-12-06 00:30:00,4.1566,49.2087,30.2,30.2,100,NA,3,0,30.15,NA,1.99,NA,"OVC",NA,NA,NA,300,NA,NA,NA,"BR",NA,NA,NA,NA,NA,NA,26.63,"LFQA 060030Z AUTO VRB03KT 3200 BR OVC003 M01/M01 Q1021"
"3489","LFQA",2019-12-06 01:00:00,4.1566,49.2087,32,32,100,NA,3,0,30.15,NA,2.42,NA,"OVC",NA,NA,NA,400,NA,NA,NA,"BR",NA,NA,NA,NA,NA,NA,28.69,"LFQA 060100Z AUTO VRB03KT 3900 BR OVC004 M00/M00 Q1021"
"3490","LFQA",2019-12-06 01:30:00,4.1566,49.2087,32,32,100,190,3,0,30.15,NA,1.86,NA,"OVC",NA,NA,NA,300,NA,NA,NA,"BR",NA,NA,NA,NA,NA,NA,28.69,"LFQA 060130Z AUTO 19003KT 3000 BR OVC003 M00/M00 Q1021"
"3491","LFQA",2019-12-06 02:00:00,4.1566,49.2087,32,32,100,160,4,0,30.12,NA,2.17,NA,"OVC",NA,NA,NA,400,NA,NA,NA,"BR",NA,NA,NA,NA,NA,NA,27.42,"LFQA 060200Z AUTO 16004KT 3500 BR OVC004 M00/M00 Q1020"
"3492","LFQA",2019-12-06 02:30:00,4.1566,49.2087,32,32,100,140,3,0,30.12,NA,2.73,NA,"OVC",NA,NA,NA,500,NA,NA,NA,"BR",NA,NA,NA,NA,NA,NA,28.69,"LFQA 060230Z AUTO 14003KT 110V190 4400 BR OVC005 M00/M00 Q1020"
"3493","LFQA",2019-12-06 03:00:00,4.1566,49.2087,32,32,100,180,3,0,30.12,NA,2.17,NA,"OVC",NA,NA,NA,700,NA,NA,NA,"BR",NA,NA,NA,NA,NA,NA,28.69,"LFQA 060300Z AUTO 18003KT 150V250 3500 BR OVC007 M00/M00 Q1020"
"3494","LFQA",2019-12-06 03:30:00,4.1566,49.2087,32,32,100,NA,2,0,30.09,NA,2.61,NA,"OVC",NA,NA,NA,600,NA,NA,NA,"BR",NA,NA,NA,NA,NA,NA,NA,"LFQA 060330Z AUTO VRB02KT 4200 BR OVC006 00/M00 Q1019"
"3495","LFQA",2019-12-06 04:00:00,4.1566,49.2087,32,32,100,140,3,0,30.09,NA,2.05,NA,"OVC",NA,NA,NA,500,NA,NA,NA,"BR",NA,NA,NA,NA,NA,NA,28.69,"LFQA 060400Z AUTO 14003KT 100V240 3300 BR OVC005 00/M00 Q1019"
"3496","LFQA",2019-12-06 04:30:00,4.1566,49.2087,32,32,100,NA,2,0,30.09,NA,2.55,NA,"OVC",NA,NA,NA,600,NA,NA,NA,"BR",NA,NA,NA,NA,NA,NA,NA,"LFQA 060430Z AUTO VRB02KT 4100 BR OVC006 00/00 Q1019"
"3497","LFQA",2019-12-06 05:00:00,4.1566,49.2087,32,32,100,NA,1,0,30.09,NA,2.55,NA,"OVC",NA,NA,NA,700,NA,NA,NA,"BR",NA,NA,NA,NA,NA,NA,NA,"LFQA 060500Z AUTO VRB01KT 4100 BR OVC007 00/00 Q1019"
"3498","LFQA",2019-12-06 05:30:00,4.1566,49.2087,33.8,32,93.03,NA,2,0,30.09,NA,2.92,NA,"OVC",NA,NA,NA,800,NA,NA,NA,"BR",NA,NA,NA,NA,NA,NA,NA,"LFQA 060530Z AUTO VRB02KT 4700 BR OVC008 01/00 Q1019"
"3499","LFQA",2019-12-06 06:00:00,4.1566,49.2087,33.8,32,93.03,130,4,0,30.06,NA,2.67,NA,"OVC",NA,NA,NA,700,NA,NA,NA,"BR",NA,NA,NA,NA,NA,NA,29.52,"LFQA 060600Z AUTO 13004KT 090V180 4300 BR OVC007 01/00 Q1018"
"3500","LFQA",2019-12-06 06:30:00,4.1566,49.2087,35.6,35.6,100,230,6,0,30.06,NA,5.59,NA,"FEW","SCT","OVC","///",500,900,9400,NA,NA,NA,NA,NA,NA,NA,NA,29.87,"LFQA 060630Z AUTO 23006KT 170V290 9000 FEW005/// SCT009/// OVC094/// ///TCU 02/02 Q1018"
"3501","LFQA",2019-12-06 07:00:00,4.1566,49.2087,35.6,35.6,100,210,5,0,30.06,NA,4.97,NA,"BKN","OVC","///",NA,900,9600,NA,NA,NA,NA,NA,NA,NA,NA,NA,30.67,"LFQA 060700Z AUTO 21005KT 160V250 8000 BKN009/// OVC096/// ///TCU 02/02 Q1018"
"3502","LFQA",2019-12-06 07:30:00,4.1566,49.2087,37.4,35.6,93.14,NA,2,0,30.06,NA,5.59,NA,"OVC",NA,NA,NA,800,NA,NA,NA,NA,NA,NA,NA,NA,NA,NA,NA,"LFQA 060730Z AUTO VRB02KT 9000 OVC008 03/02 Q1018"
"3503","LFQA",2019-12-06 08:00:00,4.1566,49.2087,37.4,35.6,93.14,NA,3,0,30.06,NA,4.35,NA,"OVC",NA,NA,NA,700,NA,NA,NA,NA,NA,NA,NA,NA,NA,NA,34.86,"LFQA 060800Z AUTO VRB03KT 7000 OVC007 03/02 Q1018"
"3504","LFQA",2019-12-06 08:30:00,4.1566,49.2087,37.4,35.6,93.14,160,3,0,30.06,NA,3.11,NA,"OVC",NA,NA,NA,700,NA,NA,NA,"BR",NA,NA,NA,NA,NA,NA,34.86,"LFQA 060830Z AUTO 16003KT 140V200 5000 BR OVC007 03/02 Q1018"
"3505","LFQA",2019-12-06 09:00:00,4.1566,49.2087,37.4,35.6,93.14,160,8,0,30.06,NA,3.11,NA,"OVC",NA,NA,NA,700,NA,NA,NA,"BR",NA,NA,NA,NA,NA,NA,30.76,"LFQA 060900Z AUTO 16008KT 140V200 5000 BR OVC007 03/02 Q1018"
"3506","LFQA",2019-12-06 09:30:00,4.1566,49.2087,37.4,35.6,93.14,180,5,0,30.06,NA,3.11,NA,"OVC",NA,NA,NA,700,NA,NA,NA,"-RA BR",NA,NA,NA,NA,NA,NA,32.81,"LFQA 060930Z AUTO 18005KT 140V210 5000 -RA BR OVC007 03/02 Q1018"
"3507","LFQA",2019-12-06 10:00:00,4.1566,49.2087,37.4,35.6,93.14,200,6,0,30.06,NA,3.11,NA,"BKN","OVC","///",NA,700,6800,NA,NA,"-RA BR",NA,NA,NA,NA,NA,NA,32.03,"LFQA 061000Z AUTO 20006KT 170V230 5000 -RA BR BKN007/// OVC068/// ///CB 03/02 Q1018"
"3508","LFQA",2019-12-06 10:30:00,4.1566,49.2087,37.4,35.6,93.14,170,7,0,30.06,NA,2.55,NA,"BKN","BKN","OVC","///",700,3400,4700,NA,"-RA BR",NA,NA,NA,NA,NA,NA,31.36,"LFQA 061030Z AUTO 17007KT 4100 -RA BR BKN007/// BKN034/// OVC047/// ///TCU 03/02 Q1018"
"3509","LFQA",2019-12-06 11:00:00,4.1566,49.2087,37.4,35.6,93.14,160,7,0,30.03,NA,1.68,NA,"OVC","///",NA,NA,500,NA,NA,NA,"-RA BR",NA,NA,NA,NA,NA,NA,31.36,"LFQA 061100Z AUTO 16007KT 2700 -RA BR OVC005/// ///CB 03/02 Q1017"
"3510","LFQA",2019-12-06 11:30:00,4.1566,49.2087,37.4,35.6,93.14,180,4,0,30,NA,1.93,NA,"OVC","///",NA,NA,400,NA,NA,NA,"-RA BR",NA,NA,NA,NA,NA,NA,33.73,"LFQA 061130Z AUTO 18004KT 130V210 3100 -RA BR OVC004/// ///CB 03/02 Q1016"
"3511","LFQA",2019-12-06 12:00:00,4.1566,49.2087,37.4,37.4,100,120,6,0,30,NA,2.3,NA,"OVC","///",NA,NA,500,NA,NA,NA,"-RA BR",NA,NA,NA,NA,NA,NA,32.03,"LFQA 061200Z AUTO 12006KT 3700 -RA BR OVC005/// ///CB 03/03 Q1016"
"3512","LFQA",2019-12-06 12:30:00,4.1566,49.2087,39.2,39.2,100,170,4,0,30,NA,3.11,NA,"BKN","OVC","///",NA,800,4100,NA,NA,"-RA BR",NA,NA,NA,NA,NA,NA,35.83,"LFQA 061230Z AUTO 17004KT 110V250 5000 -RA BR BKN008/// OVC041/// ///CB 04/04 Q1016"
"3513","LFQA",2019-12-06 13:00:00,4.1566,49.2087,41,39.2,93.24,210,7,0,29.97,NA,4.97,NA,"BKN","OVC","///",NA,1200,4000,NA,NA,"-RA",NA,NA,NA,NA,NA,NA,35.75,"LFQA 061300Z AUTO 21007KT 8000 -RA BKN012/// OVC040/// ///TCU 05/04 Q1015"
"3514","LFQA",2019-12-06 13:30:00,4.1566,49.2087,41,39.2,93.24,200,7,0,29.97,NA,4.97,NA,"BKN","OVC","///",NA,1200,3300,NA,NA,"-RA",NA,NA,NA,NA,NA,NA,35.75,"LFQA 061330Z AUTO 20007KT 180V240 8000 -RA BKN012/// OVC033/// ///TCU 05/04 Q1015"
"3515","LFQA",2019-12-06 14:00:00,4.1566,49.2087,41,39.2,93.24,200,8,0,29.94,NA,5.59,NA,"BKN","BKN","OVC","///",1600,2200,3100,NA,"-RA",NA,NA,NA,NA,NA,NA,35.2,"LFQA 061400Z AUTO 20008KT 9000 -RA BKN016/// BKN022/// OVC031/// ///CB 05/04 Q1014"
"3516","LFQA",2019-12-06 14:30:00,4.1566,49.2087,41,39.2,93.24,200,10,0,29.94,NA,5.59,NA,"SCT","BKN","BKN","///",1200,1700,2900,NA,"-RA",NA,NA,NA,NA,NA,NA,34.25,"LFQA 061430Z AUTO 20010KT 9000 -RA SCT012/// BKN017/// BKN029/// ///CB 05/04 Q1014"
"3517","LFQA",2019-12-06 15:00:00,4.1566,49.2087,41,39.2,93.24,200,9,0,29.94,NA,5.59,NA,"BKN","OVC","///",NA,1000,1500,NA,NA,"-RA",NA,NA,NA,NA,NA,NA,34.7,"LFQA 061500Z AUTO 20009KT 9000 -RA BKN010/// OVC015/// ///CB 05/04 Q1014"
"3518","LFQA",2019-12-06 15:30:00,4.1566,49.2087,42.8,39.2,86.99,200,10,0,29.91,NA,6.21,NA,"OVC","///",NA,NA,1200,NA,NA,NA,NA,NA,NA,NA,NA,NA,NA,36.51,"LFQA 061530Z AUTO 20010KT 9999 OVC012/// ///CB 06/04 Q1013"
"3519","LFQA",2019-12-06 16:00:00,4.1566,49.2087,42.8,41,93.3,210,10,0,29.91,NA,6.21,NA,"BKN","OVC","///",NA,1400,1900,NA,NA,"-RA",NA,NA,NA,NA,NA,NA,36.51,"LFQA 061600Z AUTO 21010KT 180V250 9999 -RA BKN014/// OVC019/// ///TCU 06/05 Q1013"
"3520","LFQA",2019-12-06 16:30:00,4.1566,49.2087,42.8,41,93.3,210,13,0,29.91,NA,6.21,NA,"OVC","///",NA,NA,1400,NA,NA,NA,"-RA",NA,NA,NA,NA,NA,NA,35.4,"LFQA 061630Z AUTO 21013KT 9999 -RA OVC014/// ///TCU 06/05 Q1013"
"3521","LFQA",2019-12-06 17:00:00,4.1566,49.2087,44.6,41,87.09,220,15,0,29.88,NA,6.21,NA,"OVC",NA,NA,NA,1400,NA,NA,NA,NA,NA,NA,NA,NA,NA,NA,37.11,"LFQA 061700Z AUTO 22015KT 9999 OVC014 07/05 Q1012"
"3522","LFQA",2019-12-06 17:30:00,4.1566,49.2087,44.6,41,87.09,220,13,0,29.88,NA,6.21,NA,"OVC",NA,NA,NA,1300,NA,NA,NA,NA,NA,NA,NA,NA,NA,NA,37.71,"LFQA 061730Z AUTO 22013KT 9999 OVC013 07/05 Q1012"
"3523","LFQA",2019-12-06 18:00:00,4.1566,49.2087,44.6,42.8,93.35,220,15,0,29.88,NA,4.35,NA,"OVC",NA,NA,NA,1100,NA,NA,NA,"-RA",NA,NA,NA,NA,NA,NA,37.11,"LFQA 061800Z AUTO 22015KT 7000 -RA OVC011 07/06 Q1012"
"3524","LFQA",2019-12-06 18:30:00,4.1566,49.2087,44.6,42.8,93.35,210,12,0,29.88,NA,5.59,23,"BKN","OVC",NA,NA,1000,1400,NA,NA,NA,NA,NA,NA,NA,NA,NA,38.04,"LFQA 061830Z AUTO 21012G23KT 9000 BKN010 OVC014 07/06 Q1012"
"3525","LFQA",2019-12-06 19:00:00,4.1566,49.2087,46.4,42.8,87.19,220,13,0,29.88,NA,5.59,23,"OVC",NA,NA,NA,1300,NA,NA,NA,NA,NA,NA,NA,NA,NA,NA,40.02,"LFQA 061900Z AUTO 22013G23KT 9000 OVC013 08/06 Q1012"
"3526","LFQA",2019-12-06 19:30:00,4.1566,49.2087,46.4,44.6,93.4,220,14,0,29.88,NA,4.35,NA,"OVC",NA,NA,NA,1300,NA,NA,NA,"-DZ",NA,NA,NA,NA,NA,NA,39.72,"LFQA 061930Z AUTO 22014KT 7000 -DZ OVC013 08/07 Q1012"
"3527","LFQA",2019-12-06 20:00:00,4.1566,49.2087,46.4,44.6,93.4,220,12,0,29.88,NA,6.21,NA,"BKN","OVC",NA,NA,1400,2100,NA,NA,NA,NA,NA,NA,NA,NA,NA,40.33,"LFQA 062000Z AUTO 22012KT 9999 BKN014 OVC021 08/07 Q1012"
"3528","LFQA",2019-12-06 20:30:00,4.1566,49.2087,46.4,44.6,93.4,220,13,0,29.88,NA,6.21,NA,"OVC",NA,NA,NA,1300,NA,NA,NA,NA,NA,NA,NA,NA,NA,NA,40.02,"LFQA 062030Z AUTO 22013KT 9999 OVC013 08/07 Q1012"
"3529","LFQA",2019-12-06 21:00:00,4.1566,49.2087,48.2,44.6,87.28,220,12,0,29.88,NA,6.21,NA,"OVC",NA,NA,NA,1300,NA,NA,NA,NA,NA,NA,NA,NA,NA,NA,42.62,"LFQA 062100Z AUTO 22012KT 9999 OVC013 09/07 Q1012"
"3530","LFQA",2019-12-06 21:30:00,4.1566,49.2087,48.2,44.6,87.28,220,10,0,29.88,NA,6.21,NA,"BKN","OVC",NA,NA,1300,2200,NA,NA,NA,NA,NA,NA,NA,NA,NA,43.28,"LFQA 062130Z AUTO 22010KT 9999 BKN013 OVC022 09/07 Q1012"
"3531","LFQA",2019-12-06 22:00:00,4.1566,49.2087,50,46.4,87.37,240,14,0,29.88,NA,6.21,NA,"BKN","OVC",NA,NA,1500,5400,NA,NA,NA,NA,NA,NA,NA,NA,NA,44.36,"LFQA 062200Z AUTO 24014KT 9999 BKN015 OVC054 10/08 Q1012"
"3532","LFQA",2019-12-06 22:30:00,4.1566,49.2087,50,46.4,87.37,240,15,0,29.88,NA,6.21,NA,"BKN","OVC",NA,NA,1600,2400,NA,NA,NA,NA,NA,NA,NA,NA,NA,44.12,"LFQA 062230Z AUTO 24015KT 9999 BKN016 OVC024 10/08 Q1012"
"3533","LFQA",2019-12-06 23:00:00,4.1566,49.2087,50,46.4,87.37,250,12,0,29.88,NA,6.21,NA,"BKN","OVC",NA,NA,1700,2500,NA,NA,NA,NA,NA,NA,NA,NA,NA,44.91,"LFQA 062300Z AUTO 25012KT 9999 BKN017 OVC025 10/08 Q1012"
"3534","LFQA",2019-12-06 23:30:00,4.1566,49.2087,50,46.4,87.37,250,12,0,29.88,NA,6.21,NA,"SCT","BKN",NA,NA,1700,5600,NA,NA,NA,NA,NA,NA,NA,NA,NA,44.91,"LFQA 062330Z AUTO 25012KT 9999 SCT017 BKN056 10/08 Q1012"
"3535","LFRN",2019-12-06 00:00:00,-1.7339,48.0689,35.6,35.6,100,170,8,0,30.18,NA,0.93,NA,"VV ",NA,NA,NA,NA,NA,NA,NA,"BR",NA,NA,NA,NA,NA,NA,28.55,"LFRN 060000Z AUTO 17008KT 1500 1300 R28/1900U R10/P2000 BR VV/// 02/02 Q1022"
"3536","LFRN",2019-12-06 00:30:00,-1.7339,48.0689,35.6,35.6,100,180,5,0,30.15,NA,1.8,NA,"OVC",NA,NA,NA,200,NA,NA,NA,"BR",NA,NA,NA,NA,NA,NA,30.67,"LFRN 060030Z AUTO 18005KT 2900 BR OVC002 02/02 Q1021"
"3537","LFRN",2019-12-06 01:00:00,-1.7339,48.0689,37.4,35.6,93.14,170,3,0,30.15,NA,2.49,NA,"OVC",NA,NA,NA,200,NA,NA,NA,"BR",NA,NA,NA,NA,NA,NA,34.86,"LFRN 060100Z AUTO 17003KT 140V210 4000 BR OVC002 03/02 Q1021"
"3538","LFRN",2019-12-06 01:30:00,-1.7339,48.0689,37.4,37.4,100,170,7,0,30.15,NA,2.55,NA,"OVC",NA,NA,NA,300,NA,NA,NA,"BR",NA,NA,NA,NA,NA,NA,31.36,"LFRN 060130Z AUTO 17007KT 4100 BR OVC003 03/03 Q1021"
"3539","LFRN",2019-12-06 02:00:00,-1.7339,48.0689,37.4,37.4,100,170,9,0,30.12,NA,2.49,NA,"OVC",NA,NA,NA,300,NA,NA,NA,"BR",NA,NA,NA,NA,NA,NA,30.23,"LFRN 060200Z AUTO 17009KT 4000 BR OVC003 03/03 Q1020"
"3540","LFRN",2019-12-06 02:30:00,-1.7339,48.0689,37.4,37.4,100,180,7,0,30.12,NA,3.11,NA,"BKN","OVC",NA,NA,400,1600,NA,NA,"BR",NA,NA,NA,NA,NA,NA,31.36,"LFRN 060230Z AUTO 18007KT 5000 BR BKN004 OVC016 03/03 Q1020"
"3541","LFRN",2019-12-06 03:00:00,-1.7339,48.0689,37.4,37.4,100,190,8,0,30.12,NA,3.04,NA,"BKN","BKN","OVC",NA,400,1400,2500,NA,"BR",NA,NA,NA,NA,NA,NA,30.76,"LFRN 060300Z AUTO 19008KT 4900 BR BKN004 BKN014 OVC025 03/03 Q1020"
"3542","LFRN",2019-12-06 03:30:00,-1.7339,48.0689,37.4,37.4,100,180,7,0,30.12,NA,2.98,NA,"OVC",NA,NA,NA,400,NA,NA,NA,"BR",NA,NA,NA,NA,NA,NA,31.36,"LFRN 060330Z AUTO 18007KT 4800 BR OVC004 03/03 Q1020"
"3543","LFRN",2019-12-06 04:00:00,-1.7339,48.0689,39.2,37.4,93.19,170,11,0,30.09,NA,2.67,NA,"OVC",NA,NA,NA,400,NA,NA,NA,"BR",NA,NA,NA,NA,NA,NA,31.57,"LFRN 060400Z AUTO 17011KT 4300 BR OVC004 04/03 Q1019"
"3544","LFRN",2019-12-06 04:30:00,-1.7339,48.0689,39.2,39.2,100,180,10,0,30.09,NA,2.67,NA,"OVC","///",NA,NA,300,NA,NA,NA,"BR",NA,NA,NA,NA,NA,NA,32,"LFRN 060430Z AUTO 18010KT 4300 BR OVC003/// ///TCU 04/04 Q1019"
"3545","LFRN",2019-12-06 05:00:00,-1.7339,48.0689,39.2,39.2,100,180,7,0,30.09,NA,2.92,NA,"OVC","///",NA,NA,400,NA,NA,NA,"BR",NA,NA,NA,NA,NA,NA,33.56,"LFRN 060500Z AUTO 18007KT 4700 BR OVC004/// ///TCU 04/04 Q1019"
"3546","LFRN",2019-12-06 05:30:00,-1.7339,48.0689,41,39.2,93.24,180,8,0,30.09,NA,2.98,NA,"OVC","///",NA,NA,400,NA,NA,NA,"BR",NA,NA,NA,NA,NA,NA,35.2,"LFRN 060530Z AUTO 18008KT 4800 BR OVC004/// ///TCU 05/04 Q1019"
"3547","LFRN",2019-12-06 06:00:00,-1.7339,48.0689,41,41,100,170,10,0,30.06,NA,3.11,NA,"OVC",NA,NA,NA,400,NA,NA,NA,"BR",NA,NA,NA,NA,NA,NA,34.25,"LFRN 060600Z AUTO 17010KT 5000 BR OVC004 05/05 Q1018"
"3548","LFRN",2019-12-06 06:30:00,-1.7339,48.0689,41,41,100,170,10,0,30.06,NA,2.98,NA,"OVC","///",NA,NA,400,NA,NA,NA,"BR",NA,NA,NA,NA,NA,NA,34.25,"LFRN 060630Z AUTO 17010KT 4800 BR OVC004/// ///CB 05/05 Q1018"
"3549","LFRN",2019-12-06 07:00:00,-1.7339,48.0689,42.8,41,93.3,180,9,0,30.06,NA,3.11,NA,"OVC","///",NA,NA,400,NA,NA,NA,"BR",NA,NA,NA,NA,NA,NA,36.94,"LFRN 060700Z AUTO 18009KT 5000 BR OVC004/// ///CB 06/05 Q1018"
"3550","LFRN",2019-12-06 07:30:00,-1.7339,48.0689,42.8,42.8,100,170,9,0,30.06,NA,2.8,NA,"BKN","OVC","///",NA,600,6200,NA,NA,"-RA BR",NA,NA,NA,NA,NA,NA,36.94,"LFRN 060730Z AUTO 17009KT 4500 -RA BR BKN006/// OVC062/// ///CB 06/06 Q1018"
"3551","LFRN",2019-12-06 08:00:00,-1.7339,48.0689,42.8,42.8,100,180,8,0,30.06,NA,1.93,NA,"BKN","OVC","///",NA,500,6400,NA,NA,"RA BR",NA,NA,NA,NA,NA,NA,37.42,"LFRN 060800Z AUTO 18008KT 3100 RA BR BKN005/// OVC064/// ///TCU 06/06 Q1018"
"3552","LFRN",2019-12-06 08:30:00,-1.7339,48.0689,44.6,42.8,93.35,170,9,0,30.06,NA,1.74,NA,"BKN","BKN","BKN","///",700,1800,3300,NA,"RA BR",NA,NA,NA,NA,NA,NA,39.18,"LFRN 060830Z AUTO 17009KT 2800 RA BR BKN007/// BKN018/// BKN033/// ///CB 07/06 Q1018 TEMPO 3000 RA BKN005 BECMG 20015G27KT"
"3553","LFRN",2019-12-06 09:00:00,-1.7339,48.0689,44.6,44.6,100,180,9,0,30.06,NA,2.24,NA,"OVC","///",NA,NA,500,NA,NA,NA,"-RA BR",NA,NA,NA,NA,NA,NA,39.18,"LFRN 060900Z AUTO 18009KT 3600 -RA BR OVC005/// ///TCU 07/07 Q1018 TEMPO RA BKN005 BECMG 20015G27KT"
"3554","LFRN",2019-12-06 09:30:00,-1.7339,48.0689,44.6,44.6,100,180,10,0,30.06,NA,3.11,NA,"BKN","BKN","OVC","///",600,3600,4300,NA,"-RA BR",NA,NA,NA,NA,NA,NA,38.77,"LFRN 060930Z AUTO 18010KT 5000 -RA BR BKN006/// BKN036/// OVC043/// ///TCU 07/07 Q1018 TEMPO RA BKN005 BECMG 20015G27KT"
"3555","LFRN",2019-12-06 10:00:00,-1.7339,48.0689,46.4,44.6,93.4,180,10,0,30.06,NA,4.97,NA,"FEW","BKN","BKN",NA,1100,1800,4400,NA,NA,NA,NA,NA,NA,NA,NA,41.03,"LFRN 061000Z AUTO 18010KT 8000 FEW011 BKN018 BKN044 08/07 Q1018 TEMPO 3000 RA BKN005 BECMG 20015G27KT"
"3556","LFRN",2019-12-06 10:30:00,-1.7339,48.0689,46.4,46.4,100,180,9,0,30.06,NA,5.59,NA,"BKN","BKN","OVC",NA,1100,1700,5400,NA,NA,NA,NA,NA,NA,NA,NA,41.42,"LFRN 061030Z AUTO 18009KT 9000 BKN011 BKN017 OVC054 08/08 Q1018 TEMPO 3000 RA BKN005 BECMG 20015G27KT"
"3557","LFRN",2019-12-06 11:00:00,-1.7339,48.0689,48.2,46.4,93.45,190,12,0,30.03,NA,6.21,NA,"OVC",NA,NA,NA,1000,NA,NA,NA,NA,NA,NA,NA,NA,NA,NA,42.62,"LFRN 061100Z AUTO 19012KT 9999 OVC010 09/08 Q1017 TEMPO 3000 RA BECMG 20015G27KT"
"3558","LFRN",2019-12-06 11:30:00,-1.7339,48.0689,50,46.4,87.37,200,13,0,30,NA,6.21,NA,"OVC",NA,NA,NA,900,NA,NA,NA,NA,NA,NA,NA,NA,NA,NA,44.63,"LFRN 061130Z AUTO 20013KT 9999 OVC009 10/08 Q1016 TEMPO 3000 RA BECMG 20015G27KT"
"3559","LFRN",2019-12-06 12:00:00,-1.7339,48.0689,50,48.2,93.5,200,14,0,29.97,NA,6.21,NA,"OVC",NA,NA,NA,1000,NA,NA,NA,NA,NA,NA,NA,NA,NA,NA,44.36,"LFRN 061200Z AUTO 20014KT 9999 OVC010 10/09 Q1015 TEMPO 3000 RA BECMG 20015G27KT"
"3560","LFRN",2019-12-06 12:30:00,-1.7339,48.0689,51.8,48.2,87.47,210,12,0,29.97,NA,6.21,NA,"OVC",NA,NA,NA,1300,NA,NA,NA,NA,NA,NA,NA,NA,NA,NA,NA,"LFRN 061230Z AUTO 21012KT 9999 OVC013 11/09 Q1015 TEMPO 3000 RA BKN005 BECMG 20015G27KT"
"3561","LFRN",2019-12-06 13:00:00,-1.7339,48.0689,51.8,48.2,87.47,200,13,0,29.94,NA,6.21,NA,"OVC",NA,NA,NA,1300,NA,NA,NA,NA,NA,NA,NA,NA,NA,NA,NA,"LFRN 061300Z AUTO 20013KT 9999 OVC013 11/09 Q1014 TEMPO 3000 RA BKN005 BECMG 20015G27KT"
"3562","LFRN",2019-12-06 13:30:00,-1.7339,48.0689,51.8,48.2,87.47,210,13,0,29.94,NA,6.21,NA,"OVC",NA,NA,NA,1300,NA,NA,NA,NA,NA,NA,NA,NA,NA,NA,NA,"LFRN 061330Z AUTO 21013KT 9999 OVC013 11/09 Q1014 TEMPO 3000 RA BKN005 BECMG 20015G27KT"
"3563","LFRN",2019-12-06 14:00:00,-1.7339,48.0689,51.8,48.2,87.47,200,11,0,29.94,NA,6.21,NA,"OVC",NA,NA,NA,1300,NA,NA,NA,NA,NA,NA,NA,NA,NA,NA,NA,"LFRN 061400Z AUTO 20011KT 170V230 9999 OVC013 11/09 Q1014 TEMPO 3000 RA BKN005 BECMG 20015G27KT"
"3564","LFRN",2019-12-06 14:30:00,-1.7339,48.0689,51.8,48.2,87.47,200,11,0,29.94,NA,6.21,NA,"OVC",NA,NA,NA,1300,NA,NA,NA,NA,NA,NA,NA,NA,NA,NA,NA,"LFRN 061430Z AUTO 20011KT 180V240 9999 OVC013 11/09 Q1014 TEMPO 20015G27KT 3000 RA BKN005"
"3565","LFRN",2019-12-06 15:00:00,-1.7339,48.0689,51.8,50,93.55,210,11,0,29.94,NA,3.04,NA,"BKN","OVC",NA,NA,800,1200,NA,NA,"-DZ BR",NA,NA,NA,NA,NA,NA,NA,"LFRN 061500Z AUTO 21011KT 4900 -DZ BR BKN008 OVC012 11/10 Q1014 TEMPO 20015G27KT RA"
"3566","LFRN",2019-12-06 15:30:00,-1.7339,48.0689,51.8,50,93.55,200,10,0,29.94,NA,6.21,NA,"BKN","OVC",NA,NA,700,1100,NA,NA,NA,NA,NA,NA,NA,NA,NA,NA,"LFRN 061530Z AUTO 20010KT 9999 BKN007 OVC011 11/10 Q1014 TEMPO 3000 RA BECMG BKN030"
"3567","LFRN",2019-12-06 16:00:00,-1.7339,48.0689,53.6,50,87.56,210,13,0,29.91,NA,6.21,NA,"OVC",NA,NA,NA,900,NA,NA,NA,NA,NA,NA,NA,NA,NA,NA,NA,"LFRN 061600Z AUTO 21013KT 180V240 9999 OVC009 12/10 Q1013 TEMPO 3000 RA BECMG BKN030"
"3568","LFRN",2019-12-06 16:30:00,-1.7339,48.0689,51.8,50,93.55,220,12,0,29.94,NA,6.21,NA,"OVC",NA,NA,NA,800,NA,NA,NA,NA,NA,NA,NA,NA,NA,NA,NA,"LFRN 061630Z AUTO 22012KT 190V250 9999 OVC008 11/10 Q1014 BECMG BKN030"
"3569","LFRN",2019-12-06 17:00:00,-1.7339,48.0689,51.8,51.8,100,220,11,0,29.94,NA,4.97,NA,"OVC",NA,NA,NA,700,NA,NA,NA,NA,NA,NA,NA,NA,NA,NA,NA,"LFRN 061700Z AUTO 22011KT 8000 OVC007 11/11 Q1014 BECMG BKN030"
"3570","LFRN",2019-12-06 17:30:00,-1.7339,48.0689,51.8,51.8,100,220,10,0,29.94,NA,5.59,NA,"BKN","OVC",NA,NA,700,1200,NA,NA,"-DZ",NA,NA,NA,NA,NA,NA,NA,"LFRN 061730Z AUTO 22010KT 9000 -DZ BKN007 OVC012 11/11 Q1014 TEMPO 4000 SHRA BKN010"
"3571","LFRN",2019-12-06 18:00:00,-1.7339,48.0689,53.6,51.8,93.6,240,9,0,29.94,NA,6.21,NA,"FEW","BKN","OVC",NA,900,2100,3500,NA,NA,NA,NA,NA,NA,NA,NA,NA,"LFRN 061800Z AUTO 24009KT 9999 FEW009 BKN021 OVC035 12/11 Q1014 TEMPO 4000 SHRA BKN010"
"3572","LFRN",2019-12-06 18:30:00,-1.7339,48.0689,53.6,50,87.56,230,9,0,29.94,NA,6.21,NA,"FEW","SCT","OVC",NA,2000,3700,4400,NA,NA,NA,NA,NA,NA,NA,NA,NA,"LFRN 061830Z AUTO 23009KT 9999 FEW020 SCT037 OVC044 12/10 Q1014 TEMPO 4000 SHRA BKN010"
"3573","LFRN",2019-12-06 19:00:00,-1.7339,48.0689,51.8,50,93.55,220,8,0,29.97,NA,6.21,NA,"BKN",NA,NA,NA,4700,NA,NA,NA,NA,NA,NA,NA,NA,NA,NA,NA,"LFRN 061900Z AUTO 22008KT 9999 BKN047 11/10 Q1015 TEMPO 4000 SHRA BKN010"
"3574","LFRN",2019-12-06 19:30:00,-1.7339,48.0689,51.8,50,93.55,220,9,0,29.97,NA,6.21,NA,"FEW","OVC",NA,NA,3900,4700,NA,NA,NA,NA,NA,NA,NA,NA,NA,NA,"LFRN 061930Z AUTO 22009KT 9999 FEW039 OVC047 11/10 Q1015 TEMPO 4000 SHRA BKN010"
"3575","LFRN",2019-12-06 20:00:00,-1.7339,48.0689,51.8,50,93.55,230,8,0,29.97,NA,6.21,NA,"BKN","OVC",NA,NA,3700,4800,NA,NA,NA,NA,NA,NA,NA,NA,NA,NA,"LFRN 062000Z AUTO 23008KT 9999 BKN037 OVC048 11/10 Q1015 TEMPO 4000 SHRA BKN010"
"3576","LFRN",2019-12-06 20:30:00,-1.7339,48.0689,53.6,50,87.56,240,9,0,29.97,NA,6.21,NA,"SCT","OVC",NA,NA,2700,4300,NA,NA,"-DZ",NA,NA,NA,NA,NA,NA,NA,"LFRN 062030Z AUTO 24009KT 9999 -DZ SCT027 OVC043 12/10 Q1015 TEMPO 4000 SHRA BKN010"
"3577","LFRN",2019-12-06 21:00:00,-1.7339,48.0689,51.8,48.2,87.47,240,6,0,30,NA,6.21,NA,"OVC",NA,NA,NA,4600,NA,NA,NA,NA,NA,NA,NA,NA,NA,NA,NA,"LFRN 062100Z AUTO 24006KT 9999 OVC046 11/09 Q1016 TEMPO 4000 SHRA BKN010"
"3578","LFRN",2019-12-06 21:30:00,-1.7339,48.0689,51.8,48.2,87.47,230,10,0,30,NA,6.21,NA,"FEW","SCT","OVC",NA,3800,4400,5000,NA,NA,NA,NA,NA,NA,NA,NA,NA,"LFRN 062130Z AUTO 23010KT 9999 FEW038 SCT044 OVC050 11/09 Q1016 NOSIG"
"3579","LFRN",2019-12-06 22:00:00,-1.7339,48.0689,51.8,50,93.55,230,7,0,30,NA,6.21,NA,"BKN","BKN","OVC",NA,2000,2900,3600,NA,NA,NA,NA,NA,NA,NA,NA,NA,"LFRN 062200Z AUTO 23007KT 9999 BKN020 BKN029 OVC036 11/10 Q1016 NOSIG"
"3580","LFRN",2019-12-06 22:30:00,-1.7339,48.0689,51.8,50,93.55,220,7,0,30,NA,6.21,NA,"FEW","OVC",NA,NA,1900,4900,NA,NA,NA,NA,NA,NA,NA,NA,NA,NA,"LFRN 062230Z AUTO 22007KT 9999 FEW019 OVC049 11/10 Q1016 BECMG 0500 FG"
"3581","LFRN",2019-12-06 23:00:00,-1.7339,48.0689,51.8,48.2,87.47,240,8,0,30,NA,6.21,NA,"OVC",NA,NA,NA,4700,NA,NA,NA,NA,NA,NA,NA,NA,NA,NA,NA,"LFRN 062300Z AUTO 24008KT 9999 OVC047 11/09 Q1016 BECMG 0500 FG"
"3582","LFRN",2019-12-06 23:30:00,-1.7339,48.0689,51.8,48.2,87.47,240,7,0,30,NA,6.21,NA,"BKN","OVC",NA,NA,4600,5400,NA,NA,NA,NA,NA,NA,NA,NA,NA,NA,"LFRN 062330Z AUTO 24007KT 9999 BKN046 OVC054 11/09 Q1016 BECMG 0500 FG"
"3583","LFCR",2019-12-06 00:00:00,2.4825,44.4103,32,26.6,80.22,NA,2,0,30.21,NA,6.21,NA,NA,NA,NA,NA,NA,NA,NA,NA,NA,NA,NA,NA,NA,NA,NA,NA,"LFCR 060000Z AUTO VRB02KT CAVOK M00/M03 Q1023"
"3584","LFCR",2019-12-06 00:30:00,2.4825,44.4103,30.2,28.4,92.92,190,3,0,30.21,NA,6.21,NA,NA,NA,NA,NA,NA,NA,NA,NA,NA,NA,NA,NA,NA,NA,NA,26.63,"LFCR 060030Z AUTO 19003KT CAVOK M01/M02 Q1023"
"3585","LFCR",2019-12-06 01:00:00,2.4825,44.4103,32,32,100,170,3,0,30.21,NA,6.21,NA,NA,NA,NA,NA,NA,NA,NA,NA,NA,NA,NA,NA,NA,NA,NA,28.69,"LFCR 060100Z AUTO 17003KT CAVOK M00/M00 Q1023"
"3586","LFCR",2019-12-06 01:30:00,2.4825,44.4103,32,30.2,92.97,150,2,0,30.21,NA,6.21,NA,NA,NA,NA,NA,NA,NA,NA,NA,NA,NA,NA,NA,NA,NA,NA,NA,"LFCR 060130Z AUTO 15002KT CAVOK M00/M01 Q1023"
"3587","LFCR",2019-12-06 02:00:00,2.4825,44.4103,32,30.2,92.97,0,0,0,30.21,NA,6.21,NA,NA,NA,NA,NA,NA,NA,NA,NA,NA,NA,NA,NA,NA,NA,NA,NA,"LFCR 060200Z AUTO 00000KT CAVOK M00/M01 Q1023"
"3588","LFCR",2019-12-06 02:30:00,2.4825,44.4103,28.4,26.6,92.86,130,3,0,30.21,NA,6.21,NA,NA,NA,NA,NA,NA,NA,NA,NA,NA,NA,NA,NA,NA,NA,NA,24.57,"LFCR 060230Z AUTO 13003KT CAVOK M02/M03 Q1023"
"3589","LFCR",2019-12-06 03:00:00,2.4825,44.4103,28.4,26.6,92.86,130,4,0,30.21,NA,6.21,NA,NA,NA,NA,NA,NA,NA,NA,NA,NA,NA,NA,NA,NA,NA,NA,23.22,"LFCR 060300Z AUTO 13004KT CAVOK M02/M03 Q1023"
"3590","LFCR",2019-12-06 03:30:00,2.4825,44.4103,28.4,28.4,100,140,3,0,30.21,NA,6.21,NA,NA,NA,NA,NA,NA,NA,NA,NA,NA,NA,NA,NA,NA,NA,NA,24.57,"LFCR 060330Z AUTO 14003KT CAVOK M02/M02 Q1023"
"3591","LFCR",2019-12-06 04:00:00,2.4825,44.4103,28.4,28.4,100,0,0,0,30.18,NA,6.21,NA,NA,NA,NA,NA,NA,NA,NA,NA,NA,NA,NA,NA,NA,NA,NA,NA,"LFCR 060400Z AUTO 00000KT CAVOK M02/M02 Q1022"
"3592","LFCR",2019-12-06 04:30:00,2.4825,44.4103,28.4,26.6,92.86,70,1,0,30.21,NA,6.21,NA,NA,NA,NA,NA,NA,NA,NA,NA,NA,NA,NA,NA,NA,NA,NA,NA,"LFCR 060430Z AUTO 07001KT CAVOK M02/M03 Q1023"
"3593","LFCR",2019-12-06 05:00:00,2.4825,44.4103,28.4,26.6,92.86,130,1,0,30.21,NA,6.21,NA,NA,NA,NA,NA,NA,NA,NA,NA,NA,NA,NA,NA,NA,NA,NA,NA,"LFCR 060500Z AUTO 13001KT CAVOK M02/M03 Q1023"
"3594","LFCR",2019-12-06 05:30:00,2.4825,44.4103,26.6,26.6,100,160,3,0,30.21,NA,6.21,NA,NA,NA,NA,NA,NA,NA,NA,NA,NA,NA,NA,NA,NA,NA,NA,22.52,"LFCR 060530Z AUTO 16003KT CAVOK M03/M03 Q1023"
"3595","LFCR",2019-12-06 06:00:00,2.4825,44.4103,30.2,28.4,92.92,130,3,0,30.21,NA,6.21,NA,NA,NA,NA,NA,NA,NA,NA,NA,NA,NA,NA,NA,NA,NA,NA,26.63,"LFCR 060600Z AUTO 13003KT CAVOK M01/M02 Q1023"
"3596","LFCR",2019-12-06 06:30:00,2.4825,44.4103,30.2,28.4,92.92,120,3,0,30.21,NA,6.21,NA,NA,NA,NA,NA,NA,NA,NA,NA,NA,NA,NA,NA,NA,NA,NA,26.63,"LFCR 060630Z AUTO 12003KT CAVOK M01/M02 Q1023"
"3597","LFCR",2019-12-06 07:00:00,2.4825,44.4103,28.4,26.6,92.86,140,3,0,30.21,NA,6.21,NA,NA,NA,NA,NA,NA,NA,NA,NA,NA,NA,NA,NA,NA,NA,NA,24.57,"LFCR 060700Z AUTO 14003KT CAVOK M02/M03 Q1023"
"3598","LFCR",2019-12-06 07:30:00,2.4825,44.4103,28.4,26.6,92.86,140,2,0,30.21,NA,6.21,NA,NA,NA,NA,NA,NA,NA,NA,NA,NA,NA,NA,NA,NA,NA,NA,NA,"LFCR 060730Z AUTO 14002KT CAVOK M02/M03 Q1023 NOSIG"
"3599","LFCR",2019-12-06 08:00:00,2.4825,44.4103,30.2,28.4,92.92,0,0,0,30.21,NA,6.21,NA,NA,NA,NA,NA,NA,NA,NA,NA,NA,NA,NA,NA,NA,NA,NA,NA,"LFCR 060800Z AUTO 00000KT CAVOK M01/M02 Q1023 NOSIG"
"3600","LFCR",2019-12-06 08:30:00,2.4825,44.4103,33.8,30.2,86.49,160,3,0,30.21,NA,6.21,NA,NA,NA,NA,NA,NA,NA,NA,NA,NA,NA,NA,NA,NA,NA,NA,30.75,"LFCR 060830Z AUTO 16003KT CAVOK 01/M01 Q1023 NOSIG"
"3601","LFCR",2019-12-06 09:00:00,2.4825,44.4103,37.4,32,80.65,140,4,0,30.24,NA,6.21,NA,NA,NA,NA,NA,NA,NA,NA,NA,NA,NA,NA,NA,NA,NA,NA,33.73,"LFCR 060900Z AUTO 14004KT CAVOK 03/M00 Q1024 NOSIG"
"3602","LFCR",2019-12-06 09:30:00,2.4825,44.4103,41,33.8,75.33,NA,2,0,30.24,NA,6.21,NA,NA,NA,NA,NA,NA,NA,NA,NA,NA,NA,NA,NA,NA,NA,NA,NA,"LFCR 060930Z AUTO VRB02KT CAVOK 05/01 Q1024 NOSIG"
"3603","LFCR",2019-12-06 10:00:00,2.4825,44.4103,46.4,35.6,65.83,NA,1,0,30.24,NA,6.21,NA,NA,NA,NA,NA,NA,NA,NA,NA,NA,NA,NA,NA,NA,NA,NA,NA,"LFCR 061000Z AUTO VRB01KT CAVOK 08/02 Q1024 NOSIG"
"3604","LFCR",2019-12-06 10:30:00,2.4825,44.4103,48.2,33.8,57.26,NA,2,0,30.24,NA,6.21,NA,NA,NA,NA,NA,NA,NA,NA,NA,NA,NA,NA,NA,NA,NA,NA,NA,"LFCR 061030Z AUTO VRB02KT CAVOK 09/01 Q1024 NOSIG"
"3605","LFCR",2019-12-06 11:00:00,2.4825,44.4103,50,35.6,57.52,NA,3,0,30.21,NA,6.21,NA,NA,NA,NA,NA,NA,NA,NA,NA,NA,NA,NA,NA,NA,NA,NA,49.27,"LFCR 061100Z AUTO VRB03KT CAVOK 10/02 Q1023 NOSIG"
"3606","LFCR",2019-12-06 11:30:00,2.4825,44.4103,51.8,35.6,53.81,NA,3,0,30.21,NA,6.21,NA,NA,NA,NA,NA,NA,NA,NA,NA,NA,NA,NA,NA,NA,NA,NA,NA,"LFCR 061130Z AUTO VRB03KT CAVOK 11/02 Q1023 NOSIG"
"3607","LFCR",2019-12-06 12:00:00,2.4825,44.4103,51.8,35.6,53.81,160,3,0,30.18,NA,6.21,NA,NA,NA,NA,NA,NA,NA,NA,NA,NA,NA,NA,NA,NA,NA,NA,NA,"LFCR 061200Z AUTO 16003KT 100V230 CAVOK 11/02 Q1022 NOSIG"
"3608","LFCR",2019-12-06 12:30:00,2.4825,44.4103,51.8,35.6,53.81,NA,3,0,30.18,NA,6.21,NA,NA,NA,NA,NA,NA,NA,NA,NA,NA,NA,NA,NA,NA,NA,NA,NA,"LFCR 061230Z AUTO VRB03KT CAVOK 11/02 Q1022 NOSIG"
"3609","LFCR",2019-12-06 13:00:00,2.4825,44.4103,55.4,37.4,50.64,210,3,0,30.18,NA,6.21,NA,NA,NA,NA,NA,NA,NA,NA,NA,NA,NA,NA,NA,NA,NA,NA,NA,"LFCR 061300Z AUTO 21003KT 140V270 CAVOK 13/03 Q1022 NOSIG"
"3610","LFCR",2019-12-06 13:30:00,2.4825,44.4103,53.6,37.4,54.07,250,4,0,30.15,NA,6.21,NA,NA,NA,NA,NA,NA,NA,NA,NA,NA,NA,NA,NA,NA,NA,NA,NA,"LFCR 061330Z AUTO 25004KT 210V290 CAVOK 12/03 Q1021 NOSIG"
"3611","LFCR",2019-12-06 14:00:00,2.4825,44.4103,53.6,35.6,50.36,260,5,0,30.15,NA,6.21,NA,NA,NA,NA,NA,NA,NA,NA,NA,NA,NA,NA,NA,NA,NA,NA,NA,"LFCR 061400Z AUTO 26005KT 240V300 CAVOK 12/02 Q1021 NOSIG"
"3612","LFCR",2019-12-06 14:30:00,2.4825,44.4103,51.8,35.6,53.81,240,6,0,30.15,NA,6.21,NA,NA,NA,NA,NA,NA,NA,NA,NA,NA,NA,NA,NA,NA,NA,NA,NA,"LFCR 061430Z AUTO 24006KT CAVOK 11/02 Q1021 NOSIG"
"3613","LFCR",2019-12-06 15:00:00,2.4825,44.4103,51.8,35.6,53.81,220,4,0,30.15,NA,6.21,NA,NA,NA,NA,NA,NA,NA,NA,NA,NA,NA,NA,NA,NA,NA,NA,NA,"LFCR 061500Z AUTO 22004KT CAVOK 11/02 Q1021 NOSIG"
"3614","LFCR",2019-12-06 15:30:00,2.4825,44.4103,50,37.4,61.76,220,4,0,30.15,NA,6.21,NA,NA,NA,NA,NA,NA,NA,NA,NA,NA,NA,NA,NA,NA,NA,NA,48.44,"LFCR 061530Z AUTO 22004KT CAVOK 10/03 Q1021 BECMG 0800 BCFG"
"3615","LFCR",2019-12-06 16:00:00,2.4825,44.4103,46.4,35.6,65.83,220,4,0,30.15,NA,6.21,NA,NA,NA,NA,NA,NA,NA,NA,NA,NA,NA,NA,NA,NA,NA,NA,44.24,"LFCR 061600Z AUTO 22004KT CAVOK 08/02 Q1021 BECMG 0800 BCFG"
"3616","LFCR",2019-12-06 16:30:00,2.4825,44.4103,42.8,35.6,75.5,270,4,0,30.15,NA,6.21,NA,NA,NA,NA,NA,NA,NA,NA,NA,NA,NA,NA,NA,NA,NA,NA,40.03,"LFCR 061630Z AUTO 27004KT CAVOK 06/02 Q1021 TEMPO 0400 FG VV///"
"3617","LFCR",2019-12-06 17:00:00,2.4825,44.4103,42.8,35.6,75.5,NA,2,0,30.15,NA,6.21,NA,NA,NA,NA,NA,NA,NA,NA,NA,NA,NA,NA,NA,NA,NA,NA,NA,"LFCR 061700Z AUTO VRB02KT CAVOK 06/02 Q1021 TEMPO 0400 FG VV///"
"3618","LFCR",2019-12-06 17:30:00,2.4825,44.4103,39.2,33.8,80.79,0,0,0,30.15,NA,6.21,NA,NA,NA,NA,NA,NA,NA,NA,NA,NA,NA,NA,NA,NA,NA,NA,NA,"LFCR 061730Z AUTO 00000KT CAVOK 04/01 Q1021 TEMPO 0400 FG VV///"
"3619","LFCR",2019-12-06 18:00:00,2.4825,44.4103,37.4,33.8,86.69,140,3,0,30.15,NA,6.21,NA,NA,NA,NA,NA,NA,NA,NA,NA,NA,NA,NA,NA,NA,NA,NA,34.86,"LFCR 061800Z AUTO 14003KT CAVOK 03/01 Q1021 TEMPO 0600 FG"
"3620","LFCR",2019-12-06 18:30:00,2.4825,44.4103,37.4,35.6,93.14,160,1,0,30.15,NA,6.21,NA,NA,NA,NA,NA,NA,NA,NA,NA,NA,NA,NA,NA,NA,NA,NA,NA,"LFCR 061830Z AUTO 16001KT CAVOK 03/02 Q1021 TEMPO 0600 FG"
"3621","LFCR",2019-12-06 19:00:00,2.4825,44.4103,35.6,32,86.59,150,3,0,30.15,NA,6.21,NA,NA,NA,NA,NA,NA,NA,NA,NA,NA,NA,NA,NA,NA,NA,NA,32.8,"LFCR 061900Z AUTO 15003KT CAVOK 02/M00 Q1021 TEMPO 0600 FG"
"3622","LFCR",2019-12-06 19:30:00,2.4825,44.4103,37.4,35.6,93.14,160,2,0,30.15,NA,6.21,NA,NA,NA,NA,NA,NA,NA,NA,NA,NA,NA,NA,NA,NA,NA,NA,NA,"LFCR 061930Z AUTO 16002KT CAVOK 03/02 Q1021 TEMPO 0600 FG"
"3623","LFCR",2019-12-06 20:00:00,2.4825,44.4103,35.6,33.8,93.08,140,2,0,30.15,NA,6.21,NA,NA,NA,NA,NA,NA,NA,NA,NA,NA,NA,NA,NA,NA,NA,NA,NA,"LFCR 062000Z AUTO 14002KT CAVOK 02/01 Q1021 TEMPO 0600 FG"
"3624","LFCR",2019-12-06 20:30:00,2.4825,44.4103,35.6,33.8,93.08,130,3,0,30.15,NA,6.21,NA,NA,NA,NA,NA,NA,NA,NA,NA,NA,NA,NA,NA,NA,NA,NA,32.8,"LFCR 062030Z AUTO 13003KT CAVOK 02/01 Q1021 TEMPO 0600 FG"
"3625","LFCR",2019-12-06 21:00:00,2.4825,44.4103,35.6,32,86.59,140,2,0,30.18,NA,6.21,NA,NA,NA,NA,NA,NA,NA,NA,NA,NA,NA,NA,NA,NA,NA,NA,NA,"LFCR 062100Z AUTO 14002KT CAVOK 02/00 Q1022 TEMPO 0600 FG"
"3626","LFCR",2019-12-06 21:30:00,2.4825,44.4103,35.6,33.8,93.08,0,0,0,30.18,NA,6.21,NA,NA,NA,NA,NA,NA,NA,NA,NA,NA,NA,NA,NA,NA,NA,NA,NA,"LFCR 062130Z AUTO 00000KT CAVOK 02/01 Q1022 TEMPO 0600 FG"
"3627","LFCR",2019-12-06 22:00:00,2.4825,44.4103,35.6,33.8,93.08,170,3,0,30.18,NA,6.21,NA,NA,NA,NA,NA,NA,NA,NA,NA,NA,NA,NA,NA,NA,NA,NA,32.8,"LFCR 062200Z AUTO 17003KT CAVOK 02/01 Q1022 TEMPO 0600 FG"
"3628","LFCR",2019-12-06 22:30:00,2.4825,44.4103,37.4,33.8,86.69,160,3,0,30.18,NA,6.21,NA,NA,NA,NA,NA,NA,NA,NA,NA,NA,NA,NA,NA,NA,NA,NA,34.86,"LFCR 062230Z AUTO 16003KT CAVOK 03/01 Q1022 TEMPO 0600 FG"
"3629","LFCR",2019-12-06 23:00:00,2.4825,44.4103,37.4,35.6,93.14,140,5,0,30.18,NA,6.21,NA,NA,NA,NA,NA,NA,NA,NA,NA,NA,NA,NA,NA,NA,NA,NA,32.81,"LFCR 062300Z AUTO 14005KT CAVOK 03/02 Q1022 TEMPO 0600 FG"
"3630","LFCR",2019-12-06 23:30:00,2.4825,44.4103,39.2,35.6,86.79,150,6,0,30.18,NA,6.21,NA,NA,NA,NA,NA,NA,NA,NA,NA,NA,NA,NA,NA,NA,NA,NA,34.2,"LFCR 062330Z AUTO 15006KT CAVOK 04/02 Q1022 NOSIG"
"3631","LFYR",2019-12-06 00:00:00,1.6875,47.3197,24.8,24.8,100,0,0,0,30.21,NA,3.11,NA,"NSC",NA,NA,NA,NA,NA,NA,NA,"BR",NA,NA,NA,NA,NA,NA,NA,"LFYR 060000Z AUTO 00000KT 5000 BR NSC M04/M04 Q1023"
"3632","LFYR",2019-12-06 00:30:00,1.6875,47.3197,24.8,24.8,100,0,0,0,30.18,NA,3.73,NA,"NSC",NA,NA,NA,NA,NA,NA,NA,NA,NA,NA,NA,NA,NA,NA,NA,"LFYR 060030Z AUTO 00000KT 6000 NSC M04/M04 Q1022"
"3633","LFYR",2019-12-06 01:00:00,1.6875,47.3197,24.8,24.8,100,0,0,0,30.18,NA,3.11,NA,"NSC",NA,NA,NA,NA,NA,NA,NA,"BR",NA,NA,NA,NA,NA,NA,NA,"LFYR 060100Z AUTO 00000KT 5000 BR NSC M04/M04 Q1022"
"3634","LFYR",2019-12-06 01:30:00,1.6875,47.3197,24.8,24.8,100,0,0,0,30.18,NA,5.59,NA,"NSC",NA,NA,NA,NA,NA,NA,NA,NA,NA,NA,NA,NA,NA,NA,NA,"LFYR 060130Z AUTO 00000KT 9000 NSC M04/M04 Q1022"
"3635","LFYR",2019-12-06 02:00:00,1.6875,47.3197,24.8,24.8,100,0,0,0,30.18,NA,4.35,NA,"NSC",NA,NA,NA,NA,NA,NA,NA,NA,NA,NA,NA,NA,NA,NA,NA,"LFYR 060200Z AUTO 00000KT 7000 NSC M04/M04 Q1022"
"3636","LFYR",2019-12-06 02:30:00,1.6875,47.3197,23,19.4,85.85,0,0,0,30.18,NA,6.21,NA,"FEW",NA,NA,NA,1100,NA,NA,NA,NA,NA,NA,NA,NA,NA,NA,NA,"LFYR 060230Z AUTO 00000KT 9999 FEW011 M05/M07 Q1022"
"3637","LFYR",2019-12-06 03:00:00,1.6875,47.3197,24.8,23,92.74,0,0,0,30.18,NA,4.35,NA,"BKN",NA,NA,NA,400,NA,NA,NA,NA,NA,NA,NA,NA,NA,NA,NA,"LFYR 060300Z AUTO 00000KT 7000 BKN004 M04/M05 Q1022"
"3638","LFYR",2019-12-06 03:30:00,1.6875,47.3197,24.8,24.8,100,0,0,0,30.15,NA,4.35,NA,"OVC",NA,NA,NA,200,NA,NA,NA,NA,NA,NA,NA,NA,NA,NA,NA,"LFYR 060330Z AUTO 00000KT 7000 OVC002 M04/M04 Q1021"
"3639","LFYR",2019-12-06 04:00:00,1.6875,47.3197,28.4,28.4,100,NA,1,0,30.15,NA,1.55,NA,"VV ",NA,NA,NA,NA,NA,NA,NA,"BR",NA,NA,NA,NA,NA,NA,NA,"LFYR 060400Z AUTO VRB01KT 2500 1300 BR VV/// M02/M02 Q1021"
"3640","LFYR",2019-12-06 04:30:00,1.6875,47.3197,30.2,30.2,100,NA,3,0,30.15,NA,0.28,NA,"VV ",NA,NA,NA,NA,NA,NA,NA,"FZFG",NA,NA,NA,NA,NA,NA,26.63,"LFYR 060430Z AUTO VRB03KT 0450 FZFG VV/// M01/M01 Q1021"
"3641","LFYR",2019-12-06 05:00:00,1.6875,47.3197,32,32,100,NA,3,0,30.15,NA,0.43,NA,"VV ",NA,NA,NA,NA,NA,NA,NA,"FZFG",NA,NA,NA,NA,NA,NA,28.69,"LFYR 060500Z AUTO VRB03KT 0700 FZFG VV/// M00/M00 Q1021"
"3642","LFYR",2019-12-06 05:30:00,1.6875,47.3197,30.2,30.2,100,240,6,0,30.15,NA,1.3,NA,"VV ",NA,NA,NA,NA,NA,NA,NA,"BR",NA,NA,NA,NA,NA,NA,23.36,"LFYR 060530Z AUTO 24006KT 210V270 2100 BR VV/// M01/M01 Q1021"
"3643","LFYR",2019-12-06 06:00:00,1.6875,47.3197,30.2,30.2,100,230,7,0,30.15,NA,1.99,NA,"OVC",NA,NA,NA,300,NA,NA,NA,"BR",NA,NA,NA,NA,NA,NA,22.59,"LFYR 060600Z AUTO 23007KT 3200 BR OVC003 M01/M01 Q1021"
"3644","LFYR",2019-12-06 06:30:00,1.6875,47.3197,30.2,30.2,100,230,5,0,30.15,NA,1.55,NA,"OVC",NA,NA,NA,200,NA,NA,NA,"BR",NA,NA,NA,NA,NA,NA,24.26,"LFYR 060630Z AUTO 23005KT 190V260 2500 BR OVC002 M01/M01 Q1021 BECMG VV///"
"3645","LFYR",2019-12-06 07:00:00,1.6875,47.3197,32,32,100,220,4,0,30.15,NA,1.37,NA,"OVC",NA,NA,NA,200,NA,NA,NA,"BR",NA,NA,NA,NA,NA,NA,27.42,"LFYR 060700Z AUTO 22004KT 190V250 2200 BR OVC002 M00/M00 Q1021 BECMG VV///"
"3646","LFYR",2019-12-06 07:30:00,1.6875,47.3197,32,32,100,210,5,0,30.15,NA,1.06,NA,"OVC",NA,NA,NA,200,NA,NA,NA,"BR",NA,NA,NA,NA,NA,NA,26.4,"LFYR 060730Z AUTO 21005KT 1700 BR OVC002 M00/M00 Q1021 TEMPO VV/// BECMG 9999 NSW"
"3647","LFYR",2019-12-06 08:00:00,1.6875,47.3197,32,32,100,210,4,0,30.18,NA,1.3,NA,"OVC",NA,NA,NA,200,NA,NA,NA,"BR",NA,NA,NA,NA,NA,NA,27.42,"LFYR 060800Z AUTO 21004KT 180V250 2100 BR OVC002 00/00 Q1022 TEMPO VV/// BECMG 9999 NSW"
"3648","LFYR",2019-12-06 08:30:00,1.6875,47.3197,32,32,100,190,6,0,30.15,NA,1.43,NA,"OVC",NA,NA,NA,200,NA,NA,NA,"BR",NA,NA,NA,NA,NA,NA,25.53,"LFYR 060830Z AUTO 19006KT 2300 BR OVC002 00/00 Q1021 BECMG 9999 NSW SCT002 BKN070"
"3649","LFYR",2019-12-06 09:00:00,1.6875,47.3197,33.8,33.8,100,200,6,0,30.18,NA,1.74,NA,"OVC",NA,NA,NA,200,NA,NA,NA,"BR",NA,NA,NA,NA,NA,NA,27.7,"LFYR 060900Z AUTO 20006KT 170V230 2800 BR OVC002 01/01 Q1022 BECMG 9999 NSW SCT002 BKN070"
"3650","LFYR",2019-12-06 09:30:00,1.6875,47.3197,35.6,35.6,100,200,6,0,30.18,NA,2.42,NA,"OVC",NA,NA,NA,200,NA,NA,NA,"BR",NA,NA,NA,NA,NA,NA,29.87,"LFYR 060930Z AUTO 20006KT 3900 BR OVC002 02/02 Q1022 TEMPO 21015G25KT 9999 NSW SCT002 BKN070"
"3651","LFYR",2019-12-06 10:00:00,1.6875,47.3197,35.6,35.6,100,200,6,0,30.18,NA,2.36,NA,"OVC",NA,NA,NA,300,NA,NA,NA,"BR",NA,NA,NA,NA,NA,NA,29.87,"LFYR 061000Z AUTO 20006KT 3800 BR OVC003 02/02 Q1022 TEMPO 21015G25KT 9999 NSW SCT002 BKN070"
"3652","LFYR",2019-12-06 10:30:00,1.6875,47.3197,37.4,37.4,100,220,4,0,30.18,NA,2.55,NA,"OVC",NA,NA,NA,300,NA,NA,NA,"BR",NA,NA,NA,NA,NA,NA,33.73,"LFYR 061030Z AUTO 22004KT 190V250 4100 BR OVC003 03/03 Q1022 TEMPO 21015G25KT RA"
"3653","LFYR",2019-12-06 11:00:00,1.6875,47.3197,39.2,37.4,93.19,190,5,0,30.15,NA,2.98,NA,"OVC",NA,NA,NA,300,NA,NA,NA,"BR",NA,NA,NA,NA,NA,NA,34.95,"LFYR 061100Z AUTO 19005KT 4800 BR OVC003 04/03 Q1021 TEMPO 21015G25KT RA"
"3654","LFYR",2019-12-06 11:30:00,1.6875,47.3197,39.2,39.2,100,210,7,0,30.12,NA,3.11,NA,"OVC",NA,NA,NA,400,NA,NA,NA,"BR",NA,NA,NA,NA,NA,NA,33.56,"LFYR 061130Z AUTO 21007KT 5000 BR OVC004 04/04 Q1020 TEMPO 21015G25KT 2000 RA"
"3655","LFYR",2019-12-06 12:00:00,1.6875,47.3197,39.2,39.2,100,210,6,0,30.12,NA,3.11,NA,"OVC",NA,NA,NA,500,NA,NA,NA,"BR",NA,NA,NA,NA,NA,NA,34.2,"LFYR 061200Z AUTO 21006KT 5000 BR OVC005 04/04 Q1020 TEMPO 21015G25KT 2000 RA"
"3656","LFYR",2019-12-06 12:30:00,1.6875,47.3197,41,39.2,93.24,200,7,0,30.12,NA,3.11,NA,"OVC",NA,NA,NA,500,NA,NA,NA,"BR",NA,NA,NA,NA,NA,NA,35.75,"LFYR 061230Z AUTO 20007KT 5000 BR OVC005 05/04 Q1020 TEMPO 21015G25KT 2000 RA"
"3657","LFYR",2019-12-06 13:00:00,1.6875,47.3197,41,41,100,210,8,0,30.09,NA,3.11,NA,"OVC",NA,NA,NA,500,NA,NA,NA,"BR",NA,NA,NA,NA,NA,NA,35.2,"LFYR 061300Z AUTO 21008KT 5000 BR OVC005 05/05 Q1019 TEMPO 21015G25KT 2000 RA"
"3658","LFYR",2019-12-06 13:30:00,1.6875,47.3197,42.8,41,93.3,210,8,0,30.09,NA,3.11,NA,"OVC",NA,NA,NA,500,NA,NA,NA,"BR",NA,NA,NA,NA,NA,NA,37.42,"LFYR 061330Z AUTO 21008KT 180V240 5000 BR OVC005 06/05 Q1019 TEMPO 21015G25KT 2000 RA"
"3659","LFYR",2019-12-06 14:00:00,1.6875,47.3197,44.6,42.8,93.35,210,8,0,30.06,NA,4.35,NA,"OVC","///",NA,NA,600,NA,NA,NA,NA,NA,NA,NA,NA,NA,NA,39.63,"LFYR 061400Z AUTO 21008KT 180V240 7000 OVC006/// ///TCU 07/06 Q1018 TEMPO 21015G25KT 2000 RA BKN004 BKN050"
"3660","LFYR",2019-12-06 14:30:00,1.6875,47.3197,44.6,42.8,93.35,220,7,0,30.06,NA,4.97,NA,"OVC","///",NA,NA,600,NA,NA,NA,"-RA",NA,NA,NA,NA,NA,NA,40.14,"LFYR 061430Z AUTO 22007KT 180V250 8000 -RA OVC006/// ///TCU 07/06 Q1018"
"3661","LFYR",2019-12-06 15:00:00,1.6875,47.3197,44.6,42.8,93.35,200,8,0,30.03,NA,3.73,NA,"OVC","///",NA,NA,600,NA,NA,NA,"-RA",NA,NA,NA,NA,NA,NA,39.63,"LFYR 061500Z AUTO 20008KT 170V230 6000 -RA OVC006/// ///TCU 07/06 Q1017"
"3662","LFYR",2019-12-06 15:30:00,1.6875,47.3197,44.6,42.8,93.35,190,8,0,30.03,NA,3.11,NA,"OVC",NA,NA,NA,400,NA,NA,NA,"-RA BR",NA,NA,NA,NA,NA,NA,39.63,"LFYR 061530Z AUTO 19008KT 5000 -RA BR OVC004 07/06 Q1017"
"3663","LFYR",2019-12-06 16:00:00,1.6875,47.3197,44.6,44.6,100,220,6,0,30.06,NA,4.97,NA,"OVC",NA,NA,NA,500,NA,NA,NA,"-RADZ",NA,NA,NA,NA,NA,NA,40.71,"LFYR 061600Z AUTO 22006KT 180V250 8000 -RADZ OVC005 07/07 Q1018"
"3664","LFYR",2019-12-06 16:30:00,1.6875,47.3197,44.6,44.6,100,210,8,0,30.03,NA,6.21,NA,"OVC",NA,NA,NA,500,NA,NA,NA,NA,NA,NA,NA,NA,NA,NA,39.63,"LFYR 061630Z AUTO 21008KT 9999 OVC005 07/07 Q1017"
"3665","LFYR",2019-12-06 17:00:00,1.6875,47.3197,44.6,44.6,100,210,8,0,30.06,NA,6.21,NA,"OVC","///",NA,NA,500,NA,NA,NA,NA,NA,NA,NA,NA,NA,NA,39.63,"LFYR 061700Z AUTO 21008KT 9999 OVC005/// ///TCU 07/07 Q1018"
"3666","LFYR",2019-12-06 17:30:00,1.6875,47.3197,44.6,44.6,100,210,9,0,30.03,NA,4.35,NA,"OVC",NA,NA,NA,400,NA,NA,NA,NA,NA,NA,NA,NA,NA,NA,39.18,"LFYR 061730Z AUTO 21009KT 7000 OVC004 07/07 Q1017"
"3667","LFYR",2019-12-06 18:00:00,1.6875,47.3197,44.6,44.6,100,200,10,0,30.03,NA,4.35,NA,"OVC","///",NA,NA,400,NA,NA,NA,NA,NA,NA,NA,NA,NA,NA,38.77,"LFYR 061800Z AUTO 20010KT 7000 OVC004/// ///TCU 07/07 Q1017"
"3668","LFYR",2019-12-06 18:30:00,1.6875,47.3197,46.4,44.6,93.4,210,10,0,30.03,NA,4.35,NA,"OVC",NA,NA,NA,400,NA,NA,NA,NA,NA,NA,NA,NA,NA,NA,41.03,"LFYR 061830Z AUTO 21010KT 180V250 7000 OVC004 08/07 Q1017"
"3669","LFYR",2019-12-06 19:00:00,1.6875,47.3197,46.4,46.4,100,210,10,0,30.03,NA,4.97,NA,"OVC",NA,NA,NA,500,NA,NA,NA,NA,NA,NA,NA,NA,NA,NA,41.03,"LFYR 061900Z AUTO 21010KT 190V260 8000 OVC005 08/08 Q1017"
"3670","LFYR",2019-12-06 19:30:00,1.6875,47.3197,46.4,46.4,100,220,8,0,30.03,NA,6.21,NA,"OVC",NA,NA,NA,600,NA,NA,NA,NA,NA,NA,NA,NA,NA,NA,41.85,"LFYR 061930Z AUTO 22008KT 190V250 9999 OVC006 08/08 Q1017"
"3671","LFYR",2019-12-06 20:00:00,1.6875,47.3197,48.2,46.4,93.45,220,10,0,30.03,NA,6.21,NA,"OVC",NA,NA,NA,700,NA,NA,NA,NA,NA,NA,NA,NA,NA,NA,43.28,"LFYR 062000Z AUTO 22010KT 9999 OVC007 09/08 Q1017"
"3672","LFYR",2019-12-06 20:30:00,1.6875,47.3197,48.2,46.4,93.45,220,10,0,30.03,NA,6.21,NA,"OVC",NA,NA,NA,700,NA,NA,NA,NA,NA,NA,NA,NA,NA,NA,43.28,"LFYR 062030Z AUTO 22010KT 190V250 9999 OVC007 09/08 Q1017"
"3673","LFYR",2019-12-06 21:00:00,1.6875,47.3197,48.2,46.4,93.45,220,11,0,30.03,NA,6.21,NA,"OVC",NA,NA,NA,800,NA,NA,NA,NA,NA,NA,NA,NA,NA,NA,42.94,"LFYR 062100Z AUTO 22011KT 180V250 9999 OVC008 09/08 Q1017"
"3674","LFYR",2019-12-06 21:30:00,1.6875,47.3197,48.2,46.4,93.45,230,9,0,30.03,NA,2.86,NA,"OVC",NA,NA,NA,600,NA,NA,NA,"-DZ BR",NA,NA,NA,NA,NA,NA,43.66,"LFYR 062130Z AUTO 23009KT 200V260 4600 -DZ BR OVC006 09/08 Q1017"
"3675","LFYR",2019-12-06 22:00:00,1.6875,47.3197,48.2,46.4,93.45,230,9,0,30.03,NA,3.11,NA,"OVC",NA,NA,NA,600,NA,NA,NA,"BR",NA,NA,NA,NA,NA,NA,43.66,"LFYR 062200Z AUTO 23009KT 200V260 5000 BR OVC006 09/08 Q1017"
"3676","LFYR",2019-12-06 22:30:00,1.6875,47.3197,48.2,46.4,93.45,230,9,0,30.03,NA,4.35,NA,"OVC",NA,NA,NA,700,NA,NA,NA,NA,NA,NA,NA,NA,NA,NA,43.66,"LFYR 062230Z AUTO 23009KT 200V260 7000 OVC007 09/08 Q1017"
"3677","LFYR",2019-12-06 23:00:00,1.6875,47.3197,48.2,46.4,93.45,230,8,0,30.03,NA,4.35,NA,"OVC",NA,NA,NA,600,NA,NA,NA,NA,NA,NA,NA,NA,NA,NA,44.07,"LFYR 062300Z AUTO 23008KT 190V260 7000 OVC006 09/08 Q1017"
"3678","LFYR",2019-12-06 23:30:00,1.6875,47.3197,48.2,46.4,93.45,230,8,0,30.06,NA,3.04,NA,"OVC",NA,NA,NA,600,NA,NA,NA,"DZ BR",NA,NA,NA,NA,NA,NA,44.07,"LFYR 062330Z AUTO 23008KT 200V260 4900 DZ BR OVC006 09/08 Q1018"
"3679","LFOP",2019-12-06 00:00:00,1.1814,49.3831,33.8,33.8,100,170,9,0,30.09,NA,0.37,NA,"VV ",NA,NA,NA,NA,NA,NA,NA,"FG",NA,NA,NA,NA,NA,NA,25.75,"LFOP 060000Z AUTO 17009KT 0600 0550 R22/0900U FG VV/// 01/01 Q1019"
"3680","LFOP",2019-12-06 00:30:00,1.1814,49.3831,33.8,33.8,100,170,7,0,30.09,NA,0.68,NA,"OVC","///",NA,NA,200,NA,NA,NA,"BCFG",NA,NA,NA,NA,NA,NA,26.97,"LFOP 060030Z AUTO 17007KT 1100 0800 R22/2800D BCFG OVC002/// ///TCU 01/01 Q1019"
"3681","LFOP",2019-12-06 01:00:00,1.1814,49.3831,33.8,33.8,100,180,8,0,30.06,NA,2.11,NA,"BKN","OVC",NA,NA,200,10000,NA,NA,"BR",NA,NA,NA,NA,NA,NA,26.33,"LFOP 060100Z AUTO 18008KT 3400 BR BKN002 OVC100 01/01 Q1018"
"3682","LFOP",2019-12-06 01:30:00,1.1814,49.3831,33.8,33.8,100,180,6,0,30.06,NA,2.05,NA,"OVC",NA,NA,NA,200,NA,NA,NA,"BR",NA,NA,NA,NA,NA,NA,27.7,"LFOP 060130Z AUTO 18006KT 3300 BR OVC002 01/01 Q1018"
"3683","LFOP",2019-12-06 02:00:00,1.1814,49.3831,33.8,33.8,100,170,8,0,30.06,NA,1.99,NA,"BKN","BKN","OVC",NA,200,15000,18000,NA,"BR",NA,NA,NA,NA,NA,NA,26.33,"LFOP 060200Z AUTO 17008KT 3200 BR BKN002 BKN150 OVC180 01/01 Q1018"
"3684","LFOP",2019-12-06 02:30:00,1.1814,49.3831,33.8,33.8,100,180,10,0,30.06,NA,2.98,NA,"FEW","BKN",NA,NA,300,15000,NA,NA,"BR",NA,NA,NA,NA,NA,NA,25.23,"LFOP 060230Z AUTO 18010KT 4800 BR FEW003 BKN150 01/01 Q1018"
"3685","LFOP",2019-12-06 03:00:00,1.1814,49.3831,35.6,35.6,100,190,11,0,30.03,NA,3.11,NA,"NSC",NA,NA,NA,NA,NA,NA,NA,"BR",NA,NA,NA,NA,NA,NA,27.02,"LFOP 060300Z AUTO 19011KT 5000 BR NSC 02/02 Q1017"
"3686","LFOP",2019-12-06 03:30:00,1.1814,49.3831,35.6,35.6,100,190,9,0,30.03,NA,3.11,NA,"NSC",NA,NA,NA,NA,NA,NA,NA,"BR",NA,NA,NA,NA,NA,NA,27.99,"LFOP 060330Z AUTO 19009KT 5000 BR NSC 02/02 Q1017"
"3687","LFOP",2019-12-06 04:00:00,1.1814,49.3831,37.4,37.4,100,200,11,0,30.03,NA,4.35,NA,"///",NA,NA,NA,NA,NA,NA,NA,NA,NA,NA,NA,NA,NA,NA,29.29,"LFOP 060400Z AUTO 20011KT 7000 ///TCU 03/03 Q1017"
"3688","LFOP",2019-12-06 04:30:00,1.1814,49.3831,37.4,37.4,100,210,11,0,30,NA,4.35,NA,"///",NA,NA,NA,NA,NA,NA,NA,NA,NA,NA,NA,NA,NA,NA,29.29,"LFOP 060430Z AUTO 21011KT 7000 ///TCU 03/03 Q1016"
"3689","LFOP",2019-12-06 05:00:00,1.1814,49.3831,37.4,37.4,100,200,11,0,30,NA,4.35,NA,"FEW","SCT","BKN","///",800,5600,7600,NA,NA,NA,NA,NA,NA,NA,NA,29.29,"LFOP 060500Z AUTO 20011KT 7000 FEW008/// SCT056/// BKN076/// ///TCU 03/03 Q1016"
"3690","LFOP",2019-12-06 05:30:00,1.1814,49.3831,37.4,37.4,100,210,13,0,30,NA,4.35,NA,"FEW","SCT","OVC","///",800,2400,5200,NA,NA,NA,NA,NA,NA,NA,NA,28.49,"LFOP 060530Z AUTO 21013KT 7000 FEW008/// SCT024/// OVC052/// ///CB 03/03 Q1016"
"3691","LFOP",2019-12-06 06:00:00,1.1814,49.3831,39.2,39.2,100,210,10,0,30,NA,4.35,NA,"BKN","BKN","OVC","///",900,2600,5600,NA,"-DZ",NA,NA,NA,NA,NA,NA,32,"LFOP 060600Z AUTO 21010KT 7000 -DZ BKN009/// BKN026/// OVC056/// ///CB 04/04 Q1016 TEMPO 2000 DZRA OVC003"
"3692","LFOP",2019-12-06 06:30:00,1.1814,49.3831,39.2,39.2,100,200,10,0,30,NA,3.11,NA,"OVC","///",NA,NA,800,NA,NA,NA,"-RA BR",NA,NA,NA,NA,NA,NA,32,"LFOP 060630Z AUTO 20010KT 5000 -RA BR OVC008/// ///TCU 04/04 Q1016 TEMPO 2000 DZRA OVC003"
"3693","LFOP",2019-12-06 07:00:00,1.1814,49.3831,39.2,39.2,100,200,11,0,30,NA,3.73,NA,"OVC","///",NA,NA,700,NA,NA,NA,"-RA",NA,NA,NA,NA,NA,NA,31.57,"LFOP 060700Z AUTO 20011KT 6000 -RA OVC007/// ///CB 04/04 Q1016 TEMPO 2000 DZRA OVC003"
"3694","LFOP",2019-12-06 07:30:00,1.1814,49.3831,41,41,100,200,11,0,29.97,NA,2.49,NA,"OVC","///",NA,NA,600,NA,NA,NA,"-RA BR",NA,NA,NA,NA,NA,NA,33.84,"LFOP 060730Z AUTO 20011KT 4000 -RA BR OVC006/// ///CB 05/05 Q1015 TEMPO 2000 DZRA OVC003"
"3695","LFOP",2019-12-06 08:00:00,1.1814,49.3831,41,41,100,210,11,0,30,NA,2.61,NA,"OVC","///",NA,NA,700,NA,NA,NA,"RA BR",NA,NA,NA,NA,NA,NA,33.84,"LFOP 060800Z AUTO 21011KT 4200 RA BR OVC007/// ///TCU 05/05 Q1016 TEMPO 2000 DZRA OVC003"
"3696","LFOP",2019-12-06 08:30:00,1.1814,49.3831,41,41,100,190,11,0,29.97,NA,3.11,NA,"OVC","///",NA,NA,700,NA,NA,NA,"+DZ BR",NA,NA,NA,NA,NA,NA,33.84,"LFOP 060830Z AUTO 19011KT 5000 +DZ BR OVC007/// ///CB 05/05 Q1015 TEMPO 2000 DZRA OVC003"
"3697","LFOP",2019-12-06 09:00:00,1.1814,49.3831,41,41,100,200,14,0,29.97,NA,3.11,NA,"OVC","///",NA,NA,500,NA,NA,NA,"-RADZ BR",NA,NA,NA,NA,NA,NA,32.76,"LFOP 060900Z AUTO 20014KT 5000 -RADZ BR OVC005/// ///TCU 05/05 Q1015 TEMPO 2000 DZRA OVC003"
"3698","LFOP",2019-12-06 09:30:00,1.1814,49.3831,41,41,100,210,14,0,29.97,NA,3.73,NA,"OVC","///",NA,NA,500,NA,NA,NA,"-RADZ",NA,NA,NA,NA,NA,NA,32.76,"LFOP 060930Z AUTO 21014KT 6000 -RADZ OVC005/// ///TCU 05/05 Q1015 TEMPO 21017G27KT 2000 DZRA OVC003"
"3699","LFOP",2019-12-06 10:00:00,1.1814,49.3831,41,41,100,200,17,0,29.97,NA,3.11,NA,"OVC","///",NA,NA,500,NA,NA,NA,"-RA BR",NA,NA,NA,NA,NA,NA,31.87,"LFOP 061000Z AUTO 20017KT 5000 -RA BR OVC005/// ///CB 05/05 Q1015 TEMPO 21017G27KT 2000 DZRA OVC003"
"3700","LFOP",2019-12-06 10:30:00,1.1814,49.3831,41,41,100,210,15,0,29.97,NA,3.11,NA,"OVC","///",NA,NA,600,NA,NA,NA,"-RA BR",NA,NA,NA,NA,NA,NA,32.45,"LFOP 061030Z AUTO 21015KT 5000 -RA BR OVC006/// ///TCU 05/05 Q1015 TEMPO 21017G27KT 2000 DZRA OVC003"
"3701","LFOP",2019-12-06 11:00:00,1.1814,49.3831,41,41,100,200,16,0,29.94,NA,4.35,NA,"OVC","///",NA,NA,700,NA,NA,NA,NA,NA,NA,NA,NA,NA,NA,32.15,"LFOP 061100Z AUTO 20016KT 7000 OVC007/// ///CB 05/05 Q1014 TEMPO 21017G27KT 2000 DZRA OVC003"
"3702","LFOP",2019-12-06 11:30:00,1.1814,49.3831,41,41,100,190,14,0,29.94,NA,4.35,NA,"OVC","///",NA,NA,600,NA,NA,NA,"-RA",NA,NA,NA,NA,NA,NA,32.76,"LFOP 061130Z AUTO 19014KT 7000 -RA OVC006/// ///TCU 05/05 Q1014 TEMPO 2000 DZRA OVC004 BECMG 21015G25KT"
"3703","LFOP",2019-12-06 12:00:00,1.1814,49.3831,41,41,100,190,13,0,29.91,NA,5.59,NA,"OVC","///",NA,NA,700,NA,NA,NA,NA,NA,NA,NA,NA,NA,NA,33.1,"LFOP 061200Z AUTO 19013KT 9000 OVC007/// ///CB 05/05 Q1013 TEMPO 2000 DZRA OVC004 BECMG 21015G25KT"
"3704","LFOP",2019-12-06 12:30:00,1.1814,49.3831,41,41,100,190,15,0,29.88,NA,6.21,NA,"OVC",NA,NA,NA,700,NA,NA,NA,NA,NA,NA,NA,NA,NA,NA,32.45,"LFOP 061230Z AUTO 19015KT 9999 OVC007 05/05 Q1012 TEMPO 2000 DZRA OVC004 BECMG 21015G25KT"
"3705","LFOP",2019-12-06 13:00:00,1.1814,49.3831,42.8,42.8,100,190,14,0,29.88,NA,6.21,NA,"OVC",NA,NA,NA,800,NA,NA,NA,NA,NA,NA,NA,NA,NA,NA,35.08,"LFOP 061300Z AUTO 19014KT 9999 OVC008 06/06 Q1012 TEMPO 2000 DZRA OVC004 BECMG 21015G25KT"
"3706","LFOP",2019-12-06 13:30:00,1.1814,49.3831,42.8,42.8,100,180,12,0,29.85,NA,6.21,NA,"OVC",NA,NA,NA,700,NA,NA,NA,NA,NA,NA,NA,NA,NA,NA,35.75,"LFOP 061330Z AUTO 18012KT 9999 OVC007 06/06 Q1011 TEMPO 2000 DZRA OVC004 BECMG 21015G25KT"
"3707","LFOP",2019-12-06 14:00:00,1.1814,49.3831,42.8,42.8,100,190,12,0,29.85,NA,6.21,NA,"OVC",NA,NA,NA,700,NA,NA,NA,"DZ",NA,NA,NA,NA,NA,NA,35.75,"LFOP 061400Z AUTO 19012KT 9999 DZ OVC007 06/06 Q1011 TEMPO 2000 DZRA OVC004 BECMG 21015G25KT"
"3708","LFOP",2019-12-06 14:30:00,1.1814,49.3831,44.6,44.6,100,190,11,0,29.85,NA,6.21,NA,"OVC",NA,NA,NA,700,NA,NA,NA,NA,NA,NA,NA,NA,NA,NA,38.39,"LFOP 061430Z AUTO 19011KT 9999 OVC007 07/07 Q1011 TEMPO 2000 DZRA OVC004 BECMG 21015G25KT"
"3709","LFOP",2019-12-06 15:00:00,1.1814,49.3831,44.6,44.6,100,200,14,0,29.83,NA,5.59,NA,"OVC",NA,NA,NA,700,NA,NA,NA,NA,NA,NA,NA,NA,NA,NA,37.4,"LFOP 061500Z AUTO 20014KT 9000 OVC007 07/07 Q1010 TEMPO 2000 DZRA OVC004 BECMG 21015G25KT"
"3710","LFOP",2019-12-06 15:30:00,1.1814,49.3831,44.6,44.6,100,200,14,0,29.83,NA,4.35,NA,"OVC",NA,NA,NA,500,NA,NA,NA,NA,NA,NA,NA,NA,NA,NA,37.4,"LFOP 061530Z AUTO 20014KT 7000 OVC005 07/07 Q1010 TEMPO 2000 DZRA BECMG 21015G25KT"
"3711","LFOP",2019-12-06 16:00:00,1.1814,49.3831,46.4,46.4,100,210,16,0,29.83,NA,6.21,NA,"OVC",NA,NA,NA,600,NA,NA,NA,NA,NA,NA,NA,NA,NA,NA,39.19,"LFOP 061600Z AUTO 21016KT 9999 OVC006 08/08 Q1010 TEMPO 2000 DZRA OVC004 BECMG 21015G25KT"
"3712","LFOP",2019-12-06 16:30:00,1.1814,49.3831,46.4,46.4,100,210,16,0,29.8,NA,4.35,NA,"OVC",NA,NA,NA,600,NA,NA,NA,"-DZ",NA,NA,NA,NA,NA,NA,39.19,"LFOP 061630Z AUTO 21016KT 7000 -DZ OVC006 08/08 Q1009 TEMPO 2000 DZRA OVC004 BECMG 21015G25KT"
"3713","LFOP",2019-12-06 17:00:00,1.1814,49.3831,46.4,46.4,100,210,15,0,29.83,NA,4.35,NA,"OVC",NA,NA,NA,600,NA,NA,NA,"DZ",NA,NA,NA,NA,NA,NA,39.45,"LFOP 061700Z AUTO 21015KT 7000 DZ OVC006 08/08 Q1010 TEMPO 2000 DZRA OVC004 BECMG 21015G25KT"
"3714","LFOP",2019-12-06 17:30:00,1.1814,49.3831,46.4,46.4,100,200,16,0,29.8,NA,4.97,NA,"OVC",NA,NA,NA,500,NA,NA,NA,"DZ",NA,NA,NA,NA,NA,NA,39.19,"LFOP 061730Z AUTO 20016KT 8000 DZ OVC005 08/08 Q1009 TEMPO 2000 DZRA BECMG 27015G25KT"
"3715","LFOP",2019-12-06 18:00:00,1.1814,49.3831,46.4,46.4,100,220,13,0,29.83,NA,4.35,NA,"OVC",NA,NA,NA,400,NA,NA,NA,"-RADZ",NA,NA,NA,NA,NA,NA,40.02,"LFOP 061800Z AUTO 22013KT 7000 -RADZ OVC004 08/08 Q1010 TEMPO 2000 DZRA BECMG 27015G25KT"
"3716","LFOP",2019-12-06 18:30:00,1.1814,49.3831,48.2,48.2,100,220,16,0,29.83,NA,3.73,NA,"OVC",NA,NA,NA,400,NA,NA,NA,"+DZ",NA,NA,NA,NA,NA,NA,41.53,"LFOP 061830Z AUTO 22016KT 6000 +DZ OVC004 09/09 Q1010 TEMPO 2000 DZRA BECMG 27015G25KT BKN020"
"3717","LFOP",2019-12-06 19:00:00,1.1814,49.3831,48.2,48.2,100,230,14,0,29.83,NA,6.21,NA,"OVC",NA,NA,NA,700,NA,NA,NA,NA,NA,NA,NA,NA,NA,NA,42.04,"LFOP 061900Z AUTO 23014KT 9999 OVC007 09/09 Q1010 TEMPO 2000 DZRA BECMG 27015G25KT BKN020"
"3718","LFOP",2019-12-06 19:30:00,1.1814,49.3831,48.2,48.2,100,230,12,0,29.83,NA,6.21,NA,"BKN","OVC",NA,NA,1000,1500,NA,NA,"-RADZ",NA,NA,NA,NA,NA,NA,42.62,"LFOP 061930Z AUTO 23012KT 9999 -RADZ BKN010 OVC015 09/09 Q1010 TEMPO 27015G25KT BECMG BKN020"
"3719","LFOP",2019-12-06 20:00:00,1.1814,49.3831,48.2,48.2,100,230,15,0,29.83,NA,6.21,NA,"BKN","OVC",NA,NA,1300,1900,NA,NA,NA,NA,NA,NA,NA,NA,NA,41.78,"LFOP 062000Z AUTO 23015KT 9999 BKN013 OVC019 09/09 Q1010 TEMPO 27015G25KT BECMG BKN020"
"3720","LFOP",2019-12-06 20:30:00,1.1814,49.3831,50,48.2,93.5,260,11,0,29.85,NA,6.21,NA,"BKN","BKN","OVC",NA,1300,2000,2500,NA,NA,NA,NA,NA,NA,NA,NA,45.21,"LFOP 062030Z AUTO 26011KT 230V310 9999 BKN013 BKN020 OVC025 10/09 Q1011 BECMG BKN020"
"3721","LFOP",2019-12-06 21:00:00,1.1814,49.3831,50,48.2,93.5,260,10,0,29.85,NA,6.21,NA,"OVC",NA,NA,NA,1400,NA,NA,NA,NA,NA,NA,NA,NA,NA,NA,45.54,"LFOP 062100Z AUTO 26010KT 230V290 9999 OVC014 10/09 Q1011 BECMG BKN020"
"3722","LFOP",2019-12-06 21:30:00,1.1814,49.3831,50,48.2,93.5,260,12,0,29.88,NA,6.21,NA,"BKN","OVC",NA,NA,1500,2200,NA,NA,NA,NA,NA,NA,NA,NA,NA,44.91,"LFOP 062130Z AUTO 26012KT 230V290 9999 BKN015 OVC022 10/09 Q1012"
"3723","LFOP",2019-12-06 22:00:00,1.1814,49.3831,50,48.2,93.5,270,11,0,29.88,NA,6.21,NA,"BKN","BKN","OVC",NA,1400,1900,2400,NA,NA,NA,NA,NA,NA,NA,NA,45.21,"LFOP 062200Z AUTO 27011KT 9999 BKN014 BKN019 OVC024 10/09 Q1012"
"3724","LFOP",2019-12-06 22:30:00,1.1814,49.3831,50,48.2,93.5,260,13,0,29.88,NA,6.21,NA,"BKN","BKN","BKN",NA,1400,2100,4500,NA,NA,NA,NA,NA,NA,NA,NA,44.63,"LFOP 062230Z AUTO 26013KT 9999 BKN014 BKN021 BKN045 10/09 Q1012"
"3725","LFOP",2019-12-06 23:00:00,1.1814,49.3831,50,48.2,93.5,260,12,0,29.91,NA,6.21,NA,"BKN","BKN","BKN",NA,1000,1400,1900,NA,"-RADZ",NA,NA,NA,NA,NA,NA,44.91,"LFOP 062300Z AUTO 26012KT 9999 -RADZ BKN010 BKN014 BKN019 10/09 Q1013"
"3726","LFOP",2019-12-06 23:30:00,1.1814,49.3831,48.2,48.2,100,260,8,0,29.91,NA,6.21,NA,"FEW","BKN","OVC",NA,600,1200,2100,NA,NA,NA,NA,NA,NA,NA,NA,44.07,"LFOP 062330Z AUTO 26008KT 240V310 9999 FEW006 BKN012 OVC021 09/09 Q1013"
"3727","LFRT",2019-12-06 07:00:00,-2.8531,48.5364,50,48.2,93.5,230,12,0,29.97,NA,6.21,NA,"OVC","///",NA,NA,1100,NA,NA,NA,"-RADZ",NA,NA,NA,NA,NA,NA,44.91,"LFRT 060700Z AUTO 23012KT 9999 -RADZ OVC011/// ///TCU 10/09 Q1015"
"3728","LFRT",2019-12-06 07:30:00,-2.8531,48.5364,50,48.2,93.5,240,13,0,29.97,NA,6.21,NA,"OVC",NA,NA,NA,1000,NA,NA,NA,NA,NA,NA,NA,NA,NA,NA,44.63,"LFRT 060730Z AUTO 24013KT 9999 OVC010 10/09 Q1015"
"3729","LFRT",2019-12-06 08:00:00,-2.8531,48.5364,50,48.2,93.5,240,14,0,29.97,NA,6.21,NA,"BKN","OVC",NA,NA,1000,1700,NA,NA,NA,NA,NA,NA,NA,NA,NA,44.36,"LFRT 060800Z AUTO 24014KT 200V270 9999 BKN010 OVC017 10/09 Q1015"
"3730","LFRT",2019-12-06 08:30:00,-2.8531,48.5364,51.8,48.2,87.47,230,13,0,29.97,NA,6.21,NA,"BKN","OVC",NA,NA,1200,1800,NA,NA,NA,NA,NA,NA,NA,NA,NA,NA,"LFRT 060830Z AUTO 23013KT 200V260 9999 BKN012 OVC018 11/09 Q1015"
"3731","LFRT",2019-12-06 09:00:00,-2.8531,48.5364,51.8,50,93.55,230,13,0,29.97,NA,6.21,24,"BKN","OVC",NA,NA,1100,1600,NA,NA,NA,NA,NA,NA,NA,NA,NA,NA,"LFRT 060900Z AUTO 23013G24KT 190V260 9999 BKN011 OVC016 11/10 Q1015"
"3732","LFRT",2019-12-06 09:30:00,-2.8531,48.5364,51.8,50,93.55,230,12,0,29.97,NA,6.21,22,"BKN","OVC",NA,NA,1100,1600,NA,NA,NA,NA,NA,NA,NA,NA,NA,NA,"LFRT 060930Z AUTO 23012G22KT 200V260 9999 BKN011 OVC016 11/10 Q1015"
"3733","LFRT",2019-12-06 10:00:00,-2.8531,48.5364,51.8,50,93.55,220,13,0,29.94,NA,6.21,23,"BKN","BKN","OVC",NA,1000,1400,2100,NA,NA,NA,NA,NA,NA,NA,NA,NA,"LFRT 061000Z AUTO 22013G23KT 190V250 9999 BKN010 BKN014 OVC021 11/10 Q1014"
"3734","LFRT",2019-12-06 10:30:00,-2.8531,48.5364,53.6,50,87.56,230,16,0,29.94,NA,6.21,NA,"BKN","OVC",NA,NA,1200,1700,NA,NA,NA,NA,NA,NA,NA,NA,NA,NA,"LFRT 061030Z AUTO 23016KT 200V260 9999 BKN012 OVC017 12/10 Q1014"
"3735","LFRT",2019-12-06 11:00:00,-2.8531,48.5364,53.6,51.8,93.6,240,14,0,29.94,NA,6.21,26,"BKN","OVC",NA,NA,1200,1800,NA,NA,NA,NA,NA,NA,NA,NA,NA,NA,"LFRT 061100Z AUTO 24014G26KT 9999 BKN012 OVC018 12/11 Q1014"
"3736","LFRT",2019-12-06 11:30:00,-2.8531,48.5364,53.6,51.8,93.6,230,17,0,29.91,NA,6.21,27,"BKN","OVC",NA,NA,1400,2000,NA,NA,NA,NA,NA,NA,NA,NA,NA,NA,"LFRT 061130Z AUTO 23017G27KT 9999 BKN014 OVC020 12/11 Q1013"
"3737","LFRT",2019-12-06 12:00:00,-2.8531,48.5364,53.6,51.8,93.6,230,16,0,29.88,NA,6.21,NA,"OVC",NA,NA,NA,1200,NA,NA,NA,NA,NA,NA,NA,NA,NA,NA,NA,"LFRT 061200Z AUTO 23016KT 9999 OVC012 12/11 Q1012"
"3738","LFRT",2019-12-06 12:30:00,-2.8531,48.5364,53.6,51.8,93.6,230,17,0,29.88,NA,6.21,NA,"OVC",NA,NA,NA,1300,NA,NA,NA,NA,NA,NA,NA,NA,NA,NA,NA,"LFRT 061230Z AUTO 23017KT 190V260 9999 OVC013 12/11 Q1012"
"3739","LFRT",2019-12-06 13:00:00,-2.8531,48.5364,53.6,51.8,93.6,240,17,0,29.88,NA,6.21,28,"OVC",NA,NA,NA,1300,NA,NA,NA,NA,NA,NA,NA,NA,NA,NA,NA,"LFRT 061300Z AUTO 24017G28KT 190V260 9999 OVC013 12/11 Q1012"
"3740","LFRT",2019-12-06 13:30:00,-2.8531,48.5364,53.6,51.8,93.6,240,14,0,29.88,NA,5.59,NA,"OVC",NA,NA,NA,1200,NA,NA,NA,NA,NA,NA,NA,NA,NA,NA,NA,"LFRT 061330Z AUTO 24014KT 200V270 9000 OVC012 12/11 Q1012"
"3741","LFRT",2019-12-06 14:00:00,-2.8531,48.5364,53.6,51.8,93.6,230,12,0,29.88,NA,3.11,NA,"OVC",NA,NA,NA,900,NA,NA,NA,"-DZ BR",NA,NA,NA,NA,NA,NA,NA,"LFRT 061400Z AUTO 23012KT 200V260 5000 -DZ BR OVC009 12/11 Q1012"
"3742","LFRT",2019-12-06 14:30:00,-2.8531,48.5364,53.6,51.8,93.6,230,11,0,29.85,NA,6.21,NA,"OVC",NA,NA,NA,1000,NA,NA,NA,"-RA",NA,NA,NA,NA,NA,NA,NA,"LFRT 061430Z AUTO 23011KT 9999 -RA OVC010 12/11 Q1011"
"3743","LFRT",2019-12-06 15:00:00,-2.8531,48.5364,53.6,51.8,93.6,230,11,0,29.85,NA,6.21,NA,"OVC",NA,NA,NA,1000,NA,NA,NA,NA,NA,NA,NA,NA,NA,NA,NA,"LFRT 061500Z AUTO 23011KT 200V260 9999 OVC010 12/11 Q1011"
"3744","LFRT",2019-12-06 15:30:00,-2.8531,48.5364,53.6,51.8,93.6,280,21,0,29.88,NA,4.35,NA,"BKN","BKN","OVC",NA,1100,1800,2700,NA,"-RA",NA,NA,NA,NA,NA,NA,NA,"LFRT 061530Z AUTO 28021KT 7000 -RA BKN011 BKN018 OVC027 12/11 Q1012"
"3745","LFRT",2019-12-06 16:00:00,-2.8531,48.5364,53.6,50,87.56,280,15,0,29.88,NA,6.21,NA,"FEW","BKN","OVC",NA,2700,3400,4000,NA,NA,NA,NA,NA,NA,NA,NA,NA,"LFRT 061600Z AUTO 28015KT 9999 FEW027 BKN034 OVC040 12/10 Q1012"
"3746","LFRT",2019-12-06 16:30:00,-2.8531,48.5364,53.6,50,87.56,260,12,0,29.88,NA,6.21,NA,"BKN","OVC",NA,NA,3800,4500,NA,NA,NA,NA,NA,NA,NA,NA,NA,NA,"LFRT 061630Z AUTO 26012KT 9999 BKN038 OVC045 12/10 Q1012"
"3747","LFRT",2019-12-06 17:00:00,-2.8531,48.5364,51.8,50,93.55,250,12,0,29.91,NA,6.21,NA,"BKN","BKN","OVC",NA,2800,3800,4600,NA,NA,NA,NA,NA,NA,NA,NA,NA,"LFRT 061700Z AUTO 25012KT 9999 BKN028 BKN038 OVC046 11/10 Q1013"
"3748","LFRT",2019-12-06 17:30:00,-2.8531,48.5364,51.8,50,93.55,260,13,0,29.91,NA,6.21,NA,"BKN","BKN","OVC",NA,1900,2500,3600,NA,NA,NA,NA,NA,NA,NA,NA,NA,"LFRT 061730Z AUTO 26013KT 9999 BKN019 BKN025 OVC036 11/10 Q1013"
"3749","LFRT",2019-12-06 18:00:00,-2.8531,48.5364,51.8,48.2,87.47,250,10,0,29.91,NA,6.21,NA,"FEW","OVC",NA,NA,2000,4300,NA,NA,NA,NA,NA,NA,NA,NA,NA,NA,"LFRT 061800Z AUTO 25010KT 9999 FEW020 OVC043 11/09 Q1013"
"3750","LFRT",2019-12-06 18:30:00,-2.8531,48.5364,51.8,48.2,87.47,260,11,0,29.91,NA,6.21,NA,"OVC",NA,NA,NA,4400,NA,NA,NA,NA,NA,NA,NA,NA,NA,NA,NA,"LFRT 061830Z AUTO 26011KT 9999 OVC044 11/09 Q1013"
"3751","LFRT",2019-12-06 19:00:00,-2.8531,48.5364,51.8,48.2,87.47,270,12,0,29.94,NA,6.21,NA,"FEW","OVC",NA,NA,2000,4300,NA,NA,NA,NA,NA,NA,NA,NA,NA,NA,"LFRT 061900Z AUTO 27012KT 9999 FEW020 OVC043 11/09 Q1014"
"3752","LFRT",2019-12-06 19:30:00,-2.8531,48.5364,51.8,48.2,87.47,270,12,0,29.94,NA,6.21,NA,"SCT","SCT","BKN",NA,2000,3300,4000,NA,NA,NA,NA,NA,NA,NA,NA,NA,"LFRT 061930Z AUTO 27012KT 9999 SCT020 SCT033 BKN040 11/09 Q1014"
"3753","LFRT",2019-12-06 20:00:00,-2.8531,48.5364,51.8,48.2,87.47,270,7,0,29.94,NA,6.21,NA,"BKN","BKN","BKN",NA,1900,2500,3000,NA,"-DZ",NA,NA,NA,NA,NA,NA,NA,"LFRT 062000Z AUTO 27007KT 9999 -DZ BKN019 BKN025 BKN030 11/09 Q1014"
"3754","LFRT",2019-12-06 20:30:00,-2.8531,48.5364,51.8,48.2,87.47,250,7,0,29.94,NA,6.21,NA,"BKN","OVC",NA,NA,1800,2300,NA,NA,NA,NA,NA,NA,NA,NA,NA,NA,"LFRT 062030Z AUTO 25007KT 210V270 9999 BKN018 OVC023 11/09 Q1014"
"3755","LFRT",2019-12-06 21:00:00,-2.8531,48.5364,51.8,48.2,87.47,260,7,0,29.97,NA,6.21,NA,"BKN","OVC",NA,NA,1700,4300,NA,NA,NA,NA,NA,NA,NA,NA,NA,NA,"LFRT 062100Z AUTO 26007KT 9999 BKN017 OVC043 11/09 Q1015"
"3756","LFRT",2019-12-06 21:30:00,-2.8531,48.5364,51.8,48.2,87.47,270,9,0,29.97,NA,6.21,NA,"FEW","OVC",NA,NA,1400,4200,NA,NA,NA,NA,NA,NA,NA,NA,NA,NA,"LFRT 062130Z AUTO 27009KT 9999 FEW014 OVC042 11/09 Q1015"
"3757","LFRT",2019-12-06 22:00:00,-2.8531,48.5364,50,48.2,93.5,270,10,0,29.97,NA,6.21,NA,"FEW","BKN","BKN",NA,3200,3900,25000,NA,NA,NA,NA,NA,NA,NA,NA,45.54,"LFRT 062200Z AUTO 27010KT 9999 FEW032 BKN039 BKN250 10/09 Q1015"
"3758","LFLN",2019-12-06 00:00:00,4.0247,46.4119,28.4,26.6,92.86,70,1,0,30.21,NA,2.73,NA,"NSC",NA,NA,NA,NA,NA,NA,NA,"BR",NA,NA,NA,NA,NA,NA,NA,"LFLN 060000Z AUTO 07001KT 4400 BR NSC M02/M03 Q1023"
"3759","LFLN",2019-12-06 00:30:00,4.0247,46.4119,28.4,26.6,92.86,0,0,0,30.21,NA,2.42,NA,"NSC",NA,NA,NA,NA,NA,NA,NA,"BR",NA,NA,NA,NA,NA,NA,NA,"LFLN 060030Z AUTO 00000KT 3900 BR NSC M02/M03 Q1023"
"3760","LFLN",2019-12-06 01:00:00,4.0247,46.4119,26.6,26.6,100,0,0,0,30.21,NA,2.92,NA,"NSC",NA,NA,NA,NA,NA,NA,NA,"BR",NA,NA,NA,NA,NA,NA,NA,"LFLN 060100Z AUTO 00000KT 4700 BR NSC M03/M03 Q1023"
"3761","LFLN",2019-12-06 01:30:00,4.0247,46.4119,26.6,24.8,92.8,0,0,0,30.21,NA,2.8,NA,"NSC",NA,NA,NA,NA,NA,NA,NA,"BR",NA,NA,NA,NA,NA,NA,NA,"LFLN 060130Z AUTO 00000KT 4500 BR NSC M03/M04 Q1023"
"3762","LFLN",2019-12-06 02:00:00,4.0247,46.4119,26.6,26.6,100,0,0,0,30.21,NA,3.11,NA,"NSC",NA,NA,NA,NA,NA,NA,NA,"BR",NA,NA,NA,NA,NA,NA,NA,"LFLN 060200Z AUTO 00000KT 5000 BR NSC M03/M03 Q1023"
"3763","LFLN",2019-12-06 02:30:00,4.0247,46.4119,26.6,26.6,100,0,0,0,30.21,NA,3.73,NA,"NSC",NA,NA,NA,NA,NA,NA,NA,NA,NA,NA,NA,NA,NA,NA,NA,"LFLN 060230Z AUTO 00000KT 6000 NSC M03/M03 Q1023"
"3764","LFLN",2019-12-06 03:00:00,4.0247,46.4119,26.6,24.8,92.8,0,0,0,30.18,NA,3.11,NA,"NSC",NA,NA,NA,NA,NA,NA,NA,"BR",NA,NA,NA,NA,NA,NA,NA,"LFLN 060300Z AUTO 00000KT 5000 BR NSC M03/M04 Q1022"
"3765","LFLN",2019-12-06 03:30:00,4.0247,46.4119,26.6,24.8,92.8,0,0,0,30.18,NA,2.73,NA,"NSC",NA,NA,NA,NA,NA,NA,NA,"BR",NA,NA,NA,NA,NA,NA,NA,"LFLN 060330Z AUTO 00000KT 4400 BR NSC M03/M04 Q1022"
"3766","LFLN",2019-12-06 04:00:00,4.0247,46.4119,24.8,24.8,100,NA,2,0,30.18,NA,3.11,NA,"NSC",NA,NA,NA,NA,NA,NA,NA,"BR",NA,NA,NA,NA,NA,NA,NA,"LFLN 060400Z AUTO VRB02KT 5000 BR NSC M04/M04 Q1022"
"3767","LFLN",2019-12-06 04:30:00,4.0247,46.4119,26.6,24.8,92.8,60,2,0,30.18,NA,3.11,NA,"NSC",NA,NA,NA,NA,NA,NA,NA,"BR",NA,NA,NA,NA,NA,NA,NA,"LFLN 060430Z AUTO 06002KT 5000 BR NSC M03/M04 Q1022"
"3768","LFLN",2019-12-06 05:00:00,4.0247,46.4119,24.8,24.8,100,70,2,0,30.18,NA,3.73,NA,"NSC",NA,NA,NA,NA,NA,NA,NA,NA,NA,NA,NA,NA,NA,NA,NA,"LFLN 060500Z AUTO 07002KT 6000 NSC M04/M04 Q1022"
"3769","LFLN",2019-12-06 05:30:00,4.0247,46.4119,24.8,24.8,100,50,2,0,30.18,NA,3.73,NA,"NSC",NA,NA,NA,NA,NA,NA,NA,NA,NA,NA,NA,NA,NA,NA,NA,"LFLN 060530Z AUTO 05002KT 6000 NSC M04/M04 Q1022"
"3770","LFLN",2019-12-06 06:00:00,4.0247,46.4119,24.8,24.8,100,0,0,0,30.18,NA,3.73,NA,"NSC",NA,NA,NA,NA,NA,NA,NA,NA,NA,NA,NA,NA,NA,NA,NA,"LFLN 060600Z AUTO 00000KT 6000 NSC M04/M04 Q1022 TEMPO 0500 FZFG VV///"
"3771","LFLN",2019-12-06 06:30:00,4.0247,46.4119,24.8,24.8,100,0,0,0,30.18,NA,3.73,NA,"NSC",NA,NA,NA,NA,NA,NA,NA,NA,NA,NA,NA,NA,NA,NA,NA,"LFLN 060630Z AUTO 00000KT 6000 NSC M04/M04 Q1022 TEMPO 4000 BR VV///"
"3772","LFLN",2019-12-06 07:00:00,4.0247,46.4119,24.8,23,92.74,0,0,0,30.18,NA,3.73,NA,"NSC",NA,NA,NA,NA,NA,NA,NA,NA,NA,NA,NA,NA,NA,NA,NA,"LFLN 060700Z AUTO 00000KT 6000 NSC M04/M05 Q1022 TEMPO 4000 BR VV///"
"3773","LFLN",2019-12-06 07:30:00,4.0247,46.4119,24.8,23,92.74,30,2,0,30.18,NA,4.35,NA,"NSC",NA,NA,NA,NA,NA,NA,NA,NA,NA,NA,NA,NA,NA,NA,NA,"LFLN 060730Z AUTO 03002KT 7000 NSC M04/M05 Q1022 TEMPO 4000 BR"
"3774","LFLN",2019-12-06 08:00:00,4.0247,46.4119,26.6,24.8,92.8,0,0,0,30.18,NA,4.35,NA,"NSC",NA,NA,NA,NA,NA,NA,NA,NA,NA,NA,NA,NA,NA,NA,NA,"LFLN 060800Z AUTO 00000KT 7000 NSC M03/M04 Q1022 TEMPO 4000 BR"
"3775","LFLN",2019-12-06 08:30:00,4.0247,46.4119,28.4,26.6,92.86,0,0,0,30.18,NA,4.35,NA,"NSC",NA,NA,NA,NA,NA,NA,NA,NA,NA,NA,NA,NA,NA,NA,NA,"LFLN 060830Z AUTO 00000KT 7000 NSC M02/M03 Q1022 NOSIG"
"3776","LFLN",2019-12-06 09:00:00,4.0247,46.4119,32,30.2,92.97,0,0,0,30.18,NA,4.35,NA,"NSC",NA,NA,NA,NA,NA,NA,NA,NA,NA,NA,NA,NA,NA,NA,NA,"LFLN 060900Z AUTO 00000KT 7000 NSC M00/M01 Q1022 NOSIG"
"3777","LFLN",2019-12-06 09:30:00,4.0247,46.4119,33.8,32,93.03,0,0,0,30.18,NA,4.97,NA,"NSC",NA,NA,NA,NA,NA,NA,NA,NA,NA,NA,NA,NA,NA,NA,NA,"LFLN 060930Z AUTO 00000KT 8000 NSC 01/M00 Q1022 NOSIG"
"3778","LFLN",2019-12-06 10:00:00,4.0247,46.4119,35.6,32,86.59,0,0,0,30.18,NA,6.21,NA,NA,NA,NA,NA,NA,NA,NA,NA,NA,NA,NA,NA,NA,NA,NA,NA,"LFLN 061000Z AUTO 00000KT CAVOK 02/00 Q1022 NOSIG"
"3779","LFLN",2019-12-06 10:30:00,4.0247,46.4119,41,33.8,75.33,NA,1,0,30.18,NA,6.21,NA,NA,NA,NA,NA,NA,NA,NA,NA,NA,NA,NA,NA,NA,NA,NA,NA,"LFLN 061030Z AUTO VRB01KT CAVOK 05/01 Q1022 NOSIG"
"3780","LFLN",2019-12-06 11:00:00,4.0247,46.4119,42.8,35.6,75.5,NA,1,0,30.15,NA,6.21,NA,NA,NA,NA,NA,NA,NA,NA,NA,NA,NA,NA,NA,NA,NA,NA,NA,"LFLN 061100Z AUTO VRB01KT CAVOK 06/02 Q1021 NOSIG"
"3781","LFLN",2019-12-06 11:30:00,4.0247,46.4119,44.6,37.4,75.68,NA,2,0,30.15,NA,6.21,NA,NA,NA,NA,NA,NA,NA,NA,NA,NA,NA,NA,NA,NA,NA,NA,NA,"LFLN 061130Z AUTO VRB02KT CAVOK 07/03 Q1021 NOSIG"
"3782","LFLN",2019-12-06 12:00:00,4.0247,46.4119,48.2,37.4,66.05,NA,3,0,30.15,NA,6.21,NA,NA,NA,NA,NA,NA,NA,NA,NA,NA,NA,NA,NA,NA,NA,NA,47.21,"LFLN 061200Z AUTO VRB03KT CAVOK 09/03 Q1021 NOSIG"
"3783","LFLN",2019-12-06 12:30:00,4.0247,46.4119,50,37.4,61.76,NA,2,0,30.12,NA,6.21,NA,NA,NA,NA,NA,NA,NA,NA,NA,NA,NA,NA,NA,NA,NA,NA,NA,"LFLN 061230Z AUTO VRB02KT CAVOK 10/03 Q1020 NOSIG"
"3784","LFLN",2019-12-06 13:00:00,4.0247,46.4119,48.2,39.2,70.88,340,3,0,30.12,NA,6.21,NA,NA,NA,NA,NA,NA,NA,NA,NA,NA,NA,NA,NA,NA,NA,NA,47.21,"LFLN 061300Z AUTO 34003KT 310V030 CAVOK 09/04 Q1020 NOSIG"
"3785","LFLN",2019-12-06 13:30:00,4.0247,46.4119,48.2,39.2,70.88,NA,3,0,30.09,NA,6.21,NA,NA,NA,NA,NA,NA,NA,NA,NA,NA,NA,NA,NA,NA,NA,NA,47.21,"LFLN 061330Z AUTO VRB03KT CAVOK 09/04 Q1019 NOSIG"
"3786","LFLN",2019-12-06 14:00:00,4.0247,46.4119,48.2,41,76.01,40,2,0,30.09,NA,6.21,NA,NA,NA,NA,NA,NA,NA,NA,NA,NA,NA,NA,NA,NA,NA,NA,NA,"LFLN 061400Z AUTO 04002KT CAVOK 09/05 Q1019 NOSIG"
"3787","LFLN",2019-12-06 14:30:00,4.0247,46.4119,48.2,41,76.01,0,0,0,30.09,NA,6.21,NA,NA,NA,NA,NA,NA,NA,NA,NA,NA,NA,NA,NA,NA,NA,NA,NA,"LFLN 061430Z AUTO 00000KT CAVOK 09/05 Q1019 NOSIG"
"3788","LFLN",2019-12-06 15:00:00,4.0247,46.4119,48.2,41,76.01,0,0,0,30.09,NA,6.21,NA,NA,NA,NA,NA,NA,NA,NA,NA,NA,NA,NA,NA,NA,NA,NA,NA,"LFLN 061500Z AUTO 00000KT CAVOK 09/05 Q1019 NOSIG"
"3789","LFLN",2019-12-06 15:30:00,4.0247,46.4119,46.4,41,81.34,0,0,0,30.09,NA,6.21,NA,NA,NA,NA,NA,NA,NA,NA,NA,NA,NA,NA,NA,NA,NA,NA,NA,"LFLN 061530Z AUTO 00000KT CAVOK 08/05 Q1019 NOSIG"
"3790","LFLN",2019-12-06 16:00:00,4.0247,46.4119,42.8,39.2,86.99,340,2,0,30.09,NA,6.21,NA,NA,NA,NA,NA,NA,NA,NA,NA,NA,NA,NA,NA,NA,NA,NA,NA,"LFLN 061600Z AUTO 34002KT CAVOK 06/04 Q1019 NOSIG"
"3791","LFLN",2019-12-06 16:30:00,4.0247,46.4119,42.8,39.2,86.99,310,1,0,30.09,NA,6.21,NA,NA,NA,NA,NA,NA,NA,NA,NA,NA,NA,NA,NA,NA,NA,NA,NA,"LFLN 061630Z AUTO 31001KT CAVOK 06/04 Q1019 NOSIG"
"3792","LFLN",2019-12-06 17:00:00,4.0247,46.4119,42.8,39.2,86.99,0,0,0,30.09,NA,6.21,NA,NA,NA,NA,NA,NA,NA,NA,NA,NA,NA,NA,NA,NA,NA,NA,NA,"LFLN 061700Z AUTO 00000KT CAVOK 06/04 Q1019 NOSIG"
"3793","LFLN",2019-12-06 17:30:00,4.0247,46.4119,41,39.2,93.24,0,0,0,30.09,NA,5.59,NA,"NSC",NA,NA,NA,NA,NA,NA,NA,NA,NA,NA,NA,NA,NA,NA,NA,"LFLN 061730Z AUTO 00000KT 9000 NSC 05/04 Q1019 NOSIG"
"3794","LFLN",2019-12-06 18:00:00,4.0247,46.4119,42.8,41,93.3,150,2,0,30.09,NA,4.97,NA,"NSC",NA,NA,NA,NA,NA,NA,NA,NA,NA,NA,NA,NA,NA,NA,NA,"LFLN 061800Z AUTO 15002KT 8000 NSC 06/05 Q1019 NOSIG"
"3795","LFLN",2019-12-06 18:30:00,4.0247,46.4119,41,39.2,93.24,0,0,0,30.09,NA,4.35,NA,"NSC",NA,NA,NA,NA,NA,NA,NA,NA,NA,NA,NA,NA,NA,NA,NA,"LFLN 061830Z AUTO 00000KT 7000 NSC 05/04 Q1019 NOSIG"
"3796","LFLN",2019-12-06 19:00:00,4.0247,46.4119,39.2,37.4,93.19,0,0,0,30.09,NA,4.97,NA,"NSC",NA,NA,NA,NA,NA,NA,NA,NA,NA,NA,NA,NA,NA,NA,NA,"LFLN 061900Z AUTO 00000KT 8000 NSC 04/03 Q1019 NOSIG"
"3797","LFLN",2019-12-06 19:30:00,4.0247,46.4119,39.2,39.2,100,350,2,0,30.09,NA,4.35,NA,"NSC",NA,NA,NA,NA,NA,NA,NA,NA,NA,NA,NA,NA,NA,NA,NA,"LFLN 061930Z AUTO 35002KT 7000 NSC 04/04 Q1019 TEMPO 4000 -RA"
"3798","LFLN",2019-12-06 20:00:00,4.0247,46.4119,41,39.2,93.24,0,0,0,30.09,NA,5.59,NA,"NSC",NA,NA,NA,NA,NA,NA,NA,NA,NA,NA,NA,NA,NA,NA,NA,"LFLN 062000Z AUTO 00000KT 9000 NSC 05/04 Q1019 TEMPO 4000 -RA"
"3799","LFLN",2019-12-06 20:30:00,4.0247,46.4119,41,39.2,93.24,150,4,0,30.09,NA,5.59,NA,"NSC",NA,NA,NA,NA,NA,NA,NA,NA,NA,NA,NA,NA,NA,NA,37.93,"LFLN 062030Z AUTO 15004KT 9000 NSC 05/04 Q1019 TEMPO 4000 -RA"
"3800","LFLN",2019-12-06 21:00:00,4.0247,46.4119,42.8,37.4,81.07,170,5,0,30.09,NA,6.21,NA,"FEW","OVC",NA,NA,4800,8600,NA,NA,NA,NA,NA,NA,NA,NA,NA,39.22,"LFLN 062100Z AUTO 17005KT 9999 FEW048 OVC086 06/03 Q1019 TEMPO 4000 -RA"
"3801","LFLN",2019-12-06 21:30:00,4.0247,46.4119,44.6,37.4,75.68,190,4,0,30.09,NA,6.21,NA,NA,NA,NA,NA,NA,NA,NA,NA,NA,NA,NA,NA,NA,NA,NA,42.13,"LFLN 062130Z AUTO 19004KT CAVOK 07/03 Q1019 TEMPO 4000 -RA"
"3802","LFLN",2019-12-06 22:00:00,4.0247,46.4119,44.6,37.4,75.68,190,3,0,30.09,NA,6.21,NA,NA,NA,NA,NA,NA,NA,NA,NA,NA,NA,NA,NA,NA,NA,NA,43.09,"LFLN 062200Z AUTO 19003KT CAVOK 07/03 Q1019 TEMPO 4000 -RA"
"3803","LFLN",2019-12-06 22:30:00,4.0247,46.4119,44.6,37.4,75.68,180,3,0,30.09,NA,6.21,NA,NA,NA,NA,NA,NA,NA,NA,NA,NA,NA,NA,NA,NA,NA,NA,43.09,"LFLN 062230Z AUTO 18003KT CAVOK 07/03 Q1019 TEMPO 4000 -RA"
"3804","LFLN",2019-12-06 23:00:00,4.0247,46.4119,44.6,37.4,75.68,0,0,0,30.09,NA,6.21,NA,NA,NA,NA,NA,NA,NA,NA,NA,NA,NA,NA,NA,NA,NA,NA,NA,"LFLN 062300Z AUTO 00000KT CAVOK 07/03 Q1019 TEMPO 4000 -RA"
"3805","LFLN",2019-12-06 23:30:00,4.0247,46.4119,41,37.4,86.89,NA,2,0,30.09,NA,6.21,NA,NA,NA,NA,NA,NA,NA,NA,NA,NA,NA,NA,NA,NA,NA,NA,NA,"LFLN 062330Z AUTO VRB02KT CAVOK 05/03 Q1019"
"3806","LFMY",2019-12-06 00:00:00,5.1083,43.6033,46.4,42.8,87.19,NA,1,0,30.21,NA,6.21,NA,NA,NA,NA,NA,NA,NA,NA,NA,NA,NA,NA,NA,NA,NA,NA,NA,"LFMY 060000Z AUTO VRB01KT CAVOK 08/06 Q1023"
"3807","LFMY",2019-12-06 00:30:00,5.1083,43.6033,46.4,44.6,93.4,0,0,0,30.21,NA,6.21,NA,NA,NA,NA,NA,NA,NA,NA,NA,NA,NA,NA,NA,NA,NA,NA,NA,"LFMY 060030Z AUTO 00000KT CAVOK 08/07 Q1023"
"3808","LFMY",2019-12-06 01:00:00,5.1083,43.6033,46.4,44.6,93.4,70,3,0,30.21,NA,6.21,NA,"///",NA,NA,NA,NA,NA,NA,NA,NA,NA,NA,NA,NA,NA,NA,45.15,"LFMY 060100Z AUTO 07003KT 9999 ///TCU 08/07 Q1023"
"3809","LFMY",2019-12-06 01:30:00,5.1083,43.6033,46.4,42.8,87.19,NA,2,0,30.21,NA,6.21,NA,NA,NA,NA,NA,NA,NA,NA,NA,NA,NA,NA,NA,NA,NA,NA,NA,"LFMY 060130Z AUTO VRB02KT CAVOK 08/06 Q1023"
"3810","LFMY",2019-12-06 02:00:00,5.1083,43.6033,46.4,42.8,87.19,0,0,0,30.21,NA,6.21,NA,"NSC",NA,NA,NA,NA,NA,NA,NA,"-RA",NA,NA,NA,NA,NA,NA,NA,"LFMY 060200Z AUTO 00000KT 9999 -RA NSC 08/06 Q1023"
"3811","LFMY",2019-12-06 02:30:00,5.1083,43.6033,46.4,44.6,93.4,50,3,0,30.21,NA,6.21,NA,NA,NA,NA,NA,NA,NA,NA,NA,NA,NA,NA,NA,NA,NA,NA,45.15,"LFMY 060230Z AUTO 05003KT CAVOK 08/07 Q1023"
"3812","LFMY",2019-12-06 03:00:00,5.1083,43.6033,46.4,41,81.34,60,3,0,30.18,NA,6.21,NA,NA,NA,NA,NA,NA,NA,NA,NA,NA,NA,NA,NA,NA,NA,NA,45.15,"LFMY 060300Z AUTO 06003KT CAVOK 08/05 Q1022"
"3813","LFMY",2019-12-06 03:30:00,5.1083,43.6033,46.4,41,81.34,NA,2,0,30.18,NA,6.21,NA,NA,NA,NA,NA,NA,NA,NA,NA,NA,NA,NA,NA,NA,NA,NA,NA,"LFMY 060330Z AUTO VRB02KT CAVOK 08/05 Q1022"
"3814","LFMY",2019-12-06 04:00:00,5.1083,43.6033,46.4,42.8,87.19,NA,3,0,30.18,NA,6.21,NA,NA,NA,NA,NA,NA,NA,NA,NA,NA,NA,NA,NA,NA,NA,NA,45.15,"LFMY 060400Z AUTO VRB03KT CAVOK 08/06 Q1022"
"3815","LFMY",2019-12-06 04:30:00,5.1083,43.6033,46.4,41,81.34,0,0,0,30.18,NA,6.21,NA,NA,NA,NA,NA,NA,NA,NA,NA,NA,NA,NA,NA,NA,NA,NA,NA,"LFMY 060430Z AUTO 00000KT CAVOK 08/05 Q1022"
"3816","LFMY",2019-12-06 05:00:00,5.1083,43.6033,44.6,41,87.09,340,2,0,30.18,NA,6.21,NA,NA,NA,NA,NA,NA,NA,NA,NA,NA,NA,NA,NA,NA,NA,NA,NA,"LFMY 060500Z AUTO 34002KT CAVOK 07/05 Q1022"
"3817","LFMY",2019-12-06 05:30:00,5.1083,43.6033,44.6,41,87.09,0,0,0,30.21,NA,6.21,NA,NA,NA,NA,NA,NA,NA,NA,NA,NA,NA,NA,NA,NA,NA,NA,NA,"LFMY 060530Z AUTO 00000KT CAVOK 07/05 Q1023"
"3818","LFMY",2019-12-06 06:00:00,5.1083,43.6033,42.8,39.2,86.99,0,0,0,30.21,NA,6.21,NA,NA,NA,NA,NA,NA,NA,NA,NA,NA,NA,NA,NA,NA,NA,NA,NA,"LFMY 060600Z AUTO 00000KT CAVOK 06/04 Q1023 NOSIG"
"3819","LFMY",2019-12-06 06:30:00,5.1083,43.6033,41,37.4,86.89,0,0,0,30.21,NA,6.21,NA,NA,NA,NA,NA,NA,NA,NA,NA,NA,NA,NA,NA,NA,NA,NA,NA,"LFMY 060630Z AUTO 00000KT CAVOK 05/03 Q1023 NOSIG"
"3820","LFMY",2019-12-06 07:00:00,5.1083,43.6033,41,39.2,93.24,NA,2,0,30.21,NA,6.21,NA,NA,NA,NA,NA,NA,NA,NA,NA,NA,NA,NA,NA,NA,NA,NA,NA,"LFMY 060700Z AUTO VRB02KT CAVOK 05/04 Q1023 NOSIG"
"3821","LFMY",2019-12-06 07:30:00,5.1083,43.6033,39.2,37.4,93.19,360,3,0,30.21,NA,6.21,NA,NA,NA,NA,NA,NA,NA,NA,NA,NA,NA,NA,NA,NA,NA,NA,36.92,"LFMY 060730Z AUTO 36003KT CAVOK 04/03 Q1023 NOSIG"
"3822","LFMY",2019-12-06 08:00:00,5.1083,43.6033,41,39.2,93.24,360,3,0,30.21,NA,6.21,NA,NA,NA,NA,NA,NA,NA,NA,NA,NA,NA,NA,NA,NA,NA,NA,38.98,"LFMY 060800Z AUTO 36003KT CAVOK 05/04 Q1023 NOSIG"
"3823","LFMY",2019-12-06 08:30:00,5.1083,43.6033,44.6,41,87.09,0,0,0,30.24,NA,6.21,NA,NA,NA,NA,NA,NA,NA,NA,NA,NA,NA,NA,NA,NA,NA,NA,NA,"LFMY 060830Z AUTO 00000KT CAVOK 07/05 Q1024 NOSIG"
"3824","LFMY",2019-12-06 09:00:00,5.1083,43.6033,48.2,41,76.01,NA,2,0,30.24,NA,6.21,NA,NA,NA,NA,NA,NA,NA,NA,NA,NA,NA,NA,NA,NA,NA,NA,NA,"LFMY 060900Z AUTO VRB02KT CAVOK 09/05 Q1024 NOSIG"
"3825","LFMY",2019-12-06 09:30:00,5.1083,43.6033,51.8,41,66.48,NA,1,0,30.24,NA,6.21,NA,NA,NA,NA,NA,NA,NA,NA,NA,NA,NA,NA,NA,NA,NA,NA,NA,"LFMY 060930Z AUTO VRB01KT CAVOK 11/05 Q1024 NOSIG"
"3826","LFMY",2019-12-06 10:00:00,5.1083,43.6033,53.6,41,62.23,330,3,0,30.24,NA,6.21,NA,NA,NA,NA,NA,NA,NA,NA,NA,NA,NA,NA,NA,NA,NA,NA,NA,"LFMY 061000Z AUTO 33003KT CAVOK 12/05 Q1024 NOSIG"
"3827","LFMY",2019-12-06 10:30:00,5.1083,43.6033,55.4,42.8,62.46,320,2,0,30.21,NA,6.21,NA,NA,NA,NA,NA,NA,NA,NA,NA,NA,NA,NA,NA,NA,NA,NA,NA,"LFMY 061030Z AUTO 32002KT CAVOK 13/06 Q1023 NOSIG"
"3828","LFMY",2019-12-06 11:00:00,5.1083,43.6033,57.2,42.8,58.52,NA,2,0,30.21,NA,6.21,NA,NA,NA,NA,NA,NA,NA,NA,NA,NA,NA,NA,NA,NA,NA,NA,NA,"LFMY 061100Z AUTO VRB02KT CAVOK 14/06 Q1023 NOSIG"
"3829","LFMY",2019-12-06 11:30:00,5.1083,43.6033,60.8,39.2,44.76,0,0,0,30.21,NA,6.21,NA,NA,NA,NA,NA,NA,NA,NA,NA,NA,NA,NA,NA,NA,NA,NA,NA,"LFMY 061130Z AUTO 00000KT CAVOK 16/04 Q1023 NOSIG"
"3830","LFMY",2019-12-06 12:00:00,5.1083,43.6033,60.8,39.2,44.76,NA,3,0,30.18,NA,6.21,NA,NA,NA,NA,NA,NA,NA,NA,NA,NA,NA,NA,NA,NA,NA,NA,NA,"LFMY 061200Z AUTO VRB03KT CAVOK 16/04 Q1022 NOSIG"
"3831","LFMY",2019-12-06 12:30:00,5.1083,43.6033,60.8,33.8,36.16,320,3,0,30.18,NA,6.21,NA,NA,NA,NA,NA,NA,NA,NA,NA,NA,NA,NA,NA,NA,NA,NA,NA,"LFMY 061230Z AUTO 32003KT 260V350 CAVOK 16/01 Q1022 NOSIG"
"3832","LFMY",2019-12-06 13:00:00,5.1083,43.6033,60.8,35.6,38.85,NA,3,0,30.18,NA,6.21,NA,NA,NA,NA,NA,NA,NA,NA,NA,NA,NA,NA,NA,NA,NA,NA,NA,"LFMY 061300Z AUTO VRB03KT CAVOK 16/02 Q1022 NOSIG"
"3833","LFMY",2019-12-06 13:30:00,5.1083,43.6033,60.8,37.4,41.71,310,4,0,30.15,NA,6.21,NA,NA,NA,NA,NA,NA,NA,NA,NA,NA,NA,NA,NA,NA,NA,NA,NA,"LFMY 061330Z AUTO 31004KT 270V330 CAVOK 16/03 Q1021 NOSIG"
"3834","LFMY",2019-12-06 14:00:00,5.1083,43.6033,60.8,35.6,38.85,310,4,0,30.15,NA,6.21,NA,NA,NA,NA,NA,NA,NA,NA,NA,NA,NA,NA,NA,NA,NA,NA,NA,"LFMY 061400Z AUTO 31004KT 260V340 CAVOK 16/02 Q1021 NOSIG"
"3835","LFMY",2019-12-06 14:30:00,5.1083,43.6033,60.8,39.2,44.76,320,3,0,30.15,NA,6.21,NA,NA,NA,NA,NA,NA,NA,NA,NA,NA,NA,NA,NA,NA,NA,NA,NA,"LFMY 061430Z AUTO 32003KT 270V350 CAVOK 16/04 Q1021 NOSIG"
"3836","LFMY",2019-12-06 15:00:00,5.1083,43.6033,59,37.4,44.47,NA,3,0,30.15,NA,6.21,NA,NA,NA,NA,NA,NA,NA,NA,NA,NA,NA,NA,NA,NA,NA,NA,NA,"LFMY 061500Z AUTO VRB03KT CAVOK 15/03 Q1021"
"3837","LFMY",2019-12-06 15:30:00,5.1083,43.6033,59,35.6,41.42,NA,2,0,30.15,NA,6.21,NA,NA,NA,NA,NA,NA,NA,NA,NA,NA,NA,NA,NA,NA,NA,NA,NA,"LFMY 061530Z AUTO VRB02KT CAVOK 15/02 Q1021"
"3838","LFMY",2019-12-06 16:00:00,5.1083,43.6033,55.4,37.4,50.64,300,2,0,30.15,NA,6.21,NA,NA,NA,NA,NA,NA,NA,NA,NA,NA,NA,NA,NA,NA,NA,NA,NA,"LFMY 061600Z AUTO 30002KT CAVOK 13/03 Q1021"
"3839","LFMY",2019-12-06 16:30:00,5.1083,43.6033,51.8,41,66.48,210,2,0,30.15,NA,6.21,NA,NA,NA,NA,NA,NA,NA,NA,NA,NA,NA,NA,NA,NA,NA,NA,NA,"LFMY 061630Z AUTO 21002KT CAVOK 11/05 Q1021"
"3840","LFMY",2019-12-06 17:00:00,5.1083,43.6033,46.4,39.2,75.84,170,1,0,30.15,NA,6.21,NA,NA,NA,NA,NA,NA,NA,NA,NA,NA,NA,NA,NA,NA,NA,NA,NA,"LFMY 061700Z AUTO 17001KT CAVOK 08/04 Q1021"
"3841","LFMY",2019-12-06 17:30:00,5.1083,43.6033,44.6,39.2,81.2,0,0,0,30.15,NA,6.21,NA,NA,NA,NA,NA,NA,NA,NA,NA,NA,NA,NA,NA,NA,NA,NA,NA,"LFMY 061730Z AUTO 00000KT CAVOK 07/04 Q1021"
"3842","LFMY",2019-12-06 18:00:00,5.1083,43.6033,41,35.6,80.93,0,0,0,30.15,NA,6.21,NA,NA,NA,NA,NA,NA,NA,NA,NA,NA,NA,NA,NA,NA,NA,NA,NA,"LFMY 061800Z AUTO 00000KT CAVOK 05/02 Q1021"
"3843","LFMY",2019-12-06 18:30:00,5.1083,43.6033,41,37.4,86.89,0,0,0,30.15,NA,6.21,NA,NA,NA,NA,NA,NA,NA,NA,NA,NA,NA,NA,NA,NA,NA,NA,NA,"LFMY 061830Z AUTO 00000KT CAVOK 05/03 Q1021"
"3844","LFMY",2019-12-06 19:00:00,5.1083,43.6033,41,37.4,86.89,0,0,0,30.15,NA,6.21,NA,NA,NA,NA,NA,NA,NA,NA,NA,NA,NA,NA,NA,NA,NA,NA,NA,"LFMY 061900Z AUTO 00000KT CAVOK 05/03 Q1021"
"3845","LFMY",2019-12-06 19:30:00,5.1083,43.6033,39.2,35.6,86.79,NA,1,0,30.18,NA,6.21,NA,NA,NA,NA,NA,NA,NA,NA,NA,NA,NA,NA,NA,NA,NA,NA,NA,"LFMY 061930Z AUTO VRB01KT CAVOK 04/02 Q1022"
"3846","LFMY",2019-12-06 20:00:00,5.1083,43.6033,39.2,35.6,86.79,0,0,0,30.18,NA,6.21,NA,NA,NA,NA,NA,NA,NA,NA,NA,NA,NA,NA,NA,NA,NA,NA,NA,"LFMY 062000Z AUTO 00000KT CAVOK 04/02 Q1022"
"3847","LFMY",2019-12-06 20:30:00,5.1083,43.6033,37.4,35.6,93.14,0,0,0,30.18,NA,6.21,NA,NA,NA,NA,NA,NA,NA,NA,NA,NA,NA,NA,NA,NA,NA,NA,NA,"LFMY 062030Z AUTO 00000KT CAVOK 03/02 Q1022"
"3848","LFMY",2019-12-06 21:00:00,5.1083,43.6033,37.4,35.6,93.14,0,0,0,30.18,NA,6.21,NA,NA,NA,NA,NA,NA,NA,NA,NA,NA,NA,NA,NA,NA,NA,NA,NA,"LFMY 062100Z AUTO 00000KT CAVOK 03/02 Q1022"
"3849","LFMY",2019-12-06 21:30:00,5.1083,43.6033,37.4,33.8,86.69,0,0,0,30.18,NA,6.21,NA,NA,NA,NA,NA,NA,NA,NA,NA,NA,NA,NA,NA,NA,NA,NA,NA,"LFMY 062130Z AUTO 00000KT CAVOK 03/01 Q1022"
"3850","LFMY",2019-12-06 22:00:00,5.1083,43.6033,35.6,33.8,93.08,0,0,0,30.18,NA,6.21,NA,NA,NA,NA,NA,NA,NA,NA,NA,NA,NA,NA,NA,NA,NA,NA,NA,"LFMY 062200Z AUTO 00000KT CAVOK 02/01 Q1022"
"3851","LFMY",2019-12-06 22:30:00,5.1083,43.6033,37.4,35.6,93.14,0,0,0,30.18,NA,6.21,NA,NA,NA,NA,NA,NA,NA,NA,NA,NA,NA,NA,NA,NA,NA,NA,NA,"LFMY 062230Z AUTO 00000KT CAVOK 03/02 Q1022"
"3852","LFMY",2019-12-06 23:00:00,5.1083,43.6033,35.6,33.8,93.08,0,0,0,30.18,NA,6.21,NA,NA,NA,NA,NA,NA,NA,NA,NA,NA,NA,NA,NA,NA,NA,NA,NA,"LFMY 062300Z AUTO 00000KT CAVOK 02/01 Q1022"
"3853","LFMY",2019-12-06 23:30:00,5.1083,43.6033,35.6,33.8,93.08,0,0,0,30.18,NA,6.21,NA,NA,NA,NA,NA,NA,NA,NA,NA,NA,NA,NA,NA,NA,NA,NA,NA,"LFMY 062330Z AUTO 00000KT CAVOK 02/01 Q1022"
"3854","LFKS",2019-12-06 00:00:00,9.3967,41.9233,53.6,48.2,81.87,270,5,0,30.18,NA,6.21,NA,"FEW","OVC",NA,NA,2200,9200,NA,NA,NA,NA,NA,NA,NA,NA,NA,NA,"LFKS 060000Z AUTO 27005KT 9999 FEW022 OVC092 12/09 Q1022"
"3855","LFKS",2019-12-06 00:30:00,9.3967,41.9233,53.6,50,87.56,270,4,0,30.18,NA,6.21,NA,"OVC",NA,NA,NA,9200,NA,NA,NA,NA,NA,NA,NA,NA,NA,NA,NA,"LFKS 060030Z AUTO 27004KT 9999 OVC092 12/10 Q1022"
"3856","LFKS",2019-12-06 01:00:00,9.3967,41.9233,51.8,48.2,87.47,NA,2,0,30.18,NA,6.21,NA,"FEW","BKN",NA,NA,5200,9000,NA,NA,NA,NA,NA,NA,NA,NA,NA,NA,"LFKS 060100Z AUTO VRB02KT 9999 FEW052 BKN090 11/09 Q1022"
"3857","LFKS",2019-12-06 01:30:00,9.3967,41.9233,51.8,50,93.55,280,4,0,30.18,NA,6.21,NA,"BKN",NA,NA,NA,9200,NA,NA,NA,NA,NA,NA,NA,NA,NA,NA,NA,"LFKS 060130Z AUTO 28004KT 240V320 9999 BKN092 11/10 Q1022"
"3858","LFKS",2019-12-06 02:00:00,9.3967,41.9233,51.8,50,93.55,270,5,0,30.18,NA,6.21,NA,"FEW",NA,NA,NA,9400,NA,NA,NA,NA,NA,NA,NA,NA,NA,NA,NA,"LFKS 060200Z AUTO 27005KT 240V300 9999 FEW094 11/10 Q1022"
"3859","LFKS",2019-12-06 02:30:00,9.3967,41.9233,51.8,48.2,87.47,290,5,0,30.18,NA,6.21,NA,NA,NA,NA,NA,NA,NA,NA,NA,NA,NA,NA,NA,NA,NA,NA,NA,"LFKS 060230Z AUTO 29005KT 250V320 CAVOK 11/09 Q1022"
"3860","LFKS",2019-12-06 03:00:00,9.3967,41.9233,51.8,48.2,87.47,270,4,0,30.18,NA,6.21,NA,NA,NA,NA,NA,NA,NA,NA,NA,NA,NA,NA,NA,NA,NA,NA,NA,"LFKS 060300Z AUTO 27004KT CAVOK 11/09 Q1022"
"3861","LFKS",2019-12-06 03:30:00,9.3967,41.9233,51.8,48.2,87.47,270,5,0,30.18,NA,6.21,NA,NA,NA,NA,NA,NA,NA,NA,NA,NA,NA,NA,NA,NA,NA,NA,NA,"LFKS 060330Z AUTO 27005KT CAVOK 11/09 Q1022"
"3862","LFKS",2019-12-06 04:00:00,9.3967,41.9233,51.8,48.2,87.47,290,5,0,30.18,NA,6.21,NA,NA,NA,NA,NA,NA,NA,NA,NA,NA,NA,NA,NA,NA,NA,NA,NA,"LFKS 060400Z AUTO 29005KT 260V330 CAVOK 11/09 Q1022"
"3863","LFKS",2019-12-06 04:30:00,9.3967,41.9233,51.8,48.2,87.47,270,6,0,30.18,NA,6.21,NA,"SCT",NA,NA,NA,9600,NA,NA,NA,NA,NA,NA,NA,NA,NA,NA,NA,"LFKS 060430Z AUTO 27006KT 9999 SCT096 11/09 Q1022"
"3864","LFKS",2019-12-06 05:00:00,9.3967,41.9233,51.8,48.2,87.47,270,5,0,30.18,NA,6.21,NA,"OVC",NA,NA,NA,9600,NA,NA,NA,NA,NA,NA,NA,NA,NA,NA,NA,"LFKS 060500Z AUTO 27005KT 9999 OVC096 11/09 Q1022"
"3865","LFKS",2019-12-06 05:30:00,9.3967,41.9233,51.8,48.2,87.47,280,4,0,30.18,NA,6.21,NA,"BKN",NA,NA,NA,9600,NA,NA,NA,NA,NA,NA,NA,NA,NA,NA,NA,"LFKS 060530Z AUTO 28004KT 9999 BKN096 11/09 Q1022"
"3866","LFKS",2019-12-06 06:00:00,9.3967,41.9233,51.8,48.2,87.47,270,5,0,30.18,NA,6.21,NA,"FEW",NA,NA,NA,9600,NA,NA,NA,NA,NA,NA,NA,NA,NA,NA,NA,"LFKS 060600Z AUTO 27005KT 9999 FEW096 11/09 Q1022"
"3867","LFKS",2019-12-06 06:30:00,9.3967,41.9233,51.8,48.2,87.47,310,3,0,30.18,NA,6.21,NA,"SCT","BKN",NA,NA,1500,8800,NA,NA,NA,NA,NA,NA,NA,NA,NA,NA,"LFKS 060630Z AUTO 31003KT 270V340 9999 SCT015 BKN088 11/09 Q1022"
"3868","LFKS",2019-12-06 07:00:00,9.3967,41.9233,51.8,48.2,87.47,280,4,0,30.18,NA,6.21,NA,"BKN","BKN",NA,NA,1600,9200,NA,NA,NA,NA,NA,NA,NA,NA,NA,NA,"LFKS 060700Z AUTO 28004KT 9999 BKN016 BKN092 11/09 Q1022"
"3869","LFKS",2019-12-06 07:30:00,9.3967,41.9233,53.6,50,87.56,280,4,0,30.18,NA,6.21,NA,"BKN","OVC",NA,NA,1400,9200,NA,NA,NA,NA,NA,NA,NA,NA,NA,NA,"LFKS 060730Z AUTO 28004KT 250V320 9999 BKN014 OVC092 12/10 Q1022"
"3870","LFKS",2019-12-06 08:00:00,9.3967,41.9233,55.4,51.8,87.65,NA,2,0,30.18,NA,6.21,NA,"BKN","BKN",NA,NA,1400,9000,NA,NA,NA,NA,NA,NA,NA,NA,NA,NA,"LFKS 060800Z AUTO VRB02KT 9999 BKN014 BKN090 13/11 Q1022"
"3871","LFKS",2019-12-06 08:30:00,9.3967,41.9233,57.2,53.6,87.74,NA,1,0,30.21,NA,6.21,NA,"FEW",NA,NA,NA,1300,NA,NA,NA,NA,NA,NA,NA,NA,NA,NA,NA,"LFKS 060830Z AUTO VRB01KT 9999 FEW013 14/12 Q1023"
"3872","LFKS",2019-12-06 09:00:00,9.3967,41.9233,57.2,53.6,87.74,NA,1,0,30.21,NA,6.21,NA,"BKN","BKN",NA,NA,1200,9200,NA,NA,NA,NA,NA,NA,NA,NA,NA,NA,"LFKS 060900Z AUTO VRB01KT 9999 BKN012 BKN092 14/12 Q1023"
"3873","LFKS",2019-12-06 09:30:00,9.3967,41.9233,59,53.6,82.25,NA,2,0,30.21,NA,6.21,NA,"FEW",NA,NA,NA,1200,NA,NA,NA,NA,NA,NA,NA,NA,NA,NA,NA,"LFKS 060930Z AUTO VRB02KT 9999 FEW012 15/12 Q1023"
"3874","LFKS",2019-12-06 10:00:00,9.3967,41.9233,60.8,55.4,82.37,NA,1,0,30.18,NA,6.21,NA,"///",NA,NA,NA,NA,NA,NA,NA,NA,NA,NA,NA,NA,NA,NA,NA,"LFKS 061000Z AUTO VRB01KT 9999 ///TCU 16/13 Q1022"
"3875","LFKS",2019-12-06 10:30:00,9.3967,41.9233,60.8,55.4,82.37,NA,2,0,30.18,NA,6.21,NA,"///",NA,NA,NA,NA,NA,NA,NA,NA,NA,NA,NA,NA,NA,NA,NA,"LFKS 061030Z AUTO VRB02KT 9999 ///CB 16/13 Q1022"
"3876","LFKS",2019-12-06 11:00:00,9.3967,41.9233,60.8,55.4,82.37,30,3,0,30.18,NA,6.21,NA,"///",NA,NA,NA,NA,NA,NA,NA,NA,NA,NA,NA,NA,NA,NA,NA,"LFKS 061100Z AUTO 03003KT 340V060 9999 ///TCU 16/13 Q1022"
"3877","LFKS",2019-12-06 11:30:00,9.3967,41.9233,60.8,55.4,82.37,30,4,0,30.15,NA,6.21,NA,"///",NA,NA,NA,NA,NA,NA,NA,NA,NA,NA,NA,NA,NA,NA,NA,"LFKS 061130Z AUTO 03004KT 9999 ///CB 16/13 Q1021"
"3878","LFKS",2019-12-06 12:00:00,9.3967,41.9233,60.8,55.4,82.37,50,4,0,30.15,NA,6.21,NA,"BKN","OVC","///",NA,8400,13000,NA,NA,NA,NA,NA,NA,NA,NA,NA,NA,"LFKS 061200Z AUTO 05004KT 9999 BKN084/// OVC130/// ///TCU 16/13 Q1021"
"3879","LFKS",2019-12-06 12:30:00,9.3967,41.9233,60.8,57.2,87.92,20,4,0,30.15,NA,6.21,NA,"BKN","BKN","BKN",NA,8600,11000,14000,NA,NA,NA,NA,NA,NA,NA,NA,NA,"LFKS 061230Z AUTO 02004KT 9999 BKN086 BKN110 BKN140 16/14 Q1021"
"3880","LFKS",2019-12-06 13:00:00,9.3967,41.9233,62.6,55.4,77.29,20,4,0,30.12,NA,6.21,NA,"FEW","BKN",NA,NA,4000,15000,NA,NA,NA,NA,NA,NA,NA,NA,NA,NA,"LFKS 061300Z AUTO 02004KT 340V070 9999 FEW040 BKN150 17/13 Q1020"
"3881","LFKS",2019-12-06 13:30:00,9.3967,41.9233,60.8,55.4,82.37,30,5,0,30.12,NA,6.21,NA,NA,NA,NA,NA,NA,NA,NA,NA,NA,NA,NA,NA,NA,NA,NA,NA,"LFKS 061330Z AUTO 03005KT CAVOK 16/13 Q1020"
"3882","LFKS",2019-12-06 14:00:00,9.3967,41.9233,60.8,57.2,87.92,30,3,0,30.12,NA,6.21,NA,NA,NA,NA,NA,NA,NA,NA,NA,NA,NA,NA,NA,NA,NA,NA,NA,"LFKS 061400Z AUTO 03003KT CAVOK 16/14 Q1020"
"3883","LFKS",2019-12-06 14:30:00,9.3967,41.9233,59,55.4,87.83,10,5,0,30.12,NA,6.21,NA,"FEW","BKN",NA,NA,8000,23000,NA,NA,NA,NA,NA,NA,NA,NA,NA,NA,"LFKS 061430Z AUTO 01005KT 9999 FEW080 BKN230 15/13 Q1020"
"3884","LFKS",2019-12-06 15:00:00,9.3967,41.9233,59,55.4,87.83,350,4,0,30.12,NA,6.21,NA,NA,NA,NA,NA,NA,NA,NA,NA,NA,NA,NA,NA,NA,NA,NA,NA,"LFKS 061500Z AUTO 35004KT CAVOK 15/13 Q1020"
"3885","LFKS",2019-12-06 15:30:00,9.3967,41.9233,59,55.4,87.83,330,5,0,30.12,NA,6.21,NA,"BKN","BKN",NA,NA,10000,23000,NA,NA,NA,NA,NA,NA,NA,NA,NA,NA,"LFKS 061530Z AUTO 33005KT 9999 BKN100 BKN230 15/13 Q1020"
"3886","LFKS",2019-12-06 16:00:00,9.3967,41.9233,57.2,53.6,87.74,290,3,0,30.12,NA,6.21,NA,"FEW",NA,NA,NA,7600,NA,NA,NA,NA,NA,NA,NA,NA,NA,NA,NA,"LFKS 061600Z AUTO 29003KT 9999 FEW076 14/12 Q1020"
"3887","LFKS",2019-12-06 16:30:00,9.3967,41.9233,57.2,53.6,87.74,280,4,0,30.12,NA,6.21,NA,"SCT","BKN",NA,NA,8400,25000,NA,NA,NA,NA,NA,NA,NA,NA,NA,NA,"LFKS 061630Z AUTO 28004KT 9999 SCT084 BKN250 14/12 Q1020"
"3888","LFKS",2019-12-06 17:00:00,9.3967,41.9233,55.4,53.6,93.65,280,4,0,30.12,NA,6.21,NA,"BKN",NA,NA,NA,8000,NA,NA,NA,NA,NA,NA,NA,NA,NA,NA,NA,"LFKS 061700Z AUTO 28004KT 9999 BKN080 13/12 Q1020"
"3889","LFKS",2019-12-06 17:30:00,9.3967,41.9233,55.4,51.8,87.65,270,5,0,30.12,NA,6.21,NA,"FEW",NA,NA,NA,6600,NA,NA,NA,NA,NA,NA,NA,NA,NA,NA,NA,"LFKS 061730Z AUTO 27005KT 240V300 9999 FEW066 13/11 Q1020"
"3890","LFKS",2019-12-06 18:00:00,9.3967,41.9233,55.4,51.8,87.65,270,5,0,30.12,NA,6.21,NA,"BKN","BKN",NA,NA,6800,8400,NA,NA,NA,NA,NA,NA,NA,NA,NA,NA,"LFKS 061800Z AUTO 27005KT 9999 BKN068 BKN084 13/11 Q1020"
"3891","LFKS",2019-12-06 18:30:00,9.3967,41.9233,55.4,51.8,87.65,280,4,0,30.15,NA,6.21,NA,"BKN",NA,NA,NA,7800,NA,NA,NA,NA,NA,NA,NA,NA,NA,NA,NA,"LFKS 061830Z AUTO 28004KT 9999 BKN078 13/11 Q1021"
"3892","LFKS",2019-12-06 19:00:00,9.3967,41.9233,53.6,50,87.56,260,4,0,30.15,NA,6.21,NA,"FEW",NA,NA,NA,7600,NA,NA,NA,NA,NA,NA,NA,NA,NA,NA,NA,"LFKS 061900Z AUTO 26004KT 9999 FEW076 12/10 Q1021"
"3893","LFKS",2019-12-06 19:30:00,9.3967,41.9233,53.6,50,87.56,270,5,0,30.15,NA,6.21,NA,"FEW",NA,NA,NA,4000,NA,NA,NA,NA,NA,NA,NA,NA,NA,NA,NA,"LFKS 061930Z AUTO 27005KT 9999 FEW040 12/10 Q1021"
"3894","LFKS",2019-12-06 20:00:00,9.3967,41.9233,53.6,50,87.56,270,5,0,30.15,NA,6.21,NA,NA,NA,NA,NA,NA,NA,NA,NA,NA,NA,NA,NA,NA,NA,NA,NA,"LFKS 062000Z AUTO 27005KT CAVOK 12/10 Q1021"
"3895","LFKS",2019-12-06 20:30:00,9.3967,41.9233,53.6,50,87.56,270,5,0,30.15,NA,6.21,NA,NA,NA,NA,NA,NA,NA,NA,NA,NA,NA,NA,NA,NA,NA,NA,NA,"LFKS 062030Z AUTO 27005KT CAVOK 12/10 Q1021"
"3896","LFKS",2019-12-06 21:00:00,9.3967,41.9233,53.6,50,87.56,270,5,0,30.15,NA,6.21,NA,NA,NA,NA,NA,NA,NA,NA,NA,NA,NA,NA,NA,NA,NA,NA,NA,"LFKS 062100Z AUTO 27005KT CAVOK 12/10 Q1021"
"3897","LFKS",2019-12-06 21:30:00,9.3967,41.9233,53.6,48.2,81.87,270,6,0,30.15,NA,6.21,NA,NA,NA,NA,NA,NA,NA,NA,NA,NA,NA,NA,NA,NA,NA,NA,NA,"LFKS 062130Z AUTO 27006KT CAVOK 12/09 Q1021"
"3898","LFKS",2019-12-06 22:00:00,9.3967,41.9233,51.8,48.2,87.47,270,5,0,30.15,NA,6.21,NA,NA,NA,NA,NA,NA,NA,NA,NA,NA,NA,NA,NA,NA,NA,NA,NA,"LFKS 062200Z AUTO 27005KT CAVOK 11/09 Q1021"
"3899","LFKS",2019-12-06 22:30:00,9.3967,41.9233,51.8,48.2,87.47,290,5,0,30.15,NA,6.21,NA,"SCT",NA,NA,NA,7400,NA,NA,NA,NA,NA,NA,NA,NA,NA,NA,NA,"LFKS 062230Z AUTO 29005KT 9999 SCT074 11/09 Q1021"
"3900","LFKS",2019-12-06 23:00:00,9.3967,41.9233,51.8,48.2,87.47,270,5,0,30.15,NA,6.21,NA,"FEW",NA,NA,NA,4500,NA,NA,NA,NA,NA,NA,NA,NA,NA,NA,NA,"LFKS 062300Z AUTO 27005KT 250V310 9999 FEW045 11/09 Q1021"
"3901","LFKS",2019-12-06 23:30:00,9.3967,41.9233,51.8,48.2,87.47,280,6,0,30.15,NA,6.21,NA,"FEW",NA,NA,NA,5600,NA,NA,NA,NA,NA,NA,NA,NA,NA,NA,NA,"LFKS 062330Z AUTO 28006KT 9999 FEW056 11/09 Q1021"
"3902","LFSI",2019-12-06 00:00:00,4.9036,48.6314,32,32,100,160,5,0,30.18,NA,1.68,NA,"OVC",NA,NA,NA,200,NA,NA,NA,"BR",NA,NA,NA,NA,NA,NA,26.4,"LFSI 060000Z AUTO 16005KT 130V190 2700 BR OVC002 00/00 Q1022"
"3903","LFSI",2019-12-06 00:30:00,4.9036,48.6314,32,32,100,160,3,0,30.18,NA,2.05,NA,"OVC",NA,NA,NA,300,NA,NA,NA,"BR",NA,NA,NA,NA,NA,NA,28.69,"LFSI 060030Z AUTO 16003KT 130V210 3300 BR OVC003 00/00 Q1022"
"3904","LFSI",2019-12-06 01:00:00,4.9036,48.6314,32,32,100,150,3,0,30.18,NA,2.61,NA,"OVC",NA,NA,NA,400,NA,NA,NA,"BR",NA,NA,NA,NA,NA,NA,28.69,"LFSI 060100Z AUTO 15003KT 4200 BR OVC004 00/00 Q1022"
"3905","LFSI",2019-12-06 01:30:00,4.9036,48.6314,33.8,33.8,100,170,4,0,30.15,NA,2.73,NA,"OVC",NA,NA,NA,400,NA,NA,NA,"BR",NA,NA,NA,NA,NA,NA,29.52,"LFSI 060130Z AUTO 17004KT 120V200 4400 BR OVC004 01/01 Q1021"
"3906","LFSI",2019-12-06 02:00:00,4.9036,48.6314,33.8,33.8,100,180,3,0,30.15,NA,2.92,NA,"OVC",NA,NA,NA,400,NA,NA,NA,"BR",NA,NA,NA,NA,NA,NA,30.75,"LFSI 060200Z AUTO 18003KT 150V210 4700 BR OVC004 01/01 Q1021"
"3907","LFSI",2019-12-06 02:30:00,4.9036,48.6314,33.8,33.8,100,170,3,0,30.15,NA,1.99,NA,"OVC",NA,NA,NA,300,NA,NA,NA,"BR",NA,NA,NA,NA,NA,NA,30.75,"LFSI 060230Z AUTO 17003KT 120V210 3200 BR OVC003 01/01 Q1021"
"3908","LFSI",2019-12-06 03:00:00,4.9036,48.6314,35.6,35.6,100,160,4,0,30.15,NA,1.24,NA,"OVC",NA,NA,NA,200,NA,NA,NA,"BR",NA,NA,NA,NA,NA,NA,31.62,"LFSI 060300Z AUTO 16004KT 2000 BR OVC002 02/02 Q1021"
"3909","LFSI",2019-12-06 03:30:00,4.9036,48.6314,35.6,35.6,100,170,4,0,30.15,NA,1.3,NA,"OVC",NA,NA,NA,200,NA,NA,NA,"BR",NA,NA,NA,NA,NA,NA,31.62,"LFSI 060330Z AUTO 17004KT 2100 BR OVC002 02/02 Q1021"
"3910","LFSI",2019-12-06 04:00:00,4.9036,48.6314,35.6,35.6,100,160,4,0,30.12,NA,1.49,NA,"OVC",NA,NA,NA,200,NA,NA,NA,"BR",NA,NA,NA,NA,NA,NA,31.62,"LFSI 060400Z AUTO 16004KT 2400 BR OVC002 02/02 Q1020"
"3911","LFSI",2019-12-06 04:30:00,4.9036,48.6314,35.6,35.6,100,170,6,0,30.12,NA,1.12,NA,"OVC",NA,NA,NA,200,NA,NA,NA,"BR",NA,NA,NA,NA,NA,NA,29.87,"LFSI 060430Z AUTO 17006KT 1800 BR OVC002 02/02 Q1020"
"3912","LFSI",2019-12-06 05:00:00,4.9036,48.6314,35.6,35.6,100,170,6,0,30.12,NA,2.86,NA,"OVC",NA,NA,NA,200,NA,NA,NA,"BR",NA,NA,NA,NA,NA,NA,29.87,"LFSI 060500Z AUTO 17006KT 4600 BR OVC002 02/02 Q1020"
"3913","LFSI",2019-12-06 05:30:00,4.9036,48.6314,35.6,35.6,100,170,6,0,30.12,NA,4.35,NA,"BKN","OVC",NA,NA,500,1100,NA,NA,NA,NA,NA,NA,NA,NA,NA,29.87,"LFSI 060530Z AUTO 17006KT 7000 BKN005 OVC011 02/02 Q1020"
"3914","LFSI",2019-12-06 06:00:00,4.9036,48.6314,35.6,35.6,100,170,4,0,30.12,NA,4.35,NA,"SCT","OVC",NA,NA,500,1400,NA,NA,NA,NA,NA,NA,NA,NA,NA,31.62,"LFSI 060600Z AUTO 17004KT 7000 SCT005 OVC014 02/02 Q1020"
"3915","LFSI",2019-12-06 06:30:00,4.9036,48.6314,35.6,35.6,100,170,4,0,30.12,NA,4.97,NA,"SCT","OVC",NA,NA,1500,22000,NA,NA,NA,NA,NA,NA,NA,NA,NA,31.62,"LFSI 060630Z AUTO 17004KT 8000 SCT015 OVC220 02/02 Q1020"
"3916","LFSI",2019-12-06 07:00:00,4.9036,48.6314,35.6,33.8,93.08,150,3,0,30.12,NA,4.35,NA,"FEW","BKN","OVC",NA,1900,22000,24000,NA,"-RA",NA,NA,NA,NA,NA,NA,32.8,"LFSI 060700Z AUTO 15003KT 7000 -RA FEW019 BKN220 OVC240 02/01 Q1020"
"3917","LFSI",2019-12-06 07:30:00,4.9036,48.6314,33.8,33.8,100,NA,2,0,30.12,NA,3.11,NA,"FEW","OVC",NA,NA,2100,22000,NA,NA,"BR",NA,NA,NA,NA,NA,NA,NA,"LFSI 060730Z AUTO VRB02KT 5000 BR FEW021 OVC220 01/01 Q1020"
"3918","LFSI",2019-12-06 08:00:00,4.9036,48.6314,33.8,33.8,100,100,2,0,30.12,NA,2.61,NA,"NSC",NA,NA,NA,NA,NA,NA,NA,"BR",NA,NA,NA,NA,NA,NA,NA,"LFSI 060800Z AUTO 10002KT 4200 BR NSC 01/01 Q1020"
"3919","LFSI",2019-12-06 08:30:00,4.9036,48.6314,35.6,35.6,100,110,3,0,30.12,NA,2.11,NA,"NSC",NA,NA,NA,NA,NA,NA,NA,"BR",NA,NA,NA,NA,NA,NA,32.8,"LFSI 060830Z AUTO 11003KT 3400 BR NSC 02/02 Q1020"
"3920","LFSI",2019-12-06 09:00:00,4.9036,48.6314,37.4,35.6,93.14,110,2,0,30.12,NA,3.11,NA,"NSC",NA,NA,NA,NA,NA,NA,NA,"BR",NA,NA,NA,NA,NA,NA,NA,"LFSI 060900Z AUTO 11002KT 5000 BR NSC 03/02 Q1020"
"3921","LFSI",2019-12-06 09:30:00,4.9036,48.6314,39.2,37.4,93.19,170,5,0,30.09,NA,6.21,NA,"FEW","BKN",NA,NA,1200,19000,NA,NA,NA,NA,NA,NA,NA,NA,NA,34.95,"LFSI 060930Z AUTO 17005KT 140V200 9999 FEW012 BKN190 04/03 Q1019"
"3922","LFSI",2019-12-06 10:00:00,4.9036,48.6314,41,37.4,86.89,180,7,0,30.09,NA,6.21,NA,"FEW","BKN","OVC",NA,1400,17000,20000,NA,NA,NA,NA,NA,NA,NA,NA,35.75,"LFSI 061000Z AUTO 18007KT 150V210 9999 FEW014 BKN170 OVC200 05/03 Q1019"
"3923","LFSI",2019-12-06 10:30:00,4.9036,48.6314,41,37.4,86.89,230,9,0,30.09,NA,6.21,NA,"OVC",NA,NA,NA,1000,NA,NA,NA,NA,NA,NA,NA,NA,NA,NA,34.7,"LFSI 061030Z AUTO 23009KT 200V260 9999 OVC010 05/03 Q1019"
"3924","LFSI",2019-12-06 11:00:00,4.9036,48.6314,41,37.4,86.89,230,11,0,30.09,NA,5.59,NA,"OVC",NA,NA,NA,900,NA,NA,NA,NA,NA,NA,NA,NA,NA,NA,33.84,"LFSI 061100Z AUTO 23011KT 180V260 9000 OVC009 05/03 Q1019"
"3925","LFSI",2019-12-06 11:30:00,4.9036,48.6314,41,37.4,86.89,210,9,0,30.06,NA,6.21,NA,"OVC",NA,NA,NA,1100,NA,NA,NA,NA,NA,NA,NA,NA,NA,NA,34.7,"LFSI 061130Z AUTO 21009KT 180V250 9999 OVC011 05/03 Q1018"
"3926","LFSI",2019-12-06 12:00:00,4.9036,48.6314,41,37.4,86.89,200,7,0,30.06,NA,6.21,NA,"OVC",NA,NA,NA,900,NA,NA,NA,NA,NA,NA,NA,NA,NA,NA,35.75,"LFSI 061200Z AUTO 20007KT 170V240 9999 OVC009 05/03 Q1018"
"3927","LFSI",2019-12-06 12:30:00,4.9036,48.6314,41,39.2,93.24,200,10,0,30.03,NA,6.21,NA,"OVC",NA,NA,NA,800,NA,NA,NA,NA,NA,NA,NA,NA,NA,NA,34.25,"LFSI 061230Z AUTO 20010KT 9999 OVC008 05/04 Q1017"
"3928","LFSI",2019-12-06 13:00:00,4.9036,48.6314,41,39.2,93.24,200,9,0,30.03,NA,6.21,NA,"OVC",NA,NA,NA,900,NA,NA,NA,NA,NA,NA,NA,NA,NA,NA,34.7,"LFSI 061300Z AUTO 20009KT 9999 OVC009 05/04 Q1017"
"3929","LFSI",2019-12-06 13:30:00,4.9036,48.6314,41,39.2,93.24,200,9,0,30.03,NA,6.21,NA,"OVC",NA,NA,NA,900,NA,NA,NA,NA,NA,NA,NA,NA,NA,NA,34.7,"LFSI 061330Z AUTO 20009KT 160V220 9999 OVC009 05/04 Q1017"
"3930","LFSI",2019-12-06 14:00:00,4.9036,48.6314,41,39.2,93.24,210,10,0,30.03,NA,6.21,NA,"OVC",NA,NA,NA,900,NA,NA,NA,NA,NA,NA,NA,NA,NA,NA,34.25,"LFSI 061400Z AUTO 21010KT 9999 OVC009 05/04 Q1017"
"3931","LFSI",2019-12-06 14:30:00,4.9036,48.6314,42.8,39.2,86.99,210,8,0,30,NA,6.21,NA,"OVC","///",NA,NA,1100,NA,NA,NA,NA,NA,NA,NA,NA,NA,NA,37.42,"LFSI 061430Z AUTO 21008KT 9999 OVC011/// ///TCU 06/04 Q1016"
"3932","LFSI",2019-12-06 15:00:00,4.9036,48.6314,42.8,39.2,86.99,200,9,0,30,NA,6.21,NA,"OVC","///",NA,NA,1300,NA,NA,NA,NA,NA,NA,NA,NA,NA,NA,36.94,"LFSI 061500Z AUTO 20009KT 9999 OVC013/// ///CB 06/04 Q1016"
"3933","LFSI",2019-12-06 15:30:00,4.9036,48.6314,42.8,39.2,86.99,210,9,0,30,NA,6.21,NA,"OVC","///",NA,NA,1200,NA,NA,NA,NA,NA,NA,NA,NA,NA,NA,36.94,"LFSI 061530Z AUTO 21009KT 180V250 9999 OVC012/// ///TCU 06/04 Q1016"
"3934","LFSI",2019-12-06 16:00:00,4.9036,48.6314,42.8,39.2,86.99,200,8,0,30,NA,6.21,NA,"OVC","///",NA,NA,1200,NA,NA,NA,"-RA",NA,NA,NA,NA,NA,NA,37.42,"LFSI 061600Z AUTO 20008KT 9999 -RA OVC012/// ///CB 06/04 Q1016"
"3935","LFSI",2019-12-06 16:30:00,4.9036,48.6314,42.8,39.2,86.99,200,9,0,30,NA,6.21,NA,"OVC","///",NA,NA,1200,NA,NA,NA,"-RA",NA,NA,NA,NA,NA,NA,36.94,"LFSI 061630Z AUTO 20009KT 9999 -RA OVC012/// ///TCU 06/04 Q1016"
"3936","LFSI",2019-12-06 17:00:00,4.9036,48.6314,42.8,39.2,86.99,190,10,0,29.97,NA,6.21,NA,"FEW","SCT","BKN","///",1300,4800,5600,NA,"-RA",NA,NA,NA,NA,NA,NA,36.51,"LFSI 061700Z AUTO 19010KT 9999 -RA FEW013/// SCT048/// BKN056/// ///TCU 06/04 Q1015"
"3937","LFSI",2019-12-06 17:30:00,4.9036,48.6314,42.8,39.2,86.99,200,9,0,29.97,NA,6.21,NA,"BKN","OVC","///",NA,1300,5400,NA,NA,"-DZ",NA,NA,NA,NA,NA,NA,36.94,"LFSI 061730Z AUTO 20009KT 9999 -DZ BKN013/// OVC054/// ///TCU 06/04 Q1015"
"3938","LFSI",2019-12-06 18:00:00,4.9036,48.6314,42.8,41,93.3,200,10,0,29.97,NA,6.21,NA,"BKN","BKN","BKN","///",1100,1600,3200,NA,"-RA",NA,NA,NA,NA,NA,NA,36.51,"LFSI 061800Z AUTO 20010KT 9999 -RA BKN011/// BKN016/// BKN032/// ///TCU 06/05 Q1015"
"3939","LFSI",2019-12-06 18:30:00,4.9036,48.6314,42.8,41,93.3,200,11,0,29.94,NA,6.21,NA,"SCT","BKN","OVC","///",1100,3800,5400,NA,NA,NA,NA,NA,NA,NA,NA,36.11,"LFSI 061830Z AUTO 20011KT 9999 SCT011/// BKN038/// OVC054/// ///TCU 06/05 Q1014"
"3940","LFSI",2019-12-06 19:00:00,4.9036,48.6314,44.6,41,87.09,210,8,0,29.97,NA,6.21,NA,"SCT","BKN","BKN",NA,1100,1600,2200,NA,NA,NA,NA,NA,NA,NA,NA,39.63,"LFSI 061900Z AUTO 21008KT 170V240 9999 SCT011 BKN016 BKN022 07/05 Q1015"
"3941","LFSI",2019-12-06 19:30:00,4.9036,48.6314,44.6,41,87.09,200,10,0,29.94,NA,6.21,NA,"SCT","BKN","BKN","///",1500,2200,2700,NA,NA,NA,NA,NA,NA,NA,NA,38.77,"LFSI 061930Z AUTO 20010KT 9999 SCT015/// BKN022/// BKN027/// ///TCU 07/05 Q1014"
"3942","LFSI",2019-12-06 20:00:00,4.9036,48.6314,44.6,42.8,93.35,200,13,0,29.94,NA,6.21,NA,"OVC",NA,NA,NA,1300,NA,NA,NA,NA,NA,NA,NA,NA,NA,NA,37.71,"LFSI 062000Z AUTO 20013KT 9999 OVC013 07/06 Q1014"
"3943","LFSI",2019-12-06 20:30:00,4.9036,48.6314,44.6,44.6,100,210,13,0,29.94,NA,2.8,NA,"OVC","///",NA,NA,1000,NA,NA,NA,"-RA BR",NA,NA,NA,NA,NA,NA,37.71,"LFSI 062030Z AUTO 21013KT 4500 -RA BR OVC010/// ///TCU 07/07 Q1014"
"3944","LFSI",2019-12-06 21:00:00,4.9036,48.6314,46.4,44.6,93.4,210,13,0,29.94,NA,3.11,NA,"OVC",NA,NA,NA,700,NA,NA,NA,"-RADZ BR",NA,NA,NA,NA,NA,NA,40.02,"LFSI 062100Z AUTO 21013KT 5000 -RADZ BR OVC007 08/07 Q1014"
"3945","LFSI",2019-12-06 21:30:00,4.9036,48.6314,46.4,44.6,93.4,220,14,0,29.94,NA,4.35,NA,"OVC",NA,NA,NA,700,NA,NA,NA,"-DZ",NA,NA,NA,NA,NA,NA,39.72,"LFSI 062130Z AUTO 22014KT 7000 -DZ OVC007 08/07 Q1014"
"3946","LFSI",2019-12-06 22:00:00,4.9036,48.6314,46.4,44.6,93.4,220,14,0,29.94,NA,6.21,NA,"OVC",NA,NA,NA,800,NA,NA,NA,NA,NA,NA,NA,NA,NA,NA,39.72,"LFSI 062200Z AUTO 22014KT 9999 OVC008 08/07 Q1014"
"3947","LFSI",2019-12-06 22:30:00,4.9036,48.6314,46.4,44.6,93.4,220,15,0,29.94,NA,3.73,NA,"OVC",NA,NA,NA,900,NA,NA,NA,"-RADZ",NA,NA,NA,NA,NA,NA,39.45,"LFSI 062230Z AUTO 22015KT 6000 -RADZ OVC009 08/07 Q1014"
"3948","LFSI",2019-12-06 23:00:00,4.9036,48.6314,46.4,46.4,100,220,14,0,29.94,NA,6.21,NA,"OVC",NA,NA,NA,800,NA,NA,NA,NA,NA,NA,NA,NA,NA,NA,39.72,"LFSI 062300Z AUTO 22014KT 9999 OVC008 08/08 Q1014"
"3949","LFSI",2019-12-06 23:30:00,4.9036,48.6314,46.4,46.4,100,230,14,0,29.94,NA,6.21,NA,"BKN","OVC",NA,NA,900,1500,NA,NA,NA,NA,NA,NA,NA,NA,NA,39.72,"LFSI 062330Z AUTO 23014KT 9999 BKN009 OVC015 08/08 Q1014"
"3950","LFMH",2019-12-06 00:00:00,4.2933,45.5331,28.4,28.4,100,130,2,0,30.21,NA,0.56,NA,"FEW",NA,NA,NA,300,NA,NA,NA,"FZFG",NA,NA,NA,NA,NA,NA,NA,"LFMH 060000Z AUTO 13002KT 0900 R17/1400U FZFG FEW003 M02/M02 Q1023"
"3951","LFMH",2019-12-06 00:30:00,4.2933,45.5331,28.4,26.6,92.86,270,2,0,30.21,NA,2.92,NA,"NSC",NA,NA,NA,NA,NA,NA,NA,"BR",NA,NA,NA,NA,NA,NA,NA,"LFMH 060030Z AUTO 27002KT 4700 BR NSC M02/M03 Q1023"
"3952","LFMH",2019-12-06 01:00:00,4.2933,45.5331,26.6,24.8,92.8,NA,2,0,30.21,NA,1.93,NA,"VV ",NA,NA,NA,NA,NA,NA,NA,"BR",NA,NA,NA,NA,NA,NA,NA,"LFMH 060100Z AUTO VRB02KT 3100 BR VV/// M03/M04 Q1023"
"3953","LFMH",2019-12-06 01:30:00,4.2933,45.5331,28.4,28.4,100,NA,3,0,30.18,NA,3.04,NA,"NSC",NA,NA,NA,NA,NA,NA,NA,"BR",NA,NA,NA,NA,NA,NA,24.57,"LFMH 060130Z AUTO VRB03KT 4900 BR NSC M02/M02 Q1022"
"3954","LFMH",2019-12-06 02:00:00,4.2933,45.5331,26.6,24.8,92.8,350,3,0,30.21,NA,3.11,NA,"NSC",NA,NA,NA,NA,NA,NA,NA,"BR",NA,NA,NA,NA,NA,NA,22.52,"LFMH 060200Z AUTO 35003KT 5000 BR NSC M03/M04 Q1023"
"3955","LFMH",2019-12-06 02:30:00,4.2933,45.5331,24.8,24.8,100,40,2,0,30.21,NA,2.86,NA,"NSC",NA,NA,NA,NA,NA,NA,NA,"BR",NA,NA,NA,NA,NA,NA,NA,"LFMH 060230Z AUTO 04002KT 4600 BR NSC M04/M04 Q1023 TEMPO 0400 FZFG VV///"
"3956","LFMH",2019-12-06 03:00:00,4.2933,45.5331,23,23,100,170,4,0,30.21,NA,3.73,NA,"NSC",NA,NA,NA,NA,NA,NA,NA,NA,NA,NA,NA,NA,NA,NA,16.91,"LFMH 060300Z AUTO 17004KT 6000 NSC M05/M05 Q1023 TEMPO 0400 FZFG VV///"
"3957","LFMH",2019-12-06 03:30:00,4.2933,45.5331,24.8,24.8,100,190,1,0,30.18,NA,4.35,NA,"NSC",NA,NA,NA,NA,NA,NA,NA,NA,NA,NA,NA,NA,NA,NA,NA,"LFMH 060330Z AUTO 19001KT 7000 NSC M04/M04 Q1022 TEMPO 0400 FZFG VV///"
"3958","LFMH",2019-12-06 04:00:00,4.2933,45.5331,24.8,23,92.74,40,3,0,30.21,NA,4.97,NA,"NSC",NA,NA,NA,NA,NA,NA,NA,NA,NA,NA,NA,NA,NA,NA,20.46,"LFMH 060400Z AUTO 04003KT 8000 NSC M04/M05 Q1023 TEMPO 0400 FZFG VV///"
"3959","LFMH",2019-12-06 04:30:00,4.2933,45.5331,24.8,24.8,100,NA,1,0,30.21,NA,4.97,NA,"NSC",NA,NA,NA,NA,NA,NA,NA,NA,NA,NA,NA,NA,NA,NA,NA,"LFMH 060430Z AUTO VRB01KT 8000 NSC M04/M04 Q1023 TEMPO 0400 FZFG VV///"
"3960","LFMH",2019-12-06 05:00:00,4.2933,45.5331,24.8,23,92.74,NA,2,0,30.18,NA,5.59,NA,"NSC",NA,NA,NA,NA,NA,NA,NA,NA,NA,NA,NA,NA,NA,NA,NA,"LFMH 060500Z AUTO VRB02KT 9000 NSC M04/M05 Q1022 TEMPO 0400 FZFG VV///"
"3961","LFMH",2019-12-06 05:30:00,4.2933,45.5331,24.8,23,92.74,NA,2,0,30.18,NA,5.59,NA,"NSC",NA,NA,NA,NA,NA,NA,NA,NA,NA,NA,NA,NA,NA,NA,NA,"LFMH 060530Z AUTO VRB02KT 9000 NSC M04/M05 Q1022 TEMPO 0400 FZFG VV///"
"3962","LFMH",2019-12-06 06:00:00,4.2933,45.5331,24.8,23,92.74,0,0,0,30.18,NA,4.97,NA,"NSC",NA,NA,NA,NA,NA,NA,NA,NA,NA,NA,NA,NA,NA,NA,NA,"LFMH 060600Z AUTO 00000KT 8000 NSC M04/M05 Q1022 TEMPO 0400 FZFG VV///"
"3963","LFMH",2019-12-06 06:30:00,4.2933,45.5331,24.8,24.8,100,320,2,0,30.21,NA,6.21,NA,NA,NA,NA,NA,NA,NA,NA,NA,NA,NA,NA,NA,NA,NA,NA,NA,"LFMH 060630Z AUTO 32002KT CAVOK M04/M04 Q1023 TEMPO 0400 FZFG VV///"
"3964","LFMH",2019-12-06 07:00:00,4.2933,45.5331,24.8,23,92.74,0,0,0,30.21,NA,4.35,NA,"NSC",NA,NA,NA,NA,NA,NA,NA,NA,NA,NA,NA,NA,NA,NA,NA,"LFMH 060700Z AUTO 00000KT 7000 NSC M04/M05 Q1023 TEMPO 0400 FZFG VV///"
"3965","LFMH",2019-12-06 07:30:00,4.2933,45.5331,26.6,24.8,92.8,250,2,0,30.18,NA,5.59,NA,"NSC",NA,NA,NA,NA,NA,NA,NA,NA,NA,NA,NA,NA,NA,NA,NA,"LFMH 060730Z AUTO 25002KT 9000 NSC M03/M04 Q1022 TEMPO 0400 FZFG VV///"
"3966","LFMH",2019-12-06 08:00:00,4.2933,45.5331,26.6,26.6,100,NA,2,0,30.21,NA,4.35,NA,"NSC",NA,NA,NA,NA,NA,NA,NA,NA,NA,NA,NA,NA,NA,NA,NA,"LFMH 060800Z AUTO VRB02KT 7000 NSC M03/M03 Q1023 TEMPO 0400 FZFG VV///"
"3967","LFMH",2019-12-06 08:30:00,4.2933,45.5331,30.2,28.4,92.92,NA,1,0,30.21,NA,4.97,NA,"NSC",NA,NA,NA,NA,NA,NA,NA,NA,NA,NA,NA,NA,NA,NA,NA,"LFMH 060830Z AUTO VRB01KT 8000 NSC M01/M02 Q1023 NOSIG"
"3968","LFMH",2019-12-06 09:00:00,4.2933,45.5331,33.8,30.2,86.49,170,1,0,30.21,NA,5.59,NA,"NSC",NA,NA,NA,NA,NA,NA,NA,NA,NA,NA,NA,NA,NA,NA,NA,"LFMH 060900Z AUTO 17001KT 9000 NSC 01/M01 Q1023 NOSIG"
"3969","LFMH",2019-12-06 09:30:00,4.2933,45.5331,35.6,32,86.59,NA,1,0,30.21,NA,6.21,NA,NA,NA,NA,NA,NA,NA,NA,NA,NA,NA,NA,NA,NA,NA,NA,NA,"LFMH 060930Z AUTO VRB01KT CAVOK 02/M00 Q1023 NOSIG"
"3970","LFMH",2019-12-06 10:00:00,4.2933,45.5331,37.4,32,80.65,NA,3,0,30.21,NA,6.21,NA,NA,NA,NA,NA,NA,NA,NA,NA,NA,NA,NA,NA,NA,NA,NA,34.86,"LFMH 061000Z AUTO VRB03KT CAVOK 03/00 Q1023 NOSIG"
"3971","LFMH",2019-12-06 10:30:00,4.2933,45.5331,39.2,33.8,80.79,NA,1,0,30.21,NA,6.21,NA,NA,NA,NA,NA,NA,NA,NA,NA,NA,NA,NA,NA,NA,NA,NA,NA,"LFMH 061030Z AUTO VRB01KT CAVOK 04/01 Q1023 NOSIG"
"3972","LFMH",2019-12-06 11:00:00,4.2933,45.5331,41,33.8,75.33,NA,2,0,30.18,NA,6.21,NA,NA,NA,NA,NA,NA,NA,NA,NA,NA,NA,NA,NA,NA,NA,NA,NA,"LFMH 061100Z AUTO VRB02KT CAVOK 05/01 Q1022 NOSIG"
"3973","LFMH",2019-12-06 11:30:00,4.2933,45.5331,42.8,35.6,75.5,330,3,0,30.18,NA,6.21,NA,NA,NA,NA,NA,NA,NA,NA,NA,NA,NA,NA,NA,NA,NA,NA,41.03,"LFMH 061130Z AUTO 33003KT 290V030 CAVOK 06/02 Q1022 NOSIG"
"3974","LFMH",2019-12-06 12:00:00,4.2933,45.5331,42.8,35.6,75.5,NA,2,0,30.15,NA,6.21,NA,NA,NA,NA,NA,NA,NA,NA,NA,NA,NA,NA,NA,NA,NA,NA,NA,"LFMH 061200Z AUTO VRB02KT CAVOK 06/02 Q1021 NOSIG"
"3975","LFMH",2019-12-06 12:30:00,4.2933,45.5331,44.6,35.6,70.48,NA,3,0,30.15,NA,6.21,NA,NA,NA,NA,NA,NA,NA,NA,NA,NA,NA,NA,NA,NA,NA,NA,43.09,"LFMH 061230Z AUTO VRB03KT CAVOK 07/02 Q1021 NOSIG"
"3976","LFMH",2019-12-06 13:00:00,4.2933,45.5331,46.4,37.4,70.68,340,4,0,30.12,NA,6.21,NA,NA,NA,NA,NA,NA,NA,NA,NA,NA,NA,NA,NA,NA,NA,NA,44.24,"LFMH 061300Z AUTO 34004KT 300V020 CAVOK 08/03 Q1020 NOSIG"
"3977","LFMH",2019-12-06 13:30:00,4.2933,45.5331,48.2,35.6,61.52,NA,2,0,30.12,NA,6.21,NA,NA,NA,NA,NA,NA,NA,NA,NA,NA,NA,NA,NA,NA,NA,NA,NA,"LFMH 061330Z AUTO VRB02KT CAVOK 09/02 Q1020 NOSIG"
"3978","LFMH",2019-12-06 14:00:00,4.2933,45.5331,50,37.4,61.76,0,0,0,30.12,NA,6.21,NA,NA,NA,NA,NA,NA,NA,NA,NA,NA,NA,NA,NA,NA,NA,NA,NA,"LFMH 061400Z AUTO 00000KT CAVOK 10/03 Q1020 NOSIG"
"3979","LFMH",2019-12-06 14:30:00,4.2933,45.5331,48.2,37.4,66.05,NA,1,0,30.12,NA,6.21,NA,NA,NA,NA,NA,NA,NA,NA,NA,NA,NA,NA,NA,NA,NA,NA,NA,"LFMH 061430Z AUTO VRB01KT CAVOK 09/03 Q1020 NOSIG"
"3980","LFMH",2019-12-06 15:00:00,4.2933,45.5331,48.2,37.4,66.05,NA,1,0,30.09,NA,6.21,NA,NA,NA,NA,NA,NA,NA,NA,NA,NA,NA,NA,NA,NA,NA,NA,NA,"LFMH 061500Z AUTO VRB01KT CAVOK 09/03 Q1019 NOSIG"
"3981","LFMH",2019-12-06 15:30:00,4.2933,45.5331,46.4,37.4,70.68,0,0,0,30.09,NA,6.21,NA,NA,NA,NA,NA,NA,NA,NA,NA,NA,NA,NA,NA,NA,NA,NA,NA,"LFMH 061530Z AUTO 00000KT CAVOK 08/03 Q1019 NOSIG"
"3982","LFMH",2019-12-06 16:00:00,4.2933,45.5331,42.8,37.4,81.07,0,0,0,30.09,NA,6.21,NA,NA,NA,NA,NA,NA,NA,NA,NA,NA,NA,NA,NA,NA,NA,NA,NA,"LFMH 061600Z AUTO 00000KT CAVOK 06/03 Q1019 NOSIG"
"3983","LFMH",2019-12-06 16:30:00,4.2933,45.5331,39.2,32,75.16,130,1,0,30.09,NA,6.21,NA,NA,NA,NA,NA,NA,NA,NA,NA,NA,NA,NA,NA,NA,NA,NA,NA,"LFMH 061630Z AUTO 13001KT CAVOK 04/00 Q1019 NOSIG"
"3984","LFMH",2019-12-06 17:00:00,4.2933,45.5331,39.2,35.6,86.79,180,2,0,30.09,NA,6.21,NA,NA,NA,NA,NA,NA,NA,NA,NA,NA,NA,NA,NA,NA,NA,NA,NA,"LFMH 061700Z AUTO 18002KT CAVOK 04/02 Q1019 NOSIG"
"3985","LFMH",2019-12-06 17:30:00,4.2933,45.5331,37.4,35.6,93.14,60,1,0,30.09,NA,5.59,NA,"NSC",NA,NA,NA,NA,NA,NA,NA,NA,NA,NA,NA,NA,NA,NA,NA,"LFMH 061730Z AUTO 06001KT 9000 NSC 03/02 Q1019 NOSIG"
"3986","LFMH",2019-12-06 18:00:00,4.2933,45.5331,37.4,35.6,93.14,140,3,0,30.12,NA,4.97,NA,"NSC",NA,NA,NA,NA,NA,NA,NA,NA,NA,NA,NA,NA,NA,NA,34.86,"LFMH 061800Z AUTO 14003KT 8000 NSC 03/02 Q1020 NOSIG"
"3987","LFMH",2019-12-06 18:30:00,4.2933,45.5331,35.6,33.8,93.08,170,4,0,30.12,NA,4.97,NA,"NSC",NA,NA,NA,NA,NA,NA,NA,NA,NA,NA,NA,NA,NA,NA,31.62,"LFMH 061830Z AUTO 17004KT 8000 NSC 02/01 Q1020 NOSIG"
"3988","LFMH",2019-12-06 19:00:00,4.2933,45.5331,37.4,35.6,93.14,160,3,0,30.09,NA,6.21,NA,NA,NA,NA,NA,NA,NA,NA,NA,NA,NA,NA,NA,NA,NA,NA,34.86,"LFMH 061900Z AUTO 16003KT CAVOK 03/02 Q1019 NOSIG"
"3989","LFMH",2019-12-06 19:30:00,4.2933,45.5331,42.8,35.6,75.5,170,7,0,30.09,NA,6.21,NA,NA,NA,NA,NA,NA,NA,NA,NA,NA,NA,NA,NA,NA,NA,NA,37.94,"LFMH 061930Z AUTO 17007KT CAVOK 06/02 Q1019 NOSIG"
"3990","LFMH",2019-12-06 20:00:00,4.2933,45.5331,42.8,37.4,81.07,160,8,0,30.09,NA,6.21,NA,NA,NA,NA,NA,NA,NA,NA,NA,NA,NA,NA,NA,NA,NA,NA,37.42,"LFMH 062000Z AUTO 16008KT CAVOK 06/03 Q1019 NOSIG"
"3991","LFMH",2019-12-06 20:30:00,4.2933,45.5331,46.4,37.4,70.68,170,10,0,30.12,NA,6.21,NA,NA,NA,NA,NA,NA,NA,NA,NA,NA,NA,NA,NA,NA,NA,NA,41.03,"LFMH 062030Z AUTO 17010KT CAVOK 08/03 Q1020 NOSIG"
"3992","LFMH",2019-12-06 21:00:00,4.2933,45.5331,46.4,37.4,70.68,180,8,0,30.12,NA,6.21,NA,NA,NA,NA,NA,NA,NA,NA,NA,NA,NA,NA,NA,NA,NA,NA,41.85,"LFMH 062100Z AUTO 18008KT CAVOK 08/03 Q1020 NOSIG"
"3993","LFMH",2019-12-06 21:30:00,4.2933,45.5331,46.4,37.4,70.68,170,6,0,30.12,NA,6.21,NA,NA,NA,NA,NA,NA,NA,NA,NA,NA,NA,NA,NA,NA,NA,NA,42.87,"LFMH 062130Z AUTO 17006KT CAVOK 08/03 Q1020"
"3994","LFMH",2019-12-06 22:00:00,4.2933,45.5331,46.4,37.4,70.68,170,6,0,30.12,NA,6.21,NA,NA,NA,NA,NA,NA,NA,NA,NA,NA,NA,NA,NA,NA,NA,NA,42.87,"LFMH 062200Z AUTO 17006KT CAVOK 08/03 Q1020"
"3995","LFMH",2019-12-06 22:30:00,4.2933,45.5331,46.4,37.4,70.68,170,4,0,30.12,NA,6.21,NA,"FEW","OVC",NA,NA,5800,10000,NA,NA,NA,NA,NA,NA,NA,NA,NA,44.24,"LFMH 062230Z AUTO 17004KT 9999 FEW058 OVC100 08/03 Q1020"
"3996","LFMH",2019-12-06 23:00:00,4.2933,45.5331,46.4,37.4,70.68,170,6,0,30.12,NA,6.21,NA,"FEW","OVC",NA,NA,5200,9800,NA,NA,NA,NA,NA,NA,NA,NA,NA,42.87,"LFMH 062300Z AUTO 17006KT 9999 FEW052 OVC098 08/03 Q1020"
"3997","LFMH",2019-12-06 23:30:00,4.2933,45.5331,46.4,39.2,75.84,160,8,0,30.12,NA,6.21,NA,NA,NA,NA,NA,NA,NA,NA,NA,NA,NA,NA,NA,NA,NA,NA,41.85,"LFMH 062330Z AUTO 16008KT CAVOK 08/04 Q1020"
"3998","LFRG",2019-12-06 00:00:00,0.1669,49.3644,37.4,35.6,93.14,200,10,0,30.09,NA,4.35,NA,"NSC",NA,NA,NA,NA,NA,NA,NA,NA,NA,NA,NA,NA,NA,NA,29.74,"LFRG 060000Z AUTO 20010KT 7000 NSC 03/02 Q1019"
"3999","LFRG",2019-12-06 00:30:00,0.1669,49.3644,37.4,37.4,100,200,10,0,30.06,NA,4.97,NA,"NSC",NA,NA,NA,NA,NA,NA,NA,NA,NA,NA,NA,NA,NA,NA,29.74,"LFRG 060030Z AUTO 20010KT 8000 NSC 03/03 Q1018"
"4000","LFRG",2019-12-06 01:00:00,0.1669,49.3644,37.4,35.6,93.14,210,11,0,30.06,NA,4.97,NA,"NSC",NA,NA,NA,NA,NA,NA,NA,NA,NA,NA,NA,NA,NA,NA,29.29,"LFRG 060100Z AUTO 21011KT 8000 NSC 03/02 Q1018"
"4001","LFRG",2019-12-06 01:30:00,0.1669,49.3644,39.2,37.4,93.19,200,10,0,30.06,NA,5.59,NA,"NSC",NA,NA,NA,NA,NA,NA,NA,NA,NA,NA,NA,NA,NA,NA,32,"LFRG 060130Z AUTO 20010KT 9000 NSC 04/03 Q1018"
"4002","LFRG",2019-12-06 02:00:00,0.1669,49.3644,39.2,37.4,93.19,200,10,0,30.06,NA,5.59,NA,"NSC",NA,NA,NA,NA,NA,NA,NA,NA,NA,NA,NA,NA,NA,NA,32,"LFRG 060200Z AUTO 20010KT 9000 NSC 04/03 Q1018"
"4003","LFRG",2019-12-06 02:30:00,0.1669,49.3644,39.2,37.4,93.19,210,11,0,30.03,NA,5.59,NA,"NSC",NA,NA,NA,NA,NA,NA,NA,NA,NA,NA,NA,NA,NA,NA,31.57,"LFRG 060230Z AUTO 21011KT 9000 NSC 04/03 Q1017"
"4004","LFRG",2019-12-06 03:00:00,0.1669,49.3644,39.2,37.4,93.19,200,12,0,30.03,NA,5.59,NA,"NSC",NA,NA,NA,NA,NA,NA,NA,NA,NA,NA,NA,NA,NA,NA,31.17,"LFRG 060300Z AUTO 20012KT 9000 NSC 04/03 Q1017"
"4005","LFRG",2019-12-06 03:30:00,0.1669,49.3644,39.2,37.4,93.19,210,11,0,30.03,NA,5.59,NA,"SCT","SCT","BKN",NA,2500,3400,5400,NA,NA,NA,NA,NA,NA,NA,NA,31.57,"LFRG 060330Z AUTO 21011KT 9000 SCT025 SCT034 BKN054 04/03 Q1017"
"4006","LFRG",2019-12-06 04:00:00,0.1669,49.3644,39.2,37.4,93.19,220,13,0,30,NA,6.21,NA,"FEW","BKN","OVC",NA,800,2400,10000,NA,NA,NA,NA,NA,NA,NA,NA,30.79,"LFRG 060400Z AUTO 22013KT 9999 FEW008 BKN024 OVC100 04/03 Q1016"
"4007","LFRG",2019-12-06 04:30:00,0.1669,49.3644,41,39.2,93.24,210,14,0,30,NA,6.21,NA,"FEW","OVC","///",NA,800,2200,NA,NA,NA,NA,NA,NA,NA,NA,NA,32.76,"LFRG 060430Z AUTO 21014KT 9999 FEW008/// OVC022/// ///TCU 05/04 Q1016"
"4008","LFRG",2019-12-06 05:00:00,0.1669,49.3644,41,39.2,93.24,210,15,0,30,NA,5.59,NA,"BKN","BKN","BKN","///",700,1500,2400,NA,"-DZ",NA,NA,NA,NA,NA,NA,32.45,"LFRG 060500Z AUTO 21015KT 9000 -DZ BKN007/// BKN015/// BKN024/// ///TCU 05/04 Q1016"
"4009","LFRG",2019-12-06 05:30:00,0.1669,49.3644,39.2,39.2,100,200,15,0,30,NA,3.73,NA,"BKN","BKN","BKN","///",700,1400,2400,NA,"-RA",NA,NA,NA,NA,NA,NA,30.11,"LFRG 060530Z AUTO 20015KT 6000 -RA BKN007/// BKN014/// BKN024/// ///TCU 04/04 Q1016"
"4010","LFRG",2019-12-06 06:00:00,0.1669,49.3644,41,39.2,93.24,210,11,0,30,NA,3.73,NA,"BKN","OVC","///",NA,500,1000,NA,NA,"-RA",NA,NA,NA,NA,NA,NA,33.84,"LFRG 060600Z AUTO 21011KT 6000 -RA BKN005/// OVC010/// ///TCU 05/04 Q1016"
"4011","LFRG",2019-12-06 06:30:00,0.1669,49.3644,41,41,100,210,11,0,30,NA,4.35,NA,"OVC","///",NA,NA,400,NA,NA,NA,"-RA",NA,NA,NA,NA,NA,NA,33.84,"LFRG 060630Z AUTO 21011KT 7000 -RA OVC004/// ///TCU 05/05 Q1016"
"4012","LFRG",2019-12-06 07:00:00,0.1669,49.3644,41,41,100,200,12,0,29.97,NA,3.73,NA,"BKN","OVC","///",NA,500,1600,NA,NA,"-RA",NA,NA,NA,NA,NA,NA,33.46,"LFRG 060700Z AUTO 20012KT 180V250 6000 -RA BKN005/// OVC016/// ///TCU 05/05 Q1015"
"4013","LFRG",2019-12-06 07:30:00,0.1669,49.3644,42.8,41,93.3,190,12,0,29.97,NA,3.11,NA,"OVC","///",NA,NA,500,NA,NA,NA,"-RA BR",NA,NA,NA,NA,NA,NA,35.75,"LFRG 060730Z AUTO 19012KT 160V220 5000 -RA BR OVC005/// ///CB 06/05 Q1015"
"4014","LFRG",2019-12-06 08:00:00,0.1669,49.3644,42.8,42.8,100,190,15,0,29.97,NA,4.97,NA,"OVC","///",NA,NA,500,NA,NA,NA,"-RA",NA,NA,NA,NA,NA,NA,34.78,"LFRG 060800Z AUTO 19015KT 8000 -RA OVC005/// ///CB 06/06 Q1015"
"4015","LFRG",2019-12-06 08:30:00,0.1669,49.3644,42.8,42.8,100,200,16,0,29.97,NA,4.35,NA,"OVC","///",NA,NA,500,NA,NA,NA,"-RA",NA,NA,NA,NA,NA,NA,34.5,"LFRG 060830Z AUTO 20016KT 7000 -RA OVC005/// ///CB 06/06 Q1015 TEMPO 3000 RA BKN005 BECMG 20018G30KT"
"4016","LFRG",2019-12-06 09:00:00,0.1669,49.3644,42.8,42.8,100,200,14,0,29.97,NA,4.35,NA,"OVC","///",NA,NA,500,NA,NA,NA,"-RA",NA,NA,NA,NA,NA,NA,35.08,"LFRG 060900Z AUTO 20014KT 7000 -RA OVC005/// ///TCU 06/06 Q1015 TEMPO 3000 RA BKN005 BECMG 20018G30KT"
"4017","LFRG",2019-12-06 09:30:00,0.1669,49.3644,42.8,42.8,100,190,14,0,29.94,NA,5.59,NA,"OVC","///",NA,NA,500,NA,NA,NA,"-RA",NA,NA,NA,NA,NA,NA,35.08,"LFRG 060930Z AUTO 19014KT 9000 -RA OVC005/// ///TCU 06/06 Q1014 TEMPO 3000 RA BKN005 BECMG 20018G30KT"
"4018","LFRG",2019-12-06 10:00:00,0.1669,49.3644,44.6,42.8,93.35,200,16,0,29.94,NA,5.59,NA,"OVC","///",NA,NA,500,NA,NA,NA,"-RA",NA,NA,NA,NA,NA,NA,36.84,"LFRG 061000Z AUTO 20016KT 9000 -RA OVC005/// ///TCU 07/06 Q1014 TEMPO 3000 RA BKN005 BECMG 20018G30KT"
"4019","LFRG",2019-12-06 10:30:00,0.1669,49.3644,44.6,42.8,93.35,190,16,0,29.94,NA,6.21,NA,"BKN","OVC","///",NA,600,1300,NA,NA,NA,NA,NA,NA,NA,NA,NA,36.84,"LFRG 061030Z AUTO 19016KT 9999 BKN006/// OVC013/// ///CB 07/06 Q1014 TEMPO 3000 RA BKN005 BECMG 20018G30KT"
"4020","LFRG",2019-12-06 11:00:00,0.1669,49.3644,44.6,44.6,100,190,16,0,29.91,NA,6.21,NA,"OVC",NA,NA,NA,600,NA,NA,NA,NA,NA,NA,NA,NA,NA,NA,36.84,"LFRG 061100Z AUTO 19016KT 9999 OVC006 07/07 Q1013 TEMPO 3000 RA BECMG 20018G30KT"
"4021","LFRG",2019-12-06 11:30:00,0.1669,49.3644,46.4,44.6,93.4,200,15,0,29.91,NA,6.21,NA,"OVC",NA,NA,NA,700,NA,NA,NA,NA,NA,NA,NA,NA,NA,NA,39.45,"LFRG 061130Z AUTO 20015KT 9999 OVC007 08/07 Q1013 TEMPO 3000 RA BECMG 20020G30KT"
"4022","LFRG",2019-12-06 12:00:00,0.1669,49.3644,46.4,44.6,93.4,200,16,0,29.88,NA,6.21,NA,"OVC",NA,NA,NA,800,NA,NA,NA,NA,NA,NA,NA,NA,NA,NA,39.19,"LFRG 061200Z AUTO 20016KT 9999 OVC008 08/07 Q1012 TEMPO 3000 RA BECMG 20020G30KT"
"4023","LFRG",2019-12-06 12:30:00,0.1669,49.3644,48.2,44.6,87.28,200,18,0,29.85,NA,6.21,NA,"OVC",NA,NA,NA,900,NA,NA,NA,NA,NA,NA,NA,NA,NA,NA,41.07,"LFRG 061230Z AUTO 20018KT 9999 OVC009 09/07 Q1011 TEMPO 3000 RA BECMG 20020G30KT"
"4024","LFRG",2019-12-06 13:00:00,0.1669,49.3644,48.2,44.6,87.28,200,17,0,29.85,NA,6.21,NA,"OVC",NA,NA,NA,900,NA,NA,NA,NA,NA,NA,NA,NA,NA,NA,41.3,"LFRG 061300Z AUTO 20017KT 9999 OVC009 09/07 Q1011 TEMPO 3000 RA BECMG 20020G30KT"
"4025","LFRG",2019-12-06 13:30:00,0.1669,49.3644,48.2,44.6,87.28,200,13,0,29.85,NA,6.21,NA,"OVC",NA,NA,NA,800,NA,NA,NA,NA,NA,NA,NA,NA,NA,NA,42.32,"LFRG 061330Z AUTO 20013KT 9999 OVC008 09/07 Q1011 TEMPO 3000 RA BECMG 20020G30KT"
"4026","LFRG",2019-12-06 14:00:00,0.1669,49.3644,48.2,46.4,93.45,200,14,0,29.85,NA,6.21,NA,"OVC",NA,NA,NA,800,NA,NA,NA,NA,NA,NA,NA,NA,NA,NA,42.04,"LFRG 061400Z AUTO 20014KT 9999 OVC008 09/08 Q1011 TEMPO 3000 RA BECMG 20020G30KT"
"4027","LFRG",2019-12-06 14:30:00,0.1669,49.3644,48.2,48.2,100,200,16,0,29.83,NA,6.21,NA,"OVC",NA,NA,NA,800,NA,NA,NA,NA,NA,NA,NA,NA,NA,NA,41.53,"LFRG 061430Z AUTO 20016KT 9999 OVC008 09/09 Q1010 TEMPO 3000 RA BECMG 20020G30KT"
"4028","LFRG",2019-12-06 15:00:00,0.1669,49.3644,48.2,48.2,100,210,16,0,29.83,NA,6.21,NA,"OVC",NA,NA,NA,600,NA,NA,NA,NA,NA,NA,NA,NA,NA,NA,41.53,"LFRG 061500Z AUTO 21016KT 180V240 9999 OVC006 09/09 Q1010 TEMPO 3000 RA BECMG 20020G30KT"
"4029","LFRG",2019-12-06 15:30:00,0.1669,49.3644,50,48.2,93.5,200,17,0,29.83,NA,6.21,NA,"OVC",NA,NA,NA,700,NA,NA,NA,NA,NA,NA,NA,NA,NA,NA,43.66,"LFRG 061530Z AUTO 20017KT 9999 OVC007 10/09 Q1010 TEMPO 3000 RA BECMG 20020G30KT"
"4030","LFRG",2019-12-06 16:00:00,0.1669,49.3644,48.2,48.2,100,200,17,0,29.8,NA,5.59,NA,"OVC",NA,NA,NA,500,NA,NA,NA,NA,NA,NA,NA,NA,NA,NA,41.3,"LFRG 061600Z AUTO 20017KT 9000 OVC005 09/09 Q1009 TEMPO 3000 RA BECMG 20020G30KT"
"4031","LFRG",2019-12-06 16:30:00,0.1669,49.3644,50,48.2,93.5,220,13,0,29.83,NA,6.21,NA,"OVC",NA,NA,NA,500,NA,NA,NA,NA,NA,NA,NA,NA,NA,NA,44.63,"LFRG 061630Z AUTO 22013KT 190V250 9999 OVC005 10/09 Q1010 TEMPO 3000 RA BECMG 20020G30KT BKN030"
"4032","LFRG",2019-12-06 17:00:00,0.1669,49.3644,50,48.2,93.5,220,16,0,29.83,NA,6.21,NA,"OVC",NA,NA,NA,600,NA,NA,NA,"-RA",NA,NA,NA,NA,NA,NA,43.88,"LFRG 061700Z AUTO 22016KT 9999 -RA OVC006 10/09 Q1010 TEMPO 3000 RA BECMG 20020G30KT BKN030"
"4033","LFRG",2019-12-06 17:30:00,0.1669,49.3644,50,50,100,220,14,0,29.83,NA,5.59,NA,"OVC",NA,NA,NA,500,NA,NA,NA,"-DZ",NA,NA,NA,NA,NA,NA,44.36,"LFRG 061730Z AUTO 22014KT 190V250 9000 -DZ OVC005 10/10 Q1010 BECMG 20020G30KT BKN030"
"4034","LFRG",2019-12-06 18:00:00,0.1669,49.3644,50,50,100,240,12,0,29.83,NA,6.21,NA,"OVC",NA,NA,NA,600,NA,NA,NA,NA,NA,NA,NA,NA,NA,NA,44.91,"LFRG 061800Z AUTO 24012KT 9999 OVC006 10/10 Q1010 BECMG 20020G30KT BKN030"
"4035","LFRG",2019-12-06 18:30:00,0.1669,49.3644,51.8,48.2,87.47,240,14,0,29.85,NA,6.21,NA,"FEW","SCT","BKN",NA,900,2400,3400,NA,NA,NA,NA,NA,NA,NA,NA,NA,"LFRG 061830Z AUTO 24014KT 9999 FEW009 SCT024 BKN034 11/09 Q1011 TEMPO 20020G30KT"
"4036","LFRG",2019-12-06 19:00:00,0.1669,49.3644,51.8,48.2,87.47,250,16,0,29.85,NA,6.21,NA,"BKN","BKN","OVC",NA,1400,2100,3000,NA,NA,NA,NA,NA,NA,NA,NA,NA,"LFRG 061900Z AUTO 25016KT 9999 BKN014 BKN021 OVC030 11/09 Q1011 TEMPO 20020G30KT BECMG BKN030"
"4037","LFRG",2019-12-06 19:30:00,0.1669,49.3644,51.8,48.2,87.47,250,14,0,29.85,NA,6.21,NA,"OVC",NA,NA,NA,1300,NA,NA,NA,NA,NA,NA,NA,NA,NA,NA,NA,"LFRG 061930Z AUTO 25014KT 9999 OVC013 11/09 Q1011 BECMG BKN030"
"4038","LFRG",2019-12-06 20:00:00,0.1669,49.3644,50,48.2,93.5,250,13,0,29.88,NA,6.21,NA,"BKN","OVC",NA,NA,1400,5200,NA,NA,NA,NA,NA,NA,NA,NA,NA,44.63,"LFRG 062000Z AUTO 25013KT 9999 BKN014 OVC052 10/09 Q1012 BECMG BKN030"
"4039","LFRG",2019-12-06 20:30:00,0.1669,49.3644,50,48.2,93.5,250,14,0,29.88,NA,6.21,NA,"SCT","BKN","OVC",NA,1500,2100,5200,NA,NA,NA,NA,NA,NA,NA,NA,44.36,"LFRG 062030Z AUTO 25014KT 9999 SCT015 BKN021 OVC052 10/09 Q1012 NOSIG"
"4040","LFRG",2019-12-06 21:00:00,0.1669,49.3644,50,48.2,93.5,250,14,0,29.88,NA,6.21,NA,"BKN","BKN","BKN",NA,1600,2300,3200,NA,NA,NA,NA,NA,NA,NA,NA,44.36,"LFRG 062100Z AUTO 25014KT 9999 BKN016 BKN023 BKN032 10/09 Q1012 NOSIG"
"4041","LFRG",2019-12-06 21:30:00,0.1669,49.3644,50,48.2,93.5,260,16,0,29.91,NA,6.21,NA,"OVC",NA,NA,NA,1900,NA,NA,NA,NA,NA,NA,NA,NA,NA,NA,43.88,"LFRG 062130Z AUTO 26016KT 9999 OVC019 10/09 Q1013"
"4042","LFRG",2019-12-06 22:00:00,0.1669,49.3644,50,48.2,93.5,250,13,0,29.91,NA,6.21,NA,"BKN","OVC",NA,NA,2000,2600,NA,NA,NA,NA,NA,NA,NA,NA,NA,44.63,"LFRG 062200Z AUTO 25013KT 9999 BKN020 OVC026 10/09 Q1013"
"4043","LFRG",2019-12-06 22:30:00,0.1669,49.3644,50,48.2,93.5,250,10,0,29.91,NA,6.21,NA,"BKN","BKN","OVC",NA,1100,2000,4100,NA,NA,NA,NA,NA,NA,NA,NA,45.54,"LFRG 062230Z AUTO 25010KT 9999 BKN011 BKN020 OVC041 10/09 Q1013"
"4044","LFRG",2019-12-06 23:00:00,0.1669,49.3644,50,48.2,93.5,260,12,0,29.91,NA,6.21,NA,"BKN","OVC",NA,NA,1100,1800,NA,NA,NA,NA,NA,NA,NA,NA,NA,44.91,"LFRG 062300Z AUTO 26012KT 9999 BKN011 OVC018 10/09 Q1013"
"4045","LFRG",2019-12-06 23:30:00,0.1669,49.3644,50,48.2,93.5,250,10,0,29.94,NA,6.21,NA,"BKN","OVC",NA,NA,900,4400,NA,NA,NA,NA,NA,NA,NA,NA,NA,45.54,"LFRG 062330Z AUTO 25010KT 9999 BKN009 OVC044 10/09 Q1014"
"4046","LFRZ",2019-12-06 00:00:00,-2.1544,47.3139,39.2,39.2,100,150,6,0,30.21,NA,0.28,NA,NA,NA,NA,NA,NA,NA,NA,NA,"FG",NA,NA,NA,NA,NA,NA,34.2,"LFRZ 060000Z AUTO 15006KT 0450 R25/0550N FG ////// 04/04 Q1023"
"4047","LFRZ",2019-12-06 00:30:00,-2.1544,47.3139,37.4,37.4,100,150,7,0,30.18,NA,0.31,NA,NA,NA,NA,NA,NA,NA,NA,NA,"FG",NA,NA,NA,NA,NA,NA,31.36,"LFRZ 060030Z AUTO 15007KT 0500 0450 R25/0600N FG ////// 03/03 Q1022"
"4048","LFRZ",2019-12-06 01:00:00,-2.1544,47.3139,39.2,39.2,100,150,5,0,30.18,NA,0.34,NA,NA,NA,NA,NA,NA,NA,NA,NA,"FG",NA,NA,NA,NA,NA,NA,34.95,"LFRZ 060100Z AUTO 15005KT 0550 R25/0650N FG ////// 04/04 Q1022"
"4049","LFRZ",2019-12-06 01:30:00,-2.1544,47.3139,37.4,37.4,100,140,6,0,30.18,NA,0.43,NA,NA,NA,NA,NA,NA,NA,NA,NA,"FG",NA,NA,NA,NA,NA,NA,32.03,"LFRZ 060130Z AUTO 14006KT 0700 0600 R25/1000N FG ////// 03/03 Q1022"
"4050","LFRZ",2019-12-06 02:00:00,-2.1544,47.3139,37.4,37.4,100,160,8,0,30.15,NA,0.56,NA,NA,NA,NA,NA,NA,NA,NA,NA,"FG",NA,NA,NA,NA,NA,NA,30.76,"LFRZ 060200Z AUTO 16008KT 0900 0800 R25/1200U FG ////// 03/03 Q1021"
"4051","LFRZ",2019-12-06 02:30:00,-2.1544,47.3139,37.4,37.4,100,160,6,0,30.15,NA,0.81,NA,NA,NA,NA,NA,NA,NA,NA,NA,"BR",NA,NA,NA,NA,NA,NA,32.03,"LFRZ 060230Z AUTO 16006KT 1300 1100 R25/1700N BR ////// 03/03 Q1021"
"4052","LFRZ",2019-12-06 03:00:00,-2.1544,47.3139,37.4,37.4,100,170,6,0,30.15,NA,2.3,NA,NA,NA,NA,NA,NA,NA,NA,NA,"BR",NA,NA,NA,NA,NA,NA,32.03,"LFRZ 060300Z AUTO 17006KT 3700 BR ////// 03/03 Q1021"
"4053","LFRZ",2019-12-06 03:30:00,-2.1544,47.3139,39.2,39.2,100,170,5,0,30.15,NA,2.73,NA,NA,NA,NA,NA,NA,NA,NA,NA,"BR",NA,NA,NA,NA,NA,NA,34.95,"LFRZ 060330Z AUTO 17005KT 4400 BR ////// 04/04 Q1021"
"4054","LFRZ",2019-12-06 04:00:00,-2.1544,47.3139,39.2,39.2,100,160,6,0,30.15,NA,2.92,NA,NA,NA,NA,NA,NA,NA,NA,NA,"BR",NA,NA,NA,NA,NA,NA,34.2,"LFRZ 060400Z AUTO 16006KT 4700 BR ////// 04/04 Q1021"
"4055","LFRZ",2019-12-06 04:30:00,-2.1544,47.3139,41,41,100,170,7,0,30.12,NA,2.61,NA,NA,NA,NA,NA,NA,NA,NA,NA,"BR",NA,NA,NA,NA,NA,NA,35.75,"LFRZ 060430Z AUTO 17007KT 4200 BR ////// 05/05 Q1020"
"4056","LFRZ",2019-12-06 05:00:00,-2.1544,47.3139,42.8,42.8,100,180,8,0,30.12,NA,1.49,NA,NA,NA,NA,NA,NA,NA,NA,NA,"BR",NA,NA,NA,NA,NA,NA,37.42,"LFRZ 060500Z AUTO 18008KT 2400 BR ////// 06/06 Q1020"
"4057","LFRZ",2019-12-06 05:30:00,-2.1544,47.3139,42.8,42.8,100,180,8,0,30.12,NA,2.11,NA,NA,NA,NA,NA,NA,NA,NA,NA,"BR",NA,NA,NA,NA,NA,NA,37.42,"LFRZ 060530Z AUTO 18008KT 3400 BR ////// 06/06 Q1020"
"4058","LFRZ",2019-12-06 06:00:00,-2.1544,47.3139,42.8,42.8,100,150,8,0,30.12,NA,2.24,NA,NA,NA,NA,NA,NA,NA,NA,NA,"BR",NA,NA,NA,NA,NA,NA,37.42,"LFRZ 060600Z AUTO 15008KT 3600 BR ////// 06/06 Q1020"
"4059","LFRZ",2019-12-06 06:30:00,-2.1544,47.3139,42.8,42.8,100,150,4,0,30.12,NA,3.11,NA,NA,NA,NA,NA,NA,NA,NA,NA,"BR",NA,NA,NA,NA,NA,NA,40.03,"LFRZ 060630Z AUTO 15004KT 5000 BR ////// 06/06 Q1020"
"4060","LFRZ",2019-12-06 07:00:00,-2.1544,47.3139,44.6,44.6,100,170,6,0,30.12,NA,3.11,NA,NA,NA,NA,NA,NA,NA,NA,NA,"BR",NA,NA,NA,NA,NA,NA,40.71,"LFRZ 060700Z AUTO 17006KT 5000 BR ////// 07/07 Q1020"
"4061","LFRZ",2019-12-06 07:30:00,-2.1544,47.3139,48.2,48.2,100,220,10,0,30.09,NA,6.21,NA,NA,NA,NA,NA,NA,NA,NA,NA,NA,NA,NA,NA,NA,NA,NA,43.28,"LFRZ 060730Z AUTO 22010KT 9999 ////// 09/09 Q1019"
"4062","LFRZ",2019-12-06 08:00:00,-2.1544,47.3139,48.2,46.4,93.45,220,12,0,30.09,NA,6.21,NA,NA,NA,NA,NA,NA,NA,NA,NA,NA,NA,NA,NA,NA,NA,NA,42.62,"LFRZ 060800Z AUTO 22012KT 9999 ////// 09/08 Q1019"
"4063","LFRZ",2019-12-06 08:30:00,-2.1544,47.3139,50,48.2,93.5,220,13,0,30.12,NA,6.21,NA,NA,NA,NA,NA,NA,NA,NA,NA,NA,NA,NA,NA,NA,NA,NA,44.63,"LFRZ 060830Z AUTO 22013KT 9999 ////// 10/09 Q1020"
"4064","LFRZ",2019-12-06 09:00:00,-2.1544,47.3139,51.8,48.2,87.47,220,12,0,30.12,NA,6.21,NA,NA,NA,NA,NA,NA,NA,NA,NA,NA,NA,NA,NA,NA,NA,NA,NA,"LFRZ 060900Z AUTO 22012KT 9999 ////// 11/09 Q1020"
"4065","LFRZ",2019-12-06 09:30:00,-2.1544,47.3139,51.8,48.2,87.47,230,14,0,30.09,NA,6.21,NA,NA,NA,NA,NA,NA,NA,NA,NA,NA,NA,NA,NA,NA,NA,NA,NA,"LFRZ 060930Z AUTO 23014KT 9999 ////// 11/09 Q1019"
"4066","LFRZ",2019-12-06 10:00:00,-2.1544,47.3139,51.8,50,93.55,230,14,0,30.09,NA,6.21,NA,NA,NA,NA,NA,NA,NA,NA,NA,"-RA",NA,NA,NA,NA,NA,NA,NA,"LFRZ 061000Z AUTO 23014KT 9999 -RA ////// 11/10 Q1019"
"4067","LFRZ",2019-12-06 10:30:00,-2.1544,47.3139,51.8,50,93.55,240,13,0,30.09,NA,6.21,NA,NA,NA,NA,NA,NA,NA,NA,NA,"-RA",NA,NA,NA,NA,NA,NA,NA,"LFRZ 061030Z AUTO 24013KT 9999 -RA ////// 11/10 Q1019"
"4068","LFRZ",2019-12-06 11:00:00,-2.1544,47.3139,51.8,48.2,87.47,240,14,0,30.09,NA,6.21,NA,"FEW","BKN","OVC","///",2000,3800,4600,NA,NA,NA,NA,NA,NA,NA,NA,NA,"LFRZ 061100Z AUTO 24014KT 9999 FEW020/// BKN038/// OVC046/// ///TCU 11/09 Q1019 TEMPO 23017G27KT 3000 RADZ BKN006"
"4069","LFRZ",2019-12-06 11:30:00,-2.1544,47.3139,51.8,50,93.55,230,13,0,30.06,NA,6.21,NA,"FEW","BKN","BKN",NA,1900,3300,4200,NA,NA,NA,NA,NA,NA,NA,NA,NA,"LFRZ 061130Z AUTO 23013KT 9999 FEW019 BKN033 BKN042 11/10 Q1018 TEMPO 24017G28KT"
"4070","LFRZ",2019-12-06 12:00:00,-2.1544,47.3139,53.6,48.2,81.87,230,15,0,30.06,NA,6.21,NA,"BKN","OVC",NA,NA,3000,4000,NA,NA,NA,NA,NA,NA,NA,NA,NA,NA,"LFRZ 061200Z AUTO 23015KT 9999 BKN030 OVC040 12/09 Q1018 TEMPO 24017G28KT"
"4071","LFRZ",2019-12-06 12:30:00,-2.1544,47.3139,53.6,48.2,81.87,230,16,0,30.03,NA,6.21,NA,"BKN","BKN","BKN",NA,2900,3500,4600,NA,NA,NA,NA,NA,NA,NA,NA,NA,"LFRZ 061230Z AUTO 23016KT 9999 BKN029 BKN035 BKN046 12/09 Q1017 TEMPO 24017G28KT"
"4072","LFRZ",2019-12-06 13:00:00,-2.1544,47.3139,55.4,48.2,76.66,240,15,0,30.03,NA,6.21,NA,"SCT","BKN","BKN",NA,2800,3500,7000,NA,NA,NA,NA,NA,NA,NA,NA,NA,"LFRZ 061300Z AUTO 24015KT 9999 SCT028 BKN035 BKN070 13/09 Q1017 TEMPO 24017G28KT"
"4073","LFRZ",2019-12-06 13:30:00,-2.1544,47.3139,55.4,50,81.99,240,17,0,30.03,NA,6.21,NA,"FEW","BKN",NA,NA,2100,2900,NA,NA,NA,NA,NA,NA,NA,NA,NA,NA,"LFRZ 061330Z AUTO 24017KT 9999 FEW021 BKN029 13/10 Q1017 TEMPO 24017G28KT 3000 RA BKN004"
"4074","LFRZ",2019-12-06 14:00:00,-2.1544,47.3139,53.6,50,87.56,240,18,0,30,NA,6.21,NA,"OVC",NA,NA,NA,2000,NA,NA,NA,NA,NA,NA,NA,NA,NA,NA,NA,"LFRZ 061400Z AUTO 24018KT 9999 OVC020 12/10 Q1016 TEMPO 24017G28KT 3000 RA BKN004"
"4075","LFRZ",2019-12-06 14:30:00,-2.1544,47.3139,53.6,50,87.56,230,17,0,30,NA,6.21,NA,"OVC",NA,NA,NA,2000,NA,NA,NA,NA,NA,NA,NA,NA,NA,NA,NA,"LFRZ 061430Z AUTO 23017KT 9999 OVC020 12/10 Q1016 TEMPO 24017G28KT 3000 RA BKN004"
"4076","LFRZ",2019-12-06 15:00:00,-2.1544,47.3139,53.6,50,87.56,230,16,0,30,NA,6.21,NA,"BKN","OVC",NA,NA,2000,2500,NA,NA,NA,NA,NA,NA,NA,NA,NA,NA,"LFRZ 061500Z AUTO 23016KT 9999 BKN020 OVC025 12/10 Q1016 TEMPO 24017G28KT 3000 RA BKN004"
"4077","LFRZ",2019-12-06 15:30:00,-2.1544,47.3139,53.6,50,87.56,240,17,0,30,NA,6.21,NA,"BKN","OVC",NA,NA,1900,2400,NA,NA,"-RADZ",NA,NA,NA,NA,NA,NA,NA,"LFRZ 061530Z AUTO 24017KT 9999 2700 -RADZ BKN019 OVC024 12/10 Q1016 TEMPO 24017G28KT 3000 RA BKN004"
"4078","LFRZ",2019-12-06 16:00:00,-2.1544,47.3139,51.8,51.8,100,230,16,0,30,NA,2.36,NA,"BKN","OVC",NA,NA,800,1500,NA,NA,"-RA BR",NA,NA,NA,NA,NA,NA,NA,"LFRZ 061600Z AUTO 23016KT 3800 -RA BR BKN008 OVC015 11/11 Q1016 TEMPO 24017G28KT RA BKN004"
"4079","LFRZ",2019-12-06 16:30:00,-2.1544,47.3139,51.8,51.8,100,240,17,0,30,NA,6.21,NA,"OVC",NA,NA,NA,600,NA,NA,NA,"-RA",NA,NA,NA,NA,NA,NA,NA,"LFRZ 061630Z AUTO 24017KT 9999 -RA OVC006 11/11 Q1016 TEMPO 24017G28KT 3000 RA BKN004"
"4080","LFRZ",2019-12-06 17:00:00,-2.1544,47.3139,53.6,51.8,93.6,230,17,0,30,NA,2.92,NA,"OVC",NA,NA,NA,500,NA,NA,NA,"DZ BR",NA,NA,NA,NA,NA,NA,NA,"LFRZ 061700Z AUTO 23017KT 4700 DZ BR OVC005 12/11 Q1016 TEMPO 24017G28KT RA"
"4081","LFRZ",2019-12-06 17:30:00,-2.1544,47.3139,53.6,51.8,93.6,230,18,0,30,NA,3.73,NA,"OVC",NA,NA,NA,400,NA,NA,NA,NA,NA,NA,NA,NA,NA,NA,NA,"LFRZ 061730Z AUTO 23018KT 6000 OVC004 12/11 Q1016 TEMPO 3000 -SHRA BKN006"
"4082","LFRZ",2019-12-06 18:00:00,-2.1544,47.3139,53.6,53.6,100,230,16,0,30,NA,3.11,NA,"OVC",NA,NA,NA,400,NA,NA,NA,"-RADZ BR",NA,NA,NA,NA,NA,NA,NA,"LFRZ 061800Z AUTO 23016KT 5000 -RADZ BR OVC004 12/12 Q1016 TEMPO BKN006"
"4083","LFRZ",2019-12-06 18:30:00,-2.1544,47.3139,53.6,53.6,100,240,15,0,30,NA,3.11,NA,"OVC",NA,NA,NA,400,NA,NA,NA,"-RA BR",NA,NA,NA,NA,NA,NA,NA,"LFRZ 061830Z AUTO 24015KT 5000 -RA BR OVC004 12/12 Q1016 NOSIG"
"4084","LFRZ",2019-12-06 19:00:00,-2.1544,47.3139,53.6,51.8,93.6,240,11,0,30,NA,6.21,NA,"BKN","BKN","OVC",NA,500,3200,3900,NA,NA,NA,NA,NA,NA,NA,NA,NA,"LFRZ 061900Z AUTO 24011KT 9999 BKN005 BKN032 OVC039 12/11 Q1016 TEMPO 3000 -SHRA"
"4085","LFRZ",2019-12-06 19:30:00,-2.1544,47.3139,51.8,50,93.55,240,10,0,30,NA,6.21,NA,"FEW","BKN","BKN",NA,2700,3400,4200,NA,NA,NA,NA,NA,NA,NA,NA,NA,"LFRZ 061930Z AUTO 24010KT 9999 FEW027 BKN034 BKN042 11/10 Q1016 TEMPO 2000 BR BKN003"
"4086","LFRZ",2019-12-06 20:00:00,-2.1544,47.3139,51.8,51.8,100,250,9,0,30.03,NA,6.21,NA,"OVC",NA,NA,NA,4200,NA,NA,NA,NA,NA,NA,NA,NA,NA,NA,NA,"LFRZ 062000Z AUTO 25009KT 9999 OVC042 11/11 Q1017 TEMPO 2000 BR BKN003"
"4087","LFRZ",2019-12-06 20:30:00,-2.1544,47.3139,53.6,51.8,93.6,250,10,0,30.03,NA,6.21,NA,"OVC",NA,NA,NA,4200,NA,NA,NA,NA,NA,NA,NA,NA,NA,NA,NA,"LFRZ 062030Z AUTO 25010KT 9999 OVC042 12/11 Q1017 TEMPO 2000 BR BKN003"
"4088","LFRZ",2019-12-06 21:00:00,-2.1544,47.3139,53.6,51.8,93.6,250,7,0,30.03,NA,6.21,NA,"FEW","OVC",NA,NA,1800,4200,NA,NA,NA,NA,NA,NA,NA,NA,NA,NA,"LFRZ 062100Z AUTO 25007KT 9999 FEW018 OVC042 12/11 Q1017 TEMPO 2000 BR BKN003"
"4089","LFRZ",2019-12-06 21:30:00,-2.1544,47.3139,53.6,51.8,93.6,250,8,0,30.03,NA,6.21,NA,"OVC",NA,NA,NA,4200,NA,NA,NA,NA,NA,NA,NA,NA,NA,NA,NA,"LFRZ 062130Z AUTO 25008KT 9999 OVC042 12/11 Q1017 TEMPO 2000 BR BKN003"
"4090","LFRZ",2019-12-06 22:00:00,-2.1544,47.3139,50,48.2,93.5,220,7,0,30.03,NA,6.21,NA,"SCT",NA,NA,NA,4300,NA,NA,NA,NA,NA,NA,NA,NA,NA,NA,46.72,"LFRZ 062200Z AUTO 22007KT 9999 SCT043 10/09 Q1017 TEMPO 2000 BR BKN003"
"4091","LFRZ",2019-12-06 22:30:00,-2.1544,47.3139,51.8,50,93.55,240,7,0,30.03,NA,6.21,NA,"SCT","BKN",NA,NA,4200,4800,NA,NA,NA,NA,NA,NA,NA,NA,NA,NA,"LFRZ 062230Z AUTO 24007KT 9999 SCT042 BKN048 11/10 Q1017 TEMPO 2000 BR BKN003"
"4092","LFRZ",2019-12-06 23:00:00,-2.1544,47.3139,51.8,50,93.55,250,7,0,30.03,NA,6.21,NA,"OVC",NA,NA,NA,4700,NA,NA,NA,NA,NA,NA,NA,NA,NA,NA,NA,"LFRZ 062300Z AUTO 25007KT 9999 OVC047 11/10 Q1017 TEMPO 2000 BR BKN003"
"4093","LFRZ",2019-12-06 23:30:00,-2.1544,47.3139,51.8,50,93.55,240,7,0,30.03,NA,6.21,NA,"OVC",NA,NA,NA,4500,NA,NA,NA,NA,NA,NA,NA,NA,NA,NA,NA,"LFRZ 062330Z AUTO 24007KT 9999 OVC045 11/10 Q1017 TEMPO 3000 BR BKN003"
"4110","LFST",2019-12-06 00:00:00,7.6403,48.5494,24.8,24.8,100,NA,1,0,30.18,NA,0.28,NA,"VV ",NA,NA,NA,NA,NA,NA,NA,"FZFG",NA,NA,NA,NA,NA,NA,NA,"LFST 060000Z AUTO VRB01KT 0450 0350 R23/0550N R05/0400N FZFG VV/// M04/M04 Q1022 BECMG 0300 FZFG"
"4111","LFST",2019-12-06 00:30:00,7.6403,48.5494,24.8,24.8,100,NA,1,0,30.18,NA,0.25,NA,"VV ",NA,NA,NA,NA,NA,NA,NA,"FZFG",NA,NA,NA,NA,NA,NA,NA,"LFST 060030Z AUTO VRB01KT 0400 0350 R23/0450N R05/0400N FZFG VV/// M04/M04 Q1022 BECMG 0300 FZFG"
"4112","LFST",2019-12-06 01:00:00,7.6403,48.5494,24.8,24.8,100,NA,1,0,30.18,NA,0.22,NA,"VV ",NA,NA,NA,NA,NA,NA,NA,"FZFG",NA,NA,NA,NA,NA,NA,NA,"LFST 060100Z AUTO VRB01KT 0350 0300 R23/0400N R05/0375N FZFG VV/// M04/M04 Q1022 NOSIG"
"4113","LFST",2019-12-06 01:30:00,7.6403,48.5494,24.8,24.8,100,NA,1,0,30.18,NA,0.22,NA,"VV ",NA,NA,NA,NA,NA,NA,NA,"FZFG",NA,NA,NA,NA,NA,NA,NA,"LFST 060130Z AUTO VRB01KT 0350 0300 R23/0375N R05/0375N FZFG VV/// M04/M04 Q1022 NOSIG"
"4114","LFST",2019-12-06 02:00:00,7.6403,48.5494,24.8,24.8,100,NA,2,0,30.18,NA,0.22,NA,"VV ",NA,NA,NA,NA,NA,NA,NA,"FZFG",NA,NA,NA,NA,NA,NA,NA,"LFST 060200Z AUTO VRB02KT 0350 0300 R23/0400N R05/0375N FZFG VV/// M04/M04 Q1022 NOSIG"
"4115","LFST",2019-12-06 02:30:00,7.6403,48.5494,24.8,24.8,100,240,2,0,30.18,NA,0.19,NA,"VV ",NA,NA,NA,NA,NA,NA,NA,"FZFG",NA,NA,NA,NA,NA,NA,NA,"LFST 060230Z AUTO 24002KT 0300 R23/0325N R05/0350N FZFG VV/// M04/M04 Q1022 BECMG 3000 BR OVC002"
"4116","LFST",2019-12-06 03:00:00,7.6403,48.5494,26.6,26.6,100,230,2,0,30.18,NA,0.22,NA,"VV ",NA,NA,NA,NA,NA,NA,NA,"FZFG",NA,NA,NA,NA,NA,NA,NA,"LFST 060300Z AUTO 23002KT 0350 0300 R23/0375N R05/0400N FZFG VV/// M03/M03 Q1022 BECMG 3000 BR OVC002"
"4117","LFST",2019-12-06 03:30:00,7.6403,48.5494,26.6,26.6,100,NA,3,0,30.18,NA,0.28,NA,"VV ",NA,NA,NA,NA,NA,NA,NA,"FZFG",NA,NA,NA,NA,NA,NA,22.52,"LFST 060330Z AUTO VRB03KT 0450 R23/0500N R05/0550N FZFG VV/// M03/M03 Q1022 BECMG 3000 BR OVC002"
"4118","LFST",2019-12-06 04:00:00,7.6403,48.5494,28.4,28.4,100,210,4,0,30.15,NA,0.37,NA,"VV ",NA,NA,NA,NA,NA,NA,NA,"FZFG",NA,NA,NA,NA,NA,NA,23.22,"LFST 060400Z AUTO 21004KT 180V240 0600 0500 R23/0600N R05/0700N FZFG VV/// M02/M02 Q1021 BECMG 3000 BR OVC002"
"4119","LFST",2019-12-06 04:30:00,7.6403,48.5494,28.4,28.4,100,200,4,0,30.15,NA,0.56,NA,"VV ",NA,NA,NA,NA,NA,NA,NA,"FZFG",NA,NA,NA,NA,NA,NA,23.22,"LFST 060430Z AUTO 20004KT 170V230 0900 R23/1100U R05/1100N FZFG VV/// M02/M02 Q1021 BECMG 3000 BR OVC002"
"4120","LFST",2019-12-06 05:00:00,7.6403,48.5494,30.2,30.2,100,210,5,0,30.15,NA,0.62,NA,"VV ",NA,NA,NA,NA,NA,NA,NA,"BCFG",NA,NA,NA,NA,NA,NA,24.26,"LFST 060500Z AUTO 21005KT 1000 0900 R23/1100U R05/1400U BCFG VV/// M01/M01 Q1021 BECMG 3000 BR OVC002"
"4121","LFST",2019-12-06 05:30:00,7.6403,48.5494,30.2,30.2,100,210,5,0,30.15,NA,1.18,NA,"VV ",NA,NA,NA,NA,NA,NA,NA,"BR",NA,NA,NA,NA,NA,NA,24.26,"LFST 060530Z AUTO 21005KT 1900 BR VV/// M01/M01 Q1021 BECMG 3000 BR OVC002"
"4122","LFST",2019-12-06 06:00:00,7.6403,48.5494,30.2,30.2,100,260,5,0,30.15,NA,0.81,NA,"VV ",NA,NA,NA,NA,NA,NA,NA,"BR",NA,NA,NA,NA,NA,NA,24.26,"LFST 060600Z AUTO 26005KT 220V290 1300 1200 R23/1700D R05/1500D BR VV/// M01/M01 Q1021 BECMG 1500 BR OVC001"
"4123","LFST",2019-12-06 06:30:00,7.6403,48.5494,30.2,30.2,100,220,5,0,30.15,NA,0.99,NA,"VV ",NA,NA,NA,NA,NA,NA,NA,"BR",NA,NA,NA,NA,NA,NA,24.26,"LFST 060630Z AUTO 22005KT 1600 1100 R23/1900U R05/1400D BR VV/// M01/M01 Q1021 BECMG CAVOK"
"4124","LFST",2019-12-06 07:00:00,7.6403,48.5494,30.2,30.2,100,230,5,0,30.15,NA,0.68,NA,"VV ",NA,NA,NA,NA,NA,NA,NA,"BCFG",NA,NA,NA,NA,NA,NA,24.26,"LFST 060700Z AUTO 23005KT 1100 0900 R23/1100U R05/1500U BCFG VV/// M01/M01 Q1021 BECMG CAVOK"
"4125","LFST",2019-12-06 07:30:00,7.6403,48.5494,30.2,30.2,100,230,5,0,30.15,NA,0.56,NA,"VV ",NA,NA,NA,NA,NA,NA,NA,"FZFG",NA,NA,NA,NA,NA,NA,24.26,"LFST 060730Z AUTO 23005KT 0900 0650 R23/1200D R05/0650D FZFG VV/// M01/M01 Q1021 BECMG CAVOK"
"4126","LFST",2019-12-06 08:00:00,7.6403,48.5494,30.2,30.2,100,220,5,0,30.15,NA,0.28,NA,"VV ",NA,NA,NA,NA,NA,NA,NA,"FZFG",NA,NA,NA,NA,NA,NA,24.26,"LFST 060800Z AUTO 22005KT 0450 R23/0600N R05/0600N FZFG VV/// M01/M01 Q1021 BECMG CAVOK"
"4127","LFST",2019-12-06 08:30:00,7.6403,48.5494,30.2,30.2,100,230,5,0,30.15,NA,0.31,NA,"VV ",NA,NA,NA,NA,NA,NA,NA,"FZFG",NA,NA,NA,NA,NA,NA,24.26,"LFST 060830Z AUTO 23005KT 0500 0450 R23/0650N R05/0550N FZFG VV/// M01/M01 Q1021 BECMG CAVOK"
"4128","LFST",2019-12-06 09:00:00,7.6403,48.5494,32,32,100,260,3,0,30.15,NA,0.34,NA,"VV ",NA,NA,NA,NA,NA,NA,NA,"FZFG",NA,NA,NA,NA,NA,NA,28.69,"LFST 060900Z AUTO 26003KT 230V300 0550 0450 R23/0700N R05/0600N FZFG VV/// M00/M00 Q1021 BECMG CAVOK"
"4129","LFST",2019-12-06 09:30:00,7.6403,48.5494,32,32,100,200,4,0,30.15,NA,0.31,NA,"VV ",NA,NA,NA,NA,NA,NA,NA,"FZFG",NA,NA,NA,NA,NA,NA,27.42,"LFST 060930Z AUTO 20004KT 0500 0400 R23/0700N R05/0550N FZFG VV/// M00/M00 Q1021 BECMG CAVOK"
"4130","LFST",2019-12-06 10:00:00,7.6403,48.5494,32,32,100,190,5,0,30.12,NA,0.34,NA,"VV ",NA,NA,NA,NA,NA,NA,NA,"FZFG",NA,NA,NA,NA,NA,NA,26.4,"LFST 061000Z AUTO 19005KT 160V220 0550 0450 R23/0600N R05/0800U FZFG VV/// M00/M00 Q1020 BECMG CAVOK"
"4131","LFST",2019-12-06 10:30:00,7.6403,48.5494,32,32,100,220,4,0,30.12,NA,0.47,NA,"VV ",NA,NA,NA,NA,NA,NA,NA,"FG",NA,NA,NA,NA,NA,NA,27.42,"LFST 061030Z AUTO 22004KT 200V260 0750 0700 R23/1200U R05/1100U FG VV/// 00/00 Q1020 BECMG 6000 NSW NSC"
"4132","LFST",2019-12-06 11:00:00,7.6403,48.5494,33.8,33.8,100,230,5,0,30.09,NA,0.62,NA,"VV ",NA,NA,NA,NA,NA,NA,NA,"BCFG",NA,NA,NA,NA,NA,NA,28.53,"LFST 061100Z AUTO 23005KT 190V270 1000 0500 R23/1400N R05/0800U BCFG VV/// 01/01 Q1019 BECMG 6000 NSW NSC"
"4133","LFST",2019-12-06 11:30:00,7.6403,48.5494,33.8,33.8,100,240,4,0,30.09,NA,2.05,NA,"VV ",NA,NA,NA,NA,NA,NA,NA,"BR",NA,NA,NA,NA,NA,NA,29.52,"LFST 061130Z AUTO 24004KT 3300 BR VV/// 01/01 Q1019 BECMG 8000 NSW NSC"
"4134","LFST",2019-12-06 12:00:00,7.6403,48.5494,39.2,37.4,93.19,210,4,0,30.06,NA,3.73,NA,"FEW",NA,NA,NA,200,NA,NA,NA,NA,NA,NA,NA,NA,NA,NA,35.83,"LFST 061200Z AUTO 21004KT 6000 FEW002 04/03 Q1018 TEMPO 3000 BR OVC003"
"4135","LFST",2019-12-06 12:30:00,7.6403,48.5494,41,39.2,93.24,230,4,0,30.06,NA,5.59,NA,"NSC",NA,NA,NA,NA,NA,NA,NA,NA,NA,NA,NA,NA,NA,NA,37.93,"LFST 061230Z AUTO 23004KT 9000 NSC 05/04 Q1018 NOSIG"
"4136","LFST",2019-12-06 13:00:00,7.6403,48.5494,41,39.2,93.24,200,4,0,30.03,NA,5.59,NA,"NSC",NA,NA,NA,NA,NA,NA,NA,NA,NA,NA,NA,NA,NA,NA,37.93,"LFST 061300Z AUTO 20004KT 150V220 9000 NSC 05/04 Q1017 NOSIG"
"4137","LFST",2019-12-06 13:30:00,7.6403,48.5494,41,39.2,93.24,230,4,0,30.03,NA,6.21,NA,NA,NA,NA,NA,NA,NA,NA,NA,NA,NA,NA,NA,NA,NA,NA,37.93,"LFST 061330Z AUTO 23004KT 170V270 CAVOK 05/04 Q1017 NOSIG"
"4138","LFST",2019-12-06 14:00:00,7.6403,48.5494,42.8,41,93.3,230,5,0,30.03,NA,6.21,NA,NA,NA,NA,NA,NA,NA,NA,NA,NA,NA,NA,NA,NA,NA,NA,39.22,"LFST 061400Z AUTO 23005KT CAVOK 06/05 Q1017 NOSIG"
"4139","LFST",2019-12-06 14:30:00,7.6403,48.5494,42.8,39.2,86.99,230,4,0,30,NA,6.21,NA,NA,NA,NA,NA,NA,NA,NA,NA,NA,NA,NA,NA,NA,NA,NA,40.03,"LFST 061430Z AUTO 23004KT 180V260 CAVOK 06/04 Q1016 NOSIG"
"4140","LFST",2019-12-06 15:00:00,7.6403,48.5494,42.8,37.4,81.07,NA,3,0,30,NA,6.21,NA,NA,NA,NA,NA,NA,NA,NA,NA,NA,NA,NA,NA,NA,NA,NA,41.03,"LFST 061500Z AUTO VRB03KT CAVOK 06/03 Q1016 NOSIG"
"4141","LFST",2019-12-06 15:30:00,7.6403,48.5494,42.8,37.4,81.07,NA,2,0,30,NA,6.21,NA,NA,NA,NA,NA,NA,NA,NA,NA,NA,NA,NA,NA,NA,NA,NA,NA,"LFST 061530Z AUTO VRB02KT CAVOK 06/03 Q1016 NOSIG"
"4142","LFST",2019-12-06 16:00:00,7.6403,48.5494,42.8,39.2,86.99,190,8,0,30,NA,6.21,NA,NA,NA,NA,NA,NA,NA,NA,NA,NA,NA,NA,NA,NA,NA,NA,37.42,"LFST 061600Z AUTO 19008KT CAVOK 06/04 Q1016 NOSIG"
"4143","LFST",2019-12-06 16:30:00,7.6403,48.5494,42.8,37.4,81.07,180,8,0,30,NA,6.21,NA,NA,NA,NA,NA,NA,NA,NA,NA,NA,NA,NA,NA,NA,NA,NA,37.42,"LFST 061630Z AUTO 18008KT CAVOK 06/03 Q1016 NOSIG"
"4144","LFST",2019-12-06 17:00:00,7.6403,48.5494,44.6,37.4,75.68,190,6,0,30,NA,6.21,NA,NA,NA,NA,NA,NA,NA,NA,NA,NA,NA,NA,NA,NA,NA,NA,40.71,"LFST 061700Z AUTO 19006KT CAVOK 07/03 Q1016 NOSIG"
"4145","LFST",2019-12-06 17:30:00,7.6403,48.5494,44.6,37.4,75.68,190,9,0,30,NA,6.21,NA,NA,NA,NA,NA,NA,NA,NA,NA,NA,NA,NA,NA,NA,NA,NA,39.18,"LFST 061730Z AUTO 19009KT CAVOK 07/03 Q1016 NOSIG"
"4146","LFST",2019-12-06 18:00:00,7.6403,48.5494,44.6,35.6,70.48,180,9,0,30,NA,6.21,NA,NA,NA,NA,NA,NA,NA,NA,NA,NA,NA,NA,NA,NA,NA,NA,39.18,"LFST 061800Z AUTO 18009KT CAVOK 07/02 Q1016 NOSIG"
"4147","LFST",2019-12-06 18:30:00,7.6403,48.5494,44.6,35.6,70.48,180,9,0,30,NA,6.21,NA,NA,NA,NA,NA,NA,NA,NA,NA,NA,NA,NA,NA,NA,NA,NA,39.18,"LFST 061830Z AUTO 18009KT CAVOK 07/02 Q1016 NOSIG"
"4148","LFST",2019-12-06 19:00:00,7.6403,48.5494,44.6,37.4,75.68,180,9,0,30,NA,6.21,NA,"FEW","OVC",NA,NA,5000,10000,NA,NA,NA,NA,NA,NA,NA,NA,NA,39.18,"LFST 061900Z AUTO 18009KT 9999 FEW050 OVC100 07/03 Q1016 NOSIG"
"4149","LFST",2019-12-06 19:30:00,7.6403,48.5494,44.6,35.6,70.48,170,8,0,30,NA,6.21,NA,"BKN","OVC",NA,NA,4600,10000,NA,NA,NA,NA,NA,NA,NA,NA,NA,39.63,"LFST 061930Z AUTO 17008KT 9999 BKN046 OVC100 07/02 Q1016 NOSIG"
"4150","LFST",2019-12-06 20:00:00,7.6403,48.5494,46.4,35.6,65.83,170,10,0,29.97,NA,6.21,NA,"SCT","OVC",NA,NA,4500,10000,NA,NA,NA,NA,NA,NA,NA,NA,NA,41.03,"LFST 062000Z AUTO 17010KT 9999 SCT045 OVC100 08/02 Q1015 NOSIG"
"4151","LFST",2019-12-06 20:30:00,7.6403,48.5494,44.6,37.4,75.68,180,10,0,29.97,NA,6.21,NA,"BKN","BKN","BKN",NA,4600,6200,8400,NA,NA,NA,NA,NA,NA,NA,NA,38.77,"LFST 062030Z AUTO 18010KT 9999 BKN046 BKN062 BKN084 07/03 Q1015 TEMPO 4000 -RA"
"4152","LFST",2019-12-06 21:00:00,7.6403,48.5494,46.4,37.4,70.68,190,11,0,29.97,NA,6.21,NA,"BKN","OVC",NA,NA,4000,6200,NA,NA,NA,NA,NA,NA,NA,NA,NA,40.66,"LFST 062100Z AUTO 19011KT 9999 BKN040 OVC062 08/03 Q1015 TEMPO 4000 -RA"
"4153","LFST",2019-12-06 21:30:00,7.6403,48.5494,48.2,39.2,70.88,190,14,0,29.94,NA,6.21,NA,"BKN","BKN","OVC",NA,3700,6200,8600,NA,NA,NA,NA,NA,NA,NA,NA,42.04,"LFST 062130Z AUTO 19014KT 9999 BKN037 BKN062 OVC086 09/04 Q1014 TEMPO 4000 -RA"
"4154","LFST",2019-12-06 22:00:00,7.6403,48.5494,46.4,39.2,75.84,170,13,0,29.94,NA,6.21,NA,"BKN","BKN","OVC",NA,3400,4000,5800,NA,NA,NA,NA,NA,NA,NA,NA,40.02,"LFST 062200Z AUTO 17013KT 9999 BKN034 BKN040 OVC058 08/04 Q1014 TEMPO 4000 -RA"
"4155","LFST",2019-12-06 22:30:00,7.6403,48.5494,46.4,41,81.34,180,11,0,29.94,NA,6.21,NA,"BKN","OVC","///",NA,3500,9200,NA,NA,NA,NA,NA,NA,NA,NA,NA,40.66,"LFST 062230Z AUTO 18011KT 150V220 9999 BKN035/// OVC092/// ///TCU 08/05 Q1014 TEMPO 4000 -RA BECMG OVC040"
"4156","LFST",2019-12-06 23:00:00,7.6403,48.5494,48.2,42.8,81.47,210,17,0,29.94,NA,6.21,NA,"SCT","BKN","BKN",NA,3800,7000,9000,NA,NA,NA,NA,NA,NA,NA,NA,41.3,"LFST 062300Z AUTO 21017KT 9999 SCT038 BKN070 BKN090 09/06 Q1014 TEMPO 4000 -RA"
"4157","LFST",2019-12-06 23:30:00,7.6403,48.5494,50,42.8,76.18,220,20,0,29.94,NA,6.21,NA,"BKN","BKN","BKN","///",4200,6000,7000,NA,"-RA",NA,NA,NA,NA,NA,NA,43.05,"LFST 062330Z AUTO 22020KT 9999 -RA BKN042/// BKN060/// BKN070/// ///TCU 10/06 Q1014 TEMPO 4000 -RA BECMG OVC040"
"4158","LFBT",2019-12-06 00:00:00,0,43.1881,39.2,37.4,93.19,160,4,0,30.21,NA,5.59,NA,"NSC",NA,NA,NA,NA,NA,NA,NA,NA,NA,NA,NA,NA,NA,NA,35.83,"LFBT 060000Z AUTO 16004KT 9000 NSC 04/03 Q1023"
"4159","LFBT",2019-12-06 00:30:00,0,43.1881,37.4,35.6,93.14,210,5,0,30.21,NA,6.21,NA,NA,NA,NA,NA,NA,NA,NA,NA,NA,NA,NA,NA,NA,NA,NA,32.81,"LFBT 060030Z AUTO 21005KT CAVOK 03/02 Q1023"
"4160","LFBT",2019-12-06 01:00:00,0,43.1881,37.4,37.4,100,160,4,0,30.21,NA,6.21,NA,NA,NA,NA,NA,NA,NA,NA,NA,NA,NA,NA,NA,NA,NA,NA,33.73,"LFBT 060100Z AUTO 16004KT CAVOK 03/03 Q1023"
"4161","LFBT",2019-12-06 01:30:00,0,43.1881,37.4,35.6,93.14,150,4,0,30.21,NA,3.73,NA,"NSC",NA,NA,NA,NA,NA,NA,NA,NA,NA,NA,NA,NA,NA,NA,33.73,"LFBT 060130Z AUTO 15004KT 6000 NSC 03/02 Q1023"
"4162","LFBT",2019-12-06 02:00:00,0,43.1881,35.6,35.6,100,200,3,0,30.21,NA,6.21,NA,NA,NA,NA,NA,NA,NA,NA,NA,NA,NA,NA,NA,NA,NA,NA,32.8,"LFBT 060200Z AUTO 20003KT CAVOK 02/02 Q1023"
"4163","LFBT",2019-12-06 02:30:00,0,43.1881,37.4,35.6,93.14,180,4,0,30.21,NA,6.21,NA,NA,NA,NA,NA,NA,NA,NA,NA,NA,NA,NA,NA,NA,NA,NA,33.73,"LFBT 060230Z AUTO 18004KT CAVOK 03/02 Q1023"
"4164","LFBT",2019-12-06 03:00:00,0,43.1881,37.4,35.6,93.14,170,4,0,30.21,NA,6.21,NA,NA,NA,NA,NA,NA,NA,NA,NA,NA,NA,NA,NA,NA,NA,NA,33.73,"LFBT 060300Z AUTO 17004KT CAVOK 03/02 Q1023"
"4165","LFBT",2019-12-06 03:30:00,0,43.1881,37.4,35.6,93.14,160,4,0,30.24,NA,6.21,NA,"BKN","BKN",NA,NA,400,1000,NA,NA,NA,NA,NA,NA,NA,NA,NA,33.73,"LFBT 060330Z AUTO 16004KT 9999 BKN004 BKN010 03/02 Q1024"
"4166","LFBT",2019-12-06 04:00:00,0,43.1881,39.2,37.4,93.19,160,5,0,30.24,NA,6.21,NA,"OVC",NA,NA,NA,400,NA,NA,NA,NA,NA,NA,NA,NA,NA,NA,34.95,"LFBT 060400Z AUTO 16005KT 9999 OVC004 04/03 Q1024"
"4167","LFBT",2019-12-06 04:30:00,0,43.1881,39.2,39.2,100,140,4,0,30.24,NA,6.21,NA,"OVC",NA,NA,NA,300,NA,NA,NA,NA,NA,NA,NA,NA,NA,NA,35.83,"LFBT 060430Z AUTO 14004KT 9999 OVC003 04/04 Q1024"
"4168","LFBT",2019-12-06 05:00:00,0,43.1881,39.2,39.2,100,140,5,0,30.21,NA,4.97,NA,"OVC",NA,NA,NA,300,NA,NA,NA,NA,NA,NA,NA,NA,NA,NA,34.95,"LFBT 060500Z AUTO 14005KT 8000 OVC003 04/04 Q1023"
"4169","LFBT",2019-12-06 05:30:00,0,43.1881,41,41,100,140,5,0,30.21,NA,3.73,NA,"OVC",NA,NA,NA,200,NA,NA,NA,NA,NA,NA,NA,NA,NA,NA,37.08,"LFBT 060530Z AUTO 14005KT 6000 1500 OVC002 05/05 Q1023"
"4170","LFBT",2019-12-06 06:00:00,0,43.1881,41,41,100,NA,2,0,30.24,NA,0.93,NA,"OVC",NA,NA,NA,300,NA,NA,NA,"BR",NA,NA,NA,NA,NA,NA,NA,"LFBT 060600Z AUTO VRB02KT 1500 1000 R20/1400D R02/1600D BR OVC003 05/05 Q1024 TEMPO 0500 FG VV///"
"4171","LFBT",2019-12-06 06:30:00,0,43.1881,41,41,100,180,4,0,30.24,NA,0.43,NA,"VV ",NA,NA,NA,NA,NA,NA,NA,"FG",NA,NA,NA,NA,NA,NA,37.93,"LFBT 060630Z AUTO 18004KT 0700 0550 R20/0800N R02/0650D FG VV/// 05/05 Q1024 TEMPO 0500 FG"
"4172","LFBT",2019-12-06 07:00:00,0,43.1881,39.2,39.2,100,190,4,0,30.21,NA,0.25,NA,"VV ",NA,NA,NA,NA,NA,NA,NA,"FG",NA,NA,NA,NA,NA,NA,35.83,"LFBT 060700Z AUTO 19004KT 140V200 0400 0350 R20/0375N R02/0500D FG VV/// 04/04 Q1023 NOSIG"
"4173","LFBT",2019-12-06 07:30:00,0,43.1881,37.4,37.4,100,190,4,0,30.21,NA,0.22,NA,"VV ",NA,NA,NA,NA,NA,NA,NA,"FG",NA,NA,NA,NA,NA,NA,33.73,"LFBT 060730Z AUTO 19004KT 0350 0300 R20/0275D R02/1100D FG VV/// 03/03 Q1023 BECMG CAVOK"
"4174","LFBT",2019-12-06 08:00:00,0,43.1881,37.4,37.4,100,NA,2,0,30.24,NA,0.22,NA,"VV ",NA,NA,NA,NA,NA,NA,NA,"FG",NA,NA,NA,NA,NA,NA,NA,"LFBT 060800Z AUTO VRB02KT 0350 R20/0500N R02/0400N FG VV/// 03/03 Q1024 BECMG CAVOK"
"4175","LFBT",2019-12-06 08:30:00,0,43.1881,39.2,39.2,100,0,0,0,30.24,NA,0.56,NA,"VV ",NA,NA,NA,NA,NA,NA,NA,"FG",NA,NA,NA,NA,NA,NA,NA,"LFBT 060830Z AUTO 00000KT 0900 R20/1000U R02/1700U FG VV/// 04/04 Q1024 BECMG CAVOK"
"4176","LFBT",2019-12-06 09:00:00,0,43.1881,41,41,100,0,0,0,30.24,NA,4.97,NA,"FEW",NA,NA,NA,200,NA,NA,NA,NA,NA,NA,NA,NA,NA,NA,NA,"LFBT 060900Z AUTO 00000KT 8000 FEW002 05/05 Q1024 NOSIG"
"4177","LFBT",2019-12-06 09:30:00,0,43.1881,42.8,42.8,100,NA,2,0,30.24,NA,6.21,NA,NA,NA,NA,NA,NA,NA,NA,NA,NA,NA,NA,NA,NA,NA,NA,NA,"LFBT 060930Z AUTO VRB02KT CAVOK 06/06 Q1024 NOSIG"
"4178","LFBT",2019-12-06 10:00:00,0,43.1881,46.4,42.8,87.19,140,3,0,30.24,NA,6.21,NA,NA,NA,NA,NA,NA,NA,NA,NA,NA,NA,NA,NA,NA,NA,NA,45.15,"LFBT 061000Z AUTO 14003KT CAVOK 08/06 Q1024 NOSIG"
"4179","LFBT",2019-12-06 10:30:00,0,43.1881,50,42.8,76.18,NA,3,0,30.24,NA,6.21,NA,NA,NA,NA,NA,NA,NA,NA,NA,NA,NA,NA,NA,NA,NA,NA,49.27,"LFBT 061030Z AUTO VRB03KT CAVOK 10/06 Q1024 NOSIG"
"4180","LFBT",2019-12-06 11:00:00,0,43.1881,53.6,42.8,66.7,NA,2,0,30.21,NA,6.21,NA,NA,NA,NA,NA,NA,NA,NA,NA,NA,NA,NA,NA,NA,NA,NA,NA,"LFBT 061100Z AUTO VRB02KT CAVOK 12/06 Q1023 NOSIG"
"4181","LFBT",2019-12-06 11:30:00,0,43.1881,55.4,42.8,62.46,0,0,0,30.21,NA,6.21,NA,NA,NA,NA,NA,NA,NA,NA,NA,NA,NA,NA,NA,NA,NA,NA,NA,"LFBT 061130Z AUTO 00000KT CAVOK 13/06 Q1023 NOSIG"
"4182","LFBT",2019-12-06 12:00:00,0,43.1881,55.4,44.6,66.91,NA,3,0,30.18,NA,6.21,NA,NA,NA,NA,NA,NA,NA,NA,NA,NA,NA,NA,NA,NA,NA,NA,NA,"LFBT 061200Z AUTO VRB03KT CAVOK 13/07 Q1022 NOSIG"
"4183","LFBT",2019-12-06 12:30:00,0,43.1881,57.2,42.8,58.52,NA,2,0,30.18,NA,6.21,NA,NA,NA,NA,NA,NA,NA,NA,NA,NA,NA,NA,NA,NA,NA,NA,NA,"LFBT 061230Z AUTO VRB02KT CAVOK 14/06 Q1022 NOSIG"
"4184","LFBT",2019-12-06 13:00:00,0,43.1881,60.8,42.8,51.45,NA,1,0,30.15,NA,6.21,NA,NA,NA,NA,NA,NA,NA,NA,NA,NA,NA,NA,NA,NA,NA,NA,NA,"LFBT 061300Z AUTO VRB01KT CAVOK 16/06 Q1021 NOSIG"
"4185","LFBT",2019-12-06 13:30:00,0,43.1881,59,39.2,47.72,NA,3,0,30.15,NA,6.21,NA,NA,NA,NA,NA,NA,NA,NA,NA,NA,NA,NA,NA,NA,NA,NA,NA,"LFBT 061330Z AUTO VRB03KT CAVOK 15/04 Q1021 NOSIG"
"4186","LFBT",2019-12-06 14:00:00,0,43.1881,59,41,51.18,30,3,0,30.15,NA,6.21,NA,NA,NA,NA,NA,NA,NA,NA,NA,NA,NA,NA,NA,NA,NA,NA,NA,"LFBT 061400Z AUTO 03003KT 350V090 CAVOK 15/05 Q1021 NOSIG"
"4187","LFBT",2019-12-06 14:30:00,0,43.1881,59,41,51.18,60,3,0,30.15,NA,6.21,NA,NA,NA,NA,NA,NA,NA,NA,NA,NA,NA,NA,NA,NA,NA,NA,NA,"LFBT 061430Z AUTO 06003KT 020V120 CAVOK 15/05 Q1021 NOSIG"
"4188","LFBT",2019-12-06 15:00:00,0,43.1881,59,39.2,47.72,70,3,0,30.15,NA,6.21,NA,NA,NA,NA,NA,NA,NA,NA,NA,NA,NA,NA,NA,NA,NA,NA,NA,"LFBT 061500Z AUTO 07003KT 020V140 CAVOK 15/04 Q1021 NOSIG"
"4189","LFBT",2019-12-06 15:30:00,0,43.1881,59,39.2,47.72,NA,2,0,30.15,NA,6.21,NA,NA,NA,NA,NA,NA,NA,NA,NA,NA,NA,NA,NA,NA,NA,NA,NA,"LFBT 061530Z AUTO VRB02KT CAVOK 15/04 Q1021 NOSIG"
"4190","LFBT",2019-12-06 16:00:00,0,43.1881,57.2,39.2,50.91,NA,2,0,30.12,NA,6.21,NA,NA,NA,NA,NA,NA,NA,NA,NA,NA,NA,NA,NA,NA,NA,NA,NA,"LFBT 061600Z AUTO VRB02KT CAVOK 14/04 Q1020 NOSIG"
"4191","LFBT",2019-12-06 16:30:00,0,43.1881,55.4,39.2,54.34,50,3,0,30.12,NA,6.21,NA,NA,NA,NA,NA,NA,NA,NA,NA,NA,NA,NA,NA,NA,NA,NA,NA,"LFBT 061630Z AUTO 05003KT CAVOK 13/04 Q1020 NOSIG"
"4192","LFBT",2019-12-06 17:00:00,0,43.1881,44.6,39.2,81.2,190,2,0,30.15,NA,6.21,NA,NA,NA,NA,NA,NA,NA,NA,NA,NA,NA,NA,NA,NA,NA,NA,NA,"LFBT 061700Z AUTO 19002KT CAVOK 07/04 Q1021 NOSIG"
"4193","LFBT",2019-12-06 17:30:00,0,43.1881,42.8,39.2,86.99,180,3,0,30.15,NA,6.21,NA,"NSC",NA,NA,NA,NA,NA,NA,NA,NA,NA,NA,NA,NA,NA,NA,41.03,"LFBT 061730Z AUTO 18003KT 9999 4700 NSC 06/04 Q1021 NOSIG"
"4194","LFBT",2019-12-06 18:00:00,0,43.1881,44.6,39.2,81.2,180,4,0,30.15,NA,6.21,NA,NA,NA,NA,NA,NA,NA,NA,NA,NA,NA,NA,NA,NA,NA,NA,42.13,"LFBT 061800Z AUTO 18004KT CAVOK 07/04 Q1021 NOSIG"
"4195","LFBT",2019-12-06 18:30:00,0,43.1881,42.8,39.2,86.99,190,5,0,30.15,NA,6.21,NA,NA,NA,NA,NA,NA,NA,NA,NA,NA,NA,NA,NA,NA,NA,NA,39.22,"LFBT 061830Z AUTO 19005KT CAVOK 06/04 Q1021 NOSIG"
"4196","LFBT",2019-12-06 19:00:00,0,43.1881,41,37.4,86.89,170,4,0,30.15,NA,6.21,NA,NA,NA,NA,NA,NA,NA,NA,NA,NA,NA,NA,NA,NA,NA,NA,37.93,"LFBT 061900Z AUTO 17004KT CAVOK 05/03 Q1021 NOSIG"
"4197","LFBT",2019-12-06 19:30:00,0,43.1881,41,37.4,86.89,170,5,0,30.18,NA,6.21,NA,NA,NA,NA,NA,NA,NA,NA,NA,NA,NA,NA,NA,NA,NA,NA,37.08,"LFBT 061930Z AUTO 17005KT CAVOK 05/03 Q1022 NOSIG"
"4198","LFBT",2019-12-06 20:00:00,0,43.1881,44.6,39.2,81.2,150,7,0,30.18,NA,6.21,NA,NA,NA,NA,NA,NA,NA,NA,NA,NA,NA,NA,NA,NA,NA,NA,40.14,"LFBT 062000Z AUTO 15007KT CAVOK 07/04 Q1022 NOSIG"
"4199","LFBT",2019-12-06 20:30:00,0,43.1881,44.6,39.2,81.2,160,8,0,30.18,NA,6.21,NA,NA,NA,NA,NA,NA,NA,NA,NA,NA,NA,NA,NA,NA,NA,NA,39.63,"LFBT 062030Z AUTO 16008KT CAVOK 07/04 Q1022 NOSIG"
"4200","LFBT",2019-12-06 21:00:00,0,43.1881,42.8,39.2,86.99,160,7,0,30.18,NA,6.21,NA,NA,NA,NA,NA,NA,NA,NA,NA,NA,NA,NA,NA,NA,NA,NA,37.94,"LFBT 062100Z AUTO 16007KT CAVOK 06/04 Q1022 NOSIG"
"4201","LFBT",2019-12-06 21:30:00,0,43.1881,42.8,37.4,81.07,170,7,0,30.18,NA,6.21,NA,NA,NA,NA,NA,NA,NA,NA,NA,NA,NA,NA,NA,NA,NA,NA,37.94,"LFBT 062130Z AUTO 17007KT CAVOK 06/03 Q1022 NOSIG"
"4202","LFBT",2019-12-06 22:00:00,0,43.1881,42.8,37.4,81.07,170,6,0,30.21,NA,6.21,NA,NA,NA,NA,NA,NA,NA,NA,NA,NA,NA,NA,NA,NA,NA,NA,38.54,"LFBT 062200Z AUTO 17006KT CAVOK 06/03 Q1023 NOSIG"
"4203","LFBT",2019-12-06 22:30:00,0,43.1881,41,37.4,86.89,160,6,0,30.21,NA,6.21,NA,NA,NA,NA,NA,NA,NA,NA,NA,NA,NA,NA,NA,NA,NA,NA,36.37,"LFBT 062230Z AUTO 16006KT CAVOK 05/03 Q1023 NOSIG"
"4204","LFBT",2019-12-06 23:00:00,0,43.1881,41,37.4,86.89,160,6,0,30.21,NA,6.21,NA,NA,NA,NA,NA,NA,NA,NA,NA,NA,NA,NA,NA,NA,NA,NA,36.37,"LFBT 062300Z AUTO 16006KT CAVOK 05/03 Q1023 NOSIG"
"4205","LFBT",2019-12-06 23:30:00,0,43.1881,41,37.4,86.89,170,7,0,30.24,NA,6.21,NA,NA,NA,NA,NA,NA,NA,NA,NA,NA,NA,NA,NA,NA,NA,NA,35.75,"LFBT 062330Z AUTO 17007KT CAVOK 05/03 Q1024 NOSIG"
"4206","LFBO",2019-12-06 00:00:00,1.3789,43.6211,42.8,42.8,100,170,2,0,30.24,NA,2.11,NA,"NSC",NA,NA,NA,NA,NA,NA,NA,"BR",NA,NA,NA,NA,NA,NA,NA,"LFBO 060000Z AUTO 17002KT 3400 1100 R14R/P2000 R32L/P2000 R14L/P2000 R32R/P2000 BR NSC 06/06 Q1024"
"4207","LFBO",2019-12-06 00:30:00,1.3789,43.6211,42.8,41,93.3,160,3,0,30.21,NA,1.18,NA,"NSC",NA,NA,NA,NA,NA,NA,NA,"BCFG",NA,NA,NA,NA,NA,NA,41.03,"LFBO 060030Z AUTO 16003KT 1900 0900 R14R/1300U R32L/1200U R14L/1800D R32R/1800U BCFG NSC 06/05 Q1023"
"4208","LFBO",2019-12-06 01:00:00,1.3789,43.6211,42.8,41,93.3,0,0,0,30.21,NA,0.31,NA,"FEW",NA,NA,NA,300,NA,NA,NA,"FG",NA,NA,NA,NA,NA,NA,NA,"LFBO 060100Z AUTO 00000KT 0500 0350 R14R/1100U R32L/0375D R14L/0500D R32R/0400N FG FEW003 06/05 Q1023"
"4209","LFBO",2019-12-06 01:30:00,1.3789,43.6211,39.2,39.2,100,330,3,0,30.21,NA,0.5,NA,"FEW",NA,NA,NA,200,NA,NA,NA,"FG",NA,NA,NA,NA,NA,NA,36.92,"LFBO 060130Z AUTO 33003KT 0800 0350 R14R/1700N R32L/0400N R14L/1000N R32R/0800U FG FEW002 04/04 Q1023"
"4210","LFBO",2019-12-06 02:00:00,1.3789,43.6211,39.2,37.4,93.19,20,1,0,30.21,NA,0.37,NA,"VV ",NA,NA,NA,NA,NA,NA,NA,"FG",NA,NA,NA,NA,NA,NA,NA,"LFBO 060200Z AUTO 02001KT 0600 0300 R14R/P2000U R32L/0375N R14L/0900U R32R/1400U FG VV/// 04/03 Q1023"
"4211","LFBO",2019-12-06 02:30:00,1.3789,43.6211,37.4,37.4,100,120,3,0,30.21,NA,0.25,NA,"VV ",NA,NA,NA,NA,NA,NA,NA,"FG",NA,NA,NA,NA,NA,NA,34.86,"LFBO 060230Z AUTO 12003KT 0400 0250 R14R/0300D R32L/1800U R14L/0650U R32R/0400N FG VV/// 03/03 Q1023"
"4212","LFBO",2019-12-06 03:00:00,1.3789,43.6211,37.4,35.6,93.14,150,4,0,30.21,NA,1.62,NA,"FEW",NA,NA,NA,500,NA,NA,NA,"BR",NA,NA,NA,NA,NA,NA,33.73,"LFBO 060300Z AUTO 15004KT 2600 R14L/1300U BR FEW005 03/02 Q1023"
"4213","LFBO",2019-12-06 03:30:00,1.3789,43.6211,39.2,37.4,93.19,NA,2,0,30.21,NA,2.67,NA,"NSC",NA,NA,NA,NA,NA,NA,NA,"BR",NA,NA,NA,NA,NA,NA,NA,"LFBO 060330Z AUTO VRB02KT 4300 1700 BR NSC 04/03 Q1023"
"4214","LFBO",2019-12-06 04:00:00,1.3789,43.6211,39.2,39.2,100,20,3,0,30.21,NA,2.61,NA,"FEW",NA,NA,NA,200,NA,NA,NA,"BR",NA,NA,NA,NA,NA,NA,36.92,"LFBO 060400Z AUTO 02003KT 4200 BR FEW002 04/04 Q1023"
"4215","LFBO",2019-12-06 04:30:00,1.3789,43.6211,37.4,35.6,93.14,310,3,0,30.21,NA,0.62,NA,"VV ",NA,NA,NA,NA,NA,NA,NA,"BCFG",NA,NA,NA,NA,NA,NA,34.86,"LFBO 060430Z AUTO 31003KT 1000 0900 R14R/1200U R32L/0900D R14L/0800U R32R/1400U BCFG VV/// 03/02 Q1023"
"4216","LFBO",2019-12-06 05:00:00,1.3789,43.6211,35.6,35.6,100,320,2,0,30.24,NA,0.28,NA,"VV ",NA,NA,NA,NA,NA,NA,NA,"FG",NA,NA,NA,NA,NA,NA,NA,"LFBO 060500Z AUTO 32002KT 0450 0250 R14R/0450N R32L/0400U R14L/0800N R32R/0450N FG VV/// 02/02 Q1024"
"4217","LFBO",2019-12-06 05:30:00,1.3789,43.6211,37.4,37.4,100,340,1,0,30.24,NA,0.4,NA,"VV ",NA,NA,NA,NA,NA,NA,NA,"FG",NA,NA,NA,NA,NA,NA,NA,"LFBO 060530Z AUTO 34001KT 0650 0450 R14R/1200U R32L/0550N R14L/0650D R32R/0650N FG VV/// 03/03 Q1024"
"4218","LFBO",2019-12-06 06:00:00,1.3789,43.6211,37.4,37.4,100,NA,3,0,30.24,NA,0.25,NA,"VV ",NA,NA,NA,NA,NA,NA,NA,"FG",NA,NA,NA,NA,NA,NA,34.86,"LFBO 060600Z AUTO VRB03KT 0400 0250 R14R/0300N R32L/0350N R14L/0600U R32R/0600N FG VV/// 03/03 Q1024"
"4219","LFBO",2019-12-06 06:30:00,1.3789,43.6211,39.2,39.2,100,180,3,0,30.24,NA,0.16,NA,"VV ",NA,NA,NA,NA,NA,NA,NA,"FG",NA,NA,NA,NA,NA,NA,36.92,"LFBO 060630Z AUTO 18003KT 0250 0200 R14R/0300N R32L/0325U R14L/0300N R32R/0325N FG VV/// 04/04 Q1024"
"4220","LFBO",2019-12-06 07:00:00,1.3789,43.6211,39.2,39.2,100,170,3,0,30.24,NA,0.28,NA,"VV ",NA,NA,NA,NA,NA,NA,NA,"FG",NA,NA,NA,NA,NA,NA,36.92,"LFBO 060700Z AUTO 17003KT 150V210 0450 0350 R14R/0400N R32L/0650N R14L/0550U R32R/0400N FG VV/// 04/04 Q1024"
"4221","LFBO",2019-12-06 07:30:00,1.3789,43.6211,37.4,37.4,100,200,3,0,30.24,NA,0.47,NA,"VV ",NA,NA,NA,NA,NA,NA,NA,"FG",NA,NA,NA,NA,NA,NA,34.86,"LFBO 060730Z AUTO 20003KT 0750 0450 R14R/1100U R32L/0600N R14L/1400D R32R/0550N FG VV/// 03/03 Q1024 BECMG 0800 FG OVC002"
"4222","LFBO",2019-12-06 08:00:00,1.3789,43.6211,37.4,37.4,100,NA,3,0,30.24,NA,0.31,NA,"VV ",NA,NA,NA,NA,NA,NA,NA,"FG",NA,NA,NA,NA,NA,NA,34.86,"LFBO 060800Z AUTO VRB03KT 0500 0400 R14R/0700U R32L/0550N R14L/1200U R32R/0600N FG VV/// 03/03 Q1024 BECMG 0800 FG OVC002"
"4223","LFBO",2019-12-06 08:30:00,1.3789,43.6211,39.2,39.2,100,NA,2,0,30.27,NA,0.5,NA,"VV ",NA,NA,NA,NA,NA,NA,NA,"FG",NA,NA,NA,NA,NA,NA,NA,"LFBO 060830Z AUTO VRB02KT 0800 0550 R14R/0750N R32L/1600D R14L/1300D R32R/1400U FG VV/// 04/04 Q1025 BECMG OVC002"
"4224","LFBO",2019-12-06 09:00:00,1.3789,43.6211,39.2,39.2,100,180,4,0,30.27,NA,0.4,NA,"VV ",NA,NA,NA,NA,NA,NA,NA,"FG",NA,NA,NA,NA,NA,NA,35.83,"LFBO 060900Z AUTO 18004KT 160V220 0650 0350 R14R/0450N R32L/P2000 R14L/1000N R32R/1100D FG VV/// 04/04 Q1025 BECMG 0800 FG OVC002"
"4225","LFBO",2019-12-06 09:30:00,1.3789,43.6211,41,41,100,NA,3,0,30.27,NA,0.37,NA,"VV ",NA,NA,NA,NA,NA,NA,NA,"FG",NA,NA,NA,NA,NA,NA,38.98,"LFBO 060930Z AUTO VRB03KT 0600 0450 R14R/1000N R32L/1000U R14L/0550D R32R/0600U FG VV/// 05/05 Q1025 BECMG 6000 NSW SCT004"
"4226","LFBO",2019-12-06 10:00:00,1.3789,43.6211,41,41,100,NA,2,0,30.27,NA,0.34,NA,"VV ",NA,NA,NA,NA,NA,NA,NA,"FG",NA,NA,NA,NA,NA,NA,NA,"LFBO 061000Z AUTO VRB02KT 0550 0500 R14R/0700N R32L/0900U R14L/0700N R32R/0800U FG VV/// 05/05 Q1025 BECMG 6000 NSW SCT004"
"4227","LFBO",2019-12-06 10:30:00,1.3789,43.6211,41,41,100,NA,3,0,30.27,NA,0.31,NA,"VV ",NA,NA,NA,NA,NA,NA,NA,"FG",NA,NA,NA,NA,NA,NA,38.98,"LFBO 061030Z AUTO VRB03KT 0500 0400 R14R/0500D R32L/0900D R14L/0550N R32R/0750D FG VV/// 05/05 Q1025 BECMG 6000 NSW SCT004"
"4228","LFBO",2019-12-06 11:00:00,1.3789,43.6211,41,41,100,150,4,0,30.24,NA,0.28,NA,"VV ",NA,NA,NA,NA,NA,NA,NA,"FG",NA,NA,NA,NA,NA,NA,37.93,"LFBO 061100Z AUTO 15004KT 110V180 0450 0400 R14R/0500D R32L/1200D R14L/0600U R32R/0750N FG VV/// 05/05 Q1024 BECMG 6000 NSW SCT004"
"4229","LFBO",2019-12-06 11:30:00,1.3789,43.6211,42.8,42.8,100,NA,1,0,30.24,NA,0.4,NA,"VV ",NA,NA,NA,NA,NA,NA,NA,"FG",NA,NA,NA,NA,NA,NA,NA,"LFBO 061130Z AUTO VRB01KT 0650 0400 R14R/0750D R32L/0550N R14L/0900D R32R/0550N FG VV/// 06/06 Q1024 BECMG 6000 NSW SCT004"
"4230","LFBO",2019-12-06 12:00:00,1.3789,43.6211,42.8,42.8,100,NA,2,0,30.21,NA,0.31,NA,"VV ",NA,NA,NA,NA,NA,NA,NA,"FG",NA,NA,NA,NA,NA,NA,NA,"LFBO 061200Z AUTO VRB02KT 0500 0400 R14R/0500D R32L/1000U R14L/0600U R32R/1000D FG VV/// 06/06 Q1023 TEMPO 6000 NSW"
"4231","LFBO",2019-12-06 12:30:00,1.3789,43.6211,42.8,42.8,100,NA,2,0,30.21,NA,0.93,NA,"VV ",NA,NA,NA,NA,NA,NA,NA,"BCFG",NA,NA,NA,NA,NA,NA,NA,"LFBO 061230Z AUTO VRB02KT 1500 0550 R14R/0800N R32L/1800U R14L/1800U R32R/1800U BCFG VV/// 06/06 Q1023 TEMPO 6000 NSW"
"4232","LFBO",2019-12-06 13:00:00,1.3789,43.6211,44.6,44.6,100,NA,1,0,30.21,NA,1.43,NA,"OVC",NA,NA,NA,200,NA,NA,NA,"BR",NA,NA,NA,NA,NA,NA,NA,"LFBO 061300Z AUTO VRB01KT 2300 BR OVC002 07/07 Q1023 TEMPO 6000 NSW BECMG VV///"
"4233","LFBO",2019-12-06 13:30:00,1.3789,43.6211,44.6,44.6,100,NA,3,0,30.18,NA,1.86,NA,"OVC",NA,NA,NA,300,NA,NA,NA,"BR",NA,NA,NA,NA,NA,NA,43.09,"LFBO 061330Z AUTO VRB03KT 3000 BR OVC003 07/07 Q1022 TEMPO 6000 NSW BECMG VV///"
"4234","LFBO",2019-12-06 14:00:00,1.3789,43.6211,46.4,44.6,93.4,0,0,0,30.18,NA,2.8,NA,"BKN",NA,NA,NA,400,NA,NA,NA,"BR",NA,NA,NA,NA,NA,NA,NA,"LFBO 061400Z AUTO 00000KT 4500 2200 BR BKN004 08/07 Q1022 TEMPO 6000 NSW BECMG VV///"
"4235","LFBO",2019-12-06 14:30:00,1.3789,43.6211,48.2,44.6,87.28,NA,3,0,30.18,NA,3.11,NA,"FEW",NA,NA,NA,600,NA,NA,NA,"BR",NA,NA,NA,NA,NA,NA,47.21,"LFBO 061430Z AUTO VRB03KT 5000 BR FEW006 09/07 Q1022 BECMG 0800 FG BKN004"
"4236","LFBO",2019-12-06 15:00:00,1.3789,43.6211,48.2,44.6,87.28,0,0,0,30.18,NA,3.73,NA,"NSC",NA,NA,NA,NA,NA,NA,NA,NA,NA,NA,NA,NA,NA,NA,NA,"LFBO 061500Z AUTO 00000KT 6000 NSC 09/07 Q1022 BECMG 0800 FG BKN004"
"4237","LFBO",2019-12-06 15:30:00,1.3789,43.6211,50,44.6,81.61,NA,2,0,30.15,NA,3.11,13,"NSC",NA,NA,NA,NA,NA,NA,NA,"BR",NA,NA,NA,NA,NA,NA,NA,"LFBO 061530Z AUTO VRB02G13KT 5000 BR NSC 10/07 Q1021 BECMG 0800 FG BKN004"
"4238","LFBO",2019-12-06 16:00:00,1.3789,43.6211,46.4,42.8,87.19,70,4,0,30.15,NA,2.8,NA,"NSC",NA,NA,NA,NA,NA,NA,NA,"BR",NA,NA,NA,NA,NA,NA,44.24,"LFBO 061600Z AUTO 07004KT 030V090 4500 BR NSC 08/06 Q1021 BECMG 0800 FG BKN004"
"4239","LFBO",2019-12-06 16:30:00,1.3789,43.6211,44.6,42.8,93.35,350,5,0,30.18,NA,2.11,NA,"VV ",NA,NA,NA,NA,NA,NA,NA,"BCFG",NA,NA,NA,NA,NA,NA,41.36,"LFBO 061630Z AUTO 35005KT 3400 0400 R14R/0350D R32L/P2000 R14L/1100D R32R/P2000 BCFG VV/// 07/06 Q1022 TEMPO BKN004 BECMG 0400 FG"
"4240","LFBO",2019-12-06 17:00:00,1.3789,43.6211,42.8,42.8,100,360,4,0,30.18,NA,0.22,NA,"VV ",NA,NA,NA,NA,NA,NA,NA,"FG",NA,NA,NA,NA,NA,NA,40.03,"LFBO 061700Z AUTO 36004KT 0350 0250 R14R/0300N R32L/0550D R14L/0400N R32R/0550D FG VV/// 06/06 Q1022 TEMPO 0800 FG BKN004"
"4241","LFBO",2019-12-06 17:30:00,1.3789,43.6211,42.8,42.8,100,360,3,0,30.18,NA,0.19,NA,"VV ",NA,NA,NA,NA,NA,NA,NA,"FG",NA,NA,NA,NA,NA,NA,41.03,"LFBO 061730Z AUTO 36003KT 320V040 0300 0250 R14R/0250N R32L/0350N R14L/0300N R32R/0400N FG VV/// 06/06 Q1022 TEMPO 0400 BR"
"4242","LFBO",2019-12-06 18:00:00,1.3789,43.6211,41,41,100,NA,2,0,30.18,NA,0.19,NA,"VV ",NA,NA,NA,NA,NA,NA,NA,"FG",NA,NA,NA,NA,NA,NA,NA,"LFBO 061800Z AUTO VRB02KT 0300 0200 R14R/0225N R32L/0400N R14L/0350N R32R/0375N FG VV/// 05/05 Q1022 NOSIG"
"4243","LFBO",2019-12-06 18:30:00,1.3789,43.6211,41,41,100,NA,2,0,30.18,NA,0.25,NA,"VV ",NA,NA,NA,NA,NA,NA,NA,"FG",NA,NA,NA,NA,NA,NA,NA,"LFBO 061830Z AUTO VRB02KT 0400 0300 R14R/0275N R32L/0400D R14L/0450N R32R/0400N FG VV/// 05/05 Q1022 TEMPO 0200"
"4244","LFBO",2019-12-06 19:00:00,1.3789,43.6211,41,41,100,NA,2,0,30.18,NA,0.28,NA,"VV ",NA,NA,NA,NA,NA,NA,NA,"FG",NA,NA,NA,NA,NA,NA,NA,"LFBO 061900Z AUTO VRB02KT 0450 0350 R14R/0550U R32L/0550N R14L/0550U R32R/0400N FG VV/// 05/05 Q1022 TEMPO 0200"
"4245","LFBO",2019-12-06 19:30:00,1.3789,43.6211,41,41,100,0,0,0,30.18,NA,0.31,NA,"VV ",NA,NA,NA,NA,NA,NA,NA,"FG",NA,NA,NA,NA,NA,NA,NA,"LFBO 061930Z AUTO 00000KT 0500 0400 R14R/0450N R32L/0600N R14L/0550U R32R/0600D FG VV/// 05/05 Q1022 TEMPO 0200"
"4246","LFBO",2019-12-06 20:00:00,1.3789,43.6211,41,41,100,NA,1,0,30.18,NA,0.25,NA,"VV ",NA,NA,NA,NA,NA,NA,NA,"FG",NA,NA,NA,NA,NA,NA,NA,"LFBO 062000Z AUTO VRB01KT 0400 0300 R14R/0400N R32L/0325N R14L/0550N R32R/0375N FG VV/// 05/05 Q1022 TEMPO 0200"
"4247","LFBO",2019-12-06 20:30:00,1.3789,43.6211,41,41,100,NA,2,0,30.18,NA,0.19,NA,"VV ",NA,NA,NA,NA,NA,NA,NA,"FG",NA,NA,NA,NA,NA,NA,NA,"LFBO 062030Z AUTO VRB02KT 0300 0250 R14R/0275N R32L/0325N R14L/0400N R32R/0325N FG VV/// 05/05 Q1022 NOSIG"
"4248","LFBO",2019-12-06 21:00:00,1.3789,43.6211,41,41,100,200,2,0,30.18,NA,0.19,NA,"VV ",NA,NA,NA,NA,NA,NA,NA,"FG",NA,NA,NA,NA,NA,NA,NA,"LFBO 062100Z AUTO 20002KT 0300 0200 R14R/0250N R32L/0400N R14L/0350N R32R/0450N FG VV/// 05/05 Q1022 NOSIG"
"4249","LFBO",2019-12-06 21:30:00,1.3789,43.6211,39.2,39.2,100,NA,2,0,30.21,NA,0.19,NA,"VV ",NA,NA,NA,NA,NA,NA,NA,"FG",NA,NA,NA,NA,NA,NA,NA,"LFBO 062130Z AUTO VRB02KT 0300 R14R/0325N R32L/0350N R14L/0375N R32R/0375N FG VV/// 04/04 Q1023 NOSIG"
"4250","LFBO",2019-12-06 22:00:00,1.3789,43.6211,39.2,39.2,100,NA,3,0,30.21,NA,0.22,NA,"VV ",NA,NA,NA,NA,NA,NA,NA,"FG",NA,NA,NA,NA,NA,NA,36.92,"LFBO 062200Z AUTO VRB03KT 0350 0300 R14R/0375N R32L/0400N R14L/0400N R32R/0400N FG VV/// 04/04 Q1023 NOSIG"
"4251","LFBO",2019-12-06 22:30:00,1.3789,43.6211,39.2,39.2,100,NA,2,0,30.21,NA,0.19,NA,"VV ",NA,NA,NA,NA,NA,NA,NA,"FG",NA,NA,NA,NA,NA,NA,NA,"LFBO 062230Z AUTO VRB02KT 0300 0250 R14R/0275N R32L/0375N R14L/0325N R32R/0375N FG VV/// 04/04 Q1023 NOSIG"
"4252","LFBO",2019-12-06 23:00:00,1.3789,43.6211,39.2,39.2,100,NA,2,0,30.21,NA,0.19,NA,"VV ",NA,NA,NA,NA,NA,NA,NA,"FG",NA,NA,NA,NA,NA,NA,NA,"LFBO 062300Z AUTO VRB02KT 0300 0250 R14R/0300N R32L/0300N R14L/0400N R32R/0300N FG VV/// 04/04 Q1023 NOSIG"
"4253","LFBO",2019-12-06 23:30:00,1.3789,43.6211,39.2,39.2,100,190,2,0,30.21,NA,0.22,NA,"VV ",NA,NA,NA,NA,NA,NA,NA,"FG",NA,NA,NA,NA,NA,NA,NA,"LFBO 062330Z AUTO 19002KT 0350 0300 R14R/0350N R32L/0375N R14L/0400U R32R/0450N FG VV/// 04/04 Q1023 NOSIG"
"4254","LFSL",2019-12-06 00:00:00,5.48,48.78,32,32,100,130,4,0,30.21,NA,6.21,NA,NA,NA,NA,NA,NA,NA,NA,NA,NA,NA,NA,NA,NA,NA,NA,27.42,"LFSL 060000Z AUTO 13004KT CAVOK 00/00 Q1023"
"4255","LFSL",2019-12-06 00:30:00,5.48,48.78,32,32,100,120,2,0,30.21,NA,6.21,NA,NA,NA,NA,NA,NA,NA,NA,NA,NA,NA,NA,NA,NA,NA,NA,NA,"LFSL 060030Z AUTO 12002KT CAVOK M00/M00 Q1023"
"4256","LFSL",2019-12-06 01:00:00,5.48,48.78,32,32,100,0,0,0,30.21,NA,6.21,NA,NA,NA,NA,NA,NA,NA,NA,NA,NA,NA,NA,NA,NA,NA,NA,NA,"LFSL 060100Z AUTO 00000KT CAVOK M00/M00 Q1023"
"4257","LFSL",2019-12-06 01:30:00,5.48,48.78,32,32,100,0,0,0,30.21,NA,6.21,NA,NA,NA,NA,NA,NA,NA,NA,NA,NA,NA,NA,NA,NA,NA,NA,NA,"LFSL 060130Z AUTO 00000KT CAVOK M00/M00 Q1023"
"4258","LFSL",2019-12-06 02:00:00,5.48,48.78,30.2,30.2,100,0,0,0,30.21,NA,6.21,NA,NA,NA,NA,NA,NA,NA,NA,NA,NA,NA,NA,NA,NA,NA,NA,NA,"LFSL 060200Z AUTO 00000KT CAVOK M01/M01 Q1023"
"4259","LFSL",2019-12-06 02:30:00,5.48,48.78,30.2,30.2,100,NA,1,0,30.21,NA,5.59,NA,"NSC",NA,NA,NA,NA,NA,NA,NA,NA,NA,NA,NA,NA,NA,NA,NA,"LFSL 060230Z AUTO VRB01KT 9000 NSC M01/M01 Q1023"
"4260","LFSL",2019-12-06 03:00:00,5.48,48.78,30.2,30.2,100,0,0,0,30.21,NA,6.21,NA,NA,NA,NA,NA,NA,NA,NA,NA,NA,NA,NA,NA,NA,NA,NA,NA,"LFSL 060300Z AUTO 00000KT CAVOK M01/M01 Q1023"
"4261","LFSL",2019-12-06 03:30:00,5.48,48.78,30.2,28.4,92.92,160,1,0,30.21,NA,6.21,NA,NA,NA,NA,NA,NA,NA,NA,NA,NA,NA,NA,NA,NA,NA,NA,NA,"LFSL 060330Z AUTO 16001KT CAVOK M01/M02 Q1023"
"4262","LFSL",2019-12-06 04:00:00,5.48,48.78,28.4,28.4,100,NA,2,0,30.21,NA,6.21,NA,NA,NA,NA,NA,NA,NA,NA,NA,NA,NA,NA,NA,NA,NA,NA,NA,"LFSL 060400Z AUTO VRB02KT CAVOK M02/M02 Q1023"
"4263","LFSL",2019-12-06 04:30:00,5.48,48.78,28.4,28.4,100,NA,1,0,30.21,NA,6.21,NA,NA,NA,NA,NA,NA,NA,NA,NA,NA,NA,NA,NA,NA,NA,NA,NA,"LFSL 060430Z AUTO VRB01KT CAVOK M02/M02 Q1023"
"4264","LFSL",2019-12-06 05:00:00,5.48,48.78,28.4,28.4,100,120,2,0,30.21,NA,6.21,NA,NA,NA,NA,NA,NA,NA,NA,NA,NA,NA,NA,NA,NA,NA,NA,NA,"LFSL 060500Z AUTO 12002KT CAVOK M02/M02 Q1023"
"4265","LFSL",2019-12-06 05:30:00,5.48,48.78,28.4,28.4,100,0,0,0,30.21,NA,6.21,NA,NA,NA,NA,NA,NA,NA,NA,NA,NA,NA,NA,NA,NA,NA,NA,NA,"LFSL 060530Z AUTO 00000KT CAVOK M02/M02 Q1023"
"4266","LFSL",2019-12-06 06:00:00,5.48,48.78,28.4,28.4,100,0,0,0,30.21,NA,6.21,NA,NA,NA,NA,NA,NA,NA,NA,NA,NA,NA,NA,NA,NA,NA,NA,NA,"LFSL 060600Z AUTO 00000KT CAVOK M02/M02 Q1023"
"4267","LFSL",2019-12-06 06:30:00,5.48,48.78,28.4,28.4,100,180,1,0,30.21,NA,6.21,NA,NA,NA,NA,NA,NA,NA,NA,NA,NA,NA,NA,NA,NA,NA,NA,NA,"LFSL 060630Z AUTO 18001KT CAVOK M02/M02 Q1023"
"4268","LFSL",2019-12-06 07:00:00,5.48,48.78,28.4,28.4,100,140,2,0,30.21,NA,6.21,NA,NA,NA,NA,NA,NA,NA,NA,NA,NA,NA,NA,NA,NA,NA,NA,NA,"LFSL 060700Z AUTO 14002KT CAVOK M02/M02 Q1023"
"4269","LFSL",2019-12-06 07:30:00,5.48,48.78,28.4,28.4,100,160,1,0,30.21,NA,6.21,NA,NA,NA,NA,NA,NA,NA,NA,NA,NA,NA,NA,NA,NA,NA,NA,NA,"LFSL 060730Z AUTO 16001KT CAVOK M02/M02 Q1023 NOSIG"
"4270","LFSL",2019-12-06 08:00:00,5.48,48.78,30.2,30.2,100,120,2,0,30.21,NA,4.35,NA,"NSC",NA,NA,NA,NA,NA,NA,NA,NA,NA,NA,NA,NA,NA,NA,NA,"LFSL 060800Z AUTO 12002KT 7000 NSC M01/M01 Q1023 NOSIG"
"4271","LFSL",2019-12-06 08:30:00,5.48,48.78,33.8,33.8,100,130,2,0,30.24,NA,5.59,NA,"NSC",NA,NA,NA,NA,NA,NA,NA,NA,NA,NA,NA,NA,NA,NA,NA,"LFSL 060830Z AUTO 13002KT 9000 NSC 01/01 Q1024 NOSIG"
"4272","LFSL",2019-12-06 09:00:00,5.48,48.78,33.8,33.8,100,NA,1,0,30.24,NA,5.59,NA,"BKN",NA,NA,NA,600,NA,NA,NA,NA,NA,NA,NA,NA,NA,NA,NA,"LFSL 060900Z AUTO VRB01KT 9000 BKN006 01/01 Q1024 BECMG NSC"
"4273","LFSL",2019-12-06 09:30:00,5.48,48.78,37.4,37.4,100,120,4,0,30.24,NA,6.21,NA,"BKN",NA,NA,NA,600,NA,NA,NA,NA,NA,NA,NA,NA,NA,NA,33.73,"LFSL 060930Z AUTO 12004KT 9999 BKN006 03/03 Q1024 BECMG NSC"
"4274","LFSL",2019-12-06 10:00:00,5.48,48.78,41,37.4,86.89,120,4,0,30.24,NA,6.21,NA,"FEW",NA,NA,NA,700,NA,NA,NA,NA,NA,NA,NA,NA,NA,NA,37.93,"LFSL 061000Z AUTO 12004KT 9999 FEW007 05/03 Q1024 NOSIG"
"4275","LFSL",2019-12-06 10:30:00,5.48,48.78,44.6,39.2,81.2,140,6,0,30.24,NA,6.21,NA,NA,NA,NA,NA,NA,NA,NA,NA,NA,NA,NA,NA,NA,NA,NA,40.71,"LFSL 061030Z AUTO 14006KT 110V180 CAVOK 07/04 Q1024 NOSIG"
"4276","LFSL",2019-12-06 11:00:00,5.48,48.78,46.4,39.2,75.84,120,3,0,30.21,NA,6.21,NA,NA,NA,NA,NA,NA,NA,NA,NA,NA,NA,NA,NA,NA,NA,NA,45.15,"LFSL 061100Z AUTO 12003KT 070V190 CAVOK 08/04 Q1023 NOSIG"
"4277","LFSL",2019-12-06 11:30:00,5.48,48.78,46.4,41,81.34,NA,3,0,30.21,NA,6.21,NA,NA,NA,NA,NA,NA,NA,NA,NA,NA,NA,NA,NA,NA,NA,NA,45.15,"LFSL 061130Z AUTO VRB03KT CAVOK 08/05 Q1023 NOSIG"
"4278","LFSL",2019-12-06 12:00:00,5.48,48.78,48.2,41,76.01,150,4,0,30.18,NA,6.21,NA,NA,NA,NA,NA,NA,NA,NA,NA,NA,NA,NA,NA,NA,NA,NA,46.34,"LFSL 061200Z AUTO 15004KT 120V210 CAVOK 09/05 Q1022 NOSIG"
"4279","LFSL",2019-12-06 12:30:00,5.48,48.78,50,42.8,76.18,160,4,0,30.18,NA,6.21,NA,NA,NA,NA,NA,NA,NA,NA,NA,NA,NA,NA,NA,NA,NA,NA,48.44,"LFSL 061230Z AUTO 16004KT 090V220 CAVOK 10/06 Q1022 NOSIG"
"4280","LFSL",2019-12-06 13:00:00,5.48,48.78,50,42.8,76.18,150,5,0,30.18,NA,6.21,NA,NA,NA,NA,NA,NA,NA,NA,NA,NA,NA,NA,NA,NA,NA,NA,47.77,"LFSL 061300Z AUTO 15005KT 110V190 CAVOK 10/06 Q1022 NOSIG"
"4281","LFSL",2019-12-06 13:30:00,5.48,48.78,50,42.8,76.18,150,5,0,30.15,NA,6.21,NA,NA,NA,NA,NA,NA,NA,NA,NA,NA,NA,NA,NA,NA,NA,NA,47.77,"LFSL 061330Z AUTO 15005KT 120V180 CAVOK 10/06 Q1021 NOSIG"
"4282","LFSL",2019-12-06 14:00:00,5.48,48.78,50,42.8,76.18,170,6,0,30.15,NA,6.21,NA,NA,NA,NA,NA,NA,NA,NA,NA,NA,NA,NA,NA,NA,NA,NA,47.21,"LFSL 061400Z AUTO 17006KT 140V200 CAVOK 10/06 Q1021 NOSIG"
"4283","LFSL",2019-12-06 14:30:00,5.48,48.78,51.8,44.6,76.34,170,4,0,30.15,NA,6.21,NA,NA,NA,NA,NA,NA,NA,NA,NA,NA,NA,NA,NA,NA,NA,NA,NA,"LFSL 061430Z AUTO 17004KT 130V210 CAVOK 11/07 Q1021 NOSIG"
"4284","LFSL",2019-12-06 15:00:00,5.48,48.78,50,42.8,76.18,180,3,0,30.15,NA,6.21,NA,NA,NA,NA,NA,NA,NA,NA,NA,NA,NA,NA,NA,NA,NA,NA,49.27,"LFSL 061500Z AUTO 18003KT CAVOK 10/06 Q1021 NOSIG"
"4285","LFSL",2019-12-06 15:30:00,5.48,48.78,50,42.8,76.18,NA,3,0,30.15,NA,6.21,NA,NA,NA,NA,NA,NA,NA,NA,NA,NA,NA,NA,NA,NA,NA,NA,49.27,"LFSL 061530Z AUTO VRB03KT CAVOK 10/06 Q1021 NOSIG"
"4286","LFSL",2019-12-06 16:00:00,5.48,48.78,46.4,42.8,87.19,140,2,0,30.15,NA,6.21,NA,NA,NA,NA,NA,NA,NA,NA,NA,NA,NA,NA,NA,NA,NA,NA,NA,"LFSL 061600Z AUTO 14002KT CAVOK 08/06 Q1021 NOSIG"
"4287","LFSL",2019-12-06 16:30:00,5.48,48.78,44.6,41,87.09,160,2,0,30.15,NA,6.21,NA,NA,NA,NA,NA,NA,NA,NA,NA,NA,NA,NA,NA,NA,NA,NA,NA,"LFSL 061630Z AUTO 16002KT CAVOK 07/05 Q1021 BECMG 4000 BR"
"4288","LFSL",2019-12-06 17:00:00,5.48,48.78,42.8,41,93.3,NA,1,0,30.15,NA,6.21,NA,NA,NA,NA,NA,NA,NA,NA,NA,NA,NA,NA,NA,NA,NA,NA,NA,"LFSL 061700Z AUTO VRB01KT CAVOK 06/05 Q1021 BECMG 4000 BR"
"4289","LFSL",2019-12-06 17:30:00,5.48,48.78,41,41,100,130,1,0,30.15,NA,6.21,NA,NA,NA,NA,NA,NA,NA,NA,NA,NA,NA,NA,NA,NA,NA,NA,NA,"LFSL 061730Z AUTO 13001KT CAVOK 05/05 Q1021 BECMG 4000 BR"
"4290","LFSL",2019-12-06 18:00:00,5.48,48.78,41,39.2,93.24,120,2,0,30.15,NA,6.21,NA,NA,NA,NA,NA,NA,NA,NA,NA,NA,NA,NA,NA,NA,NA,NA,NA,"LFSL 061800Z AUTO 12002KT CAVOK 05/04 Q1021 BECMG 4000 BR"
"4291","LFSL",2019-12-06 18:30:00,5.48,48.78,41,39.2,93.24,110,4,0,30.15,NA,6.21,NA,NA,NA,NA,NA,NA,NA,NA,NA,NA,NA,NA,NA,NA,NA,NA,37.93,"LFSL 061830Z AUTO 11004KT CAVOK 05/04 Q1021 BECMG 4000 BR"
"4292","LFSL",2019-12-06 19:00:00,5.48,48.78,41,41,100,120,4,0,30.15,NA,6.21,NA,NA,NA,NA,NA,NA,NA,NA,NA,NA,NA,NA,NA,NA,NA,NA,37.93,"LFSL 061900Z AUTO 12004KT CAVOK 05/05 Q1021 BECMG 4000 BR"
"4293","LFSL",2019-12-06 19:30:00,5.48,48.78,42.8,41,93.3,0,0,0,30.15,NA,6.21,NA,NA,NA,NA,NA,NA,NA,NA,NA,NA,NA,NA,NA,NA,NA,NA,NA,"LFSL 061930Z AUTO 00000KT CAVOK 06/05 Q1021 BECMG 0500 FG VV///"
"4294","LFSL",2019-12-06 20:00:00,5.48,48.78,42.8,41,93.3,110,3,0,30.15,NA,5.59,NA,"NSC",NA,NA,NA,NA,NA,NA,NA,NA,NA,NA,NA,NA,NA,NA,41.03,"LFSL 062000Z AUTO 11003KT 9000 NSC 06/05 Q1021 BECMG 0500 FG VV///"
"4295","LFSL",2019-12-06 20:30:00,5.48,48.78,42.8,41,93.3,120,3,0,30.18,NA,5.59,NA,"NSC",NA,NA,NA,NA,NA,NA,NA,NA,NA,NA,NA,NA,NA,NA,41.03,"LFSL 062030Z AUTO 12003KT 9000 NSC 06/05 Q1022 BECMG 0500 FG VV///"
"4296","LFSL",2019-12-06 21:00:00,5.48,48.78,42.8,41,93.3,150,2,0,30.18,NA,6.21,NA,NA,NA,NA,NA,NA,NA,NA,NA,NA,NA,NA,NA,NA,NA,NA,NA,"LFSL 062100Z AUTO 15002KT CAVOK 06/05 Q1022 BECMG 0500 FG VV///"
"4297","LFSL",2019-12-06 21:30:00,5.48,48.78,42.8,41,93.3,160,2,0,30.15,NA,5.59,NA,"NSC",NA,NA,NA,NA,NA,NA,NA,NA,NA,NA,NA,NA,NA,NA,NA,"LFSL 062130Z AUTO 16002KT 9000 NSC 06/05 Q1021 BECMG 0500 FG VV///"
"4298","LFSL",2019-12-06 22:00:00,5.48,48.78,44.6,42.8,93.35,170,5,0,30.15,NA,6.21,NA,NA,NA,NA,NA,NA,NA,NA,NA,NA,NA,NA,NA,NA,NA,NA,41.36,"LFSL 062200Z AUTO 17005KT CAVOK 07/06 Q1021 BECMG 0500 FG VV///"
"4299","LFSL",2019-12-06 22:30:00,5.48,48.78,44.6,41,87.09,150,4,0,30.15,NA,6.21,NA,NA,NA,NA,NA,NA,NA,NA,NA,NA,NA,NA,NA,NA,NA,NA,42.13,"LFSL 062230Z AUTO 15004KT 100V180 CAVOK 07/05 Q1021"
"4300","LFSL",2019-12-06 23:00:00,5.48,48.78,41,39.2,93.24,130,4,0,30.15,NA,4.97,NA,"NSC",NA,NA,NA,NA,NA,NA,NA,NA,NA,NA,NA,NA,NA,NA,37.93,"LFSL 062300Z AUTO 13004KT 8000 NSC 05/04 Q1021"
"4301","LFSL",2019-12-06 23:30:00,5.48,48.78,39.2,37.4,93.19,NA,2,0,30.18,NA,4.35,NA,"NSC",NA,NA,NA,NA,NA,NA,NA,NA,NA,NA,NA,NA,NA,NA,NA,"LFSL 062330Z AUTO VRB02KT 7000 NSC 04/03 Q1022"
"4302","LFOT",2019-12-06 00:00:00,0.7272,47.4444,28.4,28.4,100,240,3,0,30.18,NA,0.28,NA,"VV ",NA,NA,NA,NA,NA,NA,NA,"FZFG",NA,NA,NA,NA,NA,NA,24.57,"LFOT 060000Z AUTO 24003KT 200V280 0450 0400 R20/0700N FZFG VV/// M02/M02 Q1022"
"4303","LFOT",2019-12-06 00:30:00,0.7272,47.4444,28.4,28.4,100,280,4,0,30.18,NA,0.28,NA,"VV ",NA,NA,NA,NA,NA,NA,NA,"FZFG",NA,NA,NA,NA,NA,NA,23.22,"LFOT 060030Z AUTO 28004KT 250V310 0450 0350 R20/0700N FZFG VV/// M02/M02 Q1022"
"4304","LFOT",2019-12-06 01:00:00,0.7272,47.4444,28.4,28.4,100,280,4,0,30.18,NA,0.31,NA,"VV ",NA,NA,NA,NA,NA,NA,NA,"FZFG",NA,NA,NA,NA,NA,NA,23.22,"LFOT 060100Z AUTO 28004KT 0500 0400 R20/0700N FZFG VV/// M02/M02 Q1022"
"4305","LFOT",2019-12-06 01:30:00,0.7272,47.4444,28.4,28.4,100,260,6,0,30.18,NA,0.31,NA,"VV ",NA,NA,NA,NA,NA,NA,NA,"FZFG",NA,NA,NA,NA,NA,NA,21.19,"LFOT 060130Z AUTO 26006KT 0500 0400 R20/0700N FZFG VV/// M02/M02 Q1022"
"4306","LFOT",2019-12-06 02:00:00,0.7272,47.4444,30.2,30.2,100,230,4,0,30.18,NA,0.28,NA,"VV ",NA,NA,NA,NA,NA,NA,NA,"FZFG",NA,NA,NA,NA,NA,NA,25.32,"LFOT 060200Z AUTO 23004KT 180V260 0450 0400 R20/0700N FZFG VV/// M01/M01 Q1022"
"4307","LFOT",2019-12-06 02:30:00,0.7272,47.4444,30.2,30.2,100,210,4,0,30.15,NA,0.28,NA,"VV ",NA,NA,NA,NA,NA,NA,NA,"FZFG",NA,NA,NA,NA,NA,NA,25.32,"LFOT 060230Z AUTO 21004KT 0450 0400 R20/0650N FZFG VV/// M01/M01 Q1021"
"4308","LFOT",2019-12-06 03:00:00,0.7272,47.4444,30.2,30.2,100,220,6,0,30.15,NA,0.31,NA,"VV ",NA,NA,NA,NA,NA,NA,NA,"FZFG",NA,NA,NA,NA,NA,NA,23.36,"LFOT 060300Z AUTO 22006KT 0500 0450 R20/0650N FZFG VV/// M01/M01 Q1021"
"4309","LFOT",2019-12-06 03:30:00,0.7272,47.4444,30.2,30.2,100,220,6,0,30.15,NA,0.34,NA,"VV ",NA,NA,NA,NA,NA,NA,NA,"FZFG",NA,NA,NA,NA,NA,NA,23.36,"LFOT 060330Z AUTO 22006KT 0550 0500 R20/0800N FZFG VV/// M01/M01 Q1021"
"4310","LFOT",2019-12-06 04:00:00,0.7272,47.4444,30.2,30.2,100,200,6,0,30.15,NA,0.4,NA,"VV ",NA,NA,NA,NA,NA,NA,NA,"FZFG",NA,NA,NA,NA,NA,NA,23.36,"LFOT 060400Z AUTO 20006KT 0650 0600 R20/0800U FZFG VV/// M01/M01 Q1021"
"4311","LFOT",2019-12-06 04:30:00,0.7272,47.4444,30.2,30.2,100,200,6,0,30.15,NA,0.5,NA,"VV ",NA,NA,NA,NA,NA,NA,NA,"FZFG",NA,NA,NA,NA,NA,NA,23.36,"LFOT 060430Z AUTO 20006KT 0800 0700 R20/1200U FZFG VV/// M01/M01 Q1021"
"4312","LFOT",2019-12-06 05:00:00,0.7272,47.4444,30.2,30.2,100,210,7,0,30.15,NA,0.56,NA,"VV ",NA,NA,NA,NA,NA,NA,NA,"FZFG",NA,NA,NA,NA,NA,NA,22.59,"LFOT 060500Z AUTO 21007KT 0900 R20/1300U FZFG VV/// M01/M01 Q1021"
"4313","LFOT",2019-12-06 05:30:00,0.7272,47.4444,30.2,30.2,100,190,7,0,30.15,NA,0.68,NA,"VV ",NA,NA,NA,NA,NA,NA,NA,"BCFG",NA,NA,NA,NA,NA,NA,22.59,"LFOT 060530Z AUTO 19007KT 1100 0900 R20/1500D BCFG VV/// M01/M01 Q1021"
"4314","LFOT",2019-12-06 06:00:00,0.7272,47.4444,30.2,30.2,100,190,6,0,30.15,NA,0.62,NA,"VV ",NA,NA,NA,NA,NA,NA,NA,"BCFG",NA,NA,NA,NA,NA,NA,23.36,"LFOT 060600Z AUTO 19006KT 1000 0800 R20/1400U BCFG VV/// M01/M01 Q1021"
"4315","LFOT",2019-12-06 06:30:00,0.7272,47.4444,30.2,30.2,100,190,7,0,30.15,NA,0.81,NA,"VV ",NA,NA,NA,NA,NA,NA,NA,"BR",NA,NA,NA,NA,NA,NA,22.59,"LFOT 060630Z AUTO 19007KT 1300 1200 R20/1700N BR VV/// M01/M01 Q1021"
"4316","LFOT",2019-12-06 07:00:00,0.7272,47.4444,32,32,100,190,6,0,30.15,NA,0.81,NA,"VV ",NA,NA,NA,NA,NA,NA,NA,"BR",NA,NA,NA,NA,NA,NA,25.53,"LFOT 060700Z AUTO 19006KT 1300 R20/1700U BR VV/// M00/M00 Q1021 TEMPO 2000 -RA BR BKN003"
"4317","LFOT",2019-12-06 07:30:00,0.7272,47.4444,32,32,100,190,5,0,30.15,NA,0.81,NA,"VV ",NA,NA,NA,NA,NA,NA,NA,"BR",NA,NA,NA,NA,NA,NA,26.4,"LFOT 060730Z AUTO 19005KT 170V230 1300 R20/1800D BR VV/// 00/00 Q1021 TEMPO 2000 -RA BR BKN003"
"4318","LFOT",2019-12-06 08:00:00,0.7272,47.4444,32,32,100,180,7,0,30.15,NA,0.5,NA,"VV ",NA,NA,NA,NA,NA,NA,NA,"FG",NA,NA,NA,NA,NA,NA,24.78,"LFOT 060800Z AUTO 18007KT 0800 0750 R20/1100D FG VV/// 00/00 Q1021 TEMPO 2000 -RA BR BKN003"
"4319","LFOT",2019-12-06 08:30:00,0.7272,47.4444,33.8,33.8,100,200,6,0,30.15,NA,0.4,NA,"VV ",NA,NA,NA,NA,NA,NA,NA,"UP FG",NA,NA,NA,NA,NA,NA,27.7,"LFOT 060830Z AUTO 20006KT 0650 R20/0900N UP FG VV/// 01/01 Q1021 TEMPO 2000 -RA BR BKN003"
"4320","LFOT",2019-12-06 09:00:00,0.7272,47.4444,35.6,35.6,100,210,6,0,30.15,NA,0.62,NA,"VV ",NA,NA,NA,NA,NA,NA,NA,"BCFG",NA,NA,NA,NA,NA,NA,29.87,"LFOT 060900Z AUTO 21006KT 1000 0900 R20/1800U BCFG VV/// 02/02 Q1021 TEMPO 2000 -RA BR BKN003"
"4321","LFOT",2019-12-06 09:30:00,0.7272,47.4444,35.6,35.6,100,200,7,0,30.15,NA,0.81,NA,"VV ",NA,NA,NA,NA,NA,NA,NA,"BR",NA,NA,NA,NA,NA,NA,29.17,"LFOT 060930Z AUTO 20007KT 1300 1000 R20/2100U BR VV/// 02/02 Q1021 TEMPO 2000 -RA BR BKN003"
"4322","LFOT",2019-12-06 10:00:00,0.7272,47.4444,37.4,37.4,100,180,10,0,30.15,NA,1.43,NA,"OVC",NA,NA,NA,200,NA,NA,NA,"BR",NA,NA,NA,NA,NA,NA,29.74,"LFOT 061000Z AUTO 18010KT 2300 BR OVC002 03/03 Q1021 NOSIG"
"4323","LFOT",2019-12-06 10:30:00,0.7272,47.4444,39.2,39.2,100,190,8,0,30.12,NA,2.3,NA,"OVC",NA,NA,NA,300,NA,NA,NA,"BR",NA,NA,NA,NA,NA,NA,32.98,"LFOT 061030Z AUTO 19008KT 3700 BR OVC003 04/04 Q1020 TEMPO 2000 -RA BR"
"4324","LFOT",2019-12-06 11:00:00,0.7272,47.4444,41,41,100,190,10,0,30.12,NA,2.86,NA,"OVC",NA,NA,NA,400,NA,NA,NA,"BR",NA,NA,NA,NA,NA,NA,34.25,"LFOT 061100Z AUTO 19010KT 4600 BR OVC004 05/05 Q1020 TEMPO 2000 -RA BR"
"4325","LFOT",2019-12-06 11:30:00,0.7272,47.4444,41,41,100,200,9,0,30.09,NA,3.11,NA,"OVC",NA,NA,NA,600,NA,NA,NA,"BR",NA,NA,NA,NA,NA,NA,34.7,"LFOT 061130Z AUTO 20009KT 5000 BR OVC006 05/05 Q1019 TEMPO 2000 -RA BR BKN003"
"4326","LFOT",2019-12-06 12:00:00,0.7272,47.4444,42.8,42.8,100,200,10,0,30.09,NA,3.73,NA,"OVC","///",NA,NA,700,NA,NA,NA,NA,NA,NA,NA,NA,NA,NA,36.51,"LFOT 061200Z AUTO 20010KT 6000 OVC007/// ///TCU 06/06 Q1019 TEMPO 3000 -RA BR BKN004"
"4327","LFOT",2019-12-06 12:30:00,0.7272,47.4444,42.8,42.8,100,200,10,0,30.09,NA,3.73,NA,"OVC","///",NA,NA,700,NA,NA,NA,NA,NA,NA,NA,NA,NA,NA,36.51,"LFOT 061230Z AUTO 20010KT 6000 OVC007/// ///TCU 06/06 Q1019 TEMPO 3000 -RA BR BKN004"
"4328","LFOT",2019-12-06 13:00:00,0.7272,47.4444,44.6,42.8,93.35,200,10,0,30.06,NA,4.35,NA,"BKN","OVC","///",NA,700,1200,NA,NA,NA,NA,NA,NA,NA,NA,NA,38.77,"LFOT 061300Z AUTO 20010KT 7000 BKN007/// OVC012/// ///CB 07/06 Q1018 TEMPO 3000 -RA BR BKN004"
"4329","LFOT",2019-12-06 13:30:00,0.7272,47.4444,44.6,44.6,100,210,10,0,30.06,NA,3.73,NA,"OVC","///",NA,NA,700,NA,NA,NA,"-RA",NA,NA,NA,NA,NA,NA,38.77,"LFOT 061330Z AUTO 21010KT 6000 -RA OVC007/// ///TCU 07/07 Q1018 TEMPO 3000 -RA BR BKN004"
"4330","LFOT",2019-12-06 14:00:00,0.7272,47.4444,46.4,44.6,93.4,200,10,0,30.03,NA,3.73,NA,"OVC","///",NA,NA,700,NA,NA,NA,NA,NA,NA,NA,NA,NA,NA,41.03,"LFOT 061400Z AUTO 20010KT 6000 OVC007/// ///TCU 08/07 Q1017 TEMPO 3000 -RA BR BKN004"
"4331","LFOT",2019-12-06 14:30:00,0.7272,47.4444,46.4,44.6,93.4,200,10,0,30.03,NA,4.35,NA,"OVC",NA,NA,NA,600,NA,NA,NA,NA,NA,NA,NA,NA,NA,NA,41.03,"LFOT 061430Z AUTO 20010KT 7000 OVC006 08/07 Q1017 TEMPO 3000 -RA BR BKN004"
"4332","LFOT",2019-12-06 15:00:00,0.7272,47.4444,46.4,46.4,100,200,12,0,30,NA,4.97,NA,"OVC",NA,NA,NA,700,NA,NA,NA,NA,NA,NA,NA,NA,NA,NA,40.33,"LFOT 061500Z AUTO 20012KT 8000 OVC007 08/08 Q1016 TEMPO 3000 -RA BR BKN004"
"4333","LFOT",2019-12-06 15:30:00,0.7272,47.4444,48.2,46.4,93.45,220,11,0,30.03,NA,5.59,NA,"OVC",NA,NA,NA,700,NA,NA,NA,NA,NA,NA,NA,NA,NA,NA,42.94,"LFOT 061530Z AUTO 22011KT 9000 OVC007 09/08 Q1017 TEMPO 3000 -RA BR BKN004"
"4334","LFOT",2019-12-06 16:00:00,0.7272,47.4444,48.2,46.4,93.45,220,11,0,30.03,NA,6.21,NA,"OVC",NA,NA,NA,600,NA,NA,NA,NA,NA,NA,NA,NA,NA,NA,42.94,"LFOT 061600Z AUTO 22011KT 9999 OVC006 09/08 Q1017 TEMPO 3000 -RA BR BKN004"
"4335","LFOT",2019-12-06 16:30:00,0.7272,47.4444,48.2,46.4,93.45,210,12,0,30.03,NA,6.21,NA,"OVC",NA,NA,NA,700,NA,NA,NA,NA,NA,NA,NA,NA,NA,NA,42.62,"LFOT 061630Z AUTO 21012KT 9999 OVC007 09/08 Q1017 TEMPO 3000 -RA BR BKN004"
"4336","LFOT",2019-12-06 17:00:00,0.7272,47.4444,48.2,48.2,100,210,12,0,30,NA,6.21,NA,"OVC",NA,NA,NA,800,NA,NA,NA,NA,NA,NA,NA,NA,NA,NA,42.62,"LFOT 061700Z AUTO 21012KT 9999 OVC008 09/09 Q1016 TEMPO 3000 -RA BR BKN004"
"4337","LFOT",2019-12-06 17:30:00,0.7272,47.4444,48.2,48.2,100,210,11,0,30,NA,6.21,NA,"OVC",NA,NA,NA,700,NA,NA,NA,NA,NA,NA,NA,NA,NA,NA,42.94,"LFOT 061730Z AUTO 21011KT 9999 OVC007 09/09 Q1016 TEMPO 3000 -RA BR BKN004"
"4338","LFOT",2019-12-06 18:00:00,0.7272,47.4444,50,48.2,93.5,210,14,0,30,NA,6.21,NA,"OVC",NA,NA,NA,700,NA,NA,NA,NA,NA,NA,NA,NA,NA,NA,44.36,"LFOT 061800Z AUTO 21014KT 9999 OVC007 10/09 Q1016 TEMPO 3000 -RA BR BKN004"
"4339","LFOT",2019-12-06 18:30:00,0.7272,47.4444,50,48.2,93.5,210,11,0,30,NA,6.21,NA,"OVC",NA,NA,NA,700,NA,NA,NA,NA,NA,NA,NA,NA,NA,NA,45.21,"LFOT 061830Z AUTO 21011KT 9999 OVC007 10/09 Q1016 TEMPO 3000 -RA BR BKN004"
"4340","LFOT",2019-12-06 19:00:00,0.7272,47.4444,50,48.2,93.5,220,11,0,30,NA,3.11,NA,"OVC",NA,NA,NA,800,NA,NA,NA,"-RADZ BR",NA,NA,NA,NA,NA,NA,45.21,"LFOT 061900Z AUTO 22011KT 5000 -RADZ BR OVC008 10/09 Q1016 TEMPO BKN004"
"4341","LFOT",2019-12-06 19:30:00,0.7272,47.4444,50,48.2,93.5,220,12,0,30,NA,3.11,NA,"OVC",NA,NA,NA,600,NA,NA,NA,"-DZ BR",NA,NA,NA,NA,NA,NA,44.91,"LFOT 061930Z AUTO 22012KT 200V260 5000 -DZ BR OVC006 10/09 Q1016 TEMPO BKN004"
"4342","LFOT",2019-12-06 20:00:00,0.7272,47.4444,50,48.2,93.5,220,13,0,30,NA,3.11,NA,"BKN","OVC",NA,NA,600,1200,NA,NA,"-DZ BR",NA,NA,NA,NA,NA,NA,44.63,"LFOT 062000Z AUTO 22013KT 5000 -DZ BR BKN006 OVC012 10/09 Q1016 TEMPO BKN004"
"4343","LFOT",2019-12-06 20:30:00,0.7272,47.4444,50,48.2,93.5,220,13,0,30,NA,3.04,NA,"OVC",NA,NA,NA,500,NA,NA,NA,"-DZ BR",NA,NA,NA,NA,NA,NA,44.63,"LFOT 062030Z AUTO 22013KT 4900 -DZ BR OVC005 10/09 Q1016 NOSIG"
"4344","LFOT",2019-12-06 21:00:00,0.7272,47.4444,50,48.2,93.5,230,12,0,30.03,NA,4.35,NA,"OVC",NA,NA,NA,500,NA,NA,NA,"-DZ",NA,NA,NA,NA,NA,NA,44.91,"LFOT 062100Z AUTO 23012KT 7000 -DZ OVC005 10/09 Q1017 TEMPO 3000 -RA BR"
"4345","LFOT",2019-12-06 21:30:00,0.7272,47.4444,50,50,100,230,12,0,30.03,NA,3.11,NA,"OVC",NA,NA,NA,400,NA,NA,NA,"-DZ BR",NA,NA,NA,NA,NA,NA,44.91,"LFOT 062130Z AUTO 23012KT 5000 -DZ BR OVC004 10/10 Q1017 NOSIG"
"4346","LFOT",2019-12-06 22:00:00,0.7272,47.4444,50,50,100,230,12,0,30.03,NA,2.92,NA,"OVC",NA,NA,NA,400,NA,NA,NA,"DZ BR",NA,NA,NA,NA,NA,NA,44.91,"LFOT 062200Z AUTO 23012KT 200V260 4700 DZ BR OVC004 10/10 Q1017 NOSIG"
"4347","LFOT",2019-12-06 22:30:00,0.7272,47.4444,50,50,100,240,10,0,30.03,NA,3.11,NA,"OVC",NA,NA,NA,400,NA,NA,NA,"DZ BR",NA,NA,NA,NA,NA,NA,45.54,"LFOT 062230Z AUTO 24010KT 5000 DZ BR OVC004 10/10 Q1017 TEMPO 0600 FG VV///"
"4348","LFOT",2019-12-06 23:00:00,0.7272,47.4444,50,50,100,220,10,0,30.03,NA,6.21,NA,"OVC",NA,NA,NA,400,NA,NA,NA,"-DZ",NA,NA,NA,NA,NA,NA,45.54,"LFOT 062300Z AUTO 22010KT 9999 -DZ OVC004 10/10 Q1017 TEMPO 0600 FG VV///"
"4349","LFOT",2019-12-06 23:30:00,0.7272,47.4444,50,50,100,240,9,0,30.03,NA,6.21,NA,"SCT","BKN","OVC",NA,300,700,4900,NA,NA,NA,NA,NA,NA,NA,NA,45.9,"LFOT 062330Z AUTO 24009KT 9999 SCT003 BKN007 OVC049 10/10 Q1017 TEMPO 0600 FG VV///"
"4350","LFPN",2019-12-06 00:00:00,2.1136,48.7506,30.2,30.2,100,210,6,0,30.15,NA,0.4,NA,"VV ",NA,NA,NA,NA,NA,NA,NA,"FZFG",NA,NA,NA,NA,NA,NA,23.36,"LFPN 060000Z AUTO 21006KT 0650 0550 R25R/0650N FZFG VV/// M01/M01 Q1021"
"4351","LFPN",2019-12-06 00:30:00,2.1136,48.7506,30.2,30.2,100,220,7,0,30.15,NA,0.56,NA,"VV ",NA,NA,NA,NA,NA,NA,NA,"FZFG",NA,NA,NA,NA,NA,NA,22.59,"LFPN 060030Z AUTO 22007KT 0900 0800 R25R/0900U FZFG VV/// M01/M01 Q1021"
"4352","LFPN",2019-12-06 01:00:00,2.1136,48.7506,30.2,30.2,100,220,6,0,30.12,NA,0.81,NA,"VV ",NA,NA,NA,NA,NA,NA,NA,"BR",NA,NA,NA,NA,NA,NA,23.36,"LFPN 060100Z AUTO 22006KT 1300 1000 R25R/1200U BR VV/// M01/M01 Q1020"
"4353","LFPN",2019-12-06 01:30:00,2.1136,48.7506,30.2,30.2,100,210,4,0,30.12,NA,1.3,NA,"VV ",NA,NA,NA,NA,NA,NA,NA,"BR",NA,NA,NA,NA,NA,NA,25.32,"LFPN 060130Z AUTO 21004KT 180V250 2100 BR VV/// M01/M01 Q1020"
"4354","LFPN",2019-12-06 02:00:00,2.1136,48.7506,30.2,30.2,100,210,7,0,30.09,NA,2.42,NA,"OVC",NA,NA,NA,200,NA,NA,NA,"BR",NA,NA,NA,NA,NA,NA,22.59,"LFPN 060200Z AUTO 21007KT 3900 BR OVC002 M01/M01 Q1019"
"4355","LFPN",2019-12-06 02:30:00,2.1136,48.7506,30.2,30.2,100,220,5,0,30.09,NA,2.8,NA,"OVC",NA,NA,NA,300,NA,NA,NA,"BR",NA,NA,NA,NA,NA,NA,24.26,"LFPN 060230Z AUTO 22005KT 4500 BR OVC003 M01/M01 Q1019"
"4356","LFPN",2019-12-06 03:00:00,2.1136,48.7506,32,30.2,92.97,200,6,0,30.09,NA,2.61,NA,"OVC",NA,NA,NA,300,NA,NA,NA,"BR",NA,NA,NA,NA,NA,NA,25.53,"LFPN 060300Z AUTO 20006KT 4200 BR OVC003 M00/M01 Q1019"
"4357","LFPN",2019-12-06 03:30:00,2.1136,48.7506,32,30.2,92.97,190,4,0,30.09,NA,3.11,NA,"BKN","BKN","OVC",NA,300,12000,18000,NA,"BR",NA,NA,NA,NA,NA,NA,27.42,"LFPN 060330Z AUTO 19004KT 160V230 5000 BR BKN003 BKN120 OVC180 M00/M01 Q1019"
"4358","LFPN",2019-12-06 04:00:00,2.1136,48.7506,32,30.2,92.97,200,5,0,30.06,NA,3.73,NA,"FEW","OVC",NA,NA,400,12000,NA,NA,NA,NA,NA,NA,NA,NA,NA,26.4,"LFPN 060400Z AUTO 20005KT 170V230 6000 FEW004 OVC120 M00/M01 Q1018"
"4359","LFPN",2019-12-06 04:30:00,2.1136,48.7506,32,32,100,200,5,0,30.06,NA,3.11,NA,"FEW","OVC",NA,NA,500,12000,NA,NA,"BR",NA,NA,NA,NA,NA,NA,26.4,"LFPN 060430Z AUTO 20005KT 5000 BR FEW005 OVC120 00/M00 Q1018"
"4360","LFPN",2019-12-06 05:00:00,2.1136,48.7506,32,32,100,210,6,0,30.06,NA,3.11,NA,"FEW","BKN","OVC",NA,500,8800,12000,NA,"BR",NA,NA,NA,NA,NA,NA,25.53,"LFPN 060500Z AUTO 21006KT 5000 BR FEW005 BKN088 OVC120 00/M00 Q1018"
"4361","LFPN",2019-12-06 05:30:00,2.1136,48.7506,32,32,100,210,8,0,30.06,NA,3.11,NA,"FEW","OVC",NA,NA,500,9400,NA,NA,"BR",NA,NA,NA,NA,NA,NA,24.11,"LFPN 060530Z AUTO 21008KT 5000 BR FEW005 OVC094 00/M00 Q1018"
"4362","LFPN",2019-12-06 06:00:00,2.1136,48.7506,32,32,100,210,8,0,30.06,NA,3.11,NA,"FEW","BKN",NA,NA,800,9600,NA,NA,"BR",NA,NA,NA,NA,NA,NA,24.11,"LFPN 060600Z AUTO 21008KT 5000 BR FEW008 BKN096 00/M00 Q1018"
"4363","LFPN",2019-12-06 06:30:00,2.1136,48.7506,32,32,100,210,8,0,30.06,NA,2.86,NA,"SCT","SCT","BKN",NA,600,10000,13000,NA,"BR",NA,NA,NA,NA,NA,NA,24.11,"LFPN 060630Z AUTO 21008KT 4600 BR SCT006 SCT100 BKN130 00/00 Q1018"
"4364","LFPN",2019-12-06 07:00:00,2.1136,48.7506,33.8,32,93.03,210,8,0,30.06,NA,2.73,NA,"BKN","BKN","BKN","///",600,2600,4200,NA,"-RA BR",NA,NA,NA,NA,NA,NA,26.33,"LFPN 060700Z AUTO 21008KT 4400 -RA BR BKN006/// BKN026/// BKN042/// ///TCU 01/00 Q1018"
"4365","LFPN",2019-12-06 07:30:00,2.1136,48.7506,33.8,33.8,100,210,8,0,30.06,NA,2.36,NA,"OVC",NA,NA,NA,500,NA,NA,NA,"BR",NA,NA,NA,NA,NA,NA,26.33,"LFPN 060730Z AUTO 21008KT 3800 BR OVC005 01/01 Q1018"
"4366","LFPN",2019-12-06 08:00:00,2.1136,48.7506,35.6,33.8,93.08,220,9,0,30.06,NA,2.11,NA,"OVC",NA,NA,NA,400,NA,NA,NA,"BR",NA,NA,NA,NA,NA,NA,27.99,"LFPN 060800Z AUTO 22009KT 3400 BR OVC004 02/01 Q1018"
"4367","LFPN",2019-12-06 08:30:00,2.1136,48.7506,35.6,35.6,100,220,12,0,30.03,NA,2.17,NA,"OVC","///",NA,NA,400,NA,NA,NA,"BR",NA,NA,NA,NA,NA,NA,26.58,"LFPN 060830Z AUTO 22012KT 3500 BR OVC004/// ///TCU 02/02 Q1017"
"4368","LFPN",2019-12-06 09:00:00,2.1136,48.7506,35.6,35.6,100,220,12,0,30.06,NA,2.24,NA,"OVC","///",NA,NA,400,NA,NA,NA,"-RA BR",NA,NA,NA,NA,NA,NA,26.58,"LFPN 060900Z AUTO 22012KT 3600 -RA BR OVC004/// ///TCU 02/02 Q1018"
"4369","LFPN",2019-12-06 09:30:00,2.1136,48.7506,35.6,35.6,100,210,10,0,30.06,NA,2.24,NA,"OVC","///",NA,NA,400,NA,NA,NA,"BR",NA,NA,NA,NA,NA,NA,27.48,"LFPN 060930Z AUTO 21010KT 3600 BR OVC004/// ///TCU 02/02 Q1018"
"4370","LFPN",2019-12-06 10:00:00,2.1136,48.7506,35.6,35.6,100,210,12,0,30.06,NA,2.36,NA,"OVC",NA,NA,NA,400,NA,NA,NA,"-DZ BR",NA,NA,NA,NA,NA,NA,26.58,"LFPN 061000Z AUTO 21012KT 3800 -DZ BR OVC004 02/02 Q1018"
"4371","LFPN",2019-12-06 10:30:00,2.1136,48.7506,35.6,35.6,100,210,15,0,30.03,NA,2.55,NA,"OVC","///",NA,NA,400,NA,NA,NA,"-RA BR",NA,NA,NA,NA,NA,NA,25.45,"LFPN 061030Z AUTO 21015KT 4100 -RA BR OVC004/// ///TCU 02/02 Q1017"
"4372","LFPN",2019-12-06 11:00:00,2.1136,48.7506,35.6,35.6,100,220,13,0,30.03,NA,2.3,NA,"OVC","///",NA,NA,400,NA,NA,NA,"-RA BR",NA,NA,NA,NA,NA,NA,26.18,"LFPN 061100Z AUTO 22013KT 3700 -RA BR OVC004/// ///TCU 02/02 Q1017"
"4373","LFPN",2019-12-06 11:30:00,2.1136,48.7506,35.6,35.6,100,210,15,0,30,NA,2.36,NA,"OVC","///",NA,NA,400,NA,NA,NA,"-RA BR",NA,NA,NA,NA,NA,NA,25.45,"LFPN 061130Z AUTO 21015KT 3800 -RA BR OVC004/// ///TCU 02/02 Q1016"
"4374","LFPN",2019-12-06 12:00:00,2.1136,48.7506,35.6,35.6,100,220,14,0,30,NA,2.8,NA,"OVC","///",NA,NA,400,NA,NA,NA,"-RA BR",NA,NA,NA,NA,NA,NA,25.8,"LFPN 061200Z AUTO 22014KT 4500 -RA BR OVC004/// ///CB 02/02 Q1016"
"4375","LFPN",2019-12-06 12:30:00,2.1136,48.7506,35.6,35.6,100,210,14,0,29.97,NA,4.35,NA,"OVC","///",NA,NA,500,NA,NA,NA,NA,NA,NA,NA,NA,NA,NA,25.8,"LFPN 061230Z AUTO 21014KT 7000 OVC005/// ///TCU 02/02 Q1015"
"4376","LFPN",2019-12-06 13:00:00,2.1136,48.7506,37.4,35.6,93.14,210,14,0,29.97,NA,2.98,NA,"OVC",NA,NA,NA,400,NA,NA,NA,"-RA BR",NA,NA,NA,NA,NA,NA,28.12,"LFPN 061300Z AUTO 21014KT 4800 -RA BR OVC004 03/02 Q1015"
"4377","LFPN",2019-12-06 13:30:00,2.1136,48.7506,37.4,37.4,100,210,15,0,29.94,NA,3.73,NA,"OVC",NA,NA,NA,400,NA,NA,NA,"-RA",NA,NA,NA,NA,NA,NA,27.78,"LFPN 061330Z AUTO 21015KT 6000 -RA OVC004 03/03 Q1014"
"4378","LFPN",2019-12-06 14:00:00,2.1136,48.7506,39.2,39.2,100,220,15,0,29.94,NA,3.11,NA,"OVC",NA,NA,NA,400,NA,NA,NA,"BR",NA,NA,NA,NA,NA,NA,30.11,"LFPN 061400Z AUTO 22015KT 5000 BR OVC004 04/04 Q1014"
"4379","LFPN",2019-12-06 14:30:00,2.1136,48.7506,39.2,39.2,100,220,15,0,29.94,NA,2.42,NA,"OVC",NA,NA,NA,300,NA,NA,NA,"BR",NA,NA,NA,NA,NA,NA,30.11,"LFPN 061430Z AUTO 22015KT 3900 BR OVC003 04/04 Q1014"
"4380","LFPN",2019-12-06 15:00:00,2.1136,48.7506,41,39.2,93.24,220,15,0,29.91,NA,2.11,NA,"OVC",NA,NA,NA,300,NA,NA,NA,"BR",NA,NA,NA,NA,NA,NA,32.45,"LFPN 061500Z AUTO 22015KT 3400 BR OVC003 05/04 Q1013"
"4381","LFPN",2019-12-06 15:30:00,2.1136,48.7506,41,41,100,220,12,0,29.91,NA,2.24,NA,"OVC",NA,NA,NA,400,NA,NA,NA,"BR",NA,NA,NA,NA,NA,NA,33.46,"LFPN 061530Z AUTO 22012KT 3600 BR OVC004 05/05 Q1013"
"4382","LFPN",2019-12-06 16:00:00,2.1136,48.7506,42.8,41,93.3,220,13,0,29.91,NA,3.04,NA,"OVC",NA,NA,NA,400,NA,NA,NA,"BR",NA,NA,NA,NA,NA,NA,35.4,"LFPN 061600Z AUTO 22013KT 4900 BR OVC004 06/05 Q1013"
"4383","LFPN",2019-12-06 16:30:00,2.1136,48.7506,42.8,42.8,100,210,14,0,29.88,NA,3.11,NA,"OVC",NA,NA,NA,500,NA,NA,NA,"BR",NA,NA,NA,NA,NA,NA,35.08,"LFPN 061630Z AUTO 21014KT 5000 BR OVC005 06/06 Q1012"
"4384","LFPN",2019-12-06 17:00:00,2.1136,48.7506,44.6,42.8,93.35,220,16,0,29.88,NA,3.11,NA,"OVC",NA,NA,NA,500,NA,NA,NA,"BR",NA,NA,NA,NA,NA,NA,36.84,"LFPN 061700Z AUTO 22016KT 5000 BR OVC005 07/06 Q1012"
"4385","LFPN",2019-12-06 17:30:00,2.1136,48.7506,44.6,44.6,100,220,15,0,29.88,NA,2.73,NA,"OVC",NA,NA,NA,400,NA,NA,NA,"-DZ BR",NA,NA,NA,NA,NA,NA,37.11,"LFPN 061730Z AUTO 22015KT 4400 -DZ BR OVC004 07/07 Q1012"
"4386","LFPN",2019-12-06 18:00:00,2.1136,48.7506,44.6,44.6,100,220,17,0,29.88,NA,3.11,NA,"OVC",NA,NA,NA,500,NA,NA,NA,"DZ BR",NA,NA,NA,NA,NA,NA,36.58,"LFPN 061800Z AUTO 22017KT 5000 DZ BR OVC005 07/07 Q1012"
"4387","LFPN",2019-12-06 18:30:00,2.1136,48.7506,46.4,44.6,93.4,230,17,0,29.88,NA,5.59,NA,"OVC",NA,NA,NA,700,NA,NA,NA,NA,NA,NA,NA,NA,NA,NA,38.94,"LFPN 061830Z AUTO 23017KT 9000 OVC007 08/07 Q1012"
"4388","LFPN",2019-12-06 19:00:00,2.1136,48.7506,46.4,46.4,100,230,17,0,29.88,NA,6.21,NA,"OVC",NA,NA,NA,700,NA,NA,NA,NA,NA,NA,NA,NA,NA,NA,38.94,"LFPN 061900Z AUTO 23017KT 9999 OVC007 08/08 Q1012 TEMPO 3000 DZ BKN004 BECMG 22015G25KT"
"4389","LFPN",2019-12-06 19:30:00,2.1136,48.7506,48.2,46.4,93.45,230,15,0,29.88,NA,6.21,NA,"OVC",NA,NA,NA,700,NA,NA,NA,NA,NA,NA,NA,NA,NA,NA,41.78,"LFPN 061930Z AUTO 23015KT 9999 OVC007 09/08 Q1012 TEMPO 3000 DZ BKN004 BECMG 22015G25KT"
"4390","LFPN",2019-12-06 20:00:00,2.1136,48.7506,48.2,46.4,93.45,230,15,0,29.88,NA,3.73,NA,"OVC",NA,NA,NA,700,NA,NA,NA,"DZ",NA,NA,NA,NA,NA,NA,41.78,"LFPN 062000Z AUTO 23015KT 6000 DZ OVC007 09/08 Q1012 TEMPO 3000 DZ BKN004 BECMG 22015G25KT"
"4391","LFPN",2019-12-06 20:30:00,2.1136,48.7506,48.2,46.4,93.45,230,15,0,29.88,NA,6.21,NA,"OVC",NA,NA,NA,700,NA,NA,NA,"-DZ",NA,NA,NA,NA,NA,NA,41.78,"LFPN 062030Z AUTO 23015KT 9999 -DZ OVC007 09/08 Q1012 TEMPO 3000 DZ BKN004 BECMG 22015G25KT"
"4392","LFPN",2019-12-06 21:00:00,2.1136,48.7506,48.2,46.4,93.45,230,13,0,29.91,NA,6.21,NA,"BKN","OVC",NA,NA,900,4600,NA,NA,NA,NA,NA,NA,NA,NA,NA,42.32,"LFPN 062100Z AUTO 23013KT 9999 BKN009 OVC046 09/08 Q1013 TEMPO 3000 DZ BKN004 BECMG 22015G25KT"
"4393","LFPN",2019-12-06 21:30:00,2.1136,48.7506,48.2,46.4,93.45,230,9,0,29.91,NA,6.21,NA,"BKN","OVC",NA,NA,800,5000,NA,NA,NA,NA,NA,NA,NA,NA,NA,43.66,"LFPN 062130Z AUTO 23009KT 9999 BKN008 OVC050 09/08 Q1013"
"4394","LFPN",2019-12-06 22:00:00,2.1136,48.7506,48.2,46.4,93.45,240,10,0,29.91,NA,6.21,NA,"BKN","OVC",NA,NA,1100,5200,NA,NA,NA,NA,NA,NA,NA,NA,NA,43.28,"LFPN 062200Z AUTO 24010KT 9999 BKN011 OVC052 09/08 Q1013"
"4395","LFPN",2019-12-06 22:30:00,2.1136,48.7506,48.2,46.4,93.45,240,10,0,29.94,NA,6.21,NA,"SCT","BKN","BKN",NA,1000,1800,3500,NA,NA,NA,NA,NA,NA,NA,NA,43.28,"LFPN 062230Z AUTO 24010KT 9999 SCT010 BKN018 BKN035 09/08 Q1014"
"4396","LFPN",2019-12-06 23:00:00,2.1136,48.7506,48.2,46.4,93.45,240,11,0,29.94,NA,4.97,NA,"BKN","OVC",NA,NA,900,1400,NA,NA,"DZ",NA,NA,NA,NA,NA,NA,42.94,"LFPN 062300Z AUTO 24011KT 8000 DZ BKN009 OVC014 09/08 Q1014"
"4397","LFPN",2019-12-06 23:30:00,2.1136,48.7506,48.2,46.4,93.45,240,10,0,29.94,NA,6.21,NA,"BKN","BKN","OVC",NA,800,1300,2100,NA,NA,NA,NA,NA,NA,NA,NA,43.28,"LFPN 062330Z AUTO 24010KT 9999 BKN008 BKN013 OVC021 09/08 Q1014"
"4398","LFQB",2019-12-06 00:00:00,4.02,48.3247,32,32,100,170,4,0,30.18,NA,2.8,NA,"OVC",NA,NA,NA,500,NA,NA,NA,"BR",NA,NA,NA,NA,NA,NA,27.42,"LFQB 060000Z AUTO 17004KT 4500 BR OVC005 M00/M00 Q1022"
"4399","LFQB",2019-12-06 00:30:00,4.02,48.3247,32,32,100,160,5,0,30.18,NA,1.68,NA,"OVC",NA,NA,NA,300,NA,NA,NA,"BR",NA,NA,NA,NA,NA,NA,26.4,"LFQB 060030Z AUTO 16005KT 2700 BR OVC003 M00/M00 Q1022"
"4400","LFQB",2019-12-06 01:00:00,4.02,48.3247,32,32,100,140,4,0,30.18,NA,1.37,NA,"OVC",NA,NA,NA,200,NA,NA,NA,"BR",NA,NA,NA,NA,NA,NA,27.42,"LFQB 060100Z AUTO 14004KT 2200 BR OVC002 00/00 Q1022"
"4401","LFQB",2019-12-06 01:30:00,4.02,48.3247,32,32,100,130,3,0,30.15,NA,2.36,NA,"OVC",NA,NA,NA,300,NA,NA,NA,"BR",NA,NA,NA,NA,NA,NA,28.69,"LFQB 060130Z AUTO 13003KT 3800 BR OVC003 00/00 Q1021"
"4402","LFQB",2019-12-06 02:00:00,4.02,48.3247,32,32,100,NA,3,0,30.15,NA,2.3,NA,"OVC",NA,NA,NA,600,NA,NA,NA,"BR",NA,NA,NA,NA,NA,NA,28.69,"LFQB 060200Z AUTO VRB03KT 3700 BR OVC006 00/00 Q1021"
"4403","LFQB",2019-12-06 02:30:00,4.02,48.3247,32,32,100,130,4,0,30.15,NA,2.67,NA,"BKN","OVC",NA,NA,700,1300,NA,NA,"BR",NA,NA,NA,NA,NA,NA,27.42,"LFQB 060230Z AUTO 13004KT 4300 BR BKN007 OVC013 00/00 Q1021"
"4404","LFQB",2019-12-06 03:00:00,4.02,48.3247,33.8,32,93.03,NA,2,0,30.15,NA,2.36,NA,"BKN",NA,NA,NA,1200,NA,NA,NA,"BR",NA,NA,NA,NA,NA,NA,NA,"LFQB 060300Z AUTO VRB02KT 3800 BR BKN012 01/00 Q1021"
"4405","LFQB",2019-12-06 03:30:00,4.02,48.3247,32,32,100,160,7,0,30.15,NA,2.86,NA,"SCT",NA,NA,NA,1400,NA,NA,NA,"BR",NA,NA,NA,NA,NA,NA,24.78,"LFQB 060330Z AUTO 16007KT 4600 BR SCT014 M00/M00 Q1021"
"4406","LFQB",2019-12-06 04:00:00,4.02,48.3247,32,32,100,0,0,0,30.15,NA,3.04,NA,"NSC",NA,NA,NA,NA,NA,NA,NA,"BR",NA,NA,NA,NA,NA,NA,NA,"LFQB 060400Z AUTO 00000KT 4900 BR NSC M00/M00 Q1021"
"4407","LFQB",2019-12-06 04:30:00,4.02,48.3247,32,32,100,0,0,0,30.12,NA,3.11,NA,"NSC",NA,NA,NA,NA,NA,NA,NA,"BR",NA,NA,NA,NA,NA,NA,NA,"LFQB 060430Z AUTO 00000KT 5000 BR NSC M00/M00 Q1020"
"4408","LFQB",2019-12-06 05:00:00,4.02,48.3247,32,30.2,92.97,0,0,0,30.12,NA,3.11,NA,"NSC",NA,NA,NA,NA,NA,NA,NA,"BR",NA,NA,NA,NA,NA,NA,NA,"LFQB 060500Z AUTO 00000KT 5000 BR NSC M00/M01 Q1020"
"4409","LFQB",2019-12-06 05:30:00,4.02,48.3247,32,32,100,0,0,0,30.12,NA,3.73,NA,"NSC",NA,NA,NA,NA,NA,NA,NA,NA,NA,NA,NA,NA,NA,NA,NA,"LFQB 060530Z AUTO 00000KT 6000 NSC 00/00 Q1020"
"4410","LFQB",2019-12-06 06:00:00,4.02,48.3247,32,32,100,160,8,0,30.12,NA,3.73,NA,"NSC",NA,NA,NA,NA,NA,NA,NA,NA,NA,NA,NA,NA,NA,NA,24.11,"LFQB 060600Z AUTO 16008KT 6000 NSC 00/M00 Q1020"
"4411","LFQB",2019-12-06 06:30:00,4.02,48.3247,32,32,100,140,5,0,30.12,NA,3.73,NA,"NSC",NA,NA,NA,NA,NA,NA,NA,NA,NA,NA,NA,NA,NA,NA,26.4,"LFQB 060630Z AUTO 14005KT 6000 NSC 00/00 Q1020"
"4412","LFQB",2019-12-06 07:00:00,4.02,48.3247,32,32,100,140,4,0,30.12,NA,3.73,NA,"NSC",NA,NA,NA,NA,NA,NA,NA,NA,NA,NA,NA,NA,NA,NA,27.42,"LFQB 060700Z AUTO 14004KT 6000 NSC 00/00 Q1020"
"4413","LFQB",2019-12-06 07:30:00,4.02,48.3247,32,32,100,90,3,0,30.12,NA,3.11,NA,"NSC",NA,NA,NA,NA,NA,NA,NA,"BR",NA,NA,NA,NA,NA,NA,28.69,"LFQB 060730Z AUTO 09003KT 5000 BR NSC 00/M00 Q1020"
"4414","LFQB",2019-12-06 08:00:00,4.02,48.3247,33.8,32,93.03,NA,2,0,30.12,NA,3.11,NA,"NSC",NA,NA,NA,NA,NA,NA,NA,"BR",NA,NA,NA,NA,NA,NA,NA,"LFQB 060800Z AUTO VRB02KT 5000 BR NSC 01/00 Q1020"
"4415","LFQB",2019-12-06 08:30:00,4.02,48.3247,35.6,33.8,93.08,150,5,0,30.12,NA,3.73,NA,"NSC",NA,NA,NA,NA,NA,NA,NA,NA,NA,NA,NA,NA,NA,NA,30.67,"LFQB 060830Z AUTO 15005KT 6000 NSC 02/01 Q1020"
"4416","LFQB",2019-12-06 09:00:00,4.02,48.3247,37.4,35.6,93.14,180,6,0,30.12,NA,4.35,NA,"BKN","OVC",NA,NA,1000,19000,NA,NA,NA,NA,NA,NA,NA,NA,NA,32.03,"LFQB 060900Z AUTO 18006KT 7000 BKN010 OVC190 03/02 Q1020"
"4417","LFQB",2019-12-06 09:30:00,4.02,48.3247,39.2,37.4,93.19,220,15,0,30.12,NA,3.73,NA,"OVC",NA,NA,NA,800,NA,NA,NA,NA,NA,NA,NA,NA,NA,NA,30.11,"LFQB 060930Z AUTO 22015KT 6000 OVC008 04/03 Q1020"
"4418","LFQB",2019-12-06 10:00:00,4.02,48.3247,39.2,37.4,93.19,210,12,0,30.12,NA,3.73,NA,"BKN",NA,NA,NA,900,NA,NA,NA,NA,NA,NA,NA,NA,NA,NA,31.17,"LFQB 061000Z AUTO 21012KT 6000 BKN009 04/03 Q1020"
"4419","LFQB",2019-12-06 10:30:00,4.02,48.3247,39.2,37.4,93.19,210,10,0,30.12,NA,3.73,NA,"OVC",NA,NA,NA,800,NA,NA,NA,NA,NA,NA,NA,NA,NA,NA,32,"LFQB 061030Z AUTO 21010KT 6000 OVC008 04/03 Q1020"
"4420","LFQB",2019-12-06 11:00:00,4.02,48.3247,39.2,37.4,93.19,190,7,0,30.09,NA,3.73,NA,"OVC",NA,NA,NA,700,NA,NA,NA,NA,NA,NA,NA,NA,NA,NA,33.56,"LFQB 061100Z AUTO 19007KT 6000 OVC007 04/03 Q1019"
"4421","LFQB",2019-12-06 11:30:00,4.02,48.3247,39.2,37.4,93.19,190,5,0,30.09,NA,4.35,NA,"OVC",NA,NA,NA,600,NA,NA,NA,NA,NA,NA,NA,NA,NA,NA,34.95,"LFQB 061130Z AUTO 19005KT 7000 OVC006 04/03 Q1019"
"4422","LFQB",2019-12-06 12:00:00,4.02,48.3247,39.2,37.4,93.19,160,6,0,30.06,NA,4.35,NA,"OVC",NA,NA,NA,700,NA,NA,NA,NA,NA,NA,NA,NA,NA,NA,34.2,"LFQB 061200Z AUTO 16006KT 7000 OVC007 04/03 Q1018"
"4423","LFQB",2019-12-06 12:30:00,4.02,48.3247,41,37.4,86.89,140,5,0,30.06,NA,4.97,NA,"OVC",NA,NA,NA,800,NA,NA,NA,NA,NA,NA,NA,NA,NA,NA,37.08,"LFQB 061230Z AUTO 14005KT 110V180 8000 OVC008 05/03 Q1018"
"4424","LFQB",2019-12-06 13:00:00,4.02,48.3247,41,37.4,86.89,150,4,0,30.06,NA,5.59,NA,"OVC",NA,NA,NA,800,NA,NA,NA,NA,NA,NA,NA,NA,NA,NA,37.93,"LFQB 061300Z AUTO 15004KT 110V200 9000 OVC008 05/03 Q1018"
"4425","LFQB",2019-12-06 13:30:00,4.02,48.3247,41,39.2,93.24,NA,2,0,30.03,NA,5.59,NA,"OVC",NA,NA,NA,800,NA,NA,NA,NA,NA,NA,NA,NA,NA,NA,NA,"LFQB 061330Z AUTO VRB02KT 9000 OVC008 05/04 Q1017"
"4426","LFQB",2019-12-06 14:00:00,4.02,48.3247,41,39.2,93.24,190,9,0,30.03,NA,6.21,NA,"OVC","///",NA,NA,800,NA,NA,NA,NA,NA,NA,NA,NA,NA,NA,34.7,"LFQB 061400Z AUTO 19009KT 9999 OVC008/// ///TCU 05/04 Q1017"
"4427","LFQB",2019-12-06 14:30:00,4.02,48.3247,41,39.2,93.24,180,8,0,30.03,NA,6.21,NA,"OVC","///",NA,NA,900,NA,NA,NA,NA,NA,NA,NA,NA,NA,NA,35.2,"LFQB 061430Z AUTO 18008KT 9999 OVC009/// ///TCU 05/04 Q1017"
"4428","LFQB",2019-12-06 15:00:00,4.02,48.3247,41,39.2,93.24,160,7,0,30.03,NA,6.21,NA,"OVC","///",NA,NA,900,NA,NA,NA,"-RA",NA,NA,NA,NA,NA,NA,35.75,"LFQB 061500Z AUTO 16007KT 9999 -RA OVC009/// ///TCU 05/04 Q1017"
"4429","LFQB",2019-12-06 15:30:00,4.02,48.3247,41,39.2,93.24,170,8,0,30,NA,4.97,NA,"OVC","///",NA,NA,900,NA,NA,NA,"-RA",NA,NA,NA,NA,NA,NA,35.2,"LFQB 061530Z AUTO 17008KT 8000 -RA OVC009/// ///TCU 05/04 Q1016"
"4430","LFQB",2019-12-06 16:00:00,4.02,48.3247,41,39.2,93.24,170,9,0,30,NA,5.59,NA,"OVC","///",NA,NA,1000,NA,NA,NA,"-RA",NA,NA,NA,NA,NA,NA,34.7,"LFQB 061600Z AUTO 17009KT 9000 -RA OVC010/// ///TCU 05/04 Q1016"
"4431","LFQB",2019-12-06 16:30:00,4.02,48.3247,41,39.2,93.24,180,14,0,30,NA,6.21,NA,"OVC","///",NA,NA,1100,NA,NA,NA,"-RA",NA,NA,NA,NA,NA,NA,32.76,"LFQB 061630Z AUTO 18014KT 9999 -RA OVC011/// ///TCU 05/04 Q1016"
"4432","LFQB",2019-12-06 17:00:00,4.02,48.3247,42.8,41,93.3,190,13,0,30,NA,6.21,NA,"SCT","OVC","///",NA,1200,6200,NA,NA,"-RA",NA,NA,NA,NA,NA,NA,35.4,"LFQB 061700Z AUTO 19013KT 9999 -RA SCT012/// OVC062/// ///TCU 06/05 Q1016"
"4433","LFQB",2019-12-06 17:30:00,4.02,48.3247,42.8,41,93.3,200,11,0,30,NA,6.21,NA,"FEW","OVC","///",NA,1200,5600,NA,NA,"-RA",NA,NA,NA,NA,NA,NA,36.11,"LFQB 061730Z AUTO 20011KT 9999 -RA FEW012/// OVC056/// ///TCU 06/05 Q1016"
"4434","LFQB",2019-12-06 18:00:00,4.02,48.3247,42.8,41,93.3,180,14,0,29.97,NA,6.21,NA,"FEW","OVC",NA,NA,1300,5200,NA,NA,NA,NA,NA,NA,NA,NA,NA,35.08,"LFQB 061800Z AUTO 18014KT 9999 FEW013 OVC052 06/05 Q1015"
"4435","LFQB",2019-12-06 18:30:00,4.02,48.3247,44.6,41,87.09,180,13,0,29.97,NA,6.21,NA,"BKN","BKN","OVC",NA,1300,4500,6200,NA,NA,NA,NA,NA,NA,NA,NA,37.71,"LFQB 061830Z AUTO 18013KT 9999 BKN013 BKN045 OVC062 07/05 Q1015"
"4436","LFQB",2019-12-06 19:00:00,4.02,48.3247,44.6,42.8,93.35,190,11,0,29.97,NA,6.21,NA,"OVC",NA,NA,NA,1100,NA,NA,NA,NA,NA,NA,NA,NA,NA,NA,38.39,"LFQB 061900Z AUTO 19011KT 9999 OVC011 07/06 Q1015"
"4437","LFQB",2019-12-06 19:30:00,4.02,48.3247,46.4,42.8,87.19,200,16,0,29.97,NA,6.21,NA,"OVC",NA,NA,NA,1100,NA,NA,NA,NA,NA,NA,NA,NA,NA,NA,39.19,"LFQB 061930Z AUTO 20016KT 9999 OVC011 08/06 Q1015"
"4438","LFQB",2019-12-06 20:00:00,4.02,48.3247,44.6,44.6,100,200,16,0,29.94,NA,2.24,NA,"BKN","OVC",NA,NA,1000,5200,NA,NA,"-RA BR",NA,NA,NA,NA,NA,NA,36.84,"LFQB 062000Z AUTO 20016KT 3600 -RA BR BKN010 OVC052 07/07 Q1014"
"4439","LFQB",2019-12-06 20:30:00,4.02,48.3247,46.4,44.6,93.4,200,18,0,29.94,NA,3.73,NA,"SCT","SCT","BKN",NA,1100,1900,2800,NA,"DZ",NA,NA,NA,NA,NA,NA,38.7,"LFQB 062030Z AUTO 20018KT 6000 DZ SCT011 SCT019 BKN028 08/07 Q1014"
"4440","LFQB",2019-12-06 21:00:00,4.02,48.3247,46.4,44.6,93.4,200,17,0,29.94,NA,3.11,NA,"BKN","BKN","BKN",NA,1000,1800,3500,NA,"-DZ BR",NA,NA,NA,NA,NA,NA,38.94,"LFQB 062100Z AUTO 20017KT 5000 -DZ BR BKN010 BKN018 BKN035 08/07 Q1014"
"4441","LFQB",2019-12-06 21:30:00,4.02,48.3247,46.4,44.6,93.4,210,16,0,29.97,NA,6.21,NA,"FEW","BKN","BKN",NA,900,1500,2200,NA,NA,NA,NA,NA,NA,NA,NA,39.19,"LFQB 062130Z AUTO 21016KT 9999 FEW009 BKN015 BKN022 08/07 Q1015"
"4442","LFQB",2019-12-06 22:00:00,4.02,48.3247,48.2,44.6,87.28,200,15,0,29.97,NA,6.21,NA,"OVC",NA,NA,NA,1300,NA,NA,NA,NA,NA,NA,NA,NA,NA,NA,41.78,"LFQB 062200Z AUTO 20015KT 9999 OVC013 09/07 Q1015"
"4443","LFQB",2019-12-06 22:30:00,4.02,48.3247,46.4,46.4,100,200,12,0,29.97,NA,2.98,NA,"BKN","OVC",NA,NA,1200,2000,NA,NA,"-RA BR",NA,NA,NA,NA,NA,NA,40.33,"LFQB 062230Z AUTO 20012KT 4800 -RA BR BKN012 OVC020 08/08 Q1015"
"4444","LFQB",2019-12-06 23:00:00,4.02,48.3247,46.4,46.4,100,190,10,0,29.97,NA,6.21,NA,"OVC",NA,NA,NA,1200,NA,NA,NA,NA,NA,NA,NA,NA,NA,NA,41.03,"LFQB 062300Z AUTO 19010KT 9999 OVC012 08/08 Q1015"
"4445","LFQB",2019-12-06 23:30:00,4.02,48.3247,48.2,46.4,93.45,210,11,0,29.97,NA,6.21,NA,"OVC",NA,NA,NA,1300,NA,NA,NA,NA,NA,NA,NA,NA,NA,NA,42.94,"LFQB 062330Z AUTO 21011KT 9999 OVC013 09/08 Q1015"
"4446","LFLU",2019-12-06 06:00:00,4.9699,44.9216,30.2,30.2,100,50,3,0,30.24,NA,0.25,NA,"VV ",NA,NA,NA,NA,NA,NA,NA,"FZFG",NA,NA,NA,NA,NA,NA,26.63,"LFLU 060600Z AUTO 05003KT 0400 FZFG VV/// M01/M01 Q1024"
"4447","LFLU",2019-12-06 06:30:00,4.9699,44.9216,30.2,30.2,100,NA,2,0,30.24,NA,0.22,NA,"VV ",NA,NA,NA,NA,NA,NA,NA,"FZFG",NA,NA,NA,NA,NA,NA,NA,"LFLU 060630Z AUTO VRB02KT 0350 FZFG VV/// M01/M01 Q1024"
"4448","LFLU",2019-12-06 07:00:00,4.9699,44.9216,28.4,28.4,100,0,0,0,30.24,NA,0.28,NA,"VV ",NA,NA,NA,NA,NA,NA,NA,"FZFG",NA,NA,NA,NA,NA,NA,NA,"LFLU 060700Z AUTO 00000KT 0450 FZFG VV/// M02/M02 Q1024"
"4449","LFLU",2019-12-06 07:30:00,4.9699,44.9216,28.4,28.4,100,0,0,0,30.24,NA,0.22,NA,"VV ",NA,NA,NA,NA,NA,NA,NA,"FZFG",NA,NA,NA,NA,NA,NA,NA,"LFLU 060730Z AUTO 00000KT 0350 FZFG VV/// M02/M02 Q1024"
"4450","LFLU",2019-12-06 08:00:00,4.9699,44.9216,28.4,28.4,100,NA,1,0,30.24,NA,0.16,NA,"VV ",NA,NA,NA,NA,NA,NA,NA,"FZFG",NA,NA,NA,NA,NA,NA,NA,"LFLU 060800Z AUTO VRB01KT 0250 FZFG VV/// M02/M02 Q1024"
"4451","LFLU",2019-12-06 08:30:00,4.9699,44.9216,30.2,30.2,100,NA,2,0,30.24,NA,0.12,NA,"VV ",NA,NA,NA,NA,NA,NA,NA,"FZFG",NA,NA,NA,NA,NA,NA,NA,"LFLU 060830Z AUTO VRB02KT 0200 FZFG VV/// M01/M01 Q1024"
"4452","LFLU",2019-12-06 09:00:00,4.9699,44.9216,30.2,30.2,100,NA,2,0,30.24,NA,0.16,NA,"VV ",NA,NA,NA,NA,NA,NA,NA,"FZFG",NA,NA,NA,NA,NA,NA,NA,"LFLU 060900Z AUTO VRB02KT 0250 FZFG VV/// M01/M01 Q1024"
"4453","LFLU",2019-12-06 09:30:00,4.9699,44.9216,30.2,30.2,100,NA,2,0,30.24,NA,0.16,NA,"VV ",NA,NA,NA,NA,NA,NA,NA,"FZFG",NA,NA,NA,NA,NA,NA,NA,"LFLU 060930Z AUTO VRB02KT 0250 FZFG VV/// M01/M01 Q1024"
"4454","LFLU",2019-12-06 10:00:00,4.9699,44.9216,30.2,30.2,100,NA,1,0,30.24,NA,0.16,NA,"VV ",NA,NA,NA,NA,NA,NA,NA,"FZFG",NA,NA,NA,NA,NA,NA,NA,"LFLU 061000Z AUTO VRB01KT 0250 FZFG VV/// M01/M01 Q1024"
"4455","LFLU",2019-12-06 10:30:00,4.9699,44.9216,32,32,100,0,0,0,30.24,NA,0.22,NA,"VV ",NA,NA,NA,NA,NA,NA,NA,"FZFG",NA,NA,NA,NA,NA,NA,NA,"LFLU 061030Z AUTO 00000KT 0350 0300 FZFG VV/// M00/M00 Q1024"
"4456","LFLU",2019-12-06 11:00:00,4.9699,44.9216,32,32,100,0,0,0,30.21,NA,0.25,NA,"VV ",NA,NA,NA,NA,NA,NA,NA,"FZFG",NA,NA,NA,NA,NA,NA,NA,"LFLU 061100Z AUTO 00000KT 0400 FZFG VV/// M00/M00 Q1023"
"4457","LFLU",2019-12-06 11:30:00,4.9699,44.9216,33.8,33.8,100,NA,1,0,30.21,NA,0.25,NA,"VV ",NA,NA,NA,NA,NA,NA,NA,"FG",NA,NA,NA,NA,NA,NA,NA,"LFLU 061130Z AUTO VRB01KT 0400 FG VV/// 01/01 Q1023"
"4458","LFLU",2019-12-06 12:00:00,4.9699,44.9216,33.8,33.8,100,NA,1,0,30.18,NA,0.87,NA,"VV ",NA,NA,NA,NA,NA,NA,NA,"BR",NA,NA,NA,NA,NA,NA,NA,"LFLU 061200Z AUTO VRB01KT 1400 BR VV/// 01/01 Q1022"
"4459","LFLU",2019-12-06 12:30:00,4.9699,44.9216,35.6,35.6,100,0,0,0,30.18,NA,2.92,NA,"BKN",NA,NA,NA,400,NA,NA,NA,"BR",NA,NA,NA,NA,NA,NA,NA,"LFLU 061230Z AUTO 00000KT 4700 BR BKN004 02/02 Q1022"
"4460","LFLU",2019-12-06 13:00:00,4.9699,44.9216,35.6,35.6,100,NA,1,0,30.15,NA,2.67,NA,"BKN",NA,NA,NA,400,NA,NA,NA,"BR",NA,NA,NA,NA,NA,NA,NA,"LFLU 061300Z AUTO VRB01KT 4300 BR BKN004 02/02 Q1021"
"4461","LFLU",2019-12-06 13:30:00,4.9699,44.9216,35.6,35.6,100,300,2,0,30.15,NA,2.17,NA,"BKN",NA,NA,NA,300,NA,NA,NA,"BR",NA,NA,NA,NA,NA,NA,NA,"LFLU 061330Z AUTO 30002KT 3500 BR BKN003 02/02 Q1021"
"4462","LFLU",2019-12-06 14:00:00,4.9699,44.9216,37.4,35.6,93.14,0,0,0,30.15,NA,5.59,NA,"NSC",NA,NA,NA,NA,NA,NA,NA,NA,NA,NA,NA,NA,NA,NA,NA,"LFLU 061400Z AUTO 00000KT 9000 NSC 03/02 Q1021"
"4463","LFLU",2019-12-06 14:30:00,4.9699,44.9216,39.2,35.6,86.79,0,0,0,30.12,NA,6.21,NA,NA,NA,NA,NA,NA,NA,NA,NA,NA,NA,NA,NA,NA,NA,NA,NA,"LFLU 061430Z AUTO 00000KT CAVOK 04/02 Q1020"
"4464","LFLU",2019-12-06 15:00:00,4.9699,44.9216,41,35.6,80.93,0,0,0,30.12,NA,6.21,NA,NA,NA,NA,NA,NA,NA,NA,NA,NA,NA,NA,NA,NA,NA,NA,NA,"LFLU 061500Z AUTO 00000KT CAVOK 05/02 Q1020"
"4465","LFLU",2019-12-06 15:30:00,4.9699,44.9216,39.2,35.6,86.79,NA,2,0,30.12,NA,5.59,NA,"NSC",NA,NA,NA,NA,NA,NA,NA,NA,NA,NA,NA,NA,NA,NA,NA,"LFLU 061530Z AUTO VRB02KT 9000 NSC 04/02 Q1020"
"4466","LFLU",2019-12-06 16:00:00,4.9699,44.9216,39.2,35.6,86.79,NA,1,0,30.12,NA,4.35,NA,"NSC",NA,NA,NA,NA,NA,NA,NA,NA,NA,NA,NA,NA,NA,NA,NA,"LFLU 061600Z AUTO VRB01KT 7000 NSC 04/02 Q1020"
"4467","LFLU",2019-12-06 16:30:00,4.9699,44.9216,35.6,33.8,93.08,NA,2,0,30.12,NA,3.11,NA,"NSC",NA,NA,NA,NA,NA,NA,NA,"BR",NA,NA,NA,NA,NA,NA,NA,"LFLU 061630Z AUTO VRB02KT 5000 BR NSC 02/01 Q1020"
"4468","LFLU",2019-12-06 17:00:00,4.9699,44.9216,33.8,33.8,100,0,0,0,30.12,NA,2.49,NA,"NSC",NA,NA,NA,NA,NA,NA,NA,"BR",NA,NA,NA,NA,NA,NA,NA,"LFLU 061700Z AUTO 00000KT 4000 BR NSC 01/01 Q1020"
"4469","LFLU",2019-12-06 17:30:00,4.9699,44.9216,32,32,100,NA,2,0,30.12,NA,1.37,NA,"NSC",NA,NA,NA,NA,NA,NA,NA,"BR",NA,NA,NA,NA,NA,NA,NA,"LFLU 061730Z AUTO VRB02KT 2200 BR NSC 00/M00 Q1020"
"4470","LFLU",2019-12-06 18:00:00,4.9699,44.9216,32,32,100,30,2,0,30.12,NA,0.28,NA,"BKN","BKN",NA,NA,400,24000,NA,NA,"FZFG",NA,NA,NA,NA,NA,NA,NA,"LFLU 061800Z AUTO 03002KT 0450 FZFG BKN004 BKN240 M00/M00 Q1020"
"4471","LFRV",2019-12-06 00:00:00,-2.7186,47.7233,39.2,39.2,100,160,5,0,30.15,NA,0.25,NA,"VV ",NA,NA,NA,NA,NA,NA,NA,"FG",NA,NA,NA,NA,NA,NA,34.95,"LFRV 060000Z AUTO 16005KT 0400 FG VV/// 04/04 Q1021"
"4472","LFRV",2019-12-06 00:30:00,-2.7186,47.7233,39.2,39.2,100,160,5,0,30.15,NA,0.28,NA,"VV ",NA,NA,NA,NA,NA,NA,NA,"FG",NA,NA,NA,NA,NA,NA,34.95,"LFRV 060030Z AUTO 16005KT 0450 FG VV/// 04/04 Q1021"
"4473","LFRV",2019-12-06 01:00:00,-2.7186,47.7233,39.2,39.2,100,160,4,0,30.12,NA,0.28,NA,"VV ",NA,NA,NA,NA,NA,NA,NA,"FG",NA,NA,NA,NA,NA,NA,35.83,"LFRV 060100Z AUTO 16004KT 120V220 0450 FG VV/// 04/04 Q1020"
"4474","LFRV",2019-12-06 01:30:00,-2.7186,47.7233,41,41,100,160,4,0,30.12,NA,0.28,NA,"VV ",NA,NA,NA,NA,NA,NA,NA,"FG",NA,NA,NA,NA,NA,NA,37.93,"LFRV 060130Z AUTO 16004KT 0450 FG VV/// 05/05 Q1020"
"4475","LFRV",2019-12-06 02:00:00,-2.7186,47.7233,41,41,100,170,4,0,30.12,NA,0.28,NA,"VV ",NA,NA,NA,NA,NA,NA,NA,"FG",NA,NA,NA,NA,NA,NA,37.93,"LFRV 060200Z AUTO 17004KT 0450 FG VV/// 05/05 Q1020"
"4476","LFRV",2019-12-06 02:30:00,-2.7186,47.7233,41,41,100,180,3,0,30.12,NA,0.34,NA,"VV ",NA,NA,NA,NA,NA,NA,NA,"FG",NA,NA,NA,NA,NA,NA,38.98,"LFRV 060230Z AUTO 18003KT 0550 0500 FG VV/// 05/05 Q1020"
"4477","LFRV",2019-12-06 03:00:00,-2.7186,47.7233,42.8,42.8,100,180,4,0,30.09,NA,0.99,NA,"FEW","BKN","BKN",NA,200,1300,1900,NA,"BR",NA,NA,NA,NA,NA,NA,40.03,"LFRV 060300Z AUTO 18004KT 1600 BR FEW002 BKN013 BKN019 06/06 Q1019"
"4478","LFRV",2019-12-06 03:30:00,-2.7186,47.7233,44.6,44.6,100,190,5,0,30.09,NA,2.49,NA,"FEW","OVC",NA,NA,200,7600,NA,NA,"BR",NA,NA,NA,NA,NA,NA,41.36,"LFRV 060330Z AUTO 19005KT 4000 BR FEW002 OVC076 07/07 Q1019"
"4479","LFRV",2019-12-06 04:00:00,-2.7186,47.7233,44.6,44.6,100,200,4,0,30.09,NA,3.73,NA,"BKN","BKN","OVC",NA,1400,2600,7400,NA,NA,NA,NA,NA,NA,NA,NA,42.13,"LFRV 060400Z AUTO 20004KT 170V230 6000 BKN014 BKN026 OVC074 07/07 Q1019"
"4480","LFRV",2019-12-06 04:30:00,-2.7186,47.7233,46.4,46.4,100,210,6,0,30.09,NA,6.21,NA,"FEW","SCT","OVC",NA,1300,2700,6600,NA,NA,NA,NA,NA,NA,NA,NA,42.87,"LFRV 060430Z AUTO 21006KT 180V250 9999 FEW013 SCT027 OVC066 08/08 Q1019"
"4481","LFRV",2019-12-06 05:00:00,-2.7186,47.7233,46.4,46.4,100,210,6,0,30.06,NA,6.21,NA,"BKN","BKN","OVC",NA,1600,2700,6400,NA,NA,NA,NA,NA,NA,NA,NA,42.87,"LFRV 060500Z AUTO 21006KT 9999 BKN016 BKN027 OVC064 08/08 Q1018"
"4482","LFRV",2019-12-06 05:30:00,-2.7186,47.7233,48.2,46.4,93.45,210,7,0,30.06,NA,6.21,NA,"BKN","OVC",NA,NA,1600,2600,NA,NA,NA,NA,NA,NA,NA,NA,NA,44.53,"LFRV 060530Z AUTO 21007KT 9999 BKN016 OVC026 09/08 Q1018"
"4483","LFRV",2019-12-06 06:00:00,-2.7186,47.7233,48.2,46.4,93.45,210,8,0,30.06,NA,6.21,NA,"BKN","OVC",NA,NA,1500,12000,NA,NA,NA,NA,NA,NA,NA,NA,NA,44.07,"LFRV 060600Z AUTO 21008KT 180V250 9999 BKN015 OVC120 09/08 Q1018"
"4484","LFRV",2019-12-06 06:30:00,-2.7186,47.7233,48.2,46.4,93.45,210,7,0,30.06,NA,6.21,NA,"BKN","OVC","///",NA,1600,2200,NA,NA,NA,NA,NA,NA,NA,NA,NA,44.53,"LFRV 060630Z AUTO 21007KT 180V250 9999 BKN016/// OVC022/// ///TCU 09/08 Q1018"
"4485","LFRV",2019-12-06 07:00:00,-2.7186,47.7233,48.2,46.4,93.45,210,8,0,30.06,NA,6.21,NA,"BKN","BKN","BKN","///",1800,5600,6800,NA,"-RA",NA,NA,NA,NA,NA,NA,44.07,"LFRV 060700Z AUTO 21008KT 180V250 9999 -RA BKN018/// BKN056/// BKN068/// ///CB 09/08 Q1018"
"4486","LFRV",2019-12-06 07:30:00,-2.7186,47.7233,48.2,48.2,100,220,8,0,30.06,NA,6.21,NA,"BKN","BKN","BKN","///",1100,1800,3200,NA,"-RA",NA,NA,NA,NA,NA,NA,44.07,"LFRV 060730Z AUTO 22008KT 190V250 9999 -RA BKN011/// BKN018/// BKN032/// ///TCU 09/09 Q1018"
"4487","LFRV",2019-12-06 08:00:00,-2.7186,47.7233,48.2,48.2,100,230,9,0,30.06,NA,6.21,NA,"BKN","OVC","///",NA,700,1300,NA,NA,"-RA",NA,NA,NA,NA,NA,NA,43.66,"LFRV 060800Z AUTO 23009KT 9999 -RA BKN007/// OVC013/// ///TCU 09/09 Q1018"
"4488","LFRV",2019-12-06 08:30:00,-2.7186,47.7233,48.2,46.4,93.45,230,10,0,30.06,NA,2.55,NA,"BKN","BKN","OVC","///",700,1200,1700,NA,"-RADZ BR",NA,NA,NA,NA,NA,NA,43.28,"LFRV 060830Z AUTO 23010KT 200V260 4100 -RADZ BR BKN007/// BKN012/// OVC017/// ///TCU 09/08 Q1018"
"4489","LFRV",2019-12-06 09:00:00,-2.7186,47.7233,48.2,46.4,93.45,230,11,0,30.06,NA,6.21,NA,"OVC",NA,NA,NA,600,NA,NA,NA,"-DZ",NA,NA,NA,NA,NA,NA,42.94,"LFRV 060900Z AUTO 23011KT 190V250 9999 -DZ OVC006 09/08 Q1018"
"4490","LFRV",2019-12-06 09:30:00,-2.7186,47.7233,48.2,46.4,93.45,230,9,0,30.06,NA,4.97,NA,"OVC",NA,NA,NA,700,NA,NA,NA,NA,NA,NA,NA,NA,NA,NA,43.66,"LFRV 060930Z AUTO 23009KT 190V270 8000 OVC007 09/08 Q1018"
"4491","LFRV",2019-12-06 10:00:00,-2.7186,47.7233,48.2,48.2,100,220,10,0,30.06,NA,6.21,NA,"BKN","OVC",NA,NA,600,1100,NA,NA,NA,NA,NA,NA,NA,NA,NA,43.28,"LFRV 061000Z AUTO 22010KT 190V260 9999 BKN006 OVC011 09/09 Q1018"
"4492","LFRV",2019-12-06 10:30:00,-2.7186,47.7233,50,46.4,87.37,220,9,0,30.06,NA,6.21,NA,"OVC",NA,NA,NA,1100,NA,NA,NA,NA,NA,NA,NA,NA,NA,NA,45.9,"LFRV 061030Z AUTO 22009KT 180V250 9999 OVC011 10/08 Q1018"
"4493","LFRV",2019-12-06 11:00:00,-2.7186,47.7233,50,46.4,87.37,220,10,0,30.03,NA,6.21,NA,"OVC",NA,NA,NA,1100,NA,NA,NA,NA,NA,NA,NA,NA,NA,NA,45.54,"LFRV 061100Z AUTO 22010KT 180V250 9999 OVC011 10/08 Q1017"
"4494","LFRV",2019-12-06 11:30:00,-2.7186,47.7233,50,48.2,93.5,220,11,0,30.03,NA,6.21,NA,"OVC",NA,NA,NA,900,NA,NA,NA,NA,NA,NA,NA,NA,NA,NA,45.21,"LFRV 061130Z AUTO 22011KT 190V250 9999 OVC009 10/09 Q1017"
"4495","LFRV",2019-12-06 12:00:00,-2.7186,47.7233,51.8,50,93.55,230,10,0,30,NA,6.21,NA,"OVC",NA,NA,NA,800,NA,NA,NA,NA,NA,NA,NA,NA,NA,NA,NA,"LFRV 061200Z AUTO 23010KT 180V260 9999 OVC008 11/10 Q1016"
"4496","LFRV",2019-12-06 12:30:00,-2.7186,47.7233,51.8,50,93.55,220,10,0,30,NA,2.49,NA,"OVC",NA,NA,NA,700,NA,NA,NA,"-RADZ BR",NA,NA,NA,NA,NA,NA,NA,"LFRV 061230Z AUTO 22010KT 180V250 4000 -RADZ BR OVC007 11/10 Q1016"
"4497","LFRV",2019-12-06 13:00:00,-2.7186,47.7233,51.8,51.8,100,220,11,0,29.97,NA,3.11,NA,"OVC",NA,NA,NA,400,NA,NA,NA,"BR",NA,NA,NA,NA,NA,NA,NA,"LFRV 061300Z AUTO 22011KT 190V250 5000 BR OVC004 11/11 Q1015"
"4498","LFRV",2019-12-06 13:30:00,-2.7186,47.7233,51.8,51.8,100,220,12,0,29.94,NA,2.17,NA,"OVC",NA,NA,NA,300,NA,NA,NA,"-DZ BR",NA,NA,NA,NA,NA,NA,NA,"LFRV 061330Z AUTO 22012KT 190V260 3500 -DZ BR OVC003 11/11 Q1014"
"4499","LFRV",2019-12-06 14:00:00,-2.7186,47.7233,51.8,51.8,100,230,12,0,29.94,NA,1.43,NA,"OVC",NA,NA,NA,400,NA,NA,NA,"-RADZ BR",NA,NA,NA,NA,NA,NA,NA,"LFRV 061400Z AUTO 23012KT 200V260 2300 -RADZ BR OVC004 11/11 Q1014"
"4500","LFRV",2019-12-06 14:30:00,-2.7186,47.7233,51.8,51.8,100,240,12,0,29.94,NA,0.99,NA,"OVC",NA,NA,NA,400,NA,NA,NA,"-DZ BR",NA,NA,NA,NA,NA,NA,NA,"LFRV 061430Z AUTO 24012KT 210V270 1600 -DZ BR OVC004 11/11 Q1014"
"4501","LFRV",2019-12-06 15:00:00,-2.7186,47.7233,51.8,51.8,100,230,10,0,29.94,NA,2.36,NA,"OVC",NA,NA,NA,300,NA,NA,NA,"-DZ BR",NA,NA,NA,NA,NA,NA,NA,"LFRV 061500Z AUTO 23010KT 200V270 3800 -DZ BR OVC003 11/11 Q1014"
"4502","LFRV",2019-12-06 15:30:00,-2.7186,47.7233,51.8,51.8,100,240,12,0,29.94,NA,2.3,NA,"OVC",NA,NA,NA,200,NA,NA,NA,"-RADZ BR",NA,NA,NA,NA,NA,NA,NA,"LFRV 061530Z AUTO 24012KT 200V290 3700 -RADZ BR OVC002 11/11 Q1014"
"4503","LFRV",2019-12-06 16:00:00,-2.7186,47.7233,51.8,51.8,100,240,11,0,29.94,NA,1.49,NA,"OVC",NA,NA,NA,200,NA,NA,NA,"-DZ BR",NA,NA,NA,NA,NA,NA,NA,"LFRV 061600Z AUTO 24011KT 200V260 2400 -DZ BR OVC002 11/11 Q1014"
"4504","LFRV",2019-12-06 16:30:00,-2.7186,47.7233,51.8,51.8,100,240,10,0,29.94,NA,1.86,NA,"OVC",NA,NA,NA,200,NA,NA,NA,"DZ BR",NA,NA,NA,NA,NA,NA,NA,"LFRV 061630Z AUTO 24010KT 200V270 3000 DZ BR OVC002 11/11 Q1014"
"4505","LFRV",2019-12-06 17:00:00,-2.7186,47.7233,51.8,51.8,100,260,8,0,29.94,NA,6.21,NA,"BKN","OVC",NA,NA,400,2700,NA,NA,NA,NA,NA,NA,NA,NA,NA,NA,"LFRV 061700Z AUTO 26008KT 9999 BKN004 OVC027 11/11 Q1014"
"4506","LFRV",2019-12-06 17:30:00,-2.7186,47.7233,51.8,51.8,100,270,7,0,29.97,NA,6.21,NA,"BKN","OVC",NA,NA,700,3900,NA,NA,NA,NA,NA,NA,NA,NA,NA,NA,"LFRV 061730Z AUTO 27007KT 220V290 9999 BKN007 OVC039 11/11 Q1015"
"4507","LFRV",2019-12-06 18:00:00,-2.7186,47.7233,51.8,50,93.55,260,7,0,29.97,NA,6.21,NA,"BKN","OVC",NA,NA,600,3100,NA,NA,NA,NA,NA,NA,NA,NA,NA,NA,"LFRV 061800Z AUTO 26007KT 220V290 9999 BKN006 OVC031 11/10 Q1015"
"4508","LFRV",2019-12-06 18:30:00,-2.7186,47.7233,51.8,51.8,100,260,6,0,29.97,NA,6.21,NA,"OVC",NA,NA,NA,400,NA,NA,NA,NA,NA,NA,NA,NA,NA,NA,NA,"LFRV 061830Z AUTO 26006KT 230V290 9999 OVC004 11/11 Q1015"
"4509","LFRV",2019-12-06 19:00:00,-2.7186,47.7233,51.8,51.8,100,260,5,0,29.97,NA,6.21,NA,"OVC",NA,NA,NA,500,NA,NA,NA,NA,NA,NA,NA,NA,NA,NA,NA,"LFRV 061900Z AUTO 26005KT 220V300 9999 OVC005 11/11 Q1015"
"4510","LFRV",2019-12-06 19:30:00,-2.7186,47.7233,51.8,50,93.55,250,5,0,29.97,NA,6.21,NA,"BKN","OVC",NA,NA,500,4000,NA,NA,NA,NA,NA,NA,NA,NA,NA,NA,"LFRV 061930Z AUTO 25005KT 220V290 9999 BKN005 OVC040 11/10 Q1015"
"4511","LFRV",2019-12-06 20:00:00,-2.7186,47.7233,51.8,50,93.55,260,6,0,30,NA,6.21,NA,"BKN","OVC",NA,NA,900,4000,NA,NA,NA,NA,NA,NA,NA,NA,NA,NA,"LFRV 062000Z AUTO 26006KT 230V290 9999 BKN009 OVC040 11/10 Q1016"
"4512","LFRV",2019-12-06 20:30:00,-2.7186,47.7233,51.8,50,93.55,230,4,0,30,NA,6.21,NA,"OVC",NA,NA,NA,4000,NA,NA,NA,NA,NA,NA,NA,NA,NA,NA,NA,"LFRV 062030Z AUTO 23004KT 200V270 9999 OVC040 11/10 Q1016"
"4513","LFRV",2019-12-06 21:00:00,-2.7186,47.7233,50,50,100,240,4,0,30,NA,6.21,NA,"FEW","BKN","OVC",NA,2800,3500,4200,NA,NA,NA,NA,NA,NA,NA,NA,48.44,"LFRV 062100Z AUTO 24004KT 210V270 9999 FEW028 BKN035 OVC042 10/10 Q1016"
"4514","LFRV",2019-12-06 21:30:00,-2.7186,47.7233,50,50,100,NA,3,0,30,NA,3.73,NA,"BKN","OVC",NA,NA,1300,2300,NA,NA,"-RADZ",NA,NA,NA,NA,NA,NA,49.27,"LFRV 062130Z AUTO VRB03KT 6000 -RADZ BKN013 OVC023 10/10 Q1016"
"4515","LFRV",2019-12-06 22:00:00,-2.7186,47.7233,51.8,50,93.55,270,5,0,30,NA,6.21,NA,"SCT","SCT","OVC",NA,1000,1600,4000,NA,NA,NA,NA,NA,NA,NA,NA,NA,"LFRV 062200Z AUTO 27005KT 9999 SCT010 SCT016 OVC040 11/10 Q1016"
"4516","LFRV",2019-12-06 22:30:00,-2.7186,47.7233,51.8,50,93.55,260,5,0,30,NA,6.21,NA,"FEW","SCT","BKN",NA,1000,2000,4200,NA,NA,NA,NA,NA,NA,NA,NA,NA,"LFRV 062230Z AUTO 26005KT 230V290 9999 FEW010 SCT020 BKN042 11/10 Q1016"
"4517","LFRV",2019-12-06 23:00:00,-2.7186,47.7233,51.8,50,93.55,240,6,0,30.03,NA,6.21,NA,"FEW","SCT","OVC",NA,1100,2900,4100,NA,NA,NA,NA,NA,NA,NA,NA,NA,"LFRV 062300Z AUTO 24006KT 210V280 9999 FEW011 SCT029 OVC041 11/10 Q1017"
"4518","LFRV",2019-12-06 23:30:00,-2.7186,47.7233,51.8,50,93.55,260,6,0,30.03,NA,6.21,NA,"SCT","SCT","OVC",NA,1100,2200,4100,NA,NA,NA,NA,NA,NA,NA,NA,NA,"LFRV 062330Z AUTO 26006KT 230V290 9999 SCT011 SCT022 OVC041 11/10 Q1017"
"4519","LFPV",2019-12-06 00:00:00,2.2015,48.7744,30.2,30.2,100,210,5,0,30.15,NA,0.28,NA,"VV ",NA,NA,NA,NA,NA,NA,NA,"FZFG",NA,NA,NA,NA,NA,NA,24.26,"LFPV 060000Z AUTO 21005KT 170V250 0450 0350 R27/0400N R09/0550N FZFG VV/// M01/M01 Q1021 NOSIG"
"4520","LFPV",2019-12-06 00:30:00,2.2015,48.7744,30.2,30.2,100,220,6,0,30.12,NA,0.34,NA,"VV ",NA,NA,NA,NA,NA,NA,NA,"FZFG",NA,NA,NA,NA,NA,NA,23.36,"LFPV 060030Z AUTO 22006KT 0550 0500 R27/0600N R09/0650N FZFG VV/// M01/M01 Q1020 NOSIG"
"4521","LFPV",2019-12-06 01:00:00,2.2015,48.7744,30.2,30.2,100,220,4,0,30.12,NA,0.5,NA,"VV ",NA,NA,NA,NA,NA,NA,NA,"FZFG",NA,NA,NA,NA,NA,NA,25.32,"LFPV 060100Z AUTO 22004KT 180V240 0800 0600 R27/0900N R09/0800U FZFG VV/// M01/M01 Q1020 BECMG 0400 FZFG"
"4522","LFPV",2019-12-06 01:30:00,2.2015,48.7744,30.2,30.2,100,200,7,0,30.12,NA,0.62,NA,"VV ",NA,NA,NA,NA,NA,NA,NA,"BCFG",NA,NA,NA,NA,NA,NA,22.59,"LFPV 060130Z AUTO 20007KT 1000 0900 R27/1100U R09/1100U BCFG VV/// M01/M01 Q1020 BECMG 0400 FZFG"
"4523","LFPV",2019-12-06 02:00:00,2.2015,48.7744,30.2,30.2,100,200,8,0,30.09,NA,1.18,NA,"VV ",NA,NA,NA,NA,NA,NA,NA,"BR",NA,NA,NA,NA,NA,NA,21.9,"LFPV 060200Z AUTO 20008KT 1900 1300 R27/1800N R09/P2000 BR VV/// M01/M01 Q1019"
"4524","LFPV",2019-12-06 02:30:00,2.2015,48.7744,32,32,100,220,7,0,30.09,NA,2.42,NA,"OVC",NA,NA,NA,200,NA,NA,NA,"BR",NA,NA,NA,NA,NA,NA,24.78,"LFPV 060230Z AUTO 22007KT 3900 BR OVC002 M00/M00 Q1019 BECMG 0500 FZFG VV///"
"4525","LFPV",2019-12-06 03:00:00,2.2015,48.7744,32,32,100,210,8,0,30.09,NA,2.36,NA,"OVC",NA,NA,NA,200,NA,NA,NA,"BR",NA,NA,NA,NA,NA,NA,24.11,"LFPV 060300Z AUTO 21008KT 3800 BR OVC002 M00/M00 Q1019 BECMG 0500 FZFG VV///"
"4526","LFPV",2019-12-06 03:30:00,2.2015,48.7744,32,32,100,190,8,0,30.09,NA,2.3,NA,"OVC",NA,NA,NA,200,NA,NA,NA,"BR",NA,NA,NA,NA,NA,NA,24.11,"LFPV 060330Z AUTO 19008KT 3700 BR OVC002 M00/M00 Q1019 BECMG 0500 FZFG VV///"
"4527","LFPV",2019-12-06 04:00:00,2.2015,48.7744,32,32,100,210,6,0,30.06,NA,2.98,NA,"FEW","OVC",NA,NA,200,11000,NA,NA,"BR",NA,NA,NA,NA,NA,NA,25.53,"LFPV 060400Z AUTO 21006KT 170V230 4800 BR FEW002 OVC110 M00/M00 Q1018 BECMG 0500 FZFG VV///"
"4528","LFPV",2019-12-06 04:30:00,2.2015,48.7744,32,32,100,200,8,0,30.06,NA,3.11,NA,"NSC",NA,NA,NA,NA,NA,NA,NA,"BR",NA,NA,NA,NA,NA,NA,24.11,"LFPV 060430Z AUTO 20008KT 5000 BR NSC M00/M00 Q1018 BECMG 0500 FZFG VV///"
"4529","LFPV",2019-12-06 05:00:00,2.2015,48.7744,32,32,100,200,8,0,30.06,NA,3.11,NA,"NSC",NA,NA,NA,NA,NA,NA,NA,"BR",NA,NA,NA,NA,NA,NA,24.11,"LFPV 060500Z AUTO 20008KT 5000 BR NSC M00/M00 Q1018 BECMG 0500 FZFG VV///"
"4530","LFPV",2019-12-06 05:30:00,2.2015,48.7744,32,32,100,210,8,0,30.06,NA,3.11,NA,"NSC",NA,NA,NA,NA,NA,NA,NA,"BR",NA,NA,NA,NA,NA,NA,24.11,"LFPV 060530Z AUTO 21008KT 5000 BR NSC 00/00 Q1018 BECMG 0500 FZFG VV///"
"4531","LFPV",2019-12-06 06:00:00,2.2015,48.7744,32,32,100,210,7,0,30.06,NA,3.11,NA,"FEW","BKN","BKN",NA,400,9400,15000,NA,"BR",NA,NA,NA,NA,NA,NA,24.78,"LFPV 060600Z AUTO 21007KT 5000 BR FEW004 BKN094 BKN150 00/00 Q1018 BECMG 0500 FZFG VV///"
"4532","LFPV",2019-12-06 06:30:00,2.2015,48.7744,32,32,100,220,7,0,30.06,NA,3.11,NA,"SCT","SCT","BKN",NA,400,8400,13000,NA,"BR",NA,NA,NA,NA,NA,NA,24.78,"LFPV 060630Z AUTO 22007KT 5000 BR SCT004 SCT084 BKN130 00/00 Q1018 NOSIG"
"4533","LFPV",2019-12-06 07:00:00,2.2015,48.7744,33.8,33.8,100,210,6,0,30.06,NA,3.11,NA,"BKN","BKN","BKN","///",500,11000,13000,NA,"BR",NA,NA,NA,NA,NA,NA,27.7,"LFPV 060700Z AUTO 21006KT 180V240 5000 BR BKN005/// BKN110/// BKN130/// ///TCU 01/01 Q1018 BECMG NSC"
"4534","LFPV",2019-12-06 07:30:00,2.2015,48.7744,33.8,33.8,100,210,7,0,30.06,NA,2.61,NA,"OVC",NA,NA,NA,400,NA,NA,NA,"BR",NA,NA,NA,NA,NA,NA,26.97,"LFPV 060730Z AUTO 21007KT 180V240 4200 BR OVC004 01/01 Q1018 BECMG 6000 NSW NSC"
"4535","LFPV",2019-12-06 08:00:00,2.2015,48.7744,33.8,33.8,100,220,8,0,30.06,NA,1.99,NA,"OVC",NA,NA,NA,300,NA,NA,NA,"BR",NA,NA,NA,NA,NA,NA,26.33,"LFPV 060800Z AUTO 22008KT 180V240 3200 BR OVC003 01/01 Q1018"
"4536","LFPV",2019-12-06 08:30:00,2.2015,48.7744,35.6,35.6,100,220,8,0,30.06,NA,2.11,NA,"OVC","///",NA,NA,300,NA,NA,NA,"BR",NA,NA,NA,NA,NA,NA,28.55,"LFPV 060830Z AUTO 22008KT 190V250 3400 BR OVC003/// ///TCU 02/02 Q1018 BECMG 6000 NSW NSC"
"4537","LFPV",2019-12-06 09:00:00,2.2015,48.7744,35.6,35.6,100,220,8,0,30.06,NA,2.11,NA,"OVC","///",NA,NA,300,NA,NA,NA,"-DZ BR",NA,NA,NA,NA,NA,NA,28.55,"LFPV 060900Z AUTO 22008KT 3400 -DZ BR OVC003/// ///TCU 02/02 Q1018 BECMG 6000 NSW NSC"
"4538","LFPV",2019-12-06 09:30:00,2.2015,48.7744,35.6,35.6,100,210,9,0,30.06,NA,2.24,NA,"OVC","///",NA,NA,300,NA,NA,NA,"BR",NA,NA,NA,NA,NA,NA,27.99,"LFPV 060930Z AUTO 21009KT 3600 BR OVC003/// ///TCU 02/02 Q1018 BECMG 6000 NSW NSC"
"4539","LFPV",2019-12-06 10:00:00,2.2015,48.7744,35.6,35.6,100,220,10,0,30.06,NA,2.24,NA,"OVC",NA,NA,NA,300,NA,NA,NA,"-DZ BR",NA,NA,NA,NA,NA,NA,27.48,"LFPV 061000Z AUTO 22010KT 3600 -DZ BR OVC003 02/02 Q1018 BECMG 6000 NSW NSC"
"4540","LFPV",2019-12-06 10:30:00,2.2015,48.7744,35.6,35.6,100,210,10,0,30.03,NA,2.67,NA,"OVC","///",NA,NA,300,NA,NA,NA,"-RADZ BR",NA,NA,NA,NA,NA,NA,27.48,"LFPV 061030Z AUTO 21010KT 160V240 4300 -RADZ BR OVC003/// ///TCU 02/02 Q1017 BECMG 6000 NSW BKN010"
"4541","LFPV",2019-12-06 11:00:00,2.2015,48.7744,35.6,35.6,100,220,10,0,30.03,NA,2.36,NA,"OVC","///",NA,NA,300,NA,NA,NA,"-RA BR",NA,NA,NA,NA,NA,NA,27.48,"LFPV 061100Z AUTO 22010KT 180V250 3800 -RA BR OVC003/// ///TCU 02/02 Q1017 BECMG 6000 NSW BKN010"
"4542","LFPV",2019-12-06 11:30:00,2.2015,48.7744,37.4,35.6,93.14,220,9,0,30,NA,3.11,NA,"OVC","///",NA,NA,300,NA,NA,NA,"-RA BR",NA,NA,NA,NA,NA,NA,30.23,"LFPV 061130Z AUTO 22009KT 190V250 5000 -RA BR OVC003/// ///TCU 03/02 Q1016 BECMG OVC003"
"4543","LFPV",2019-12-06 12:00:00,2.2015,48.7744,37.4,37.4,100,220,9,0,30,NA,2.92,NA,"OVC","///",NA,NA,300,NA,NA,NA,"-RA BR",NA,NA,NA,NA,NA,NA,30.23,"LFPV 061200Z AUTO 22009KT 190V250 4700 -RA BR OVC003/// ///CB 03/03 Q1016 BECMG OVC003"
"4544","LFPV",2019-12-06 12:30:00,2.2015,48.7744,37.4,37.4,100,220,10,0,29.97,NA,4.35,NA,"OVC","///",NA,NA,400,NA,NA,NA,NA,NA,NA,NA,NA,NA,NA,29.74,"LFPV 061230Z AUTO 22010KT 190V250 7000 OVC004/// ///TCU 03/03 Q1015 BECMG 4000 -RA BR OVC003"
"4545","LFPV",2019-12-06 13:00:00,2.2015,48.7744,37.4,37.4,100,210,8,0,29.97,NA,4.35,NA,"OVC",NA,NA,NA,300,NA,NA,NA,"-DZ",NA,NA,NA,NA,NA,NA,30.76,"LFPV 061300Z AUTO 21008KT 160V250 7000 -DZ OVC003 03/03 Q1015 BECMG 4000 -RA BR"
"4546","LFPV",2019-12-06 13:30:00,2.2015,48.7744,37.4,37.4,100,210,9,0,29.94,NA,3.73,NA,"OVC",NA,NA,NA,300,NA,NA,NA,"-RA",NA,NA,NA,NA,NA,NA,30.23,"LFPV 061330Z AUTO 21009KT 170V240 6000 -RA OVC003 03/03 Q1014 BECMG 4000 -RA BR"
"4547","LFPV",2019-12-06 14:00:00,2.2015,48.7744,39.2,39.2,100,210,8,0,29.94,NA,3.73,NA,"OVC",NA,NA,NA,300,NA,NA,NA,NA,NA,NA,NA,NA,NA,NA,32.98,"LFPV 061400Z AUTO 21008KT 170V250 6000 OVC003 04/04 Q1014 BECMG 4000 -RA BR"
"4548","LFPV",2019-12-06 14:30:00,2.2015,48.7744,39.2,39.2,100,220,12,0,29.94,NA,2.92,NA,"OVC",NA,NA,NA,300,NA,NA,NA,"BR",NA,NA,NA,NA,NA,NA,31.17,"LFPV 061430Z AUTO 22012KT 190V260 4700 BR OVC003 04/04 Q1014 NOSIG"
"4549","LFPV",2019-12-06 15:00:00,2.2015,48.7744,41,41,100,220,12,0,29.91,NA,2.3,NA,"OVC",NA,NA,NA,200,NA,NA,NA,"-DZ BR",NA,NA,NA,NA,NA,NA,33.46,"LFPV 061500Z AUTO 22012KT 190V250 3700 -DZ BR OVC002 05/05 Q1013 NOSIG"
"4550","LFPV",2019-12-06 15:30:00,2.2015,48.7744,41,41,100,220,12,0,29.91,NA,2.55,NA,"OVC","///",NA,NA,300,NA,NA,NA,"BR",NA,NA,NA,NA,NA,NA,33.46,"LFPV 061530Z AUTO 22012KT 190V250 4100 BR OVC003/// ///TCU 05/05 Q1013 BECMG OVC003"
"4551","LFPV",2019-12-06 16:00:00,2.2015,48.7744,42.8,42.8,100,220,12,0,29.91,NA,3.11,NA,"OVC",NA,NA,NA,400,NA,NA,NA,"BR",NA,NA,NA,NA,NA,NA,35.75,"LFPV 061600Z AUTO 22012KT 190V260 5000 BR OVC004 06/06 Q1013 NOSIG"
"4552","LFPV",2019-12-06 16:30:00,2.2015,48.7744,42.8,42.8,100,220,14,0,29.88,NA,3.11,30,"OVC",NA,NA,NA,400,NA,NA,NA,"BR",NA,NA,NA,NA,NA,NA,35.08,"LFPV 061630Z AUTO 22014G30KT 190V250 5000 BR OVC004 06/06 Q1012 NOSIG"
"4553","LFPV",2019-12-06 17:00:00,2.2015,48.7744,44.6,44.6,100,230,13,0,29.88,NA,3.04,NA,"OVC",NA,NA,NA,400,NA,NA,NA,"BR",NA,NA,NA,NA,NA,NA,37.71,"LFPV 061700Z AUTO 23013KT 200V260 4900 BR OVC004 07/07 Q1012 NOSIG"
"4554","LFPV",2019-12-06 17:30:00,2.2015,48.7744,44.6,44.6,100,230,11,0,29.88,NA,2.49,NA,"OVC",NA,NA,NA,400,NA,NA,NA,"-DZ BR",NA,NA,NA,NA,NA,NA,38.39,"LFPV 061730Z AUTO 23011KT 190V260 4000 -DZ BR OVC004 07/07 Q1012 NOSIG"
"4555","LFPV",2019-12-06 18:00:00,2.2015,48.7744,44.6,44.6,100,220,11,0,29.88,NA,2.3,NA,"OVC",NA,NA,NA,300,NA,NA,NA,"-RA BR",NA,NA,NA,NA,NA,NA,38.39,"LFPV 061800Z AUTO 22011KT 180V250 3700 -RA BR OVC003 07/07 Q1012 NOSIG"
"4556","LFPV",2019-12-06 18:30:00,2.2015,48.7744,46.4,46.4,100,220,10,0,29.88,NA,4.35,NA,"OVC",NA,NA,NA,500,NA,NA,NA,NA,NA,NA,NA,NA,NA,NA,41.03,"LFPV 061830Z AUTO 22010KT 190V250 7000 OVC005 08/08 Q1012 TEMPO 4000 -RADZ"
"4557","LFPV",2019-12-06 19:00:00,2.2015,48.7744,46.4,46.4,100,230,10,0,29.88,NA,6.21,NA,"OVC",NA,NA,NA,600,NA,NA,NA,NA,NA,NA,NA,NA,NA,NA,41.03,"LFPV 061900Z AUTO 23010KT 190V250 9999 OVC006 08/08 Q1012 TEMPO 4000 -RADZ BECMG OVC003"
"4558","LFPV",2019-12-06 19:30:00,2.2015,48.7744,48.2,46.4,93.45,230,13,0,29.88,NA,4.97,NA,"OVC",NA,NA,NA,600,NA,NA,NA,NA,NA,NA,NA,NA,NA,NA,42.32,"LFPV 061930Z AUTO 23013KT 200V260 8000 OVC006 09/08 Q1012 TEMPO 4000 -RADZ BECMG OVC003"
"4559","LFPV",2019-12-06 20:00:00,2.2015,48.7744,48.2,46.4,93.45,230,11,0,29.88,NA,3.11,NA,"OVC",NA,NA,NA,500,NA,NA,NA,"-DZ BR",NA,NA,NA,NA,NA,NA,42.94,"LFPV 062000Z AUTO 23011KT 210V270 5000 -DZ BR OVC005 09/08 Q1012 NOSIG"
"4560","LFPV",2019-12-06 20:30:00,2.2015,48.7744,48.2,48.2,100,230,11,0,29.88,NA,3.73,NA,"OVC",NA,NA,NA,500,NA,NA,NA,"-DZ",NA,NA,NA,NA,NA,NA,42.94,"LFPV 062030Z AUTO 23011KT 210V270 6000 -DZ OVC005 09/09 Q1012 TEMPO 4000 -RADZ"
"4561","LFPV",2019-12-06 21:00:00,2.2015,48.7744,48.2,48.2,100,230,10,0,29.91,NA,6.21,NA,"OVC",NA,NA,NA,800,NA,NA,NA,NA,NA,NA,NA,NA,NA,NA,43.28,"LFPV 062100Z AUTO 23010KT 200V260 9999 OVC008 09/09 Q1013 TEMPO 4000 -RADZ"
"4562","LFPV",2019-12-06 21:30:00,2.2015,48.7744,48.2,46.4,93.45,230,11,0,29.91,NA,6.21,NA,"BKN","OVC",NA,NA,700,1500,NA,NA,NA,NA,NA,NA,NA,NA,NA,42.94,"LFPV 062130Z AUTO 23011KT 9999 BKN007 OVC015 09/08 Q1013 TEMPO 4000 -RADZ"
"4563","LFPV",2019-12-06 22:00:00,2.2015,48.7744,48.2,46.4,93.45,240,8,0,29.91,NA,6.21,NA,"SCT","BKN","BKN",NA,800,1300,1900,NA,NA,NA,NA,NA,NA,NA,NA,44.07,"LFPV 062200Z AUTO 24008KT 9999 SCT008 BKN013 BKN019 09/08 Q1013 TEMPO 4000 -RADZ BECMG OVC006"
"4564","LFPV",2019-12-06 22:30:00,2.2015,48.7744,48.2,46.4,93.45,240,9,0,29.94,NA,6.21,NA,"BKN","BKN","BKN",NA,1200,2000,3400,NA,NA,NA,NA,NA,NA,NA,NA,43.66,"LFPV 062230Z AUTO 24009KT 9999 BKN012 BKN020 BKN034 09/08 Q1014 TEMPO 4000 -RADZ BECMG OVC006"
"4565","LFPV",2019-12-06 23:00:00,2.2015,48.7744,48.2,48.2,100,230,9,0,29.94,NA,6.21,NA,"BKN","BKN","OVC",NA,900,1600,3500,NA,NA,NA,NA,NA,NA,NA,NA,43.66,"LFPV 062300Z AUTO 23009KT 9999 BKN009 BKN016 OVC035 09/09 Q1014 TEMPO 4000 -RADZ"
"4566","LFPV",2019-12-06 23:30:00,2.2015,48.7744,48.2,48.2,100,250,7,0,29.94,NA,6.21,NA,"BKN","OVC",NA,NA,600,1200,NA,NA,NA,NA,NA,NA,NA,NA,NA,44.53,"LFPV 062330Z AUTO 25007KT 220V290 9999 BKN006 OVC012 09/09 Q1014 TEMPO 4000 -RADZ BECMG NSC"
