"","station","valid","lon","lat","tmpf","dwpf","relh","drct","sknt","p01i","alti","mslp","vsby","gust","skyc1","skyc2","skyc3","skyc4","skyl1","skyl2","skyl3","skyl4","wxcodes","ice_accretion_1hr","ice_accretion_3hr","ice_accretion_6hr","peak_wind_gust","peak_wind_drct","peak_wind_time","feel","metar"
"1","RKTP",2019-11-01 00:42:00,126.4862,36.7041,59,59,100,30,3,0,30.21,NA,0.75,NA,"FEW",NA,NA,NA,0,NA,NA,NA,"BR",NA,NA,NA,NA,NA,NA,NA,"RKTP 010042Z 03003KT 1200 R03/1200 BR FEW000 15/15 A3021 RMK FG FEW000"
"2","RKTP",2019-11-01 00:43:00,126.4862,36.7041,59,59,100,30,3,0,30.21,NA,0.75,NA,"FEW",NA,NA,NA,0,NA,NA,NA,"BR",NA,NA,NA,NA,NA,NA,NA,"RKTP 010043Z 03003KT 1200 1200 BR FEW000 15/15 A3021 RMK FG FEW000"
"3","RKTP",2019-11-01 00:44:00,126.4862,36.7041,59,59,100,30,3,0,30.21,NA,0.75,NA,"FEW",NA,NA,NA,0,NA,NA,NA,"BR",NA,NA,NA,NA,NA,NA,NA,"RKTP 010044Z 03003KT 1200 R03/1200 BR FEW000 15/15 A3021 RMK FG FEW000"
"4","RKTP",2019-11-01 01:12:00,126.4862,36.7041,60.8,60.8,100,10,4,0,30.21,NA,2.98,NA,"CLR",NA,NA,NA,NA,NA,NA,NA,"BR",NA,NA,NA,NA,NA,NA,NA,"RKTP 010112Z 01004KT 4800 BR SKC 16/16 A3021"
"5","QEJ",2019-11-01 00:00:00,127.95,38.2,53.6,55.4,NA,270,2,0,NA,NA,0.25,NA,"CLR",NA,NA,NA,NA,NA,NA,NA,"FG",NA,NA,NA,NA,NA,NA,NA,"KQEJ 010000Z AUTO 27002KT M0400 FG CLR 12/13 / RMK A02 TSNO"
"6","QEJ",2019-11-01 00:10:00,127.95,38.2,53.6,55.4,NA,150,1,0,NA,NA,0.25,NA,"CLR",NA,NA,NA,NA,NA,NA,NA,"FG",NA,NA,NA,NA,NA,NA,NA,"KQEJ 010010Z AUTO 15001KT M0400 FG CLR 12/13 / RMK A02 TSNO"
"7","QEJ",2019-11-01 00:20:00,127.95,38.2,53.6,55.4,NA,250,1,0,NA,NA,0.25,NA,"CLR",NA,NA,NA,NA,NA,NA,NA,"FG",NA,NA,NA,NA,NA,NA,NA,"KQEJ 010020Z AUTO 25001KT M0400 FG CLR 12/13 / RMK A02 TSNO"
"8","QEJ",2019-11-01 00:30:00,127.95,38.2,53.6,55.4,NA,310,1,0,NA,NA,0.25,NA,"CLR",NA,NA,NA,NA,NA,NA,NA,"FG",NA,NA,NA,NA,NA,NA,NA,"KQEJ 010030Z AUTO 31001KT M0400 FG CLR 12/13 / RMK A02 TSNO"
"9","QEJ",2019-11-01 00:40:00,127.95,38.2,53.6,55.4,NA,290,1,0,NA,NA,0.25,NA,"CLR",NA,NA,NA,NA,NA,NA,NA,"FG",NA,NA,NA,NA,NA,NA,NA,"KQEJ 010040Z AUTO 29001KT M0400 FG CLR 12/13 / RMK A02 TSNO"
"10","QEJ",2019-11-01 00:50:00,127.95,38.2,53.6,55.4,NA,240,1,0,NA,NA,0.25,NA,"CLR",NA,NA,NA,NA,NA,NA,NA,"FG",NA,NA,NA,NA,NA,NA,NA,"KQEJ 010050Z AUTO 24001KT 0400 FG CLR 12/13 / RMK A02 TSNO"
"11","QEJ",2019-11-01 01:00:00,127.95,38.2,53.6,55.4,NA,330,1,0,NA,NA,0.5,NA,"OVC",NA,NA,NA,200,NA,NA,NA,"FG",NA,NA,NA,NA,NA,NA,NA,"KQEJ 010100Z AUTO 33001KT 0800 FG OVC002 12/13 / RMK A02 TSNO"
"12","QEJ",2019-11-01 01:10:00,127.95,38.2,53.6,55.4,NA,130,2,0,NA,NA,0.99,NA,"OVC",NA,NA,NA,200,NA,NA,NA,"BR",NA,NA,NA,NA,NA,NA,NA,"KQEJ 010110Z AUTO 13002KT 1600 BR OVC002 12/13 / RMK A02 TSNO"
"13","QEJ",2019-11-01 01:20:00,127.95,38.2,53.6,55.4,NA,130,2,0,NA,NA,1.24,NA,"OVC",NA,NA,NA,200,NA,NA,NA,"BR",NA,NA,NA,NA,NA,NA,NA,"KQEJ 010120Z AUTO 13002KT 2000 BR OVC002 12/13 / RMK A02 TSNO"
"14","QEJ",2019-11-01 01:30:00,127.95,38.2,53.6,55.4,NA,160,1,0,NA,NA,1.74,NA,"OVC",NA,NA,NA,300,NA,NA,NA,"BR",NA,NA,NA,NA,NA,NA,NA,"KQEJ 010130Z AUTO 16001KT 2800 BR OVC003 12/13 / RMK A02 TSNO"
"15","QEJ",2019-11-01 01:40:00,127.95,38.2,53.6,55.4,NA,140,2,0,NA,NA,1.49,NA,"OVC",NA,NA,NA,300,NA,NA,NA,"BR",NA,NA,NA,NA,NA,NA,NA,"KQEJ 010140Z AUTO 14002KT 2400 BR OVC003 12/13 / RMK A02 TSNO"
"16","QEJ",2019-11-01 01:50:00,127.95,38.2,53.6,55.4,NA,350,1,0,NA,NA,1.49,NA,"OVC",NA,NA,NA,300,NA,NA,NA,"BR",NA,NA,NA,NA,NA,NA,NA,"KQEJ 010150Z AUTO 35001KT 2400 BR OVC003 12/13 / RMK A02 TSNO"
"17","QEJ",2019-11-01 02:00:00,127.95,38.2,53.6,55.4,NA,180,2,0,NA,NA,1.74,NA,"OVC",NA,NA,NA,300,NA,NA,NA,"BR",NA,NA,NA,NA,NA,NA,NA,"KQEJ 010200Z AUTO 18002KT 2800 BR OVC003 12/13 / RMK A02 TSNO"
"18","QEJ",2019-11-01 02:10:00,127.95,38.2,53.6,55.4,NA,220,1,0,NA,NA,1.99,NA,"OVC",NA,NA,NA,300,NA,NA,NA,"BR",NA,NA,NA,NA,NA,NA,NA,"KQEJ 010210Z AUTO 22001KT 3200 BR OVC003 12/13 / RMK A02 TSNO"
"19","QEJ",2019-11-01 02:20:00,127.95,38.2,53.6,55.4,NA,250,1,0,NA,NA,1.99,NA,"OVC",NA,NA,NA,300,NA,NA,NA,"BR",NA,NA,NA,NA,NA,NA,NA,"KQEJ 010220Z AUTO 25001KT 3200 BR OVC003 12/13 / RMK A02 TSNO"
"20","QEJ",2019-11-01 02:30:00,127.95,38.2,55.4,55.4,100,200,1,0,30.18,NA,2.49,NA,"BKN",NA,NA,NA,300,NA,NA,NA,"BR",NA,NA,NA,NA,NA,NA,NA,"KQEJ 010230Z AUTO 20001KT 4000 BR BKN003 13/13 A3018 RMK A02 TSNO"
"21","QEJ",2019-11-01 02:40:00,127.95,38.2,57.2,53.6,87.74,200,1,0,30.18,NA,2.98,NA,"SCT",NA,NA,NA,400,NA,NA,NA,NA,NA,NA,NA,NA,NA,NA,NA,"KQEJ 010240Z AUTO 20001KT 4800 SCT004 14/12 A3018 RMK A02 TSNO"
"22","QEJ",2019-11-01 02:50:00,127.95,38.2,57.2,51.8,82.12,190,2,0,30.18,NA,3.73,NA,"FEW",NA,NA,NA,400,NA,NA,NA,"HZ",NA,NA,NA,NA,NA,NA,NA,"KQEJ 010250Z AUTO 19002KT 6000 HZ FEW004 14/11 A3018 RMK A02 TSNO"
"23","QEJ",2019-11-01 03:00:00,127.95,38.2,60.8,51.8,72.2,170,1,0,30.17,NA,3.73,NA,"CLR",NA,NA,NA,NA,NA,NA,NA,"HZ",NA,NA,NA,NA,NA,NA,NA,"KQEJ 010300Z AUTO 17001KT 6000 HZ CLR 16/11 A3017 RMK A02 TSNO"
"24","QEJ",2019-11-01 03:20:00,127.95,38.2,62.6,48.2,59.26,90,1,0,30.16,NA,4.97,NA,"CLR",NA,NA,NA,NA,NA,NA,NA,"HZ",NA,NA,NA,NA,NA,NA,NA,"KQEJ 010320Z AUTO 09001KT 8000 HZ CLR 17/09 A3016 RMK A02 TSNO"
"25","QEJ",2019-11-01 03:30:00,127.95,38.2,64.4,48.2,55.63,130,1,0,30.16,NA,5.59,NA,"CLR",NA,NA,NA,NA,NA,NA,NA,"HZ",NA,NA,NA,NA,NA,NA,NA,"KQEJ 010330Z AUTO 13001KT 9000 HZ CLR 18/09 A3016 RMK A02 TSNO"
"26","QEJ",2019-11-01 03:40:00,127.95,38.2,64.4,48.2,55.63,130,1,0,30.15,NA,5.59,NA,"CLR",NA,NA,NA,NA,NA,NA,NA,"HZ",NA,NA,NA,NA,NA,NA,NA,"KQEJ 010340Z AUTO 13001KT 9000 HZ CLR 18/09 A3015 RMK A02 TSNO"
"27","QEJ",2019-11-01 03:50:00,127.95,38.2,64.4,48.2,55.63,70,2,0,30.14,NA,5.59,NA,"CLR",NA,NA,NA,NA,NA,NA,NA,"HZ",NA,NA,NA,NA,NA,NA,NA,"KQEJ 010350Z AUTO 07002KT 9000 HZ CLR 18/09 A3014 RMK A02 TSNO"
"28","QEJ",2019-11-01 04:00:00,127.95,38.2,66.2,48.2,52.25,90,1,0,30.14,NA,5.59,NA,"CLR",NA,NA,NA,NA,NA,NA,NA,"HZ",NA,NA,NA,NA,NA,NA,NA,"KQEJ 010400Z AUTO 09001KT 9000 HZ CLR 19/09 A3014 RMK A02 TSNO"
"29","QEJ",2019-11-01 04:10:00,127.95,38.2,66.2,46.4,48.83,210,2,0,30.13,NA,6.21,NA,"CLR",NA,NA,NA,NA,NA,NA,NA,NA,NA,NA,NA,NA,NA,NA,NA,"KQEJ 010410Z AUTO 21002KT 9999 CLR 19/08 A3013 RMK A02 TSNO"
"30","QEJ",2019-11-01 04:20:00,127.95,38.2,66.2,44.6,45.6,290,1,0,30.13,NA,6.21,NA,"CLR",NA,NA,NA,NA,NA,NA,NA,NA,NA,NA,NA,NA,NA,NA,NA,"KQEJ 010420Z AUTO 29001KT 9999 CLR 19/07 A3013 RMK A02 TSNO"
"31","QEJ",2019-11-01 04:30:00,127.95,38.2,66.2,44.6,45.6,220,1,0,30.13,NA,6.21,NA,"CLR",NA,NA,NA,NA,NA,NA,NA,NA,NA,NA,NA,NA,NA,NA,NA,"KQEJ 010430Z AUTO 22001KT 9999 CLR 19/07 A3013 RMK A02 TSNO"
"32","QEJ",2019-11-01 04:40:00,127.95,38.2,68,44.6,42.85,170,1,0,30.12,NA,6.21,NA,"CLR",NA,NA,NA,NA,NA,NA,NA,NA,NA,NA,NA,NA,NA,NA,NA,"KQEJ 010440Z AUTO 17001KT 9999 CLR 20/07 A3012 RMK A02 TSNO"
"33","QEJ",2019-11-01 04:50:00,127.95,38.2,66.2,44.6,45.6,350,2,0,30.12,NA,6.21,NA,"CLR",NA,NA,NA,NA,NA,NA,NA,NA,NA,NA,NA,NA,NA,NA,NA,"KQEJ 010450Z AUTO 35002KT 9999 CLR 19/07 A3012 RMK A02 TSNO"
"34","QEJ",2019-11-01 05:00:00,127.95,38.2,68,44.6,42.85,250,1,0,30.12,NA,6.21,NA,"CLR",NA,NA,NA,NA,NA,NA,NA,NA,NA,NA,NA,NA,NA,NA,NA,"KQEJ 010500Z AUTO 25001KT 9999 CLR 20/07 A3012 RMK A02 TSNO"
"35","QEJ",2019-11-01 05:10:00,127.95,38.2,69.8,42.8,37.61,170,1,0,30.12,NA,6.21,NA,"CLR",NA,NA,NA,NA,NA,NA,NA,NA,NA,NA,NA,NA,NA,NA,NA,"KQEJ 010510Z AUTO 17001KT 9999 CLR 21/06 A3012 RMK A02 TSNO"
"36","QEJ",2019-11-01 05:20:00,127.95,38.2,68,42.8,40,280,1,0,30.12,NA,6.21,NA,"CLR",NA,NA,NA,NA,NA,NA,NA,NA,NA,NA,NA,NA,NA,NA,NA,"KQEJ 010520Z AUTO 28001KT 9999 CLR 20/06 A3012 RMK A02 TSNO"
"37","QEJ",2019-11-01 05:30:00,127.95,38.2,68,42.8,40,210,2,0,30.12,NA,6.21,NA,"CLR",NA,NA,NA,NA,NA,NA,NA,NA,NA,NA,NA,NA,NA,NA,NA,"KQEJ 010530Z AUTO 21002KT 9999 CLR 20/06 A3012 RMK A02 TSNO"
"38","QEJ",2019-11-01 05:40:00,127.95,38.2,69.8,41,35.09,240,1,0,30.11,NA,6.21,NA,"CLR",NA,NA,NA,NA,NA,NA,NA,NA,NA,NA,NA,NA,NA,NA,NA,"KQEJ 010540Z AUTO 24001KT 9999 CLR 21/05 A3011 RMK A02 TSNO"
"39","QEJ",2019-11-01 05:50:00,127.95,38.2,69.8,41,35.09,220,2,0,30.11,NA,6.21,NA,"CLR",NA,NA,NA,NA,NA,NA,NA,NA,NA,NA,NA,NA,NA,NA,NA,"KQEJ 010550Z AUTO 22002KT 9999 CLR 21/05 A3011 RMK A02 TSNO"
"40","QEJ",2019-11-01 06:00:00,127.95,38.2,69.8,41,35.09,170,1,0,30.11,NA,6.21,NA,"CLR",NA,NA,NA,NA,NA,NA,NA,NA,NA,NA,NA,NA,NA,NA,NA,"KQEJ 010600Z AUTO 17001KT 9999 CLR 21/05 A3011 RMK A02 TSNO"
"41","QEJ",2019-11-01 06:10:00,127.95,38.2,71.6,41,33,230,1,0,30.11,NA,6.21,NA,"CLR",NA,NA,NA,NA,NA,NA,NA,NA,NA,NA,NA,NA,NA,NA,NA,"KQEJ 010610Z AUTO 23001KT 9999 CLR 22/05 A3011 RMK A02 TSNO"
"42","QEJ",2019-11-01 06:20:00,127.95,38.2,69.8,41,35.09,0,0,0,30.11,NA,6.21,NA,"CLR",NA,NA,NA,NA,NA,NA,NA,NA,NA,NA,NA,NA,NA,NA,NA,"KQEJ 010620Z AUTO 00000KT 9999 CLR 21/05 A3011 RMK A02 TSNO"
"43","QEJ",2019-11-01 06:30:00,127.95,38.2,68,42.8,40,350,2,0,30.12,NA,6.21,NA,"CLR",NA,NA,NA,NA,NA,NA,NA,NA,NA,NA,NA,NA,NA,NA,NA,"KQEJ 010630Z AUTO 35002KT 9999 CLR 20/06 A3012 RMK A02 TSNO"
"44","QEJ",2019-11-01 06:40:00,127.95,38.2,68,42.8,40,20,2,0,30.12,NA,6.21,NA,"CLR",NA,NA,NA,NA,NA,NA,NA,NA,NA,NA,NA,NA,NA,NA,NA,"KQEJ 010640Z AUTO 02002KT 9999 CLR 20/06 A3012 RMK A02 TSNO"
"45","QEJ",2019-11-01 06:50:00,127.95,38.2,68,41,37.32,300,1,0,30.12,NA,6.21,NA,"CLR",NA,NA,NA,NA,NA,NA,NA,NA,NA,NA,NA,NA,NA,NA,NA,"KQEJ 010650Z AUTO 30001KT 9999 CLR 20/05 A3012 RMK A02 TSNO"
"46","QEJ",2019-11-01 07:00:00,127.95,38.2,69.8,42.8,37.61,300,1,0,30.12,NA,6.21,NA,"CLR",NA,NA,NA,NA,NA,NA,NA,NA,NA,NA,NA,NA,NA,NA,NA,"KQEJ 010700Z AUTO 30001KT 9999 CLR 21/06 A3012 RMK A02 TSNO"
"47","QEJ",2019-11-01 07:10:00,127.95,38.2,68,44.6,42.85,310,1,0,30.12,NA,6.21,NA,"CLR",NA,NA,NA,NA,NA,NA,NA,NA,NA,NA,NA,NA,NA,NA,NA,"KQEJ 010710Z AUTO 31001KT 9999 CLR 20/07 A3012 RMK A02 TSNO"
"48","QEJ",2019-11-01 07:20:00,127.95,38.2,66.2,44.6,45.6,290,1,0,30.12,NA,6.21,NA,"CLR",NA,NA,NA,NA,NA,NA,NA,NA,NA,NA,NA,NA,NA,NA,NA,"KQEJ 010720Z AUTO 29001KT 9999 CLR 19/07 A3012 RMK A02 TSNO"
"49","QEJ",2019-11-01 07:30:00,127.95,38.2,66.2,44.6,45.6,240,1,0,30.12,NA,6.21,NA,"CLR",NA,NA,NA,NA,NA,NA,NA,NA,NA,NA,NA,NA,NA,NA,NA,"KQEJ 010730Z AUTO 24001KT 9999 CLR 19/07 A3012 RMK A02 TSNO"
"50","QEJ",2019-11-01 07:40:00,127.95,38.2,66.2,46.4,48.83,200,1,0,30.12,NA,6.21,NA,"CLR",NA,NA,NA,NA,NA,NA,NA,NA,NA,NA,NA,NA,NA,NA,NA,"KQEJ 010740Z AUTO 20001KT 9999 CLR 19/08 A3012 RMK A02 TSNO"
"51","QEJ",2019-11-01 07:50:00,127.95,38.2,64.4,46.4,51.98,230,2,0,30.12,NA,6.21,NA,"CLR",NA,NA,NA,NA,NA,NA,NA,NA,NA,NA,NA,NA,NA,NA,NA,"KQEJ 010750Z AUTO 23002KT 9999 CLR 18/08 A3012 RMK A02 TSNO"
"52","QEJ",2019-11-01 08:00:00,127.95,38.2,62.6,44.6,51.72,180,1,0,30.12,NA,6.21,NA,"CLR",NA,NA,NA,NA,NA,NA,NA,NA,NA,NA,NA,NA,NA,NA,NA,"KQEJ 010800Z AUTO 18001KT 9999 CLR 17/07 A3012 RMK A02 TSNO"
"53","QEJ",2019-11-01 08:10:00,127.95,38.2,60.8,46.4,59.01,120,1,0,30.13,NA,6.21,NA,"CLR",NA,NA,NA,NA,NA,NA,NA,NA,NA,NA,NA,NA,NA,NA,NA,"KQEJ 010810Z AUTO 12001KT 9999 CLR 16/08 A3013 RMK A02 TSNO"
"54","QEJ",2019-11-01 08:20:00,127.95,38.2,59,46.4,62.92,70,1,0,30.13,NA,6.21,NA,"CLR",NA,NA,NA,NA,NA,NA,NA,NA,NA,NA,NA,NA,NA,NA,NA,"KQEJ 010820Z AUTO 07001KT 9999 CLR 15/08 A3013 RMK A02 TSNO"
"55","QEJ",2019-11-01 08:30:00,127.95,38.2,57.2,46.4,67.12,110,1,0,30.13,NA,6.21,NA,"CLR",NA,NA,NA,NA,NA,NA,NA,NA,NA,NA,NA,NA,NA,NA,NA,"KQEJ 010830Z AUTO 11001KT 9999 CLR 14/08 A3013 RMK A02 TSNO"
"56","QEJ",2019-11-01 08:40:00,127.95,38.2,57.2,46.4,67.12,120,1,0,30.13,NA,6.21,NA,"CLR",NA,NA,NA,NA,NA,NA,NA,NA,NA,NA,NA,NA,NA,NA,NA,"KQEJ 010840Z AUTO 12001KT 9999 CLR 14/08 A3013 RMK A02 TSNO"
"57","QEJ",2019-11-01 08:50:00,127.95,38.2,57.2,46.4,67.12,0,0,0,30.13,NA,6.21,NA,"CLR",NA,NA,NA,NA,NA,NA,NA,NA,NA,NA,NA,NA,NA,NA,NA,"KQEJ 010850Z AUTO 00000KT 9999 CLR 14/08 A3013 RMK A02 TSNO"
"58","QEJ",2019-11-01 09:00:00,127.95,38.2,55.4,46.4,71.64,0,0,0,30.14,NA,6.21,NA,"CLR",NA,NA,NA,NA,NA,NA,NA,NA,NA,NA,NA,NA,NA,NA,NA,"KQEJ 010900Z AUTO 00000KT 9999 CLR 13/08 A3014 RMK A02 TSNO"
"59","QEJ",2019-11-01 09:10:00,127.95,38.2,57.2,44.6,62.69,190,1,0,30.15,NA,6.21,NA,"CLR",NA,NA,NA,NA,NA,NA,NA,NA,NA,NA,NA,NA,NA,NA,NA,"KQEJ 010910Z AUTO 19001KT 9999 CLR 14/07 A3015 RMK A02 TSNO"
"60","QEJ",2019-11-01 09:20:00,127.95,38.2,55.4,46.4,71.64,270,1,0,30.15,NA,6.21,NA,"CLR",NA,NA,NA,NA,NA,NA,NA,NA,NA,NA,NA,NA,NA,NA,NA,"KQEJ 010920Z AUTO 27001KT 9999 CLR 13/08 A3015 RMK A02 TSNO"
"61","QEJ",2019-11-01 09:30:00,127.95,38.2,53.6,46.4,76.5,30,1,0,30.15,NA,6.21,NA,"CLR",NA,NA,NA,NA,NA,NA,NA,NA,NA,NA,NA,NA,NA,NA,NA,"KQEJ 010930Z AUTO 03001KT 9999 CLR 12/08 A3015 RMK A02 TSNO"
"62","QEJ",2019-11-01 09:40:00,127.95,38.2,51.8,46.4,81.74,80,1,0,30.16,NA,3.73,NA,"CLR",NA,NA,NA,NA,NA,NA,NA,"HZ",NA,NA,NA,NA,NA,NA,NA,"KQEJ 010940Z AUTO 08001KT 6000 HZ CLR 11/08 A3016 RMK A02 TSNO"
"63","QEJ",2019-11-01 09:50:00,127.95,38.2,51.8,46.4,81.74,10,1,0,30.16,NA,6.21,NA,"CLR",NA,NA,NA,NA,NA,NA,NA,NA,NA,NA,NA,NA,NA,NA,NA,"KQEJ 010950Z AUTO 01001KT 9999 CLR 11/08 A3016 RMK A02 TSNO"
"64","QEJ",2019-11-01 10:00:00,127.95,38.2,51.8,46.4,81.74,120,1,0,30.17,NA,6.21,NA,"CLR",NA,NA,NA,NA,NA,NA,NA,NA,NA,NA,NA,NA,NA,NA,NA,"KQEJ 011000Z AUTO 12001KT 9999 CLR 11/08 A3017 RMK A02 TSNO"
"65","QEJ",2019-11-01 10:10:00,127.95,38.2,51.8,46.4,81.74,80,1,0,30.17,NA,6.21,NA,"CLR",NA,NA,NA,NA,NA,NA,NA,NA,NA,NA,NA,NA,NA,NA,NA,"KQEJ 011010Z AUTO 08001KT 9999 CLR 11/08 A3017 RMK A02 TSNO"
"66","QEJ",2019-11-01 10:20:00,127.95,38.2,50,46.4,87.37,200,1,0,30.17,NA,6.21,NA,"CLR",NA,NA,NA,NA,NA,NA,NA,NA,NA,NA,NA,NA,NA,NA,NA,"KQEJ 011020Z AUTO 20001KT 9999 CLR 10/08 A3017 RMK A02 TSNO"
"67","QEJ",2019-11-01 10:30:00,127.95,38.2,50,46.4,87.37,90,1,0,30.17,NA,6.21,NA,"CLR",NA,NA,NA,NA,NA,NA,NA,NA,NA,NA,NA,NA,NA,NA,NA,"KQEJ 011030Z AUTO 09001KT 9999 CLR 10/08 A3017 RMK A02 TSNO"
"68","QEJ",2019-11-01 10:40:00,127.95,38.2,50,48.2,93.5,160,1,0,30.17,NA,6.21,NA,"CLR",NA,NA,NA,NA,NA,NA,NA,NA,NA,NA,NA,NA,NA,NA,NA,"KQEJ 011040Z AUTO 16001KT 9999 CLR 10/09 A3017 RMK A02 TSNO"
"69","QEJ",2019-11-01 10:50:00,127.95,38.2,48.2,48.2,100,0,0,0,30.17,NA,6.21,NA,"CLR",NA,NA,NA,NA,NA,NA,NA,NA,NA,NA,NA,NA,NA,NA,NA,"KQEJ 011050Z AUTO 00000KT 9999 CLR 09/09 A3017 RMK A02 TSNO"
"70","QEJ",2019-11-01 11:00:00,127.95,38.2,48.2,48.2,100,160,1,0,30.17,NA,6.21,NA,"CLR",NA,NA,NA,NA,NA,NA,NA,NA,NA,NA,NA,NA,NA,NA,NA,"KQEJ 011100Z AUTO 16001KT 9999 CLR 09/09 A3017 RMK A02 TSNO"
"71","QEJ",2019-11-01 11:10:00,127.95,38.2,48.2,48.2,100,220,1,0,30.17,NA,6.21,NA,"CLR",NA,NA,NA,NA,NA,NA,NA,NA,NA,NA,NA,NA,NA,NA,NA,"KQEJ 011110Z AUTO 22001KT 9999 CLR 09/09 A3017 RMK A02 TSNO"
"72","QEJ",2019-11-01 11:20:00,127.95,38.2,48.2,50,NA,0,0,0,30.17,NA,6.21,NA,"CLR",NA,NA,NA,NA,NA,NA,NA,NA,NA,NA,NA,NA,NA,NA,NA,"KQEJ 011120Z AUTO 00000KT 9999 CLR 09/10 A3017 RMK A02 TSNO"
"73","QEJ",2019-11-01 11:30:00,127.95,38.2,48.2,50,NA,110,1,0,NA,NA,2.98,NA,"CLR",NA,NA,NA,NA,NA,NA,NA,NA,NA,NA,NA,NA,NA,NA,NA,"KQEJ 011130Z AUTO 11001KT 4800 CLR 09/10 / RMK A02 TSNO"
"74","QEJ",2019-11-01 11:40:00,127.95,38.2,48.2,50,NA,40,1,0,NA,NA,3.73,NA,"CLR",NA,NA,NA,NA,NA,NA,NA,NA,NA,NA,NA,NA,NA,NA,NA,"KQEJ 011140Z AUTO 04001KT 6000 CLR 09/10 / RMK A02 TSNO"
"75","QEJ",2019-11-01 11:50:00,127.95,38.2,48.2,50,NA,0,0,0,NA,NA,3.73,NA,"CLR",NA,NA,NA,NA,NA,NA,NA,NA,NA,NA,NA,NA,NA,NA,NA,"KQEJ 011150Z AUTO 00000KT 6000 CLR 09/10 / RMK A02 TSNO"
"76","QEJ",2019-11-01 12:00:00,127.95,38.2,48.2,50,NA,150,1,0,NA,NA,3.73,NA,"CLR",NA,NA,NA,NA,NA,NA,NA,NA,NA,NA,NA,NA,NA,NA,NA,"KQEJ 011200Z AUTO 15001KT 6000 CLR 09/10 / RMK A02 TSNO"
"77","QEJ",2019-11-01 12:10:00,127.95,38.2,48.2,50,NA,90,1,0,NA,NA,3.73,NA,"CLR",NA,NA,NA,NA,NA,NA,NA,NA,NA,NA,NA,NA,NA,NA,NA,"KQEJ 011210Z AUTO 09001KT 6000 CLR 09/10 / RMK A02 TSNO"
"78","QEJ",2019-11-01 12:20:00,127.95,38.2,48.2,50,NA,30,1,0,NA,NA,3.73,NA,"CLR",NA,NA,NA,NA,NA,NA,NA,NA,NA,NA,NA,NA,NA,NA,NA,"KQEJ 011220Z AUTO 03001KT 6000 CLR 09/10 / RMK A02 TSNO"
"79","QEJ",2019-11-01 12:30:00,127.95,38.2,48.2,50,NA,190,1,0,NA,NA,3.73,NA,"CLR",NA,NA,NA,NA,NA,NA,NA,NA,NA,NA,NA,NA,NA,NA,NA,"KQEJ 011230Z AUTO 19001KT 6000 CLR 09/10 / RMK A02 TSNO"
"80","QEJ",2019-11-01 12:40:00,127.95,38.2,48.2,50,NA,0,0,0,NA,NA,3.73,NA,"CLR",NA,NA,NA,NA,NA,NA,NA,NA,NA,NA,NA,NA,NA,NA,NA,"KQEJ 011240Z AUTO 00000KT 6000 CLR 09/10 / RMK A02 TSNO"
"81","QEJ",2019-11-01 12:50:00,127.95,38.2,48.2,50,NA,180,1,0,NA,NA,2.98,NA,"CLR",NA,NA,NA,NA,NA,NA,NA,NA,NA,NA,NA,NA,NA,NA,NA,"KQEJ 011250Z AUTO 18001KT 4800 CLR 09/10 / RMK A02 TSNO"
"82","QEJ",2019-11-01 13:00:00,127.95,38.2,48.2,50,NA,100,1,0,NA,NA,3.73,NA,"CLR",NA,NA,NA,NA,NA,NA,NA,NA,NA,NA,NA,NA,NA,NA,NA,"KQEJ 011300Z AUTO 10001KT 6000 CLR 09/10 / RMK A02 TSNO"
"83","QEJ",2019-11-01 13:10:00,127.95,38.2,48.2,50,NA,0,0,0,NA,NA,2.98,NA,"CLR",NA,NA,NA,NA,NA,NA,NA,NA,NA,NA,NA,NA,NA,NA,NA,"KQEJ 011310Z AUTO 00000KT 4800 CLR 09/10 / RMK A02 TSNO"
"84","QEJ",2019-11-01 13:20:00,127.95,38.2,48.2,50,NA,50,1,0,NA,NA,3.73,NA,"CLR",NA,NA,NA,NA,NA,NA,NA,NA,NA,NA,NA,NA,NA,NA,NA,"KQEJ 011320Z AUTO 05001KT 6000 CLR 09/10 / RMK A02 TSNO"
"85","QEJ",2019-11-01 13:30:00,127.95,38.2,48.2,50,NA,160,1,0,NA,NA,2.98,NA,"CLR",NA,NA,NA,NA,NA,NA,NA,NA,NA,NA,NA,NA,NA,NA,NA,"KQEJ 011330Z AUTO 16001KT 4800 CLR 09/10 / RMK A02 TSNO"
"86","QEJ",2019-11-01 13:40:00,127.95,38.2,48.2,50,NA,290,1,0,NA,NA,3.73,NA,"CLR",NA,NA,NA,NA,NA,NA,NA,NA,NA,NA,NA,NA,NA,NA,NA,"KQEJ 011340Z AUTO 29001KT 6000 CLR 09/10 / RMK A02 TSNO"
"87","QEJ",2019-11-01 13:50:00,127.95,38.2,48.2,50,NA,190,1,0,NA,NA,3.73,NA,"CLR",NA,NA,NA,NA,NA,NA,NA,NA,NA,NA,NA,NA,NA,NA,NA,"KQEJ 011350Z AUTO 19001KT 6000 CLR 09/10 / RMK A02 TSNO"
"88","QEJ",2019-11-01 14:00:00,127.95,38.2,48.2,50,NA,0,0,0,NA,NA,3.73,NA,"CLR",NA,NA,NA,NA,NA,NA,NA,NA,NA,NA,NA,NA,NA,NA,NA,"KQEJ 011400Z AUTO 00000KT 6000 CLR 09/10 / RMK A02 TSNO"
"89","QEJ",2019-11-01 14:10:00,127.95,38.2,48.2,50,NA,30,1,0,NA,NA,3.73,NA,"CLR",NA,NA,NA,NA,NA,NA,NA,NA,NA,NA,NA,NA,NA,NA,NA,"KQEJ 011410Z AUTO 03001KT 6000 CLR 09/10 / RMK A02 TSNO"
"90","QEJ",2019-11-01 14:20:00,127.95,38.2,48.2,50,NA,40,1,0,NA,NA,2.98,NA,"CLR",NA,NA,NA,NA,NA,NA,NA,NA,NA,NA,NA,NA,NA,NA,NA,"KQEJ 011420Z AUTO 04001KT 4800 CLR 09/10 / RMK A02 TSNO"
"91","QEJ",2019-11-01 14:30:00,127.95,38.2,48.2,50,NA,90,1,0,NA,NA,2.49,NA,"CLR",NA,NA,NA,NA,NA,NA,NA,"BR",NA,NA,NA,NA,NA,NA,NA,"KQEJ 011430Z AUTO 09001KT 4000 BR CLR 09/10 / RMK A02 TSNO"
"92","QEJ",2019-11-01 14:40:00,127.95,38.2,48.2,50,NA,150,1,0,NA,NA,2.98,NA,"CLR",NA,NA,NA,NA,NA,NA,NA,"BR",NA,NA,NA,NA,NA,NA,NA,"KQEJ 011440Z AUTO 15001KT 4800 BR CLR 09/10 / RMK A02 TSNO"
"93","QEJ",2019-11-01 14:50:00,127.95,38.2,48.2,50,NA,0,0,0,NA,NA,3.73,NA,"CLR",NA,NA,NA,NA,NA,NA,NA,NA,NA,NA,NA,NA,NA,NA,NA,"KQEJ 011450Z AUTO 00000KT 6000 CLR 09/10 / RMK A02 TSNO"
"94","QEJ",2019-11-01 15:00:00,127.95,38.2,48.2,50,NA,0,0,0,NA,NA,3.73,NA,"CLR",NA,NA,NA,NA,NA,NA,NA,NA,NA,NA,NA,NA,NA,NA,NA,"KQEJ 011500Z AUTO 00000KT 6000 CLR 09/10 / RMK A02 TSNO"
"95","QEJ",2019-11-01 15:10:00,127.95,38.2,48.2,50,NA,20,1,0,NA,NA,2.98,NA,"CLR",NA,NA,NA,NA,NA,NA,NA,NA,NA,NA,NA,NA,NA,NA,NA,"KQEJ 011510Z AUTO 02001KT 4800 CLR 09/10 / RMK A02 TSNO"
"96","QEJ",2019-11-01 15:20:00,127.95,38.2,48.2,50,NA,190,1,0,NA,NA,2.49,NA,"CLR",NA,NA,NA,NA,NA,NA,NA,"BR",NA,NA,NA,NA,NA,NA,NA,"KQEJ 011520Z AUTO 19001KT 4000 BR CLR 09/10 / RMK A02 TSNO"
"97","QEJ",2019-11-01 15:30:00,127.95,38.2,48.2,50,NA,30,1,0,NA,NA,2.98,NA,"CLR",NA,NA,NA,NA,NA,NA,NA,NA,NA,NA,NA,NA,NA,NA,NA,"KQEJ 011530Z AUTO 03001KT 4800 CLR 09/10 / RMK A02 TSNO"
"98","QEJ",2019-11-01 15:40:00,127.95,38.2,48.2,50,NA,30,1,0,NA,NA,2.98,NA,"CLR",NA,NA,NA,NA,NA,NA,NA,NA,NA,NA,NA,NA,NA,NA,NA,"KQEJ 011540Z AUTO 03001KT 4800 CLR 09/10 / RMK A02 TSNO"
"99","QEJ",2019-11-01 15:50:00,127.95,38.2,48.2,50,NA,150,1,0,NA,NA,2.98,NA,"CLR",NA,NA,NA,NA,NA,NA,NA,"BR",NA,NA,NA,NA,NA,NA,NA,"KQEJ 011550Z AUTO 15001KT 4800 BR CLR 09/10 / RMK A02 TSNO"
"100","QEJ",2019-11-01 16:00:00,127.95,38.2,48.2,50,NA,0,0,0,NA,NA,2.98,NA,"CLR",NA,NA,NA,NA,NA,NA,NA,NA,NA,NA,NA,NA,NA,NA,NA,"KQEJ 011600Z AUTO 00000KT 4800 CLR 09/10 / RMK A02 TSNO"
"101","QEJ",2019-11-01 16:10:00,127.95,38.2,48.2,50,NA,90,1,0,NA,NA,2.98,NA,"CLR",NA,NA,NA,NA,NA,NA,NA,NA,NA,NA,NA,NA,NA,NA,NA,"KQEJ 011610Z AUTO 09001KT 4800 CLR 09/10 / RMK A02 TSNO"
"102","QEJ",2019-11-01 16:20:00,127.95,38.2,48.2,50,NA,210,1,0,NA,NA,2.98,NA,"CLR",NA,NA,NA,NA,NA,NA,NA,"BR",NA,NA,NA,NA,NA,NA,NA,"KQEJ 011620Z AUTO 21001KT 4800 BR CLR 09/10 / RMK A02 TSNO"
"103","QEJ",2019-11-01 16:30:00,127.95,38.2,48.2,50,NA,190,1,0,NA,NA,2.98,NA,"CLR",NA,NA,NA,NA,NA,NA,NA,NA,NA,NA,NA,NA,NA,NA,NA,"KQEJ 011630Z AUTO 19001KT 4800 CLR 09/10 / RMK A02 TSNO"
"104","QEJ",2019-11-01 16:40:00,127.95,38.2,48.2,50,NA,0,0,0,NA,NA,2.98,NA,"CLR",NA,NA,NA,NA,NA,NA,NA,NA,NA,NA,NA,NA,NA,NA,NA,"KQEJ 011640Z AUTO 00000KT 4800 CLR 09/10 / RMK A02 TSNO"
"105","QEJ",2019-11-01 16:50:00,127.95,38.2,48.2,50,NA,110,1,0,NA,NA,2.49,NA,"CLR",NA,NA,NA,NA,NA,NA,NA,"BR",NA,NA,NA,NA,NA,NA,NA,"KQEJ 011650Z AUTO 11001KT 4000 BR CLR 09/10 / RMK A02 TSNO"
"106","QEJ",2019-11-01 17:00:00,127.95,38.2,48.2,50,NA,0,0,0,NA,NA,2.98,NA,"CLR",NA,NA,NA,NA,NA,NA,NA,NA,NA,NA,NA,NA,NA,NA,NA,"KQEJ 011700Z AUTO 00000KT 4800 CLR 09/10 / RMK A02 TSNO"
"107","QEJ",2019-11-01 17:10:00,127.95,38.2,48.2,50,NA,0,0,0,NA,NA,2.49,NA,"CLR",NA,NA,NA,NA,NA,NA,NA,"BR",NA,NA,NA,NA,NA,NA,NA,"KQEJ 011710Z AUTO 00000KT 4000 BR CLR 09/10 / RMK A02 TSNO"
"108","QEJ",2019-11-01 17:20:00,127.95,38.2,48.2,50,NA,120,1,0,NA,NA,2.98,NA,"CLR",NA,NA,NA,NA,NA,NA,NA,NA,NA,NA,NA,NA,NA,NA,NA,"KQEJ 011720Z AUTO 12001KT 4800 CLR 09/10 / RMK A02 TSNO"
"109","QEJ",2019-11-01 17:30:00,127.95,38.2,48.2,50,NA,0,0,0,NA,NA,2.49,NA,"CLR",NA,NA,NA,NA,NA,NA,NA,"BR",NA,NA,NA,NA,NA,NA,NA,"KQEJ 011730Z AUTO 00000KT 4000 BR CLR 09/10 / RMK A02 TSNO"
"110","QEJ",2019-11-01 17:40:00,127.95,38.2,48.2,50,NA,140,1,0,NA,NA,1.99,NA,"CLR",NA,NA,NA,NA,NA,NA,NA,"BR",NA,NA,NA,NA,NA,NA,NA,"KQEJ 011740Z AUTO 14001KT 3200 BR CLR 09/10 / RMK A02 TSNO"
"111","QEJ",2019-11-01 17:50:00,127.95,38.2,48.2,50,NA,50,1,0,NA,NA,2.49,NA,"CLR",NA,NA,NA,NA,NA,NA,NA,"BR",NA,NA,NA,NA,NA,NA,NA,"KQEJ 011750Z AUTO 05001KT 4000 BR CLR 09/10 / RMK A02 TSNO"
"112","QEJ",2019-11-01 18:00:00,127.95,38.2,48.2,50,NA,0,0,0,NA,NA,1.99,NA,"CLR",NA,NA,NA,NA,NA,NA,NA,"BR",NA,NA,NA,NA,NA,NA,NA,"KQEJ 011800Z AUTO 00000KT 3200 BR CLR 09/10 / RMK A02 TSNO"
"113","QEJ",2019-11-01 18:10:00,127.95,38.2,48.2,50,NA,180,1,0,NA,NA,2.49,NA,"CLR",NA,NA,NA,NA,NA,NA,NA,"BR",NA,NA,NA,NA,NA,NA,NA,"KQEJ 011810Z AUTO 18001KT 4000 BR CLR 09/10 / RMK A02 TSNO"
"114","QEJ",2019-11-01 18:20:00,127.95,38.2,48.2,50,NA,100,1,0,NA,NA,2.98,NA,"CLR",NA,NA,NA,NA,NA,NA,NA,NA,NA,NA,NA,NA,NA,NA,NA,"KQEJ 011820Z AUTO 10001KT 4800 CLR 09/10 / RMK A02 TSNO"
"115","QEJ",2019-11-01 18:30:00,127.95,38.2,48.2,50,NA,0,0,0,NA,NA,2.49,NA,"CLR",NA,NA,NA,NA,NA,NA,NA,"BR",NA,NA,NA,NA,NA,NA,NA,"KQEJ 011830Z AUTO 00000KT 4000 BR CLR 09/10 / RMK A02 TSNO"
"116","QEJ",2019-11-01 18:40:00,127.95,38.2,48.2,50,NA,180,1,0,NA,NA,2.49,NA,"CLR",NA,NA,NA,NA,NA,NA,NA,"BR",NA,NA,NA,NA,NA,NA,NA,"KQEJ 011840Z AUTO 18001KT 4000 BR CLR 09/10 / RMK A02 TSNO"
"117","QEJ",2019-11-01 18:50:00,127.95,38.2,48.2,50,NA,180,2,0,NA,NA,2.98,NA,"CLR",NA,NA,NA,NA,NA,NA,NA,"BR",NA,NA,NA,NA,NA,NA,NA,"KQEJ 011850Z AUTO 18002KT 4800 BR CLR 09/10 / RMK A02 TSNO"
"118","QEJ",2019-11-01 19:00:00,127.95,38.2,48.2,50,NA,190,1,0,NA,NA,2.49,NA,"CLR",NA,NA,NA,NA,NA,NA,NA,"BR",NA,NA,NA,NA,NA,NA,NA,"KQEJ 011900Z AUTO 19001KT 4000 BR CLR 09/10 / RMK A02 TSNO"
"119","QEJ",2019-11-01 19:10:00,127.95,38.2,48.2,50,NA,60,1,0,NA,NA,2.49,NA,"CLR",NA,NA,NA,NA,NA,NA,NA,"BR",NA,NA,NA,NA,NA,NA,NA,"KQEJ 011910Z AUTO 06001KT 4000 BR CLR 09/10 / RMK A02 TSNO"
"120","QEJ",2019-11-01 19:20:00,127.95,38.2,48.2,50,NA,70,1,0,NA,NA,1.99,NA,"CLR",NA,NA,NA,NA,NA,NA,NA,"BR",NA,NA,NA,NA,NA,NA,NA,"KQEJ 011920Z AUTO 07001KT 3200 BR CLR 09/10 / RMK A02 TSNO"
"121","QEJ",2019-11-01 19:30:00,127.95,38.2,48.2,50,NA,20,1,0,NA,NA,0.99,NA,"FEW",NA,NA,NA,3300,NA,NA,NA,"BR",NA,NA,NA,NA,NA,NA,NA,"KQEJ 011930Z AUTO 02001KT 1600 BR FEW033 09/10 / RMK A02 TSNO"
"122","QEJ",2019-11-01 19:40:00,127.95,38.2,48.2,50,NA,30,1,0,NA,NA,0.75,NA,"FEW",NA,NA,NA,300,NA,NA,NA,"BR",NA,NA,NA,NA,NA,NA,NA,"KQEJ 011940Z AUTO 03001KT 1200 BR FEW003 09/10 / RMK A02 TSNO"
"123","QEJ",2019-11-01 19:50:00,127.95,38.2,48.2,50,NA,0,0,0,NA,NA,1.49,NA,"FEW",NA,NA,NA,300,NA,NA,NA,"BR",NA,NA,NA,NA,NA,NA,NA,"KQEJ 011950Z AUTO 00000KT 2400 BR FEW003 09/10 / RMK A02 TSNO"
"124","QEJ",2019-11-01 20:00:00,127.95,38.2,48.2,50,NA,0,0,0,NA,NA,0.99,NA,"SCT",NA,NA,NA,100,NA,NA,NA,"BR",NA,NA,NA,NA,NA,NA,NA,"KQEJ 012000Z AUTO 00000KT 1600 BR SCT001 09/10 / RMK A02 TSNO"
"125","QEJ",2019-11-01 20:20:00,127.95,38.2,48.2,50,NA,0,0,0,NA,NA,0.25,NA,"BKN",NA,NA,NA,100,NA,NA,NA,"BCFG",NA,NA,NA,NA,NA,NA,NA,"KQEJ 012020Z AUTO 00000KT 0400 BCFG BKN001 09/10 / RMK A02 TSNO"
"126","QEJ",2019-11-01 20:30:00,127.95,38.2,48.2,50,NA,0,0,0,NA,NA,0.5,NA,"OVC",NA,NA,NA,200,NA,NA,NA,"BCFG",NA,NA,NA,NA,NA,NA,NA,"KQEJ 012030Z AUTO 00000KT 0800 BCFG OVC002 09/10 / RMK A02 TSNO"
"127","QEJ",2019-11-01 20:40:00,127.95,38.2,48.2,50,NA,0,0,0,NA,NA,0.99,NA,"OVC",NA,NA,NA,200,NA,NA,NA,"BR",NA,NA,NA,NA,NA,NA,NA,"KQEJ 012040Z AUTO 00000KT 1600 BR OVC002 09/10 / RMK A02 TSNO"
"128","QEJ",2019-11-01 20:50:00,127.95,38.2,48.2,50,NA,190,1,0,NA,NA,0.75,NA,"OVC",NA,NA,NA,200,NA,NA,NA,"BR",NA,NA,NA,NA,NA,NA,NA,"KQEJ 012050Z AUTO 19001KT 1200 BR OVC002 09/10 / RMK A02 TSNO"
"129","QEJ",2019-11-01 21:00:00,127.95,38.2,48.2,50,NA,190,1,0,NA,NA,0.25,NA,"OVC",NA,NA,NA,200,NA,NA,NA,"FG",NA,NA,NA,NA,NA,NA,NA,"KQEJ 012100Z AUTO 19001KT M0400 FG OVC002 09/10 / RMK A02 TSNO"
"130","QEJ",2019-11-01 21:10:00,127.95,38.2,48.2,50,NA,190,1,0,NA,NA,0.25,NA,"CLR",NA,NA,NA,NA,NA,NA,NA,"FG",NA,NA,NA,NA,NA,NA,NA,"KQEJ 012110Z AUTO 19001KT M0400 FG CLR 09/10 / RMK A02 TSNO"
"131","QEJ",2019-11-01 21:20:00,127.95,38.2,48.2,50,NA,0,0,0,NA,NA,0.25,NA,"CLR",NA,NA,NA,NA,NA,NA,NA,"FG",NA,NA,NA,NA,NA,NA,NA,"KQEJ 012120Z AUTO 00000KT M0400 FG CLR 09/10 / RMK A02 TSNO"
"132","QEJ",2019-11-01 21:30:00,127.95,38.2,48.2,50,NA,0,0,0,NA,NA,0.25,NA,"CLR",NA,NA,NA,NA,NA,NA,NA,"FG",NA,NA,NA,NA,NA,NA,NA,"KQEJ 012130Z AUTO 00000KT M0400 FG CLR 09/10 / RMK A02 TSNO"
"133","QEJ",2019-11-01 21:40:00,127.95,38.2,48.2,50,NA,350,1,0,NA,NA,0.25,NA,"CLR",NA,NA,NA,NA,NA,NA,NA,"FG",NA,NA,NA,NA,NA,NA,NA,"KQEJ 012140Z AUTO 35001KT M0400 FG CLR 09/10 / RMK A02 TSNO"
"134","QEJ",2019-11-01 21:50:00,127.95,38.2,48.2,50,NA,80,1,0,NA,NA,0.25,NA,"CLR",NA,NA,NA,NA,NA,NA,NA,"FG",NA,NA,NA,NA,NA,NA,NA,"KQEJ 012150Z AUTO 08001KT M0400 FG CLR 09/10 / RMK A02 TSNO"
"135","QEJ",2019-11-01 22:00:00,127.95,38.2,48.2,50,NA,90,1,0,NA,NA,0.25,NA,"CLR",NA,NA,NA,NA,NA,NA,NA,"FG",NA,NA,NA,NA,NA,NA,NA,"KQEJ 012200Z AUTO 09001KT M0400 FG CLR 09/10 / RMK A02 TSNO"
"136","QEJ",2019-11-01 22:10:00,127.95,38.2,48.2,50,NA,90,1,0,NA,NA,0.25,NA,"CLR",NA,NA,NA,NA,NA,NA,NA,"FG",NA,NA,NA,NA,NA,NA,NA,"KQEJ 012210Z AUTO 09001KT M0400 FG CLR 09/10 / RMK A02 TSNO"
"137","QEJ",2019-11-01 22:20:00,127.95,38.2,48.2,50,NA,40,1,0,NA,NA,0.25,NA,"CLR",NA,NA,NA,NA,NA,NA,NA,"FG",NA,NA,NA,NA,NA,NA,NA,"KQEJ 012220Z AUTO 04001KT M0400 FG CLR 09/10 / RMK A02 TSNO"
"138","QEJ",2019-11-01 22:30:00,127.95,38.2,48.2,50,NA,360,1,0,NA,NA,0.25,NA,"CLR",NA,NA,NA,NA,NA,NA,NA,"FG",NA,NA,NA,NA,NA,NA,NA,"KQEJ 012230Z AUTO 36001KT M0400 FG CLR 09/10 / RMK A02 TSNO"
"139","QEJ",2019-11-01 22:40:00,127.95,38.2,48.2,50,NA,30,1,0,NA,NA,0.25,NA,"CLR",NA,NA,NA,NA,NA,NA,NA,"FG",NA,NA,NA,NA,NA,NA,NA,"KQEJ 012240Z AUTO 03001KT M0400 FG CLR 09/10 / RMK A02 TSNO"
"140","QEJ",2019-11-01 22:50:00,127.95,38.2,48.2,50,NA,10,1,0,NA,NA,0.25,NA,"CLR",NA,NA,NA,NA,NA,NA,NA,"FG",NA,NA,NA,NA,NA,NA,NA,"KQEJ 012250Z AUTO 01001KT M0400 FG CLR 09/10 / RMK A02 TSNO"
"141","QEJ",2019-11-01 23:00:00,127.95,38.2,48.2,50,NA,30,1,0,NA,NA,0.25,NA,"CLR",NA,NA,NA,NA,NA,NA,NA,"FG",NA,NA,NA,NA,NA,NA,NA,"KQEJ 012300Z AUTO 03001KT M0400 FG CLR 09/10 / RMK A02 TSNO"
"142","QEJ",2019-11-01 23:10:00,127.95,38.2,48.2,50,NA,30,1,0,NA,NA,0.25,NA,"CLR",NA,NA,NA,NA,NA,NA,NA,"FG",NA,NA,NA,NA,NA,NA,NA,"KQEJ 012310Z AUTO 03001KT M0400 FG CLR 09/10 / RMK A02 TSNO"
"143","QEJ",2019-11-01 23:20:00,127.95,38.2,48.2,50,NA,10,1,0,NA,NA,0.25,NA,"CLR",NA,NA,NA,NA,NA,NA,NA,"FG",NA,NA,NA,NA,NA,NA,NA,"KQEJ 012320Z AUTO 01001KT M0400 FG CLR 09/10 / RMK A02 TSNO"
"144","QEJ",2019-11-01 23:30:00,127.95,38.2,48.2,50,NA,110,1,0,NA,NA,0.25,NA,"CLR",NA,NA,NA,NA,NA,NA,NA,"FG",NA,NA,NA,NA,NA,NA,NA,"KQEJ 012330Z AUTO 11001KT M0400 FG CLR 09/10 / RMK A02 TSNO"
"145","QEJ",2019-11-01 23:40:00,127.95,38.2,48.2,50,NA,190,1,0,NA,NA,0.25,NA,"CLR",NA,NA,NA,NA,NA,NA,NA,"FG",NA,NA,NA,NA,NA,NA,NA,"KQEJ 012340Z AUTO 19001KT M0400 FG CLR 09/10 / RMK A02 TSNO"
"146","RKPK",2019-11-01 00:00:00,128.9382,35.1795,57.2,48.2,71.83,320,1,0,30.18,NA,6.21,NA,NA,NA,NA,NA,NA,NA,NA,NA,NA,NA,NA,NA,NA,NA,NA,NA,"RKPK 010000Z 32001KT CAVOK 14/09 Q1022"
"147","RKPK",2019-11-01 01:00:00,128.9382,35.1795,62.6,46.4,55.37,310,6,0,30.18,NA,6.21,NA,NA,NA,NA,NA,NA,NA,NA,NA,NA,NA,NA,NA,NA,NA,NA,NA,"RKPK 010100Z 31006KT CAVOK 17/08 Q1022"
"148","RKPK",2019-11-01 02:00:00,128.9382,35.1795,66.2,46.4,48.83,320,8,0,30.15,NA,5.59,NA,"NSC",NA,NA,NA,NA,NA,NA,NA,NA,NA,NA,NA,NA,NA,NA,NA,"RKPK 010200Z 32008KT 9000 NSC 19/08 Q1021"
"149","RKPK",2019-11-01 03:00:00,128.9382,35.1795,69.8,46.4,43.13,290,9,0,30.12,NA,5.59,NA,"NSC",NA,NA,NA,NA,NA,NA,NA,NA,NA,NA,NA,NA,NA,NA,NA,"RKPK 010300Z 29009KT 9000 NSC 21/08 Q1020"
"150","RKPK",2019-11-01 04:00:00,128.9382,35.1795,71.6,42.8,35.37,310,8,0,30.12,NA,5.59,NA,"NSC",NA,NA,NA,NA,NA,NA,NA,NA,NA,NA,NA,NA,NA,NA,NA,"RKPK 010400Z 31008KT 9000 NSC 22/06 Q1020"
"151","RKPK",2019-11-01 05:00:00,128.9382,35.1795,73.4,42.8,33.29,300,8,0,30.09,NA,5.59,NA,"NSC",NA,NA,NA,NA,NA,NA,NA,NA,NA,NA,NA,NA,NA,NA,NA,"RKPK 010500Z 30008KT 9000 NSC 23/06 Q1019"
"152","RKPK",2019-11-01 06:00:00,128.9382,35.1795,73.4,41,31.05,270,5,0,30.09,NA,5.59,NA,"NSC",NA,NA,NA,NA,NA,NA,NA,NA,NA,NA,NA,NA,NA,NA,NA,"RKPK 010600Z 27005KT 9000 NSC 23/05 Q1019"
"153","RKPK",2019-11-01 07:00:00,128.9382,35.1795,71.6,48.2,43.42,170,7,0,30.09,NA,5.59,NA,"NSC",NA,NA,NA,NA,NA,NA,NA,NA,NA,NA,NA,NA,NA,NA,NA,"RKPK 010700Z 17007KT 9000 NSC 22/09 Q1019"
"154","RKPK",2019-11-01 08:00:00,128.9382,35.1795,68,46.4,45.88,100,9,0,30.12,NA,5.59,NA,"NSC",NA,NA,NA,NA,NA,NA,NA,NA,NA,NA,NA,NA,NA,NA,NA,"RKPK 010800Z 10009KT 9000 NSC 20/08 Q1020"
"155","RKPK",2019-11-01 09:00:00,128.9382,35.1795,66.2,48.2,52.25,60,8,0,30.12,NA,5.59,NA,"NSC",NA,NA,NA,NA,NA,NA,NA,NA,NA,NA,NA,NA,NA,NA,NA,"RKPK 010900Z 06008KT 9000 NSC 19/09 Q1020"
"156","RKPK",2019-11-01 10:00:00,128.9382,35.1795,64.4,48.2,55.63,40,7,0,30.15,NA,5.59,NA,"NSC",NA,NA,NA,NA,NA,NA,NA,NA,NA,NA,NA,NA,NA,NA,NA,"RKPK 011000Z 04007KT 9000 NSC 18/09 Q1021"
"157","RKPK",2019-11-01 11:00:00,128.9382,35.1795,64.4,48.2,55.63,20,8,0,30.18,NA,5.59,NA,"NSC",NA,NA,NA,NA,NA,NA,NA,NA,NA,NA,NA,NA,NA,NA,NA,"RKPK 011100Z 02008KT 9000 NSC 18/09 Q1022"
"158","RKPK",2019-11-01 12:00:00,128.9382,35.1795,62.6,48.2,59.26,10,8,0,30.18,NA,5.59,NA,"NSC",NA,NA,NA,NA,NA,NA,NA,NA,NA,NA,NA,NA,NA,NA,NA,"RKPK 011200Z 01008KT 9000 NSC 17/09 Q1022"
"159","RKPK",2019-11-01 13:00:00,128.9382,35.1795,60.8,48.2,63.15,360,7,0,30.18,NA,5.59,NA,"NSC",NA,NA,NA,NA,NA,NA,NA,NA,NA,NA,NA,NA,NA,NA,NA,"RKPK 011300Z 36007KT 9000 NSC 16/09 Q1022"
"160","RKPK",2019-11-01 14:00:00,128.9382,35.1795,55.4,48.2,76.66,340,3,0,30.18,NA,5.59,NA,"NSC",NA,NA,NA,NA,NA,NA,NA,NA,NA,NA,NA,NA,NA,NA,NA,"RKPK 011400Z 34003KT 9000 NSC 13/09 Q1022"
"161","RKPK",2019-11-01 15:00:00,128.9382,35.1795,55.4,48.2,76.66,330,5,0,30.18,NA,5.59,NA,"NSC",NA,NA,NA,NA,NA,NA,NA,NA,NA,NA,NA,NA,NA,NA,NA,"RKPK 011500Z 33005KT 9000 NSC 13/09 Q1022"
"162","RKPK",2019-11-01 16:00:00,128.9382,35.1795,53.6,48.2,81.87,360,4,0,30.18,NA,5.59,NA,"NSC",NA,NA,NA,NA,NA,NA,NA,NA,NA,NA,NA,NA,NA,NA,NA,"RKPK 011600Z 36004KT 9000 NSC 12/09 Q1022"
"163","RKPK",2019-11-01 17:00:00,128.9382,35.1795,51.8,48.2,87.47,360,5,0,30.18,NA,5.59,NA,"NSC",NA,NA,NA,NA,NA,NA,NA,NA,NA,NA,NA,NA,NA,NA,NA,"RKPK 011700Z 36005KT 9000 NSC 11/09 Q1022"
"164","RKPK",2019-11-01 18:00:00,128.9382,35.1795,53.6,48.2,81.87,330,3,0,30.18,NA,5.59,NA,"NSC",NA,NA,NA,NA,NA,NA,NA,NA,NA,NA,NA,NA,NA,NA,NA,"RKPK 011800Z 33003KT 9000 NSC 12/09 Q1022"
"165","RKPK",2019-11-01 19:00:00,128.9382,35.1795,51.8,46.4,81.74,360,2,0,30.15,NA,5.59,NA,"NSC",NA,NA,NA,NA,NA,NA,NA,NA,NA,NA,NA,NA,NA,NA,NA,"RKPK 011900Z 36002KT 9000 NSC 11/08 Q1021"
"166","RKPK",2019-11-01 20:00:00,128.9382,35.1795,51.8,48.2,87.47,360,4,0,30.18,NA,5.59,NA,"NSC",NA,NA,NA,NA,NA,NA,NA,NA,NA,NA,NA,NA,NA,NA,NA,"RKPK 012000Z 36004KT 9000 NSC 11/09 Q1022"
"167","RKPK",2019-11-01 21:00:00,128.9382,35.1795,51.8,46.4,81.74,330,5,0,30.18,NA,5.59,NA,"NSC",NA,NA,NA,NA,NA,NA,NA,NA,NA,NA,NA,NA,NA,NA,NA,"RKPK 012100Z 33005KT 9000 NSC 11/08 Q1022"
"168","RKPK",2019-11-01 22:00:00,128.9382,35.1795,51.8,48.2,87.47,360,4,0,30.18,NA,5.59,NA,"NSC",NA,NA,NA,NA,NA,NA,NA,NA,NA,NA,NA,NA,NA,NA,NA,"RKPK 012200Z 36004KT 9000 NSC 11/09 Q1022"
"169","RKPK",2019-11-01 23:00:00,128.9382,35.1795,55.4,50,81.99,350,2,0,30.18,NA,6.21,NA,NA,NA,NA,NA,NA,NA,NA,NA,NA,NA,NA,NA,NA,NA,NA,NA,"RKPK 012300Z 35002KT CAVOK 13/10 Q1022"
"170","RKSI",2019-11-01 00:00:00,126.45,37.4667,59,37.4,44.47,340,11,0,30.21,NA,6.21,NA,NA,NA,NA,NA,NA,NA,NA,NA,NA,NA,NA,NA,NA,NA,NA,NA,"RKSI 010000Z 34011KT CAVOK 15/03 Q1023 NOSIG"
"171","RKSI",2019-11-01 00:30:00,126.45,37.4667,60.8,30.2,31.28,340,9,0,30.21,NA,6.21,NA,NA,NA,NA,NA,NA,NA,NA,NA,NA,NA,NA,NA,NA,NA,NA,NA,"RKSI 010030Z 34009KT CAVOK 16/M01 Q1023 NOSIG"
"172","RKSI",2019-11-01 01:00:00,126.45,37.4667,60.8,26.6,26.98,350,10,0,30.21,NA,6.21,NA,NA,NA,NA,NA,NA,NA,NA,NA,NA,NA,NA,NA,NA,NA,NA,NA,"RKSI 010100Z 35010KT CAVOK 16/M03 Q1023 NOSIG"
"173","RKSI",2019-11-01 01:30:00,126.45,37.4667,60.8,28.4,29.06,330,9,0,30.21,NA,6.21,NA,NA,NA,NA,NA,NA,NA,NA,NA,NA,NA,NA,NA,NA,NA,NA,NA,"RKSI 010130Z 33009KT CAVOK 16/M02 Q1023 NOSIG"
"174","RKSI",2019-11-01 02:00:00,126.45,37.4667,62.6,28.4,27.27,340,9,0,30.21,NA,6.21,NA,NA,NA,NA,NA,NA,NA,NA,NA,NA,NA,NA,NA,NA,NA,NA,NA,"RKSI 010200Z 34009KT 300V360 CAVOK 17/M02 Q1023 NOSIG"
"175","RKSI",2019-11-01 02:30:00,126.45,37.4667,62.6,28.4,27.27,330,9,0,30.21,NA,6.21,NA,NA,NA,NA,NA,NA,NA,NA,NA,NA,NA,NA,NA,NA,NA,NA,NA,"RKSI 010230Z 33009KT CAVOK 17/M02 Q1023 NOSIG"
"176","RKSI",2019-11-01 03:00:00,126.45,37.4667,62.6,26.6,25.32,330,10,0,30.18,NA,6.21,NA,NA,NA,NA,NA,NA,NA,NA,NA,NA,NA,NA,NA,NA,NA,NA,NA,"RKSI 010300Z 33010KT CAVOK 17/M03 Q1022 NOSIG"
"177","RKSI",2019-11-01 03:30:00,126.45,37.4667,64.4,28.4,25.6,320,10,0,30.18,NA,6.21,NA,NA,NA,NA,NA,NA,NA,NA,NA,NA,NA,NA,NA,NA,NA,NA,NA,"RKSI 010330Z 32010KT CAVOK 18/M02 Q1022 NOSIG"
"178","RKSI",2019-11-01 04:00:00,126.45,37.4667,62.6,28.4,27.27,320,8,0,30.15,NA,6.21,NA,NA,NA,NA,NA,NA,NA,NA,NA,NA,NA,NA,NA,NA,NA,NA,NA,"RKSI 010400Z 32008KT CAVOK 17/M02 Q1021 NOSIG"
"179","RKSI",2019-11-01 04:30:00,126.45,37.4667,64.4,30.2,27.55,310,7,0,30.15,NA,6.21,NA,NA,NA,NA,NA,NA,NA,NA,NA,NA,NA,NA,NA,NA,NA,NA,NA,"RKSI 010430Z 31007KT 290V360 CAVOK 18/M01 Q1021 NOSIG"
"180","RKSI",2019-11-01 05:00:00,126.45,37.4667,64.4,30.2,27.55,310,6,0,30.15,NA,6.21,NA,NA,NA,NA,NA,NA,NA,NA,NA,NA,NA,NA,NA,NA,NA,NA,NA,"RKSI 010500Z 31006KT 260V340 CAVOK 18/M01 Q1021 NOSIG"
"181","RKSI",2019-11-01 05:30:00,126.45,37.4667,64.4,30.2,27.55,310,6,0,30.15,NA,6.21,NA,NA,NA,NA,NA,NA,NA,NA,NA,NA,NA,NA,NA,NA,NA,NA,NA,"RKSI 010530Z 31006KT CAVOK 18/M01 Q1021 NOSIG"
"182","RKSI",2019-11-01 06:00:00,126.45,37.4667,64.4,30.2,27.55,320,6,0,30.15,NA,6.21,NA,NA,NA,NA,NA,NA,NA,NA,NA,NA,NA,NA,NA,NA,NA,NA,NA,"RKSI 010600Z 32006KT 290V360 CAVOK 18/M01 Q1021 NOSIG"
"183","RKSI",2019-11-01 06:30:00,126.45,37.4667,64.4,28.4,25.6,320,5,0,30.15,NA,6.21,NA,NA,NA,NA,NA,NA,NA,NA,NA,NA,NA,NA,NA,NA,NA,NA,NA,"RKSI 010630Z 32005KT 270V020 CAVOK 18/M02 Q1021 NOSIG"
"184","RKSI",2019-11-01 07:00:00,126.45,37.4667,64.4,30.2,27.55,300,5,0,30.15,NA,6.21,NA,NA,NA,NA,NA,NA,NA,NA,NA,NA,NA,NA,NA,NA,NA,NA,NA,"RKSI 010700Z 30005KT 260V330 CAVOK 18/M01 Q1021 NOSIG"
"185","RKSI",2019-11-01 07:30:00,126.45,37.4667,62.6,32,31.56,290,6,0,30.15,NA,6.21,NA,NA,NA,NA,NA,NA,NA,NA,NA,NA,NA,NA,NA,NA,NA,NA,NA,"RKSI 010730Z 29006KT CAVOK 17/M00 Q1021 NOSIG"
"186","RKSI",2019-11-01 08:00:00,126.45,37.4667,62.6,32,31.56,250,7,0,30.15,NA,6.21,NA,NA,NA,NA,NA,NA,NA,NA,NA,NA,NA,NA,NA,NA,NA,NA,NA,"RKSI 010800Z 25007KT 240V330 CAVOK 17/00 Q1021 NOSIG"
"187","RKSI",2019-11-01 08:30:00,126.45,37.4667,60.8,33.8,36.16,240,5,0,30.15,NA,6.21,NA,NA,NA,NA,NA,NA,NA,NA,NA,NA,NA,NA,NA,NA,NA,NA,NA,"RKSI 010830Z 24005KT CAVOK 16/01 Q1021 NOSIG"
"188","RKSI",2019-11-01 09:00:00,126.45,37.4667,60.8,33.8,36.16,260,3,0,30.15,NA,6.21,NA,NA,NA,NA,NA,NA,NA,NA,NA,NA,NA,NA,NA,NA,NA,NA,NA,"RKSI 010900Z 26003KT CAVOK 16/01 Q1021 NOSIG"
"189","RKSI",2019-11-01 09:30:00,126.45,37.4667,60.8,35.6,38.85,300,3,0,30.15,NA,6.21,NA,NA,NA,NA,NA,NA,NA,NA,NA,NA,NA,NA,NA,NA,NA,NA,NA,"RKSI 010930Z 30003KT CAVOK 16/02 Q1021 NOSIG"
"190","RKSI",2019-11-01 10:00:00,126.45,37.4667,60.8,37.4,41.71,240,1,0,30.15,NA,6.21,NA,NA,NA,NA,NA,NA,NA,NA,NA,NA,NA,NA,NA,NA,NA,NA,NA,"RKSI 011000Z 24001KT CAVOK 16/03 Q1021 NOSIG"
"191","RKSI",2019-11-01 10:30:00,126.45,37.4667,57.2,37.4,47.44,310,3,0,30.15,NA,6.21,NA,NA,NA,NA,NA,NA,NA,NA,NA,NA,NA,NA,NA,NA,NA,NA,NA,"RKSI 011030Z 31003KT 280V050 CAVOK 14/03 Q1021 NOSIG"
"192","RKSI",2019-11-01 11:00:00,126.45,37.4667,55.4,37.4,50.64,100,2,0,30.15,NA,6.21,NA,NA,NA,NA,NA,NA,NA,NA,NA,NA,NA,NA,NA,NA,NA,NA,NA,"RKSI 011100Z 10002KT CAVOK 13/03 Q1021 NOSIG"
"193","RKSI",2019-11-01 11:30:00,126.45,37.4667,57.2,39.2,50.91,290,1,0,30.15,NA,6.21,NA,NA,NA,NA,NA,NA,NA,NA,NA,NA,NA,NA,NA,NA,NA,NA,NA,"RKSI 011130Z 29001KT CAVOK 14/04 Q1021 NOSIG"
"194","RKSI",2019-11-01 12:00:00,126.45,37.4667,57.2,39.2,50.91,240,1,0,30.18,NA,6.21,NA,NA,NA,NA,NA,NA,NA,NA,NA,NA,NA,NA,NA,NA,NA,NA,NA,"RKSI 011200Z 24001KT CAVOK 14/04 Q1022 NOSIG"
"195","RKSI",2019-11-01 12:30:00,126.45,37.4667,53.6,41,62.23,260,1,0,30.18,NA,6.21,NA,NA,NA,NA,NA,NA,NA,NA,NA,NA,NA,NA,NA,NA,NA,NA,NA,"RKSI 011230Z 26001KT CAVOK 12/05 Q1022 NOSIG"
"196","RKSI",2019-11-01 13:00:00,126.45,37.4667,55.4,41,58.27,60,2,0,30.18,NA,6.21,NA,NA,NA,NA,NA,NA,NA,NA,NA,NA,NA,NA,NA,NA,NA,NA,NA,"RKSI 011300Z 06002KT CAVOK 13/05 Q1022 NOSIG"
"197","RKSI",2019-11-01 13:30:00,126.45,37.4667,53.6,41,62.23,60,2,0,30.18,NA,6.21,NA,NA,NA,NA,NA,NA,NA,NA,NA,NA,NA,NA,NA,NA,NA,NA,NA,"RKSI 011330Z 06002KT CAVOK 12/05 Q1022 NOSIG"
"198","RKSI",2019-11-01 14:00:00,126.45,37.4667,53.6,41,62.23,60,4,0,30.18,NA,6.21,NA,NA,NA,NA,NA,NA,NA,NA,NA,NA,NA,NA,NA,NA,NA,NA,NA,"RKSI 011400Z 06004KT CAVOK 12/05 Q1022 NOSIG"
"199","RKSI",2019-11-01 14:30:00,126.45,37.4667,53.6,41,62.23,60,4,0,30.18,NA,6.21,NA,NA,NA,NA,NA,NA,NA,NA,NA,NA,NA,NA,NA,NA,NA,NA,NA,"RKSI 011430Z 06004KT CAVOK 12/05 Q1022 NOSIG"
"200","RKSI",2019-11-01 15:00:00,126.45,37.4667,53.6,42.8,66.7,70,4,0,30.15,NA,6.21,NA,NA,NA,NA,NA,NA,NA,NA,NA,NA,NA,NA,NA,NA,NA,NA,NA,"RKSI 011500Z 07004KT CAVOK 12/06 Q1021 NOSIG"
"201","RKSI",2019-11-01 15:30:00,126.45,37.4667,53.6,32,43.61,60,5,0,30.15,NA,6.21,NA,NA,NA,NA,NA,NA,NA,NA,NA,NA,NA,NA,NA,NA,NA,NA,NA,"RKSI 011530Z 06005KT CAVOK 12/00 Q1021 NOSIG"
"202","RKSI",2019-11-01 16:00:00,126.45,37.4667,53.6,32,43.61,60,6,0,30.15,NA,6.21,NA,NA,NA,NA,NA,NA,NA,NA,NA,NA,NA,NA,NA,NA,NA,NA,NA,"RKSI 011600Z 06006KT CAVOK 12/00 Q1021 NOSIG"
"203","RKSI",2019-11-01 16:30:00,126.45,37.4667,51.8,32,46.59,60,6,0,30.15,NA,6.21,NA,NA,NA,NA,NA,NA,NA,NA,NA,NA,NA,NA,NA,NA,NA,NA,NA,"RKSI 011630Z 06006KT CAVOK 11/M00 Q1021 NOSIG"
"204","RKSI",2019-11-01 17:00:00,126.45,37.4667,50,33.8,53.54,100,2,0,30.18,NA,6.21,NA,NA,NA,NA,NA,NA,NA,NA,NA,NA,NA,NA,NA,NA,NA,NA,NA,"RKSI 011700Z 10002KT CAVOK 10/01 Q1022 NOSIG"
"205","RKSI",2019-11-01 17:30:00,126.45,37.4667,50,32,49.81,50,2,0,30.18,NA,6.21,NA,NA,NA,NA,NA,NA,NA,NA,NA,NA,NA,NA,NA,NA,NA,NA,NA,"RKSI 011730Z 05002KT CAVOK 10/00 Q1022 NOSIG"
"206","RKSI",2019-11-01 18:00:00,126.45,37.4667,50,37.4,61.76,60,5,0,30.18,NA,6.21,NA,NA,NA,NA,NA,NA,NA,NA,NA,NA,NA,NA,NA,NA,NA,NA,47.77,"RKSI 011800Z 06005KT CAVOK 10/03 Q1022 NOSIG"
"207","RKSI",2019-11-01 18:30:00,126.45,37.4667,48.2,35.6,61.52,60,5,0,30.15,NA,6.21,NA,NA,NA,NA,NA,NA,NA,NA,NA,NA,NA,NA,NA,NA,NA,NA,45.63,"RKSI 011830Z 06005KT CAVOK 09/02 Q1021 NOSIG"
"208","RKSI",2019-11-01 19:00:00,126.45,37.4667,48.2,41,76.01,50,5,0,30.15,NA,6.21,NA,NA,NA,NA,NA,NA,NA,NA,NA,NA,NA,NA,NA,NA,NA,NA,45.63,"RKSI 011900Z 05005KT CAVOK 09/05 Q1021 NOSIG"
"209","RKSI",2019-11-01 19:30:00,126.45,37.4667,46.4,39.2,75.84,60,6,0,30.15,NA,6.21,NA,NA,NA,NA,NA,NA,NA,NA,NA,NA,NA,NA,NA,NA,NA,NA,42.87,"RKSI 011930Z 06006KT CAVOK 08/04 Q1021 NOSIG"
"210","RKSI",2019-11-01 20:00:00,126.45,37.4667,48.2,39.2,70.88,60,5,0,30.15,NA,6.21,NA,NA,NA,NA,NA,NA,NA,NA,NA,NA,NA,NA,NA,NA,NA,NA,45.63,"RKSI 012000Z 06005KT CAVOK 09/04 Q1021 NOSIG"
"211","RKSI",2019-11-01 20:30:00,126.45,37.4667,48.2,41,76.01,40,5,0,30.15,NA,6.21,NA,NA,NA,NA,NA,NA,NA,NA,NA,NA,NA,NA,NA,NA,NA,NA,45.63,"RKSI 012030Z 04005KT CAVOK 09/05 Q1021 NOSIG"
"212","RKSI",2019-11-01 21:00:00,126.45,37.4667,48.2,41,76.01,60,5,0,30.15,NA,6.21,NA,NA,NA,NA,NA,NA,NA,NA,NA,NA,NA,NA,NA,NA,NA,NA,45.63,"RKSI 012100Z 06005KT CAVOK 09/05 Q1021 NOSIG"
"213","RKSI",2019-11-01 21:30:00,126.45,37.4667,46.4,41,81.34,50,5,0,30.15,NA,6.21,NA,NA,NA,NA,NA,NA,NA,NA,NA,NA,NA,NA,NA,NA,NA,NA,43.5,"RKSI 012130Z 05005KT CAVOK 08/05 Q1021 NOSIG"
"214","RKSI",2019-11-01 22:00:00,126.45,37.4667,48.2,42.8,81.47,50,5,0,30.15,NA,6.21,NA,NA,NA,NA,NA,NA,NA,NA,NA,NA,NA,NA,NA,NA,NA,NA,45.63,"RKSI 012200Z 05005KT CAVOK 09/06 Q1021 NOSIG"
"215","RKSI",2019-11-01 22:30:00,126.45,37.4667,48.2,42.8,81.47,50,5,0,30.15,NA,6.21,NA,NA,NA,NA,NA,NA,NA,NA,NA,NA,NA,NA,NA,NA,NA,NA,45.63,"RKSI 012230Z 05005KT CAVOK 09/06 Q1021 NOSIG"
"216","RKSI",2019-11-01 23:00:00,126.45,37.4667,50,44.6,81.61,50,6,0,30.18,NA,6.21,NA,NA,NA,NA,NA,NA,NA,NA,NA,NA,NA,NA,NA,NA,NA,NA,47.21,"RKSI 012300Z 05006KT CAVOK 10/07 Q1022 NOSIG"
"217","RKSI",2019-11-01 23:30:00,126.45,37.4667,51.8,44.6,76.34,60,5,0,30.18,NA,6.21,NA,NA,NA,NA,NA,NA,NA,NA,NA,NA,NA,NA,NA,NA,NA,NA,NA,"RKSI 012330Z 06005KT CAVOK 11/07 Q1022 NOSIG"
"218","QFB",2019-11-01 00:00:00,128.7167,35.65,42.8,42.8,100,330,2,0,30.26,NA,0.25,NA,"CLR",NA,NA,NA,NA,NA,NA,NA,"FG",NA,NA,NA,NA,NA,NA,NA,"KQFB 010000Z AUTO 33002KT M0400 FG CLR 06/06 A3026 RMK A02 TSNO"
"219","QFB",2019-11-01 00:10:00,128.7167,35.65,44.6,42.8,93.35,290,2,0,30.26,NA,0.25,NA,"CLR",NA,NA,NA,NA,NA,NA,NA,"FG",NA,NA,NA,NA,NA,NA,NA,"KQFB 010010Z AUTO 29002KT 0400 FG CLR 07/06 A3026 RMK A02 TSNO"
"220","QFB",2019-11-01 00:20:00,128.7167,35.65,44.6,44.6,100,300,2,0,30.26,NA,0.75,NA,"BKN",NA,NA,NA,100,NA,NA,NA,"BR",NA,NA,NA,NA,NA,NA,NA,"KQFB 010020Z AUTO 30002KT 1200 BR BKN001 07/07 A3026 RMK A02 TSNO"
"221","QFB",2019-11-01 00:30:00,128.7167,35.65,44.6,44.6,100,290,2,0,30.25,NA,0.99,NA,"BKN",NA,NA,NA,100,NA,NA,NA,"BR",NA,NA,NA,NA,NA,NA,NA,"KQFB 010030Z AUTO 29002KT 1600 BR BKN001 07/07 A3025 RMK A02 TSNO"
"222","QFB",2019-11-01 00:40:00,128.7167,35.65,46.4,46.4,100,280,3,0,30.25,NA,2.49,NA,"BKN",NA,NA,NA,100,NA,NA,NA,"BR",NA,NA,NA,NA,NA,NA,45.15,"KQFB 010040Z AUTO 28003KT 4000 BR BKN001 08/08 A3025 RMK A02 TSNO"
"223","QFB",2019-11-01 00:50:00,128.7167,35.65,46.4,46.4,100,340,2,0,30.25,NA,2.98,NA,"SCT","BKN",NA,NA,100,2200,NA,NA,NA,NA,NA,NA,NA,NA,NA,NA,"KQFB 010050Z AUTO 34002KT 4800 SCT001 BKN022 08/08 A3025 RMK A02 TSNO"
"224","QFB",2019-11-01 01:00:00,128.7167,35.65,48.2,48.2,100,290,3,0,30.24,NA,3.73,NA,"FEW","SCT",NA,NA,100,2400,NA,NA,NA,NA,NA,NA,NA,NA,NA,47.21,"KQFB 010100Z AUTO 29003KT 6000 FEW001 SCT024 09/09 A3024 RMK A02 TSNO"
"225","QFB",2019-11-01 01:10:00,128.7167,35.65,50,48.2,93.5,330,3,0,30.24,NA,3.73,NA,"FEW","FEW",NA,NA,500,2900,NA,NA,NA,NA,NA,NA,NA,NA,NA,49.27,"KQFB 010110Z AUTO 33003KT 6000 FEW005 FEW029 10/09 A3024 RMK A02 TSNO"
"226","QFB",2019-11-01 01:20:00,128.7167,35.65,51.8,48.2,87.47,310,2,0,30.24,NA,5.59,NA,"FEW",NA,NA,NA,2900,NA,NA,NA,NA,NA,NA,NA,NA,NA,NA,NA,"KQFB 010120Z AUTO 31002KT 9000 FEW029 11/09 A3024 RMK A02 TSNO"
"227","QFB",2019-11-01 01:30:00,128.7167,35.65,53.6,48.2,81.87,290,4,0,30.24,NA,6.21,NA,"FEW",NA,NA,NA,2900,NA,NA,NA,NA,NA,NA,NA,NA,NA,NA,NA,"KQFB 010130Z AUTO 29004KT 9999 FEW029 12/09 A3024 RMK A02 TSNO"
"228","QFB",2019-11-01 01:40:00,128.7167,35.65,55.4,48.2,76.66,280,3,0,30.23,NA,6.21,NA,"CLR",NA,NA,NA,NA,NA,NA,NA,NA,NA,NA,NA,NA,NA,NA,NA,"KQFB 010140Z AUTO 28003KT 9999 CLR 13/09 A3023 RMK A02 TSNO"
"229","QFB",2019-11-01 01:50:00,128.7167,35.65,57.2,48.2,71.83,270,2,0,30.23,NA,6.21,NA,"CLR",NA,NA,NA,NA,NA,NA,NA,NA,NA,NA,NA,NA,NA,NA,NA,"KQFB 010150Z AUTO 27002KT 9999 CLR 14/09 A3023 RMK A02 TSNO"
"230","QFB",2019-11-01 02:00:00,128.7167,35.65,59,48.2,67.33,290,2,0,30.23,NA,6.21,NA,"CLR",NA,NA,NA,NA,NA,NA,NA,NA,NA,NA,NA,NA,NA,NA,NA,"KQFB 010200Z AUTO 29002KT 9999 CLR 15/09 A3023 RMK A02 TSNO"
"231","QFB",2019-11-01 02:10:00,128.7167,35.65,60.8,50,67.54,290,2,0,30.22,NA,6.21,NA,"CLR",NA,NA,NA,NA,NA,NA,NA,NA,NA,NA,NA,NA,NA,NA,NA,"KQFB 010210Z AUTO 29002KT 9999 CLR 16/10 A3022 RMK A02 TSNO"
"232","QFB",2019-11-01 02:20:00,128.7167,35.65,60.8,50,67.54,280,3,0,30.22,NA,6.21,NA,"CLR",NA,NA,NA,NA,NA,NA,NA,NA,NA,NA,NA,NA,NA,NA,NA,"KQFB 010220Z AUTO 28003KT 9999 CLR 16/10 A3022 RMK A02 TSNO"
"233","QFB",2019-11-01 02:30:00,128.7167,35.65,64.4,50,59.5,320,2,0,30.22,NA,6.21,NA,"CLR",NA,NA,NA,NA,NA,NA,NA,NA,NA,NA,NA,NA,NA,NA,NA,"KQFB 010230Z AUTO 32002KT 9999 CLR 18/10 A3022 RMK A02 TSNO"
"234","QFB",2019-11-01 02:40:00,128.7167,35.65,64.4,50,59.5,350,2,0,30.22,NA,6.21,NA,"CLR",NA,NA,NA,NA,NA,NA,NA,NA,NA,NA,NA,NA,NA,NA,NA,"KQFB 010240Z AUTO 35002KT 9999 CLR 18/10 A3022 RMK A02 TSNO"
"235","QFB",2019-11-01 02:50:00,128.7167,35.65,66.2,48.2,52.25,290,4,0,30.21,NA,6.21,NA,"CLR",NA,NA,NA,NA,NA,NA,NA,NA,NA,NA,NA,NA,NA,NA,NA,"KQFB 010250Z AUTO 29004KT 9999 CLR 19/09 A3021 RMK A02 TSNO"
"236","QFB",2019-11-01 03:00:00,128.7167,35.65,68,50,52.51,360,3,0,30.2,NA,6.21,NA,"CLR",NA,NA,NA,NA,NA,NA,NA,NA,NA,NA,NA,NA,NA,NA,NA,"KQFB 010300Z AUTO 36003KT 9999 CLR 20/10 A3020 RMK A02 TSNO"
"237","QFB",2019-11-01 03:10:00,128.7167,35.65,68,46.4,45.88,290,1,0,30.2,NA,6.21,NA,"CLR",NA,NA,NA,NA,NA,NA,NA,NA,NA,NA,NA,NA,NA,NA,NA,"KQFB 010310Z AUTO 29001KT 9999 CLR 20/08 A3020 RMK A02 TSNO"
"238","QFB",2019-11-01 03:20:00,128.7167,35.65,69.8,44.6,40.29,310,2,0,30.2,NA,6.21,NA,"CLR",NA,NA,NA,NA,NA,NA,NA,NA,NA,NA,NA,NA,NA,NA,NA,"KQFB 010320Z AUTO 31002KT 9999 CLR 21/07 A3020 RMK A02 TSNO"
"239","QFB",2019-11-01 03:40:00,128.7167,35.65,69.8,42.8,37.61,290,4,0,30.19,NA,6.21,NA,"CLR",NA,NA,NA,NA,NA,NA,NA,NA,NA,NA,NA,NA,NA,NA,NA,"KQFB 010340Z AUTO 29004KT 9999 CLR 21/06 A3019 RMK A02 TSNO"
"240","QFB",2019-11-01 03:50:00,128.7167,35.65,69.8,42.8,37.61,270,4,0,30.18,NA,6.21,11,"CLR",NA,NA,NA,NA,NA,NA,NA,NA,NA,NA,NA,NA,NA,NA,NA,"KQFB 010350Z AUTO 27004G11KT 9999 CLR 21/06 A3018 RMK A02 TSNO"
"241","QFB",2019-11-01 04:00:00,128.7167,35.65,71.6,41,33,260,3,0,30.18,NA,6.21,NA,"CLR",NA,NA,NA,NA,NA,NA,NA,NA,NA,NA,NA,NA,NA,NA,NA,"KQFB 010400Z AUTO 26003KT 9999 CLR 22/05 A3018 RMK A02 TSNO"
"242","QFB",2019-11-01 04:10:00,128.7167,35.65,71.6,42.8,35.37,290,5,0,30.17,NA,6.21,12,"CLR",NA,NA,NA,NA,NA,NA,NA,NA,NA,NA,NA,NA,NA,NA,NA,"KQFB 010410Z AUTO 29005G12KT 9999 CLR 22/06 A3017 RMK A02 TSNO"
"243","QFB",2019-11-01 04:20:00,128.7167,35.65,71.6,33.8,24.86,340,5,0,30.17,NA,6.21,14,"CLR",NA,NA,NA,NA,NA,NA,NA,NA,NA,NA,NA,NA,NA,NA,NA,"KQFB 010420Z AUTO 34005G14KT 9999 CLR 22/01 A3017 RMK A02 TSNO"
"244","QFB",2019-11-01 04:30:00,128.7167,35.65,71.6,37.4,28.68,360,5,0,30.17,NA,6.21,NA,"CLR",NA,NA,NA,NA,NA,NA,NA,NA,NA,NA,NA,NA,NA,NA,NA,"KQFB 010430Z AUTO 36005KT 9999 CLR 22/03 A3017 RMK A02 TSNO"
"245","QFB",2019-11-01 04:40:00,128.7167,35.65,73.4,35.6,25.13,320,2,0,30.16,NA,6.21,NA,"CLR",NA,NA,NA,NA,NA,NA,NA,NA,NA,NA,NA,NA,NA,NA,NA,"KQFB 010440Z AUTO 32002KT 9999 CLR 23/02 A3016 RMK A02 TSNO"
"246","QFB",2019-11-01 04:50:00,128.7167,35.65,71.6,37.4,28.68,270,5,0,30.16,NA,6.21,11,"CLR",NA,NA,NA,NA,NA,NA,NA,NA,NA,NA,NA,NA,NA,NA,NA,"KQFB 010450Z AUTO 27005G11KT 9999 CLR 22/03 A3016 RMK A02 TSNO"
"247","QFB",2019-11-01 05:00:00,128.7167,35.65,71.6,37.4,28.68,300,5,0,30.17,NA,6.21,NA,"CLR",NA,NA,NA,NA,NA,NA,NA,NA,NA,NA,NA,NA,NA,NA,NA,"KQFB 010500Z AUTO 30005KT 9999 CLR 22/03 A3017 RMK A02 TSNO"
"248","QFB",2019-11-01 05:10:00,128.7167,35.65,73.4,37.4,26.98,290,4,0,30.16,NA,6.21,10,"CLR",NA,NA,NA,NA,NA,NA,NA,NA,NA,NA,NA,NA,NA,NA,NA,"KQFB 010510Z AUTO 29004G10KT 9999 CLR 23/03 A3016 RMK A02 TSNO"
"249","QFB",2019-11-01 05:20:00,128.7167,35.65,71.6,39.2,30.77,340,4,0,30.16,NA,6.21,NA,"CLR",NA,NA,NA,NA,NA,NA,NA,NA,NA,NA,NA,NA,NA,NA,NA,"KQFB 010520Z AUTO 34004KT 9999 CLR 22/04 A3016 RMK A02 TSNO"
"250","QFB",2019-11-01 05:30:00,128.7167,35.65,71.6,39.2,30.77,340,4,0,30.16,NA,6.21,NA,"CLR",NA,NA,NA,NA,NA,NA,NA,NA,NA,NA,NA,NA,NA,NA,NA,"KQFB 010530Z AUTO 34004KT 9999 CLR 22/04 A3016 RMK A02 TSNO"
"251","QFB",2019-11-01 05:40:00,128.7167,35.65,71.6,37.4,28.68,310,6,0,30.16,NA,6.21,NA,"CLR",NA,NA,NA,NA,NA,NA,NA,NA,NA,NA,NA,NA,NA,NA,NA,"KQFB 010540Z AUTO 31006KT 9999 CLR 22/03 A3016 RMK A02 TSNO"
"252","QFB",2019-11-01 05:50:00,128.7167,35.65,71.6,39.2,30.77,310,3,0,30.16,NA,6.21,NA,"CLR",NA,NA,NA,NA,NA,NA,NA,NA,NA,NA,NA,NA,NA,NA,NA,"KQFB 010550Z AUTO 31003KT 9999 CLR 22/04 A3016 RMK A02 TSNO"
"253","QFB",2019-11-01 06:00:00,128.7167,35.65,71.6,41,33,310,6,0,30.17,NA,6.21,NA,"CLR",NA,NA,NA,NA,NA,NA,NA,NA,NA,NA,NA,NA,NA,NA,NA,"KQFB 010600Z AUTO 31006KT 9999 CLR 22/05 A3017 RMK A02 TSNO"
"254","QFB",2019-11-01 06:10:00,128.7167,35.65,71.6,41,33,310,5,0,30.17,NA,6.21,NA,"CLR",NA,NA,NA,NA,NA,NA,NA,NA,NA,NA,NA,NA,NA,NA,NA,"KQFB 010610Z AUTO 31005KT 9999 CLR 22/05 A3017 RMK A02 TSNO"
"255","QFB",2019-11-01 06:20:00,128.7167,35.65,71.6,41,33,360,4,0,30.17,NA,6.21,NA,"CLR",NA,NA,NA,NA,NA,NA,NA,NA,NA,NA,NA,NA,NA,NA,NA,"KQFB 010620Z AUTO 36004KT 9999 CLR 22/05 A3017 RMK A02 TSNO"
"256","QFB",2019-11-01 06:30:00,128.7167,35.65,73.4,42.8,33.29,350,2,0,30.17,NA,6.21,NA,"FEW",NA,NA,NA,4500,NA,NA,NA,NA,NA,NA,NA,NA,NA,NA,NA,"KQFB 010630Z AUTO 35002KT 9999 FEW045 23/06 A3017 RMK A02 TSNO"
"257","QFB",2019-11-01 06:40:00,128.7167,35.65,71.6,44.6,37.89,30,3,0,30.17,NA,6.21,NA,"FEW",NA,NA,NA,4300,NA,NA,NA,NA,NA,NA,NA,NA,NA,NA,NA,"KQFB 010640Z AUTO 03003KT 9999 FEW043 22/07 A3017 RMK A02 TSNO"
"258","QFB",2019-11-01 06:50:00,128.7167,35.65,71.6,44.6,37.89,50,3,0,30.17,NA,6.21,NA,"SCT",NA,NA,NA,4400,NA,NA,NA,NA,NA,NA,NA,NA,NA,NA,NA,"KQFB 010650Z AUTO 05003KT 9999 SCT044 22/07 A3017 RMK A02 TSNO"
"259","QFB",2019-11-01 07:00:00,128.7167,35.65,71.6,44.6,37.89,50,4,0,30.18,NA,6.21,NA,"BKN",NA,NA,NA,4200,NA,NA,NA,NA,NA,NA,NA,NA,NA,NA,NA,"KQFB 010700Z AUTO 05004KT 9999 BKN042 22/07 A3018 RMK A02 TSNO"
"260","QFB",2019-11-01 07:10:00,128.7167,35.65,71.6,44.6,37.89,90,2,0,30.18,NA,6.21,NA,"BKN",NA,NA,NA,4200,NA,NA,NA,NA,NA,NA,NA,NA,NA,NA,NA,"KQFB 010710Z AUTO 09002KT 9999 BKN042 22/07 A3018 RMK A02 TSNO"
"261","QFB",2019-11-01 07:20:00,128.7167,35.65,69.8,44.6,40.29,50,3,0,30.18,NA,6.21,NA,"SCT",NA,NA,NA,4200,NA,NA,NA,NA,NA,NA,NA,NA,NA,NA,NA,"KQFB 010720Z AUTO 05003KT 9999 SCT042 21/07 A3018 RMK A02 TSNO"
"262","QFB",2019-11-01 07:30:00,128.7167,35.65,69.8,44.6,40.29,30,2,0,30.18,NA,6.21,NA,"SCT",NA,NA,NA,4200,NA,NA,NA,NA,NA,NA,NA,NA,NA,NA,NA,"KQFB 010730Z AUTO 03002KT 9999 SCT042 21/07 A3018 RMK A02 TSNO"
"263","QFB",2019-11-01 07:40:00,128.7167,35.65,69.8,44.6,40.29,340,1,0,30.18,NA,6.21,NA,"SCT",NA,NA,NA,4200,NA,NA,NA,NA,NA,NA,NA,NA,NA,NA,NA,"KQFB 010740Z AUTO 34001KT 9999 SCT042 21/07 A3018 RMK A02 TSNO"
"264","QFB",2019-11-01 07:50:00,128.7167,35.65,68,46.4,45.88,280,1,0,30.18,NA,6.21,NA,"SCT",NA,NA,NA,4200,NA,NA,NA,NA,NA,NA,NA,NA,NA,NA,NA,"KQFB 010750Z AUTO 28001KT 9999 SCT042 20/08 A3018 RMK A02 TSNO"
"265","QFB",2019-11-01 08:00:00,128.7167,35.65,68,46.4,45.88,230,2,0,30.18,NA,6.21,NA,"FEW",NA,NA,NA,4200,NA,NA,NA,NA,NA,NA,NA,NA,NA,NA,NA,"KQFB 010800Z AUTO 23002KT 9999 FEW042 20/08 A3018 RMK A02 TSNO"
"266","QFB",2019-11-01 08:10:00,128.7167,35.65,66.2,46.4,48.83,190,1,0,30.18,NA,6.21,NA,"FEW",NA,NA,NA,4200,NA,NA,NA,NA,NA,NA,NA,NA,NA,NA,NA,"KQFB 010810Z AUTO 19001KT 9999 FEW042 19/08 A3018 RMK A02 TSNO"
"267","QFB",2019-11-01 08:20:00,128.7167,35.65,66.2,46.4,48.83,170,1,0,30.18,NA,6.21,NA,"CLR",NA,NA,NA,NA,NA,NA,NA,NA,NA,NA,NA,NA,NA,NA,NA,"KQFB 010820Z AUTO 17001KT 9999 CLR 19/08 A3018 RMK A02 TSNO"
"268","QFB",2019-11-01 08:30:00,128.7167,35.65,64.4,46.4,51.98,20,1,0,30.18,NA,6.21,NA,"CLR",NA,NA,NA,NA,NA,NA,NA,NA,NA,NA,NA,NA,NA,NA,NA,"KQFB 010830Z AUTO 02001KT 9999 CLR 18/08 A3018 RMK A02 TSNO"
"269","QFB",2019-11-01 08:40:00,128.7167,35.65,64.4,48.2,55.63,0,0,0,30.19,NA,6.21,NA,"CLR",NA,NA,NA,NA,NA,NA,NA,NA,NA,NA,NA,NA,NA,NA,NA,"KQFB 010840Z AUTO 00000KT 9999 CLR 18/09 A3019 RMK A02 TSNO"
"270","QFB",2019-11-01 08:50:00,128.7167,35.65,62.6,48.2,59.26,140,2,0,30.19,NA,6.21,NA,"CLR",NA,NA,NA,NA,NA,NA,NA,NA,NA,NA,NA,NA,NA,NA,NA,"KQFB 010850Z AUTO 14002KT 9999 CLR 17/09 A3019 RMK A02 TSNO"
"271","QFB",2019-11-01 09:00:00,128.7167,35.65,62.6,48.2,59.26,130,1,0,30.19,NA,6.21,NA,"CLR",NA,NA,NA,NA,NA,NA,NA,NA,NA,NA,NA,NA,NA,NA,NA,"KQFB 010900Z AUTO 13001KT 9999 CLR 17/09 A3019 RMK A02 TSNO"
"272","QFB",2019-11-01 09:10:00,128.7167,35.65,60.8,48.2,63.15,110,1,0,30.2,NA,6.21,NA,"CLR",NA,NA,NA,NA,NA,NA,NA,NA,NA,NA,NA,NA,NA,NA,NA,"KQFB 010910Z AUTO 11001KT 9999 CLR 16/09 A3020 RMK A02 TSNO"
"273","QFB",2019-11-01 09:20:00,128.7167,35.65,60.8,48.2,63.15,150,1,0,30.2,NA,6.21,NA,"CLR",NA,NA,NA,NA,NA,NA,NA,NA,NA,NA,NA,NA,NA,NA,NA,"KQFB 010920Z AUTO 15001KT 9999 CLR 16/09 A3020 RMK A02 TSNO"
"274","QFB",2019-11-01 09:30:00,128.7167,35.65,60.8,48.2,63.15,150,1,0,30.21,NA,6.21,NA,"CLR",NA,NA,NA,NA,NA,NA,NA,NA,NA,NA,NA,NA,NA,NA,NA,"KQFB 010930Z AUTO 15001KT 9999 CLR 16/09 A3021 RMK A02 TSNO"
"275","QFB",2019-11-01 09:40:00,128.7167,35.65,59,46.4,62.92,140,1,0,30.21,NA,6.21,NA,"CLR",NA,NA,NA,NA,NA,NA,NA,NA,NA,NA,NA,NA,NA,NA,NA,"KQFB 010940Z AUTO 14001KT 9999 CLR 15/08 A3021 RMK A02 TSNO"
"276","QFB",2019-11-01 09:50:00,128.7167,35.65,59,48.2,67.33,150,1,0,30.21,NA,4.97,NA,"CLR",NA,NA,NA,NA,NA,NA,NA,"HZ",NA,NA,NA,NA,NA,NA,NA,"KQFB 010950Z AUTO 15001KT 8000 HZ CLR 15/09 A3021 RMK A02 TSNO"
"277","QFB",2019-11-01 10:00:00,128.7167,35.65,57.2,48.2,71.83,120,1,0,30.22,NA,3.73,NA,"CLR",NA,NA,NA,NA,NA,NA,NA,"HZ",NA,NA,NA,NA,NA,NA,NA,"KQFB 011000Z AUTO 12001KT 6000 HZ CLR 14/09 A3022 RMK A02 TSNO"
"278","QFB",2019-11-01 10:10:00,128.7167,35.65,59,48.2,67.33,160,1,0,30.22,NA,3.73,NA,"CLR",NA,NA,NA,NA,NA,NA,NA,"HZ",NA,NA,NA,NA,NA,NA,NA,"KQFB 011010Z AUTO 16001KT 6000 HZ CLR 15/09 A3022 RMK A02 TSNO"
"279","QFB",2019-11-01 10:20:00,128.7167,35.65,57.2,48.2,71.83,100,1,0,30.23,NA,3.73,NA,"CLR",NA,NA,NA,NA,NA,NA,NA,"HZ",NA,NA,NA,NA,NA,NA,NA,"KQFB 011020Z AUTO 10001KT 6000 HZ CLR 14/09 A3023 RMK A02 TSNO"
"280","QFB",2019-11-01 10:30:00,128.7167,35.65,55.4,48.2,76.66,310,1,0,30.23,NA,3.73,NA,"FEW",NA,NA,NA,4600,NA,NA,NA,"HZ",NA,NA,NA,NA,NA,NA,NA,"KQFB 011030Z AUTO 31001KT 6000 HZ FEW046 13/09 A3023 RMK A02 TSNO"
"281","QFB",2019-11-01 10:40:00,128.7167,35.65,55.4,46.4,71.64,280,3,0,30.23,NA,4.97,NA,"FEW",NA,NA,NA,4300,NA,NA,NA,"HZ",NA,NA,NA,NA,NA,NA,NA,"KQFB 011040Z AUTO 28003KT 8000 HZ FEW043 13/08 A3023 RMK A02 TSNO"
"282","QFB",2019-11-01 10:50:00,128.7167,35.65,55.4,46.4,71.64,290,2,0,30.24,NA,4.97,NA,"FEW",NA,NA,NA,4300,NA,NA,NA,"HZ",NA,NA,NA,NA,NA,NA,NA,"KQFB 011050Z AUTO 29002KT 8000 HZ FEW043 13/08 A3024 RMK A02 TSNO"
"283","QFB",2019-11-01 11:00:00,128.7167,35.65,57.2,46.4,67.12,300,2,0,30.24,NA,4.97,NA,"SCT",NA,NA,NA,4200,NA,NA,NA,"HZ",NA,NA,NA,NA,NA,NA,NA,"KQFB 011100Z AUTO 30002KT 8000 HZ SCT042 14/08 A3024 RMK A02 TSNO"
"284","QFB",2019-11-01 11:10:00,128.7167,35.65,53.6,46.4,76.5,280,3,0,30.24,NA,5.59,NA,"BKN",NA,NA,NA,4200,NA,NA,NA,"HZ",NA,NA,NA,NA,NA,NA,NA,"KQFB 011110Z AUTO 28003KT 9000 HZ BKN042 12/08 A3024 RMK A02 TSNO"
"285","QFB",2019-11-01 11:20:00,128.7167,35.65,53.6,48.2,81.87,280,3,0,30.25,NA,4.97,NA,"BKN",NA,NA,NA,4200,NA,NA,NA,"HZ",NA,NA,NA,NA,NA,NA,NA,"KQFB 011120Z AUTO 28003KT 8000 HZ BKN042 12/09 A3025 RMK A02 TSNO"
"286","QFB",2019-11-01 11:30:00,128.7167,35.65,51.8,48.2,87.47,290,2,0,30.25,NA,3.73,NA,"BKN",NA,NA,NA,4100,NA,NA,NA,"HZ",NA,NA,NA,NA,NA,NA,NA,"KQFB 011130Z AUTO 29002KT 6000 HZ BKN041 11/09 A3025 RMK A02 TSNO"
"287","QFB",2019-11-01 11:40:00,128.7167,35.65,51.8,48.2,87.47,300,3,0,30.25,NA,3.73,NA,"OVC",NA,NA,NA,4100,NA,NA,NA,"HZ",NA,NA,NA,NA,NA,NA,NA,"KQFB 011140Z AUTO 30003KT 6000 HZ OVC041 11/09 A3025 RMK A02 TSNO"
"288","QFB",2019-11-01 11:50:00,128.7167,35.65,53.6,48.2,81.87,290,3,0,30.25,NA,3.73,NA,"OVC",NA,NA,NA,4200,NA,NA,NA,"HZ",NA,NA,NA,NA,NA,NA,NA,"KQFB 011150Z AUTO 29003KT 6000 HZ OVC042 12/09 A3025 RMK A02 TSNO"
"289","QFB",2019-11-01 12:00:00,128.7167,35.65,53.6,48.2,81.87,260,2,0,30.25,NA,4.97,NA,"OVC",NA,NA,NA,4200,NA,NA,NA,"HZ",NA,NA,NA,NA,NA,NA,NA,"KQFB 011200Z AUTO 26002KT 8000 HZ OVC042 12/09 A3025 RMK A02 TSNO"
"290","QFB",2019-11-01 12:10:00,128.7167,35.65,53.6,48.2,81.87,290,1,0,30.25,NA,5.59,NA,"OVC",NA,NA,NA,4200,NA,NA,NA,"HZ",NA,NA,NA,NA,NA,NA,NA,"KQFB 011210Z AUTO 29001KT 9000 HZ OVC042 12/09 A3025 RMK A02 TSNO"
"291","QFB",2019-11-01 12:20:00,128.7167,35.65,53.6,46.4,76.5,290,2,0,30.25,NA,4.97,NA,"BKN",NA,NA,NA,4200,NA,NA,NA,"HZ",NA,NA,NA,NA,NA,NA,NA,"KQFB 011220Z AUTO 29002KT 8000 HZ BKN042 12/08 A3025 RMK A02 TSNO"
"292","QFB",2019-11-01 12:30:00,128.7167,35.65,51.8,46.4,81.74,280,2,0,30.25,NA,4.97,NA,"BKN",NA,NA,NA,4200,NA,NA,NA,"HZ",NA,NA,NA,NA,NA,NA,NA,"KQFB 011230Z AUTO 28002KT 8000 HZ BKN042 11/08 A3025 RMK A02 TSNO"
"293","QFB",2019-11-01 12:40:00,128.7167,35.65,51.8,46.4,81.74,260,3,0,30.25,NA,4.97,NA,"SCT",NA,NA,NA,4200,NA,NA,NA,"HZ",NA,NA,NA,NA,NA,NA,NA,"KQFB 011240Z AUTO 26003KT 8000 HZ SCT042 11/08 A3025 RMK A02 TSNO"
"294","QFB",2019-11-01 12:50:00,128.7167,35.65,51.8,46.4,81.74,290,4,0,30.25,NA,3.73,NA,"BKN",NA,NA,NA,4300,NA,NA,NA,NA,NA,NA,NA,NA,NA,NA,NA,"KQFB 011250Z AUTO 29004KT 6000 BKN043 11/08 A3025 RMK A02 TSNO"
"295","QFB",2019-11-01 13:00:00,128.7167,35.65,51.8,46.4,81.74,270,1,0,30.26,NA,3.73,NA,"SCT",NA,NA,NA,4300,NA,NA,NA,NA,NA,NA,NA,NA,NA,NA,NA,"KQFB 011300Z AUTO 27001KT 6000 SCT043 11/08 A3026 RMK A02 TSNO"
"296","QFB",2019-11-01 13:10:00,128.7167,35.65,51.8,46.4,81.74,280,3,0,30.26,NA,3.73,NA,"FEW",NA,NA,NA,4300,NA,NA,NA,NA,NA,NA,NA,NA,NA,NA,NA,"KQFB 011310Z AUTO 28003KT 6000 FEW043 11/08 A3026 RMK A02 TSNO"
"297","QFB",2019-11-01 13:20:00,128.7167,35.65,51.8,46.4,81.74,290,3,0,30.26,NA,3.73,NA,"FEW",NA,NA,NA,4500,NA,NA,NA,"HZ",NA,NA,NA,NA,NA,NA,NA,"KQFB 011320Z AUTO 29003KT 6000 HZ FEW045 11/08 A3026 RMK A02 TSNO"
"298","QFB",2019-11-01 13:30:00,128.7167,35.65,50,46.4,87.37,280,2,0,30.26,NA,4.97,NA,"SCT",NA,NA,NA,4400,NA,NA,NA,"HZ",NA,NA,NA,NA,NA,NA,NA,"KQFB 011330Z AUTO 28002KT 8000 HZ SCT044 10/08 A3026 RMK A02 TSNO"
"299","QFB",2019-11-01 13:40:00,128.7167,35.65,50,46.4,87.37,290,2,0,30.26,NA,4.97,NA,"BKN",NA,NA,NA,4400,NA,NA,NA,"HZ",NA,NA,NA,NA,NA,NA,NA,"KQFB 011340Z AUTO 29002KT 8000 HZ BKN044 10/08 A3026 RMK A02 TSNO"
"300","QFB",2019-11-01 13:50:00,128.7167,35.65,50,46.4,87.37,270,1,0,30.26,NA,4.97,NA,"BKN",NA,NA,NA,4400,NA,NA,NA,"HZ",NA,NA,NA,NA,NA,NA,NA,"KQFB 011350Z AUTO 27001KT 8000 HZ BKN044 10/08 A3026 RMK A02 TSNO"
"301","QFB",2019-11-01 14:00:00,128.7167,35.65,51.8,46.4,81.74,180,1,0,30.26,NA,4.97,NA,"BKN",NA,NA,NA,4500,NA,NA,NA,"HZ",NA,NA,NA,NA,NA,NA,NA,"KQFB 011400Z AUTO 18001KT 8000 HZ BKN045 11/08 A3026 RMK A02 TSNO"
"302","QFB",2019-11-01 14:10:00,128.7167,35.65,50,46.4,87.37,110,2,0,30.26,NA,4.97,NA,"BKN",NA,NA,NA,4400,NA,NA,NA,NA,NA,NA,NA,NA,NA,NA,NA,"KQFB 011410Z AUTO 11002KT 8000 BKN044 10/08 A3026 RMK A02 TSNO"
"303","QFB",2019-11-01 14:20:00,128.7167,35.65,50,46.4,87.37,110,1,0,30.25,NA,3.73,NA,"BKN",NA,NA,NA,4400,NA,NA,NA,NA,NA,NA,NA,NA,NA,NA,NA,"KQFB 011420Z AUTO 11001KT 6000 BKN044 10/08 A3025 RMK A02 TSNO"
"304","QFB",2019-11-01 14:30:00,128.7167,35.65,50,46.4,87.37,0,0,0,30.25,NA,3.73,NA,"BKN",NA,NA,NA,4400,NA,NA,NA,NA,NA,NA,NA,NA,NA,NA,NA,"KQFB 011430Z AUTO 00000KT 6000 BKN044 10/08 A3025 RMK A02 TSNO"
"305","QFB",2019-11-01 14:40:00,128.7167,35.65,50,46.4,87.37,110,1,0,30.25,NA,3.73,NA,"BKN",NA,NA,NA,4400,NA,NA,NA,NA,NA,NA,NA,NA,NA,NA,NA,"KQFB 011440Z AUTO 11001KT 6000 BKN044 10/08 A3025 RMK A02 TSNO"
"306","QFB",2019-11-01 14:50:00,128.7167,35.65,50,46.4,87.37,40,1,0,30.25,NA,3.73,NA,"BKN",NA,NA,NA,4400,NA,NA,NA,NA,NA,NA,NA,NA,NA,NA,NA,"KQFB 011450Z AUTO 04001KT 6000 BKN044 10/08 A3025 RMK A02 TSNO"
"307","QFB",2019-11-01 15:00:00,128.7167,35.65,48.2,46.4,93.45,330,2,0,30.25,NA,2.98,NA,"OVC",NA,NA,NA,4400,NA,NA,NA,NA,NA,NA,NA,NA,NA,NA,NA,"KQFB 011500Z AUTO 33002KT 4800 OVC044 09/08 A3025 RMK A02 TSNO"
"308","QFB",2019-11-01 15:10:00,128.7167,35.65,48.2,46.4,93.45,290,2,0,30.25,NA,2.98,NA,"OVC",NA,NA,NA,4400,NA,NA,NA,NA,NA,NA,NA,NA,NA,NA,NA,"KQFB 011510Z AUTO 29002KT 4800 OVC044 09/08 A3025 RMK A02 TSNO"
"309","QFB",2019-11-01 15:20:00,128.7167,35.65,48.2,46.4,93.45,290,2,0,30.26,NA,2.98,NA,"OVC",NA,NA,NA,4300,NA,NA,NA,NA,NA,NA,NA,NA,NA,NA,NA,"KQFB 011520Z AUTO 29002KT 4800 OVC043 09/08 A3026 RMK A02 TSNO"
"310","QFB",2019-11-01 15:30:00,128.7167,35.65,46.4,44.6,93.4,290,2,0,30.26,NA,1.99,NA,"OVC",NA,NA,NA,4300,NA,NA,NA,"BR",NA,NA,NA,NA,NA,NA,NA,"KQFB 011530Z AUTO 29002KT 3200 BR OVC043 08/07 A3026 RMK A02 TSNO"
"311","QFB",2019-11-01 15:40:00,128.7167,35.65,48.2,46.4,93.45,260,2,0,30.26,NA,2.98,NA,"OVC",NA,NA,NA,4400,NA,NA,NA,NA,NA,NA,NA,NA,NA,NA,NA,"KQFB 011540Z AUTO 26002KT 4800 OVC044 09/08 A3026 RMK A02 TSNO"
"312","QFB",2019-11-01 15:50:00,128.7167,35.65,48.2,46.4,93.45,280,1,0,30.26,NA,2.98,NA,"OVC",NA,NA,NA,4400,NA,NA,NA,NA,NA,NA,NA,NA,NA,NA,NA,"KQFB 011550Z AUTO 28001KT 4800 OVC044 09/08 A3026 RMK A02 TSNO"
"313","QFB",2019-11-01 16:00:00,128.7167,35.65,48.2,46.4,93.45,290,1,0,30.26,NA,3.73,NA,"OVC",NA,NA,NA,4400,NA,NA,NA,NA,NA,NA,NA,NA,NA,NA,NA,"KQFB 011600Z AUTO 29001KT 6000 OVC044 09/08 A3026 RMK A02 TSNO"
"314","QFB",2019-11-01 16:10:00,128.7167,35.65,48.2,44.6,87.28,330,1,0,30.26,NA,2.98,NA,"OVC",NA,NA,NA,4500,NA,NA,NA,NA,NA,NA,NA,NA,NA,NA,NA,"KQFB 011610Z AUTO 33001KT 4800 OVC045 09/07 A3026 RMK A02 TSNO"
"315","QFB",2019-11-01 16:20:00,128.7167,35.65,46.4,44.6,93.4,310,1,0,30.26,NA,2.98,NA,"OVC",NA,NA,NA,4500,NA,NA,NA,"BR",NA,NA,NA,NA,NA,NA,NA,"KQFB 011620Z AUTO 31001KT 4800 BR OVC045 08/07 A3026 RMK A02 TSNO"
"316","QFB",2019-11-01 16:30:00,128.7167,35.65,46.4,44.6,93.4,50,1,0,30.26,NA,2.98,NA,"OVC",NA,NA,NA,4400,NA,NA,NA,NA,NA,NA,NA,NA,NA,NA,NA,"KQFB 011630Z AUTO 05001KT 4800 OVC044 08/07 A3026 RMK A02 TSNO"
"317","QFB",2019-11-01 16:40:00,128.7167,35.65,46.4,44.6,93.4,280,1,0,30.26,NA,2.49,NA,"OVC",NA,NA,NA,4400,NA,NA,NA,"BR",NA,NA,NA,NA,NA,NA,NA,"KQFB 011640Z AUTO 28001KT 4000 BR OVC044 08/07 A3026 RMK A02 TSNO"
"318","QFB",2019-11-01 16:50:00,128.7167,35.65,46.4,44.6,93.4,320,1,0,30.26,NA,2.98,NA,"OVC",NA,NA,NA,4400,NA,NA,NA,"BR",NA,NA,NA,NA,NA,NA,NA,"KQFB 011650Z AUTO 32001KT 4800 BR OVC044 08/07 A3026 RMK A02 TSNO"
"319","QFB",2019-11-01 17:00:00,128.7167,35.65,44.6,44.6,100,330,2,0,30.26,NA,1.99,NA,"OVC",NA,NA,NA,4400,NA,NA,NA,"BR",NA,NA,NA,NA,NA,NA,NA,"KQFB 011700Z AUTO 33002KT 3200 BR OVC044 07/07 A3026 RMK A02 TSNO"
"320","QFB",2019-11-01 17:10:00,128.7167,35.65,46.4,44.6,93.4,290,1,0,30.26,NA,2.49,NA,"OVC",NA,NA,NA,4400,NA,NA,NA,"BR",NA,NA,NA,NA,NA,NA,NA,"KQFB 011710Z AUTO 29001KT 4000 BR OVC044 08/07 A3026 RMK A02 TSNO"
"321","QFB",2019-11-01 17:20:00,128.7167,35.65,46.4,44.6,93.4,300,1,0,30.26,NA,2.98,NA,"OVC",NA,NA,NA,4400,NA,NA,NA,NA,NA,NA,NA,NA,NA,NA,NA,"KQFB 011720Z AUTO 30001KT 4800 OVC044 08/07 A3026 RMK A02 TSNO"
"322","QFB",2019-11-01 17:30:00,128.7167,35.65,46.4,44.6,93.4,330,1,0,30.25,NA,2.49,NA,"OVC",NA,NA,NA,4400,NA,NA,NA,"BR",NA,NA,NA,NA,NA,NA,NA,"KQFB 011730Z AUTO 33001KT 4000 BR OVC044 08/07 A3025 RMK A02 TSNO"
"323","QFB",2019-11-01 17:40:00,128.7167,35.65,44.6,44.6,100,310,1,0,30.25,NA,1.74,NA,"OVC",NA,NA,NA,4300,NA,NA,NA,"BR",NA,NA,NA,NA,NA,NA,NA,"KQFB 011740Z AUTO 31001KT 2800 BR OVC043 07/07 A3025 RMK A02 TSNO"
"324","QFB",2019-11-01 17:50:00,128.7167,35.65,44.6,44.6,100,280,3,0,30.25,NA,1.24,NA,"OVC",NA,NA,NA,4300,NA,NA,NA,"BR",NA,NA,NA,NA,NA,NA,43.09,"KQFB 011750Z AUTO 28003KT 2000 BR OVC043 07/07 A3025 RMK A02 TSNO"
"325","QFB",2019-11-01 18:00:00,128.7167,35.65,44.6,44.6,100,290,3,0,30.25,NA,1.74,NA,"OVC",NA,NA,NA,4200,NA,NA,NA,"BR",NA,NA,NA,NA,NA,NA,43.09,"KQFB 011800Z AUTO 29003KT 2800 BR OVC042 07/07 A3025 RMK A02 TSNO"
"326","QFB",2019-11-01 18:10:00,128.7167,35.65,44.6,44.6,100,300,2,0,30.25,NA,1.74,NA,"OVC",NA,NA,NA,4200,NA,NA,NA,"BR",NA,NA,NA,NA,NA,NA,NA,"KQFB 011810Z AUTO 30002KT 2800 BR OVC042 07/07 A3025 RMK A02 TSNO"
"327","QFB",2019-11-01 18:20:00,128.7167,35.65,44.6,44.6,100,300,3,0,30.25,NA,1.49,NA,"OVC",NA,NA,NA,4200,NA,NA,NA,"BR",NA,NA,NA,NA,NA,NA,43.09,"KQFB 011820Z AUTO 30003KT 2400 BR OVC042 07/07 A3025 RMK A02 TSNO"
"328","QFB",2019-11-01 18:30:00,128.7167,35.65,44.6,44.6,100,300,1,0,30.24,NA,1.74,NA,"OVC",NA,NA,NA,4200,NA,NA,NA,"BR",NA,NA,NA,NA,NA,NA,NA,"KQFB 011830Z AUTO 30001KT 2800 BR OVC042 07/07 A3024 RMK A02 TSNO"
"329","QFB",2019-11-01 18:40:00,128.7167,35.65,44.6,44.6,100,290,2,0,30.25,NA,1.74,NA,"OVC",NA,NA,NA,4200,NA,NA,NA,"BR",NA,NA,NA,NA,NA,NA,NA,"KQFB 011840Z AUTO 29002KT 2800 BR OVC042 07/07 A3025 RMK A02 TSNO"
"330","QFB",2019-11-01 18:50:00,128.7167,35.65,44.6,44.6,100,290,3,0,30.25,NA,1.74,NA,"OVC",NA,NA,NA,4200,NA,NA,NA,"BR",NA,NA,NA,NA,NA,NA,43.09,"KQFB 011850Z AUTO 29003KT 2800 BR OVC042 07/07 A3025 RMK A02 TSNO"
"331","QFB",2019-11-01 19:00:00,128.7167,35.65,44.6,42.8,93.35,290,3,0,30.25,NA,1.99,NA,"OVC",NA,NA,NA,4100,NA,NA,NA,"BR",NA,NA,NA,NA,NA,NA,43.09,"KQFB 011900Z AUTO 29003KT 3200 BR OVC041 07/06 A3025 RMK A02 TSNO"
"332","QFB",2019-11-01 19:10:00,128.7167,35.65,44.6,44.6,100,290,2,0,30.25,NA,1.49,NA,"OVC",NA,NA,NA,3800,NA,NA,NA,"BR",NA,NA,NA,NA,NA,NA,NA,"KQFB 011910Z AUTO 29002KT 2400 BR OVC038 07/07 A3025 RMK A02 TSNO"
"333","QFB",2019-11-01 19:20:00,128.7167,35.65,44.6,44.6,100,260,1,0,30.25,NA,1.49,NA,"OVC",NA,NA,NA,3700,NA,NA,NA,"BR",NA,NA,NA,NA,NA,NA,NA,"KQFB 011920Z AUTO 26001KT 2400 BR OVC037 07/07 A3025 RMK A02 TSNO"
"334","QFB",2019-11-01 19:30:00,128.7167,35.65,44.6,42.8,93.35,110,2,0,30.25,NA,2.49,NA,"OVC",NA,NA,NA,3800,NA,NA,NA,"BR",NA,NA,NA,NA,NA,NA,NA,"KQFB 011930Z AUTO 11002KT 4000 BR OVC038 07/06 A3025 RMK A02 TSNO"
"335","QFB",2019-11-01 19:40:00,128.7167,35.65,44.6,44.6,100,180,1,0,30.24,NA,1.99,NA,"OVC",NA,NA,NA,4000,NA,NA,NA,"BR",NA,NA,NA,NA,NA,NA,NA,"KQFB 011940Z AUTO 18001KT 3200 BR OVC040 07/07 A3024 RMK A02 TSNO"
"336","QFB",2019-11-01 19:50:00,128.7167,35.65,44.6,44.6,100,130,2,0,30.24,NA,2.98,NA,"OVC",NA,NA,NA,4100,NA,NA,NA,NA,NA,NA,NA,NA,NA,NA,NA,"KQFB 011950Z AUTO 13002KT 4800 OVC041 07/07 A3024 RMK A02 TSNO"
"337","QFB",2019-11-01 20:00:00,128.7167,35.65,44.6,42.8,93.35,130,1,0,30.24,NA,2.98,NA,"OVC",NA,NA,NA,4000,NA,NA,NA,NA,NA,NA,NA,NA,NA,NA,NA,"KQFB 012000Z AUTO 13001KT 4800 OVC040 07/06 A3024 RMK A02 TSNO"
"338","QFB",2019-11-01 20:10:00,128.7167,35.65,44.6,42.8,93.35,300,2,0,30.24,NA,2.98,NA,"OVC",NA,NA,NA,4000,NA,NA,NA,NA,NA,NA,NA,NA,NA,NA,NA,"KQFB 012010Z AUTO 30002KT 4800 OVC040 07/06 A3024 RMK A02 TSNO"
"339","QFB",2019-11-01 20:20:00,128.7167,35.65,42.8,42.8,100,300,3,0,30.24,NA,0.5,NA,"SCT","OVC",NA,NA,800,3900,NA,NA,"FG",NA,NA,NA,NA,NA,NA,41.03,"KQFB 012020Z AUTO 30003KT 0800 FG SCT008 OVC039 06/06 A3024 RMK A02 TSNO"
"340","QFB",2019-11-01 20:30:00,128.7167,35.65,42.8,41,93.3,290,3,0,30.25,NA,0.25,NA,"CLR",NA,NA,NA,NA,NA,NA,NA,"FG",NA,NA,NA,NA,NA,NA,41.03,"KQFB 012030Z AUTO 29003KT M0400 FG CLR 06/05 A3025 RMK A02 TSNO"
"341","QFB",2019-11-01 20:40:00,128.7167,35.65,42.8,42.8,100,290,3,0,30.25,NA,0.25,NA,"CLR",NA,NA,NA,NA,NA,NA,NA,"FG",NA,NA,NA,NA,NA,NA,41.03,"KQFB 012040Z AUTO 29003KT 0400 FG CLR 06/06 A3025 RMK A02 TSNO"
"342","QFB",2019-11-01 20:50:00,128.7167,35.65,42.8,42.8,100,290,2,0,30.25,NA,0.25,NA,"CLR",NA,NA,NA,NA,NA,NA,NA,"FG",NA,NA,NA,NA,NA,NA,NA,"KQFB 012050Z AUTO 29002KT 0400 FG CLR 06/06 A3025 RMK A02 TSNO"
"343","QFB",2019-11-01 21:00:00,128.7167,35.65,42.8,42.8,100,310,3,0,30.25,NA,0.25,NA,"CLR",NA,NA,NA,NA,NA,NA,NA,"FG",NA,NA,NA,NA,NA,NA,41.03,"KQFB 012100Z AUTO 31003KT 0400 FG CLR 06/06 A3025 RMK A02 TSNO"
"344","QFB",2019-11-01 21:10:00,128.7167,35.65,42.8,41,93.3,280,2,0,30.26,NA,0.25,NA,"CLR",NA,NA,NA,NA,NA,NA,NA,"FG",NA,NA,NA,NA,NA,NA,NA,"KQFB 012110Z AUTO 28002KT M0400 FG CLR 06/05 A3026 RMK A02 TSNO"
"345","QFB",2019-11-01 21:20:00,128.7167,35.65,42.8,42.8,100,290,1,0,30.25,NA,0.25,NA,"CLR",NA,NA,NA,NA,NA,NA,NA,"FG",NA,NA,NA,NA,NA,NA,NA,"KQFB 012120Z AUTO 29001KT 0400 FG CLR 06/06 A3025 RMK A02 TSNO"
"346","QFB",2019-11-01 21:30:00,128.7167,35.65,42.8,41,93.3,290,2,0,30.25,NA,0.25,NA,"OVC",NA,NA,NA,200,NA,NA,NA,"FG",NA,NA,NA,NA,NA,NA,NA,"KQFB 012130Z AUTO 29002KT M0400 FG OVC002 06/05 A3025 RMK A02 TSNO"
"347","QFB",2019-11-01 21:40:00,128.7167,35.65,42.8,42.8,100,110,1,0,30.25,NA,0.25,NA,"CLR",NA,NA,NA,NA,NA,NA,NA,"FG",NA,NA,NA,NA,NA,NA,NA,"KQFB 012140Z AUTO 11001KT M0400 FG CLR 06/06 A3025 RMK A02 TSNO"
"348","QFB",2019-11-01 21:50:00,128.7167,35.65,42.8,42.8,100,310,1,0,30.24,NA,0.25,NA,"CLR",NA,NA,NA,NA,NA,NA,NA,"FG",NA,NA,NA,NA,NA,NA,NA,"KQFB 012150Z AUTO 31001KT M0400 FG CLR 06/06 A3024 RMK A02 TSNO"
"349","QFB",2019-11-01 22:00:00,128.7167,35.65,42.8,42.8,100,280,2,0,30.24,NA,0.25,NA,"CLR",NA,NA,NA,NA,NA,NA,NA,"FG",NA,NA,NA,NA,NA,NA,NA,"KQFB 012200Z AUTO 28002KT M0400 FG CLR 06/06 A3024 RMK A02 TSNO"
"350","QFB",2019-11-01 22:10:00,128.7167,35.65,42.8,42.8,100,290,3,0,30.25,NA,0.25,NA,"CLR",NA,NA,NA,NA,NA,NA,NA,"FG",NA,NA,NA,NA,NA,NA,41.03,"KQFB 012210Z AUTO 29003KT M0400 FG CLR 06/06 A3025 RMK A02 TSNO"
"351","QFB",2019-11-01 22:20:00,128.7167,35.65,42.8,42.8,100,320,2,0,30.25,NA,0.25,NA,"CLR",NA,NA,NA,NA,NA,NA,NA,"FG",NA,NA,NA,NA,NA,NA,NA,"KQFB 012220Z AUTO 32002KT M0400 FG CLR 06/06 A3025 RMK A02 TSNO"
"352","QFB",2019-11-01 22:30:00,128.7167,35.65,42.8,42.8,100,320,2,0,30.25,NA,0.25,NA,"CLR",NA,NA,NA,NA,NA,NA,NA,"FG",NA,NA,NA,NA,NA,NA,NA,"KQFB 012230Z AUTO 32002KT M0400 FG CLR 06/06 A3025 RMK A02 TSNO"
"353","QFB",2019-11-01 22:40:00,128.7167,35.65,42.8,42.8,100,310,2,0,30.26,NA,0.25,NA,"CLR",NA,NA,NA,NA,NA,NA,NA,"FG",NA,NA,NA,NA,NA,NA,NA,"KQFB 012240Z AUTO 31002KT M0400 FG CLR 06/06 A3026 RMK A02 TSNO"
"354","QFB",2019-11-01 22:50:00,128.7167,35.65,42.8,42.8,100,290,2,0,30.26,NA,0.25,NA,"CLR",NA,NA,NA,NA,NA,NA,NA,"FG",NA,NA,NA,NA,NA,NA,NA,"KQFB 012250Z AUTO 29002KT M0400 FG CLR 06/06 A3026 RMK A02 TSNO"
"355","QFB",2019-11-01 23:00:00,128.7167,35.65,44.6,44.6,100,350,1,0,30.26,NA,0.25,NA,"CLR",NA,NA,NA,NA,NA,NA,NA,"FG",NA,NA,NA,NA,NA,NA,NA,"KQFB 012300Z AUTO 35001KT M0400 FG CLR 07/07 A3026 RMK A02 TSNO"
"356","QFB",2019-11-01 23:10:00,128.7167,35.65,44.6,42.8,93.35,110,1,0,30.26,NA,0.25,NA,"CLR",NA,NA,NA,NA,NA,NA,NA,"FG",NA,NA,NA,NA,NA,NA,NA,"KQFB 012310Z AUTO 11001KT M0400 FG CLR 07/06 A3026 RMK A02 TSNO"
"357","QFB",2019-11-01 23:20:00,128.7167,35.65,44.6,44.6,100,40,1,0,30.26,NA,0.25,NA,"CLR",NA,NA,NA,NA,NA,NA,NA,"FG",NA,NA,NA,NA,NA,NA,NA,"KQFB 012320Z AUTO 04001KT M0400 FG CLR 07/07 A3026 RMK A02 TSNO"
"358","QFB",2019-11-01 23:30:00,128.7167,35.65,44.6,44.6,100,0,0,0,30.26,NA,0.25,NA,"CLR",NA,NA,NA,NA,NA,NA,NA,"FG",NA,NA,NA,NA,NA,NA,NA,"KQFB 012330Z AUTO 00000KT M0400 FG CLR 07/07 A3026 RMK A02 TSNO"
"359","QFB",2019-11-01 23:40:00,128.7167,35.65,44.6,44.6,100,220,1,0,30.27,NA,0.25,NA,"CLR",NA,NA,NA,NA,NA,NA,NA,"FG",NA,NA,NA,NA,NA,NA,NA,"KQFB 012340Z AUTO 22001KT M0400 FG CLR 07/07 A3027 RMK A02 TSNO"
"360","QEN",2019-11-01 00:00:00,128.75,37.6667,50,44.6,81.61,220,4,0,30.19,NA,3.73,NA,"CLR",NA,NA,NA,NA,NA,NA,NA,"HZ",NA,NA,NA,NA,NA,NA,48.44,"KQEN 010000Z AUTO 22004KT 6000 HZ CLR 10/07 A3019 RMK A02 TSNO"
"361","QEN",2019-11-01 00:10:00,128.75,37.6667,50,44.6,81.61,220,3,0,30.19,NA,3.73,NA,"CLR",NA,NA,NA,NA,NA,NA,NA,"HZ",NA,NA,NA,NA,NA,NA,49.27,"KQEN 010010Z AUTO 22003KT 6000 HZ CLR 10/07 A3019 RMK A02 TSNO"
"362","QEN",2019-11-01 00:20:00,128.75,37.6667,51.8,44.6,76.34,210,4,0,30.18,NA,4.97,NA,"CLR",NA,NA,NA,NA,NA,NA,NA,"HZ",NA,NA,NA,NA,NA,NA,NA,"KQEN 010020Z AUTO 21004KT 8000 HZ CLR 11/07 A3018 RMK A02 TSNO"
"363","QEN",2019-11-01 00:30:00,128.75,37.6667,51.8,42.8,71.26,210,4,0,30.19,NA,5.59,NA,"CLR",NA,NA,NA,NA,NA,NA,NA,"HZ",NA,NA,NA,NA,NA,NA,NA,"KQEN 010030Z AUTO 21004KT 9000 HZ CLR 11/06 A3019 RMK A02 TSNO"
"364","QEN",2019-11-01 00:40:00,128.75,37.6667,51.8,42.8,71.26,200,2,0,30.19,NA,4.97,NA,"CLR",NA,NA,NA,NA,NA,NA,NA,"HZ",NA,NA,NA,NA,NA,NA,NA,"KQEN 010040Z AUTO 20002KT 8000 HZ CLR 11/06 A3019 RMK A02 TSNO"
"365","QEN",2019-11-01 00:50:00,128.75,37.6667,51.8,42.8,71.26,190,1,0,30.19,NA,5.59,NA,"CLR",NA,NA,NA,NA,NA,NA,NA,"HZ",NA,NA,NA,NA,NA,NA,NA,"KQEN 010050Z AUTO 19001KT 9000 HZ CLR 11/06 A3019 RMK A02 TSNO"
"366","QEN",2019-11-01 01:00:00,128.75,37.6667,53.6,39.2,58.02,170,1,0,30.19,NA,6.21,NA,"CLR",NA,NA,NA,NA,NA,NA,NA,NA,NA,NA,NA,NA,NA,NA,NA,"KQEN 010100Z AUTO 17001KT 9999 CLR 12/04 A3019 RMK A02 TSNO"
"367","QEN",2019-11-01 01:10:00,128.75,37.6667,53.6,37.4,54.07,100,4,0,30.19,NA,6.21,NA,"CLR",NA,NA,NA,NA,NA,NA,NA,NA,NA,NA,NA,NA,NA,NA,NA,"KQEN 010110Z AUTO 10004KT 9999 CLR 12/03 A3019 RMK A02 TSNO"
"368","QEN",2019-11-01 01:20:00,128.75,37.6667,53.6,37.4,54.07,130,5,0,30.19,NA,6.21,NA,"CLR",NA,NA,NA,NA,NA,NA,NA,NA,NA,NA,NA,NA,NA,NA,NA,"KQEN 010120Z AUTO 13005KT 9999 CLR 12/03 A3019 RMK A02 TSNO"
"369","QEN",2019-11-01 01:30:00,128.75,37.6667,53.6,37.4,54.07,90,5,0,30.19,NA,6.21,10,"CLR",NA,NA,NA,NA,NA,NA,NA,NA,NA,NA,NA,NA,NA,NA,NA,"KQEN 010130Z AUTO 09005G10KT 9999 CLR 12/03 A3019 RMK A02 TSNO"
"370","QEN",2019-11-01 01:40:00,128.75,37.6667,53.6,39.2,58.02,110,6,0,30.19,NA,6.21,NA,"CLR",NA,NA,NA,NA,NA,NA,NA,NA,NA,NA,NA,NA,NA,NA,NA,"KQEN 010140Z AUTO 11006KT 9999 CLR 12/04 A3019 RMK A02 TSNO"
"371","QEN",2019-11-01 01:50:00,128.75,37.6667,53.6,39.2,58.02,90,7,0,30.2,NA,6.21,11,"CLR",NA,NA,NA,NA,NA,NA,NA,NA,NA,NA,NA,NA,NA,NA,NA,"KQEN 010150Z AUTO 09007G11KT 9999 CLR 12/04 A3020 RMK A02 TSNO"
"372","QEN",2019-11-01 02:00:00,128.75,37.6667,53.6,39.2,58.02,110,6,0,30.2,NA,6.21,13,"CLR",NA,NA,NA,NA,NA,NA,NA,NA,NA,NA,NA,NA,NA,NA,NA,"KQEN 010200Z AUTO 11006G13KT 9999 CLR 12/04 A3020 RMK A02 TSNO"
"373","QEN",2019-11-01 02:10:00,128.75,37.6667,53.6,41,62.23,110,6,0,30.2,NA,6.21,NA,"CLR",NA,NA,NA,NA,NA,NA,NA,NA,NA,NA,NA,NA,NA,NA,NA,"KQEN 010210Z AUTO 11006KT 9999 CLR 12/05 A3020 RMK A02 TSNO"
"374","QEN",2019-11-01 02:20:00,128.75,37.6667,53.6,41,62.23,110,5,0,30.2,NA,6.21,11,"CLR",NA,NA,NA,NA,NA,NA,NA,NA,NA,NA,NA,NA,NA,NA,NA,"KQEN 010220Z AUTO 11005G11KT 9999 CLR 12/05 A3020 RMK A02 TSNO"
"375","QEN",2019-11-01 02:30:00,128.75,37.6667,53.6,41,62.23,90,7,0,30.2,NA,6.21,12,"CLR",NA,NA,NA,NA,NA,NA,NA,NA,NA,NA,NA,NA,NA,NA,NA,"KQEN 010230Z AUTO 09007G12KT 9999 CLR 12/05 A3020 RMK A02 TSNO"
"376","QEN",2019-11-01 02:40:00,128.75,37.6667,53.6,42.8,66.7,90,7,0,30.2,NA,6.21,14,"CLR",NA,NA,NA,NA,NA,NA,NA,NA,NA,NA,NA,NA,NA,NA,NA,"KQEN 010240Z AUTO 09007G14KT 9999 CLR 12/06 A3020 RMK A02 TSNO"
"377","QEN",2019-11-01 02:50:00,128.75,37.6667,53.6,41,62.23,100,7,0,30.2,NA,6.21,NA,"CLR",NA,NA,NA,NA,NA,NA,NA,NA,NA,NA,NA,NA,NA,NA,NA,"KQEN 010250Z AUTO 10007KT 9999 CLR 12/05 A3020 RMK A02 TSNO"
"378","QEN",2019-11-01 03:00:00,128.75,37.6667,55.4,39.2,54.34,120,7,0,30.2,NA,6.21,NA,"CLR",NA,NA,NA,NA,NA,NA,NA,NA,NA,NA,NA,NA,NA,NA,NA,"KQEN 010300Z AUTO 12007KT 9999 CLR 13/04 A3020 RMK A02 TSNO"
"379","QEN",2019-11-01 03:20:00,128.75,37.6667,55.4,39.2,54.34,100,7,0,30.19,NA,6.21,13,"CLR",NA,NA,NA,NA,NA,NA,NA,NA,NA,NA,NA,NA,NA,NA,NA,"KQEN 010320Z AUTO 10007G13KT 9999 CLR 13/04 A3019 RMK A02 TSNO"
"380","QEN",2019-11-01 03:30:00,128.75,37.6667,55.4,35.6,47.16,110,5,0,30.19,NA,6.21,11,"CLR",NA,NA,NA,NA,NA,NA,NA,NA,NA,NA,NA,NA,NA,NA,NA,"KQEN 010330Z AUTO 11005G11KT 9999 CLR 13/02 A3019 RMK A02 TSNO"
"381","QEN",2019-11-01 03:40:00,128.75,37.6667,57.2,35.6,44.19,100,7,0,30.18,NA,6.21,11,"CLR",NA,NA,NA,NA,NA,NA,NA,NA,NA,NA,NA,NA,NA,NA,NA,"KQEN 010340Z AUTO 10007G11KT 9999 CLR 14/02 A3018 RMK A02 TSNO"
"382","QEN",2019-11-01 03:50:00,128.75,37.6667,57.2,35.6,44.19,90,4,0,30.18,NA,6.21,NA,"CLR",NA,NA,NA,NA,NA,NA,NA,NA,NA,NA,NA,NA,NA,NA,NA,"KQEN 010350Z AUTO 09004KT 9999 CLR 14/02 A3018 RMK A02 TSNO"
"383","QEN",2019-11-01 04:00:00,128.75,37.6667,57.2,37.4,47.44,120,5,0,30.18,NA,6.21,12,"CLR",NA,NA,NA,NA,NA,NA,NA,NA,NA,NA,NA,NA,NA,NA,NA,"KQEN 010400Z AUTO 12005G12KT 9999 CLR 14/03 A3018 RMK A02 TSNO"
"384","QEN",2019-11-01 04:10:00,128.75,37.6667,57.2,39.2,50.91,90,5,0,30.18,NA,6.21,12,"CLR",NA,NA,NA,NA,NA,NA,NA,NA,NA,NA,NA,NA,NA,NA,NA,"KQEN 010410Z AUTO 09005G12KT 9999 CLR 14/04 A3018 RMK A02 TSNO"
"385","QEN",2019-11-01 04:20:00,128.75,37.6667,55.4,41,58.27,110,7,0,30.18,NA,6.21,12,"CLR",NA,NA,NA,NA,NA,NA,NA,NA,NA,NA,NA,NA,NA,NA,NA,"KQEN 010420Z AUTO 11007G12KT 9999 CLR 13/05 A3018 RMK A02 TSNO"
"386","QEN",2019-11-01 04:30:00,128.75,37.6667,55.4,42.8,62.46,110,7,0,30.18,NA,6.21,12,"CLR",NA,NA,NA,NA,NA,NA,NA,NA,NA,NA,NA,NA,NA,NA,NA,"KQEN 010430Z AUTO 11007G12KT 9999 CLR 13/06 A3018 RMK A02 TSNO"
"387","QEN",2019-11-01 04:40:00,128.75,37.6667,55.4,44.6,66.91,100,7,0,30.17,NA,6.21,15,"CLR",NA,NA,NA,NA,NA,NA,NA,NA,NA,NA,NA,NA,NA,NA,NA,"KQEN 010440Z AUTO 10007G15KT 9999 CLR 13/07 A3017 RMK A02 TSNO"
"388","QEN",2019-11-01 04:50:00,128.75,37.6667,55.4,46.4,71.64,120,6,0,30.17,NA,6.21,12,"CLR",NA,NA,NA,NA,NA,NA,NA,NA,NA,NA,NA,NA,NA,NA,NA,"KQEN 010450Z AUTO 12006G12KT 9999 CLR 13/08 A3017 RMK A02 TSNO"
"389","QEN",2019-11-01 05:00:00,128.75,37.6667,55.4,46.4,71.64,120,6,0,30.17,NA,6.21,11,"CLR",NA,NA,NA,NA,NA,NA,NA,NA,NA,NA,NA,NA,NA,NA,NA,"KQEN 010500Z AUTO 12006G11KT 9999 CLR 13/08 A3017 RMK A02 TSNO"
"390","QEN",2019-11-01 05:10:00,128.75,37.6667,55.4,48.2,76.66,110,6,0,30.17,NA,6.21,NA,"CLR",NA,NA,NA,NA,NA,NA,NA,NA,NA,NA,NA,NA,NA,NA,NA,"KQEN 010510Z AUTO 11006KT 9999 CLR 13/09 A3017 RMK A02 TSNO"
"391","QEN",2019-11-01 05:20:00,128.75,37.6667,55.4,48.2,76.66,100,4,0,30.17,NA,6.21,NA,"CLR",NA,NA,NA,NA,NA,NA,NA,NA,NA,NA,NA,NA,NA,NA,NA,"KQEN 010520Z AUTO 10004KT 9999 CLR 13/09 A3017 RMK A02 TSNO"
"392","QEN",2019-11-01 05:30:00,128.75,37.6667,55.4,48.2,76.66,80,2,0,30.18,NA,6.21,10,"CLR",NA,NA,NA,NA,NA,NA,NA,NA,NA,NA,NA,NA,NA,NA,NA,"KQEN 010530Z AUTO 08002G10KT 9999 CLR 13/09 A3018 RMK A02 TSNO"
"393","QEN",2019-11-01 05:40:00,128.75,37.6667,55.4,48.2,76.66,110,4,0,30.17,NA,6.21,NA,"CLR",NA,NA,NA,NA,NA,NA,NA,NA,NA,NA,NA,NA,NA,NA,NA,"KQEN 010540Z AUTO 11004KT 9999 CLR 13/09 A3017 RMK A02 TSNO"
"394","QEN",2019-11-01 05:50:00,128.75,37.6667,55.4,48.2,76.66,100,4,0,30.18,NA,6.21,11,"CLR",NA,NA,NA,NA,NA,NA,NA,NA,NA,NA,NA,NA,NA,NA,NA,"KQEN 010550Z AUTO 10004G11KT 9999 CLR 13/09 A3018 RMK A02 TSNO"
"395","QEN",2019-11-01 06:00:00,128.75,37.6667,55.4,48.2,76.66,80,4,0,30.18,NA,6.21,NA,"CLR",NA,NA,NA,NA,NA,NA,NA,NA,NA,NA,NA,NA,NA,NA,NA,"KQEN 010600Z AUTO 08004KT 9999 CLR 13/09 A3018 RMK A02 TSNO"
"396","QEN",2019-11-01 06:10:00,128.75,37.6667,53.6,48.2,81.87,100,4,0,30.18,NA,6.21,NA,"CLR",NA,NA,NA,NA,NA,NA,NA,NA,NA,NA,NA,NA,NA,NA,NA,"KQEN 010610Z AUTO 10004KT 9999 CLR 12/09 A3018 RMK A02 TSNO"
"397","QEN",2019-11-01 06:20:00,128.75,37.6667,53.6,50,87.56,110,3,0,30.19,NA,6.21,10,"CLR",NA,NA,NA,NA,NA,NA,NA,NA,NA,NA,NA,NA,NA,NA,NA,"KQEN 010620Z AUTO 11003G10KT 9999 CLR 12/10 A3019 RMK A02 TSNO"
"398","QEN",2019-11-01 06:30:00,128.75,37.6667,53.6,50,87.56,80,4,0,30.19,NA,6.21,NA,"CLR",NA,NA,NA,NA,NA,NA,NA,NA,NA,NA,NA,NA,NA,NA,NA,"KQEN 010630Z AUTO 08004KT 9999 CLR 12/10 A3019 RMK A02 TSNO"
"399","QEN",2019-11-01 06:40:00,128.75,37.6667,53.6,50,87.56,110,3,0,30.19,NA,6.21,NA,"CLR",NA,NA,NA,NA,NA,NA,NA,NA,NA,NA,NA,NA,NA,NA,NA,"KQEN 010640Z AUTO 11003KT 9999 CLR 12/10 A3019 RMK A02 TSNO"
"400","QEN",2019-11-01 06:50:00,128.75,37.6667,53.6,50,87.56,80,3,0,30.19,NA,6.21,NA,"CLR",NA,NA,NA,NA,NA,NA,NA,NA,NA,NA,NA,NA,NA,NA,NA,"KQEN 010650Z AUTO 08003KT 9999 CLR 12/10 A3019 RMK A02 TSNO"
"401","QEN",2019-11-01 07:00:00,128.75,37.6667,53.6,50,87.56,90,2,0,30.18,NA,6.21,NA,"CLR",NA,NA,NA,NA,NA,NA,NA,NA,NA,NA,NA,NA,NA,NA,NA,"KQEN 010700Z AUTO 09002KT 9999 CLR 12/10 A3018 RMK A02 TSNO"
"402","QEN",2019-11-01 07:10:00,128.75,37.6667,53.6,50,87.56,100,2,0,30.18,NA,6.21,NA,"CLR",NA,NA,NA,NA,NA,NA,NA,NA,NA,NA,NA,NA,NA,NA,NA,"KQEN 010710Z AUTO 10002KT 9999 CLR 12/10 A3018 RMK A02 TSNO"
"403","QEN",2019-11-01 07:20:00,128.75,37.6667,53.6,50,87.56,100,2,0,30.18,NA,6.21,NA,"CLR",NA,NA,NA,NA,NA,NA,NA,NA,NA,NA,NA,NA,NA,NA,NA,"KQEN 010720Z AUTO 10002KT 9999 CLR 12/10 A3018 RMK A02 TSNO"
"404","QEN",2019-11-01 07:30:00,128.75,37.6667,51.8,50,93.55,80,2,0,30.18,NA,6.21,NA,"CLR",NA,NA,NA,NA,NA,NA,NA,NA,NA,NA,NA,NA,NA,NA,NA,"KQEN 010730Z AUTO 08002KT 9999 CLR 11/10 A3018 RMK A02 TSNO"
"405","QEN",2019-11-01 07:40:00,128.75,37.6667,51.8,50,93.55,70,2,0,30.18,NA,6.21,NA,"CLR",NA,NA,NA,NA,NA,NA,NA,NA,NA,NA,NA,NA,NA,NA,NA,"KQEN 010740Z AUTO 07002KT 9999 CLR 11/10 A3018 RMK A02 TSNO"
"406","QEN",2019-11-01 07:50:00,128.75,37.6667,51.8,50,93.55,40,3,0,30.19,NA,6.21,NA,"CLR",NA,NA,NA,NA,NA,NA,NA,NA,NA,NA,NA,NA,NA,NA,NA,"KQEN 010750Z AUTO 04003KT 9999 CLR 11/10 A3019 RMK A02 TSNO"
"407","QEN",2019-11-01 08:00:00,128.75,37.6667,51.8,51.8,100,50,2,0,30.19,NA,6.21,NA,"CLR",NA,NA,NA,NA,NA,NA,NA,NA,NA,NA,NA,NA,NA,NA,NA,"KQEN 010800Z AUTO 05002KT 9999 CLR 11/11 A3019 RMK A02 TSNO"
"408","QEN",2019-11-01 08:10:00,128.75,37.6667,51.8,51.8,100,80,1,0,NA,NA,6.21,NA,"SCT",NA,NA,NA,400,NA,NA,NA,NA,NA,NA,NA,NA,NA,NA,NA,"KQEN 010810Z AUTO 08001KT 9999 SCT004 11/11 / RMK A02 TSNO"
"409","QEN",2019-11-01 08:20:00,128.75,37.6667,51.8,51.8,100,80,1,0,NA,NA,6.21,NA,"BKN",NA,NA,NA,400,NA,NA,NA,NA,NA,NA,NA,NA,NA,NA,NA,"KQEN 010820Z AUTO 08001KT 9999 BKN004 11/11 / RMK A02 TSNO"
"410","QEN",2019-11-01 08:30:00,128.75,37.6667,51.8,51.8,100,80,2,0,NA,NA,6.21,NA,"BKN",NA,NA,NA,300,NA,NA,NA,NA,NA,NA,NA,NA,NA,NA,NA,"KQEN 010830Z AUTO 08002KT 9999 BKN003 11/11 / RMK A02 TSNO"
"411","QEN",2019-11-01 08:40:00,128.75,37.6667,51.8,51.8,100,20,1,0,NA,NA,6.21,NA,"BKN",NA,NA,NA,200,NA,NA,NA,NA,NA,NA,NA,NA,NA,NA,NA,"KQEN 010840Z AUTO 02001KT 9999 BKN002 11/11 / RMK A02 TSNO"
"412","QEN",2019-11-01 08:50:00,128.75,37.6667,51.8,51.8,100,30,1,0,NA,NA,6.21,NA,"BKN",NA,NA,NA,200,NA,NA,NA,NA,NA,NA,NA,NA,NA,NA,NA,"KQEN 010850Z AUTO 03001KT 9999 BKN002 11/11 / RMK A02 TSNO"
"413","QEN",2019-11-01 09:00:00,128.75,37.6667,51.8,51.8,100,60,1,0,NA,NA,5.59,NA,"BKN",NA,NA,NA,200,NA,NA,NA,NA,NA,NA,NA,NA,NA,NA,NA,"KQEN 010900Z AUTO 06001KT 9000 BKN002 11/11 / RMK A02 TSNO"
"414","QEN",2019-11-01 09:10:00,128.75,37.6667,51.8,51.8,100,60,1,0,NA,NA,5.59,NA,"BKN",NA,NA,NA,200,NA,NA,NA,NA,NA,NA,NA,NA,NA,NA,NA,"KQEN 010910Z AUTO 06001KT 9000 BKN002 11/11 / RMK A02 TSNO"
"415","QEN",2019-11-01 09:20:00,128.75,37.6667,51.8,51.8,100,20,1,0,NA,NA,4.97,NA,"BKN",NA,NA,NA,200,NA,NA,NA,NA,NA,NA,NA,NA,NA,NA,NA,"KQEN 010920Z AUTO 02001KT 8000 BKN002 11/11 / RMK A02 TSNO"
"416","QEN",2019-11-01 09:30:00,128.75,37.6667,51.8,51.8,100,30,1,0,NA,NA,4.97,NA,"BKN",NA,NA,NA,200,NA,NA,NA,NA,NA,NA,NA,NA,NA,NA,NA,"KQEN 010930Z AUTO 03001KT 8000 BKN002 11/11 / RMK A02 TSNO"
"417","QEN",2019-11-01 09:40:00,128.75,37.6667,51.8,51.8,100,30,1,0,NA,NA,5.59,NA,"BKN",NA,NA,NA,300,NA,NA,NA,NA,NA,NA,NA,NA,NA,NA,NA,"KQEN 010940Z AUTO 03001KT 9000 BKN003 11/11 / RMK A02 TSNO"
"418","QEN",2019-11-01 09:50:00,128.75,37.6667,51.8,51.8,100,10,1,0,NA,NA,6.21,NA,"BKN",NA,NA,NA,300,NA,NA,NA,NA,NA,NA,NA,NA,NA,NA,NA,"KQEN 010950Z AUTO 01001KT 9999 BKN003 11/11 / RMK A02 TSNO"
"419","QEN",2019-11-01 10:00:00,128.75,37.6667,51.8,51.8,100,0,0,0,NA,NA,6.21,NA,"BKN",NA,NA,NA,400,NA,NA,NA,NA,NA,NA,NA,NA,NA,NA,NA,"KQEN 011000Z AUTO 00000KT 9999 BKN004 11/11 / RMK A02 TSNO"
"420","QEN",2019-11-01 10:10:00,128.75,37.6667,51.8,51.8,100,0,0,0,NA,NA,6.21,NA,"SCT",NA,NA,NA,400,NA,NA,NA,NA,NA,NA,NA,NA,NA,NA,NA,"KQEN 011010Z AUTO 00000KT 9999 SCT004 11/11 / RMK A02 TSNO"
"421","QEN",2019-11-01 10:20:00,128.75,37.6667,51.8,51.8,100,330,2,0,NA,NA,6.21,NA,"FEW",NA,NA,NA,700,NA,NA,NA,NA,NA,NA,NA,NA,NA,NA,NA,"KQEN 011020Z AUTO 33002KT 9999 FEW007 11/11 / RMK A02 TSNO"
"422","QEN",2019-11-01 10:30:00,128.75,37.6667,51.8,51.8,100,320,1,0,NA,NA,6.21,NA,"CLR",NA,NA,NA,NA,NA,NA,NA,NA,NA,NA,NA,NA,NA,NA,NA,"KQEN 011030Z AUTO 32001KT 9999 CLR 11/11 / RMK A02 TSNO"
"423","QEN",2019-11-01 10:40:00,128.75,37.6667,51.8,51.8,100,310,3,0,NA,NA,6.21,NA,"CLR",NA,NA,NA,NA,NA,NA,NA,NA,NA,NA,NA,NA,NA,NA,NA,"KQEN 011040Z AUTO 31003KT 9999 CLR 11/11 / RMK A02 TSNO"
"424","QEN",2019-11-01 10:50:00,128.75,37.6667,51.8,51.8,100,260,2,0,NA,NA,6.21,NA,"CLR",NA,NA,NA,NA,NA,NA,NA,NA,NA,NA,NA,NA,NA,NA,NA,"KQEN 011050Z AUTO 26002KT 9999 CLR 11/11 / RMK A02 TSNO"
"425","QEN",2019-11-01 11:00:00,128.75,37.6667,51.8,51.8,100,250,3,0,NA,NA,3.73,NA,"CLR",NA,NA,NA,NA,NA,NA,NA,NA,NA,NA,NA,NA,NA,NA,NA,"KQEN 011100Z AUTO 25003KT 6000 CLR 11/11 / RMK A02 TSNO"
"426","QEN",2019-11-01 11:10:00,128.75,37.6667,51.8,51.8,100,260,3,0,NA,NA,3.73,NA,"FEW",NA,NA,NA,100,NA,NA,NA,NA,NA,NA,NA,NA,NA,NA,NA,"KQEN 011110Z AUTO 26003KT 6000 FEW001 11/11 / RMK A02 TSNO"
"427","QEN",2019-11-01 11:20:00,128.75,37.6667,51.8,51.8,100,260,4,0,NA,NA,4.97,NA,"FEW",NA,NA,NA,2000,NA,NA,NA,NA,NA,NA,NA,NA,NA,NA,NA,"KQEN 011120Z AUTO 26004KT 8000 FEW020 11/11 / RMK A02 TSNO"
"428","QEN",2019-11-01 11:30:00,128.75,37.6667,51.8,51.8,100,260,3,0,NA,NA,2.98,NA,"SCT",NA,NA,NA,100,NA,NA,NA,NA,NA,NA,NA,NA,NA,NA,NA,"KQEN 011130Z AUTO 26003KT 4800 SCT001 11/11 / RMK A02 TSNO"
"429","QEN",2019-11-01 11:40:00,128.75,37.6667,51.8,51.8,100,280,3,0,NA,NA,2.98,NA,"SCT",NA,NA,NA,100,NA,NA,NA,NA,NA,NA,NA,NA,NA,NA,NA,"KQEN 011140Z AUTO 28003KT 4800 SCT001 11/11 / RMK A02 TSNO"
"430","QEN",2019-11-01 11:50:00,128.75,37.6667,51.8,51.8,100,270,2,0,NA,NA,2.49,NA,"FEW",NA,NA,NA,100,NA,NA,NA,"BR",NA,NA,NA,NA,NA,NA,NA,"KQEN 011150Z AUTO 27002KT 4000 BR FEW001 11/11 / RMK A02 TSNO"
"431","QEN",2019-11-01 12:00:00,128.75,37.6667,51.8,51.8,100,240,3,0,NA,NA,2.98,NA,"FEW",NA,NA,NA,100,NA,NA,NA,NA,NA,NA,NA,NA,NA,NA,NA,"KQEN 011200Z AUTO 24003KT 4800 FEW001 11/11 / RMK A02 TSNO"
"432","QEN",2019-11-01 12:10:00,128.75,37.6667,51.8,51.8,100,260,3,0,NA,NA,2.98,NA,"CLR",NA,NA,NA,NA,NA,NA,NA,"BR",NA,NA,NA,NA,NA,NA,NA,"KQEN 011210Z AUTO 26003KT 4800 BR CLR 11/11 / RMK A02 TSNO"
"433","QEN",2019-11-01 12:20:00,128.75,37.6667,51.8,51.8,100,260,4,0,NA,NA,3.73,NA,"CLR",NA,NA,NA,NA,NA,NA,NA,NA,NA,NA,NA,NA,NA,NA,NA,"KQEN 011220Z AUTO 26004KT 6000 CLR 11/11 / RMK A02 TSNO"
"434","QEN",2019-11-01 12:30:00,128.75,37.6667,51.8,51.8,100,250,4,0,NA,NA,2.98,NA,"CLR",NA,NA,NA,NA,NA,NA,NA,NA,NA,NA,NA,NA,NA,NA,NA,"KQEN 011230Z AUTO 25004KT 4800 CLR 11/11 / RMK A02 TSNO"
"435","QEN",2019-11-01 12:40:00,128.75,37.6667,51.8,51.8,100,240,4,0,NA,NA,1.49,NA,"FEW",NA,NA,NA,2100,NA,NA,NA,"BR",NA,NA,NA,NA,NA,NA,NA,"KQEN 011240Z AUTO 24004KT 2400 BR FEW021 11/11 / RMK A02 TSNO"
"436","QEN",2019-11-01 12:50:00,128.75,37.6667,51.8,51.8,100,250,4,0,NA,NA,1.99,NA,"FEW",NA,NA,NA,2100,NA,NA,NA,"BR",NA,NA,NA,NA,NA,NA,NA,"KQEN 011250Z AUTO 25004KT 3200 BR FEW021 11/11 / RMK A02 TSNO"
"437","QEN",2019-11-01 13:00:00,128.75,37.6667,51.8,51.8,100,250,4,0,NA,NA,1.99,NA,"SCT","BKN",NA,NA,100,2100,NA,NA,"BR",NA,NA,NA,NA,NA,NA,NA,"KQEN 011300Z AUTO 25004KT 3200 BR SCT001 BKN021 11/11 / RMK A02 TSNO"
"438","QEN",2019-11-01 13:10:00,128.75,37.6667,51.8,51.8,100,260,4,0,NA,NA,1.99,NA,"SCT",NA,NA,NA,100,NA,NA,NA,"BR",NA,NA,NA,NA,NA,NA,NA,"KQEN 011310Z AUTO 26004KT 3200 BR SCT001 11/11 / RMK A02 TSNO"
"439","QEN",2019-11-01 13:20:00,128.75,37.6667,51.8,51.8,100,240,3,0,NA,NA,2.98,NA,"SCT",NA,NA,NA,100,NA,NA,NA,NA,NA,NA,NA,NA,NA,NA,NA,"KQEN 011320Z AUTO 24003KT 4800 SCT001 11/11 / RMK A02 TSNO"
"440","QEN",2019-11-01 13:30:00,128.75,37.6667,51.8,51.8,100,250,4,0,NA,NA,2.49,NA,"FEW",NA,NA,NA,1200,NA,NA,NA,"BR",NA,NA,NA,NA,NA,NA,NA,"KQEN 011330Z AUTO 25004KT 4000 BR FEW012 11/11 / RMK A02 TSNO"
"441","QEN",2019-11-01 13:40:00,128.75,37.6667,51.8,51.8,100,260,4,0,NA,NA,2.49,NA,"CLR",NA,NA,NA,NA,NA,NA,NA,"BR",NA,NA,NA,NA,NA,NA,NA,"KQEN 011340Z AUTO 26004KT 4000 BR CLR 11/11 / RMK A02 TSNO"
"442","QEN",2019-11-01 13:50:00,128.75,37.6667,51.8,51.8,100,260,5,0,NA,NA,2.98,NA,"CLR",NA,NA,NA,NA,NA,NA,NA,NA,NA,NA,NA,NA,NA,NA,NA,"KQEN 011350Z AUTO 26005KT 4800 CLR 11/11 / RMK A02 TSNO"
"443","QEN",2019-11-01 14:00:00,128.75,37.6667,51.8,51.8,100,250,4,0,NA,NA,2.98,NA,"CLR",NA,NA,NA,NA,NA,NA,NA,NA,NA,NA,NA,NA,NA,NA,NA,"KQEN 011400Z AUTO 25004KT 4800 CLR 11/11 / RMK A02 TSNO"
"444","QEN",2019-11-01 14:10:00,128.75,37.6667,51.8,51.8,100,260,4,0,NA,NA,1.99,NA,"CLR",NA,NA,NA,NA,NA,NA,NA,"BR",NA,NA,NA,NA,NA,NA,NA,"KQEN 011410Z AUTO 26004KT 3200 BR CLR 11/11 / RMK A02 TSNO"
"445","QEN",2019-11-01 14:20:00,128.75,37.6667,51.8,51.8,100,260,5,0,NA,NA,2.49,NA,"CLR",NA,NA,NA,NA,NA,NA,NA,"BR",NA,NA,NA,NA,NA,NA,NA,"KQEN 011420Z AUTO 26005KT 4000 BR CLR 11/11 / RMK A02 TSNO"
"446","QEN",2019-11-01 14:30:00,128.75,37.6667,51.8,51.8,100,250,5,0,NA,NA,2.98,NA,"CLR",NA,NA,NA,NA,NA,NA,NA,NA,NA,NA,NA,NA,NA,NA,NA,"KQEN 011430Z AUTO 25005KT 4800 CLR 11/11 / RMK A02 TSNO"
"447","QEN",2019-11-01 14:40:00,128.75,37.6667,51.8,51.8,100,260,4,0,NA,NA,1.99,NA,"CLR",NA,NA,NA,NA,NA,NA,NA,"BR",NA,NA,NA,NA,NA,NA,NA,"KQEN 011440Z AUTO 26004KT 3200 BR CLR 11/11 / RMK A02 TSNO"
"448","QEN",2019-11-01 14:50:00,128.75,37.6667,51.8,51.8,100,250,4,0,NA,NA,1.74,NA,"CLR",NA,NA,NA,NA,NA,NA,NA,"BR",NA,NA,NA,NA,NA,NA,NA,"KQEN 011450Z AUTO 25004KT 2800 BR CLR 11/11 / RMK A02 TSNO"
"449","QEN",2019-11-01 15:00:00,128.75,37.6667,51.8,51.8,100,260,5,0,NA,NA,0.99,NA,"FEW",NA,NA,NA,1700,NA,NA,NA,"BR",NA,NA,NA,NA,NA,NA,NA,"KQEN 011500Z AUTO 26005KT 1600 BR FEW017 11/11 / RMK A02 TSNO"
"450","QEN",2019-11-01 15:10:00,128.75,37.6667,51.8,51.8,100,250,6,0,NA,NA,1.24,NA,"SCT","SCT",NA,NA,100,1700,NA,NA,"BR",NA,NA,NA,NA,NA,NA,NA,"KQEN 011510Z AUTO 25006KT 2000 BR SCT001 SCT017 11/11 / RMK A02 TSNO"
"451","QEN",2019-11-01 15:20:00,128.75,37.6667,51.8,51.8,100,270,6,0,NA,NA,0.75,NA,"BKN","BKN",NA,NA,100,1700,NA,NA,"BR",NA,NA,NA,NA,NA,NA,NA,"KQEN 011520Z AUTO 27006KT 1200 BR BKN001 BKN017 11/11 / RMK A02 TSNO"
"452","QEN",2019-11-01 15:30:00,128.75,37.6667,51.8,51.8,100,260,5,0,NA,NA,1.99,NA,"BKN",NA,NA,NA,100,NA,NA,NA,"BR",NA,NA,NA,NA,NA,NA,NA,"KQEN 011530Z AUTO 26005KT 3200 BR BKN001 11/11 / RMK A02 TSNO"
"453","QEN",2019-11-01 15:40:00,128.75,37.6667,51.8,51.8,100,260,5,0,NA,NA,2.98,NA,"SCT",NA,NA,NA,100,NA,NA,NA,"BR",NA,NA,NA,NA,NA,NA,NA,"KQEN 011540Z AUTO 26005KT 4800 BR SCT001 11/11 / RMK A02 TSNO"
"454","QEN",2019-11-01 15:50:00,128.75,37.6667,51.8,51.8,100,270,6,0,NA,NA,2.49,NA,"FEW","FEW","SCT",NA,100,900,1100,NA,"BR",NA,NA,NA,NA,NA,NA,NA,"KQEN 011550Z AUTO 27006KT 4000 BR FEW001 FEW009 SCT011 11/11 / RMK A02 TSNO"
"455","QEN",2019-11-01 16:00:00,128.75,37.6667,51.8,51.8,100,250,6,0,NA,NA,1.74,NA,"FEW","FEW",NA,NA,100,900,NA,NA,"BR",NA,NA,NA,NA,NA,NA,NA,"KQEN 011600Z AUTO 25006KT 2800 BR FEW001 FEW009 11/11 / RMK A02 TSNO"
"456","QEN",2019-11-01 16:10:00,128.75,37.6667,51.8,51.8,100,260,6,0,NA,NA,1.24,NA,"FEW","SCT",NA,NA,100,900,NA,NA,"BR",NA,NA,NA,NA,NA,NA,NA,"KQEN 011610Z AUTO 26006KT 2000 BR FEW001 SCT009 11/11 / RMK A02 TSNO"
"457","QEN",2019-11-01 16:20:00,128.75,37.6667,51.8,51.8,100,260,6,0,NA,NA,1.49,NA,"FEW","FEW",NA,NA,200,900,NA,NA,"BR",NA,NA,NA,NA,NA,NA,NA,"KQEN 011620Z AUTO 26006KT 2400 BR FEW002 FEW009 11/11 / RMK A02 TSNO"
"458","QEN",2019-11-01 16:30:00,128.75,37.6667,51.8,51.8,100,250,6,0,NA,NA,1.24,NA,"FEW","SCT",NA,NA,200,1000,NA,NA,"BR",NA,NA,NA,NA,NA,NA,NA,"KQEN 011630Z AUTO 25006KT 2000 BR FEW002 SCT010 11/11 / RMK A02 TSNO"
"459","QEN",2019-11-01 16:40:00,128.75,37.6667,51.8,51.8,100,260,6,0,NA,NA,0.75,NA,"SCT",NA,NA,NA,700,NA,NA,NA,"BR",NA,NA,NA,NA,NA,NA,NA,"KQEN 011640Z AUTO 26006KT 1200 BR SCT007 11/11 / RMK A02 TSNO"
"460","QEN",2019-11-01 16:50:00,128.75,37.6667,51.8,51.8,100,260,7,0,NA,NA,1.74,NA,"FEW",NA,NA,NA,700,NA,NA,NA,"BR",NA,NA,NA,NA,NA,NA,NA,"KQEN 011650Z AUTO 26007KT 2800 BR FEW007 11/11 / RMK A02 TSNO"
"461","QEN",2019-11-01 17:00:00,128.75,37.6667,51.8,51.8,100,250,7,0,NA,NA,1.99,NA,"FEW",NA,NA,NA,400,NA,NA,NA,"BR",NA,NA,NA,NA,NA,NA,NA,"KQEN 011700Z AUTO 25007KT 3200 BR FEW004 11/11 / RMK A02 TSNO"
"462","QEN",2019-11-01 17:10:00,128.75,37.6667,51.8,51.8,100,260,6,0,NA,NA,1.49,NA,"CLR",NA,NA,NA,NA,NA,NA,NA,"BR",NA,NA,NA,NA,NA,NA,NA,"KQEN 011710Z AUTO 26006KT 2400 BR CLR 11/11 / RMK A02 TSNO"
"463","QEN",2019-11-01 17:20:00,128.75,37.6667,51.8,51.8,100,260,6,0,NA,NA,1.49,NA,"FEW",NA,NA,NA,200,NA,NA,NA,"BR",NA,NA,NA,NA,NA,NA,NA,"KQEN 011720Z AUTO 26006KT 2400 BR FEW002 11/11 / RMK A02 TSNO"
"464","QEN",2019-11-01 17:30:00,128.75,37.6667,51.8,51.8,100,260,6,0,NA,NA,1.24,NA,"BKN",NA,NA,NA,200,NA,NA,NA,"BR",NA,NA,NA,NA,NA,NA,NA,"KQEN 011730Z AUTO 26006KT 2000 BR BKN002 11/11 / RMK A02 TSNO"
"465","QEN",2019-11-01 17:40:00,128.75,37.6667,51.8,51.8,100,250,6,0,NA,NA,0.99,NA,"BKN",NA,NA,NA,100,NA,NA,NA,"BR",NA,NA,NA,NA,NA,NA,NA,"KQEN 011740Z AUTO 25006KT 1600 BR BKN001 11/11 / RMK A02 TSNO"
"466","QEN",2019-11-01 17:50:00,128.75,37.6667,51.8,51.8,100,260,7,0,NA,NA,0.75,NA,"BKN",NA,NA,NA,100,NA,NA,NA,"BR",NA,NA,NA,NA,NA,NA,NA,"KQEN 011750Z AUTO 26007KT 1200 BR BKN001 11/11 / RMK A02 TSNO"
"467","QEN",2019-11-01 18:00:00,128.75,37.6667,51.8,51.8,100,250,7,0,NA,NA,0.25,NA,"CLR",NA,NA,NA,NA,NA,NA,NA,"FG",NA,NA,NA,NA,NA,NA,NA,"KQEN 011800Z AUTO 25007KT 0400 FG CLR 11/11 / RMK A02 TSNO"
"468","QEN",2019-11-01 18:10:00,128.75,37.6667,51.8,51.8,100,260,6,0,NA,NA,0.25,NA,"CLR",NA,NA,NA,NA,NA,NA,NA,"FG",NA,NA,NA,NA,NA,NA,NA,"KQEN 011810Z AUTO 26006KT 0400 FG CLR 11/11 / RMK A02 TSNO"
"469","QEN",2019-11-01 18:20:00,128.75,37.6667,51.8,51.8,100,260,6,0,NA,NA,0.25,NA,"CLR",NA,NA,NA,NA,NA,NA,NA,"FG",NA,NA,NA,NA,NA,NA,NA,"KQEN 011820Z AUTO 26006KT M0400 FG CLR 11/11 / RMK A02 TSNO"
"470","QEN",2019-11-01 18:30:00,128.75,37.6667,51.8,51.8,100,260,6,0,NA,NA,0.25,NA,"CLR",NA,NA,NA,NA,NA,NA,NA,"FG",NA,NA,NA,NA,NA,NA,NA,"KQEN 011830Z AUTO 26006KT 0400 FG CLR 11/11 / RMK A02 TSNO"
"471","QEN",2019-11-01 18:40:00,128.75,37.6667,51.8,51.8,100,250,7,0,NA,NA,0.25,NA,"CLR",NA,NA,NA,NA,NA,NA,NA,"FG",NA,NA,NA,NA,NA,NA,NA,"KQEN 011840Z AUTO 25007KT M0400 FG CLR 11/11 / RMK A02 TSNO"
"472","QEN",2019-11-01 18:50:00,128.75,37.6667,51.8,51.8,100,250,6,0,NA,NA,0.25,NA,"CLR",NA,NA,NA,NA,NA,NA,NA,"FG",NA,NA,NA,NA,NA,NA,NA,"KQEN 011850Z AUTO 25006KT M0400 FG CLR 11/11 / RMK A02 TSNO"
"473","QEN",2019-11-01 19:00:00,128.75,37.6667,51.8,51.8,100,250,7,0,NA,NA,0.25,NA,"CLR",NA,NA,NA,NA,NA,NA,NA,"FG",NA,NA,NA,NA,NA,NA,NA,"KQEN 011900Z AUTO 25007KT M0400 FG CLR 11/11 / RMK A02 TSNO"
"474","QEN",2019-11-01 19:10:00,128.75,37.6667,51.8,51.8,100,260,7,0,NA,NA,0.25,NA,"CLR",NA,NA,NA,NA,NA,NA,NA,"FG",NA,NA,NA,NA,NA,NA,NA,"KQEN 011910Z AUTO 26007KT M0400 FG CLR 11/11 / RMK A02 TSNO"
"475","QEN",2019-11-01 19:20:00,128.75,37.6667,51.8,51.8,100,260,7,0,NA,NA,0.25,NA,"CLR",NA,NA,NA,NA,NA,NA,NA,"FG",NA,NA,NA,NA,NA,NA,NA,"KQEN 011920Z AUTO 26007KT M0400 FG CLR 11/11 / RMK A02 TSNO"
"476","QEN",2019-11-01 19:30:00,128.75,37.6667,51.8,51.8,100,260,7,0,NA,NA,0.25,NA,"CLR",NA,NA,NA,NA,NA,NA,NA,"FG",NA,NA,NA,NA,NA,NA,NA,"KQEN 011930Z AUTO 26007KT M0400 FG CLR 11/11 / RMK A02 TSNO"
"477","QEN",2019-11-01 19:40:00,128.75,37.6667,51.8,51.8,100,260,7,0,NA,NA,0.25,13,"CLR",NA,NA,NA,NA,NA,NA,NA,"FG",NA,NA,NA,NA,NA,NA,NA,"KQEN 011940Z AUTO 26007G13KT M0400 FG CLR 11/11 / RMK A02 TSNO"
"478","QEN",2019-11-01 19:50:00,128.75,37.6667,51.8,51.8,100,260,7,0,NA,NA,0.25,NA,"CLR",NA,NA,NA,NA,NA,NA,NA,"FG",NA,NA,NA,NA,NA,NA,NA,"KQEN 011950Z AUTO 26007KT M0400 FG CLR 11/11 / RMK A02 TSNO"
"479","QEN",2019-11-01 20:00:00,128.75,37.6667,51.8,51.8,100,260,8,0,NA,NA,0.25,NA,"CLR",NA,NA,NA,NA,NA,NA,NA,"FG",NA,NA,NA,NA,NA,NA,NA,"KQEN 012000Z AUTO 26008KT M0400 FG CLR 11/11 / RMK A02 TSNO"
"480","QEN",2019-11-01 20:10:00,128.75,37.6667,51.8,51.8,100,260,8,0,NA,NA,0.25,NA,"CLR",NA,NA,NA,NA,NA,NA,NA,"FG",NA,NA,NA,NA,NA,NA,NA,"KQEN 012010Z AUTO 26008KT M0400 FG CLR 11/11 / RMK A02 TSNO"
"481","QEN",2019-11-01 20:20:00,128.75,37.6667,51.8,51.8,100,260,7,0,NA,NA,0.25,NA,"CLR",NA,NA,NA,NA,NA,NA,NA,"FG",NA,NA,NA,NA,NA,NA,NA,"KQEN 012020Z AUTO 26007KT M0400 FG CLR 11/11 / RMK A02 TSNO"
"482","QEN",2019-11-01 20:30:00,128.75,37.6667,51.8,51.8,100,260,7,0,NA,NA,0.25,NA,"CLR",NA,NA,NA,NA,NA,NA,NA,"FG",NA,NA,NA,NA,NA,NA,NA,"KQEN 012030Z AUTO 26007KT M0400 FG CLR 11/11 / RMK A02 TSNO"
"483","QEN",2019-11-01 20:40:00,128.75,37.6667,51.8,51.8,100,260,7,0,NA,NA,0.25,NA,"CLR",NA,NA,NA,NA,NA,NA,NA,"FG",NA,NA,NA,NA,NA,NA,NA,"KQEN 012040Z AUTO 26007KT M0400 FG CLR 11/11 / RMK A02 TSNO"
"484","QEN",2019-11-01 20:50:00,128.75,37.6667,51.8,51.8,100,260,7,0,NA,NA,0.25,NA,"CLR",NA,NA,NA,NA,NA,NA,NA,"-DZ",NA,NA,NA,NA,NA,NA,NA,"KQEN 012050Z AUTO 26007KT M0400 -DZ CLR 11/11 / RMK A02 TSNO"
"485","QEN",2019-11-01 21:00:00,128.75,37.6667,51.8,51.8,100,260,7,0,NA,NA,0.25,NA,"CLR",NA,NA,NA,NA,NA,NA,NA,"-RA",NA,NA,NA,NA,NA,NA,NA,"KQEN 012100Z AUTO 26007KT M0400 -RA CLR 11/11 / RMK A02 TSNO"
"486","QEN",2019-11-01 21:10:00,128.75,37.6667,51.8,51.8,100,260,6,0,NA,NA,0.25,NA,"CLR",NA,NA,NA,NA,NA,NA,NA,"-RA",NA,NA,NA,NA,NA,NA,NA,"KQEN 012110Z AUTO 26006KT M0400 -RA CLR 11/11 / RMK A02 TSNO"
"487","QEN",2019-11-01 21:20:00,128.75,37.6667,51.8,51.8,100,260,6,0,NA,NA,0.25,NA,"CLR",NA,NA,NA,NA,NA,NA,NA,"-RA",NA,NA,NA,NA,NA,NA,NA,"KQEN 012120Z AUTO 26006KT M0400 -RA CLR 11/11 / RMK A02 TSNO"
"488","QEN",2019-11-01 21:30:00,128.75,37.6667,51.8,51.8,100,260,7,0,NA,NA,0.25,NA,"CLR",NA,NA,NA,NA,NA,NA,NA,"-RA",NA,NA,NA,NA,NA,NA,NA,"KQEN 012130Z AUTO 26007KT M0400 -RA CLR 11/11 / RMK A02 TSNO"
"489","QEN",2019-11-01 21:40:00,128.75,37.6667,51.8,51.8,100,260,7,0,NA,NA,0.25,NA,"CLR",NA,NA,NA,NA,NA,NA,NA,"-RA",NA,NA,NA,NA,NA,NA,NA,"KQEN 012140Z AUTO 26007KT M0400 -RA CLR 11/11 / RMK A02 TSNO"
"490","QEN",2019-11-01 21:50:00,128.75,37.6667,51.8,51.8,100,260,7,0,NA,NA,0.25,NA,"CLR",NA,NA,NA,NA,NA,NA,NA,"-RA",NA,NA,NA,NA,NA,NA,NA,"KQEN 012150Z AUTO 26007KT M0400 -RA CLR 11/11 / RMK A02 TSNO"
"491","QEN",2019-11-01 22:00:00,128.75,37.6667,51.8,51.8,100,260,6,0,NA,NA,0.25,NA,"CLR",NA,NA,NA,NA,NA,NA,NA,"-RA",NA,NA,NA,NA,NA,NA,NA,"KQEN 012200Z AUTO 26006KT M0400 -RA CLR 11/11 / RMK A02 TSNO"
"492","QEN",2019-11-01 22:10:00,128.75,37.6667,51.8,51.8,100,260,6,0,NA,NA,0.25,NA,"CLR",NA,NA,NA,NA,NA,NA,NA,"-RA",NA,NA,NA,NA,NA,NA,NA,"KQEN 012210Z AUTO 26006KT M0400 -RA CLR 11/11 / RMK A02 TSNO"
"493","QEN",2019-11-01 22:20:00,128.75,37.6667,51.8,51.8,100,260,8,0,NA,NA,0.25,NA,"CLR",NA,NA,NA,NA,NA,NA,NA,"-RA",NA,NA,NA,NA,NA,NA,NA,"KQEN 012220Z AUTO 26008KT M0400 -RA CLR 11/11 / RMK A02 TSNO"
"494","QEN",2019-11-01 22:30:00,128.75,37.6667,51.8,51.8,100,260,6,0,NA,NA,0.25,NA,"CLR",NA,NA,NA,NA,NA,NA,NA,"-RA",NA,NA,NA,NA,NA,NA,NA,"KQEN 012230Z AUTO 26006KT M0400 -RA CLR 11/11 / RMK A02 TSNO"
"495","QEN",2019-11-01 22:40:00,128.75,37.6667,51.8,51.8,100,260,7,0,NA,NA,0.25,NA,"CLR",NA,NA,NA,NA,NA,NA,NA,"-RA",NA,NA,NA,NA,NA,NA,NA,"KQEN 012240Z AUTO 26007KT M0400 -RA CLR 11/11 / RMK A02 TSNO"
"496","QEN",2019-11-01 22:50:00,128.75,37.6667,51.8,51.8,100,260,7,0,NA,NA,0.25,NA,"CLR",NA,NA,NA,NA,NA,NA,NA,"-RA",NA,NA,NA,NA,NA,NA,NA,"KQEN 012250Z AUTO 26007KT M0400 -RA CLR 11/11 / RMK A02 TSNO"
"497","QEN",2019-11-01 23:00:00,128.75,37.6667,51.8,51.8,100,260,7,0,NA,NA,0.25,NA,"CLR",NA,NA,NA,NA,NA,NA,NA,"-RA",NA,NA,NA,NA,NA,NA,NA,"KQEN 012300Z AUTO 26007KT M0400 -RA CLR 11/11 / RMK A02 TSNO"
"498","QEN",2019-11-01 23:10:00,128.75,37.6667,51.8,51.8,100,260,7,0,NA,NA,0.25,NA,"CLR",NA,NA,NA,NA,NA,NA,NA,"-RA",NA,NA,NA,NA,NA,NA,NA,"KQEN 012310Z AUTO 26007KT M0400 -RA CLR 11/11 / RMK A02 TSNO"
"499","QEN",2019-11-01 23:20:00,128.75,37.6667,51.8,51.8,100,250,7,0,NA,NA,0.25,NA,"CLR",NA,NA,NA,NA,NA,NA,NA,"-RA",NA,NA,NA,NA,NA,NA,NA,"KQEN 012320Z AUTO 25007KT M0400 -RA CLR 11/11 / RMK A02 TSNO"
"500","QEN",2019-11-01 23:30:00,128.75,37.6667,51.8,51.8,100,260,7,0,NA,NA,0.25,NA,"CLR",NA,NA,NA,NA,NA,NA,NA,"-RA",NA,NA,NA,NA,NA,NA,NA,"KQEN 012330Z AUTO 26007KT M0400 -RA CLR 11/11 / RMK A02 TSNO"
"501","QEN",2019-11-01 23:40:00,128.75,37.6667,51.8,51.8,100,250,7,0,NA,NA,0.25,NA,"CLR",NA,NA,NA,NA,NA,NA,NA,"-RA",NA,NA,NA,NA,NA,NA,NA,"KQEN 012340Z AUTO 25007KT M0400 -RA CLR 11/11 / RMK A02 TSNO"
"502","QES",2019-11-01 00:00:00,126.45,36.9667,62.6,41,45.04,340,11,0,30.25,NA,6.21,NA,"CLR",NA,NA,NA,NA,NA,NA,NA,NA,NA,NA,NA,NA,NA,NA,NA,"KQES 010000Z AUTO 34011KT 9999 CLR 17/05 A3025 RMK A02 TSNO"
"503","QES",2019-11-01 00:10:00,126.45,36.9667,62.6,39.2,42,340,11,0,30.25,NA,6.21,15,"CLR",NA,NA,NA,NA,NA,NA,NA,NA,NA,NA,NA,NA,NA,NA,NA,"KQES 010010Z AUTO 34011G15KT 9999 CLR 17/04 A3025 RMK A02 TSNO"
"504","QES",2019-11-01 00:20:00,126.45,36.9667,62.6,41,45.04,350,13,0,30.25,NA,6.21,16,"CLR",NA,NA,NA,NA,NA,NA,NA,NA,NA,NA,NA,NA,NA,NA,NA,"KQES 010020Z AUTO 35013G16KT 9999 CLR 17/05 A3025 RMK A02 TSNO"
"505","QES",2019-11-01 00:30:00,126.45,36.9667,62.6,39.2,42,340,11,0,30.25,NA,6.21,17,"CLR",NA,NA,NA,NA,NA,NA,NA,NA,NA,NA,NA,NA,NA,NA,NA,"KQES 010030Z AUTO 34011G17KT 9999 CLR 17/04 A3025 RMK A02 TSNO"
"506","QES",2019-11-01 00:40:00,126.45,36.9667,62.6,41,45.04,340,11,0,30.25,NA,6.21,15,"CLR",NA,NA,NA,NA,NA,NA,NA,NA,NA,NA,NA,NA,NA,NA,NA,"KQES 010040Z AUTO 34011G15KT 9999 CLR 17/05 A3025 RMK A02 TSNO"
"507","QES",2019-11-01 00:50:00,126.45,36.9667,62.6,41,45.04,350,12,0,30.25,NA,6.21,17,"CLR",NA,NA,NA,NA,NA,NA,NA,NA,NA,NA,NA,NA,NA,NA,NA,"KQES 010050Z AUTO 35012G17KT 9999 CLR 17/05 A3025 RMK A02 TSNO"
"508","QES",2019-11-01 01:10:00,126.45,36.9667,62.6,39.2,42,350,13,0,30.25,NA,6.21,17,"CLR",NA,NA,NA,NA,NA,NA,NA,NA,NA,NA,NA,NA,NA,NA,NA,"KQES 010110Z AUTO 35013G17KT 9999 CLR 17/04 A3025 RMK A02 TSNO"
"509","QES",2019-11-01 01:20:00,126.45,36.9667,62.6,37.4,39.14,350,13,0,30.25,NA,6.21,18,"CLR",NA,NA,NA,NA,NA,NA,NA,NA,NA,NA,NA,NA,NA,NA,NA,"KQES 010120Z AUTO 35013G18KT 9999 CLR 17/03 A3025 RMK A02 TSNO"
"510","QES",2019-11-01 01:30:00,126.45,36.9667,62.6,37.4,39.14,350,15,0,30.25,NA,6.21,19,"CLR",NA,NA,NA,NA,NA,NA,NA,NA,NA,NA,NA,NA,NA,NA,NA,"KQES 010130Z AUTO 35015G19KT 9999 CLR 17/03 A3025 RMK A02 TSNO"
"511","QES",2019-11-01 01:40:00,126.45,36.9667,62.6,37.4,39.14,340,14,0,30.25,NA,6.21,17,"CLR",NA,NA,NA,NA,NA,NA,NA,NA,NA,NA,NA,NA,NA,NA,NA,"KQES 010140Z AUTO 34014G17KT 9999 CLR 17/03 A3025 RMK A02 TSNO"
"512","QES",2019-11-01 01:50:00,126.45,36.9667,62.6,33.8,33.93,350,14,0,30.25,NA,6.21,18,"CLR",NA,NA,NA,NA,NA,NA,NA,NA,NA,NA,NA,NA,NA,NA,NA,"KQES 010150Z AUTO 35014G18KT 9999 CLR 17/01 A3025 RMK A02 TSNO"
"513","QES",2019-11-01 02:00:00,126.45,36.9667,62.6,33.8,33.93,350,13,0,30.25,NA,6.21,18,"CLR",NA,NA,NA,NA,NA,NA,NA,NA,NA,NA,NA,NA,NA,NA,NA,"KQES 010200Z AUTO 35013G18KT 9999 CLR 17/01 A3025 RMK A02 TSNO"
"514","QES",2019-11-01 02:10:00,126.45,36.9667,62.6,30.2,29.35,350,14,0,30.25,NA,6.21,18,"CLR",NA,NA,NA,NA,NA,NA,NA,NA,NA,NA,NA,NA,NA,NA,NA,"KQES 010210Z AUTO 35014G18KT 9999 CLR 17/M01 A3025 RMK A02 TSNO"
"515","QES",2019-11-01 02:20:00,126.45,36.9667,62.6,33.8,33.93,340,12,0,30.25,NA,6.21,17,"CLR",NA,NA,NA,NA,NA,NA,NA,NA,NA,NA,NA,NA,NA,NA,NA,"KQES 010220Z AUTO 34012G17KT 9999 CLR 17/01 A3025 RMK A02 TSNO"
"516","QES",2019-11-01 02:30:00,126.45,36.9667,62.6,35.6,36.45,350,14,0,30.25,NA,6.21,18,"CLR",NA,NA,NA,NA,NA,NA,NA,NA,NA,NA,NA,NA,NA,NA,NA,"KQES 010230Z AUTO 35014G18KT 9999 CLR 17/02 A3025 RMK A02 TSNO"
"517","QES",2019-11-01 02:40:00,126.45,36.9667,62.6,37.4,39.14,350,12,0,30.25,NA,6.21,15,"CLR",NA,NA,NA,NA,NA,NA,NA,NA,NA,NA,NA,NA,NA,NA,NA,"KQES 010240Z AUTO 35012G15KT 9999 CLR 17/03 A3025 RMK A02 TSNO"
"518","QES",2019-11-01 02:50:00,126.45,36.9667,64.4,35.6,34.22,330,10,0,30.24,NA,6.21,16,"CLR",NA,NA,NA,NA,NA,NA,NA,NA,NA,NA,NA,NA,NA,NA,NA,"KQES 010250Z AUTO 33010G16KT 9999 CLR 18/02 A3024 RMK A02 TSNO"
"519","QES",2019-11-01 03:00:00,126.45,36.9667,64.4,35.6,34.22,330,10,0,30.24,NA,6.21,14,"CLR",NA,NA,NA,NA,NA,NA,NA,NA,NA,NA,NA,NA,NA,NA,NA,"KQES 010300Z AUTO 33010G14KT 9999 CLR 18/02 A3024 RMK A02 TSNO"
"520","QES",2019-11-01 03:10:00,126.45,36.9667,64.4,35.6,34.22,330,11,0,30.24,NA,6.21,17,"CLR",NA,NA,NA,NA,NA,NA,NA,NA,NA,NA,NA,NA,NA,NA,NA,"KQES 010310Z AUTO 33011G17KT 9999 CLR 18/02 A3024 RMK A02 TSNO"
"521","QES",2019-11-01 03:20:00,126.45,36.9667,64.4,33.8,31.85,330,10,0,30.24,NA,6.21,17,"CLR",NA,NA,NA,NA,NA,NA,NA,NA,NA,NA,NA,NA,NA,NA,NA,"KQES 010320Z AUTO 33010G17KT 9999 CLR 18/01 A3024 RMK A02 TSNO"
"522","QES",2019-11-01 03:40:00,126.45,36.9667,64.4,35.6,34.22,340,11,0,30.23,NA,6.21,15,"CLR",NA,NA,NA,NA,NA,NA,NA,NA,NA,NA,NA,NA,NA,NA,NA,"KQES 010340Z AUTO 34011G15KT 9999 CLR 18/02 A3023 RMK A02 TSNO"
"523","QES",2019-11-01 03:50:00,126.45,36.9667,64.4,32,29.63,340,11,0,30.23,NA,6.21,16,"CLR",NA,NA,NA,NA,NA,NA,NA,NA,NA,NA,NA,NA,NA,NA,NA,"KQES 010350Z AUTO 34011G16KT 9999 CLR 18/M00 A3023 RMK A02 TSNO"
"524","QES",2019-11-01 04:00:00,126.45,36.9667,64.4,32,29.63,330,10,0,30.22,NA,6.21,15,"CLR",NA,NA,NA,NA,NA,NA,NA,NA,NA,NA,NA,NA,NA,NA,NA,"KQES 010400Z AUTO 33010G15KT 9999 CLR 18/00 A3022 RMK A02 TSNO"
"525","QES",2019-11-01 04:10:00,126.45,36.9667,64.4,32,29.63,330,12,0,30.22,NA,6.21,15,"CLR",NA,NA,NA,NA,NA,NA,NA,NA,NA,NA,NA,NA,NA,NA,NA,"KQES 010410Z AUTO 33012G15KT 9999 CLR 18/M00 A3022 RMK A02 TSNO"
"526","QES",2019-11-01 04:20:00,126.45,36.9667,64.4,32,29.63,330,10,0,30.22,NA,6.21,16,"CLR",NA,NA,NA,NA,NA,NA,NA,NA,NA,NA,NA,NA,NA,NA,NA,"KQES 010420Z AUTO 33010G16KT 9999 CLR 18/00 A3022 RMK A02 TSNO"
"527","QES",2019-11-01 04:30:00,126.45,36.9667,62.6,32,31.56,330,11,0,30.21,NA,6.21,15,"CLR",NA,NA,NA,NA,NA,NA,NA,NA,NA,NA,NA,NA,NA,NA,NA,"KQES 010430Z AUTO 33011G15KT 9999 CLR 17/M00 A3021 RMK A02 TSNO"
"528","QES",2019-11-01 04:40:00,126.45,36.9667,62.6,32,31.56,350,9,0,30.21,NA,6.21,13,"CLR",NA,NA,NA,NA,NA,NA,NA,NA,NA,NA,NA,NA,NA,NA,NA,"KQES 010440Z AUTO 35009G13KT 9999 CLR 17/00 A3021 RMK A02 TSNO"
"529","QES",2019-11-01 04:50:00,126.45,36.9667,62.6,32,31.56,340,10,0,30.21,NA,6.21,13,"CLR",NA,NA,NA,NA,NA,NA,NA,NA,NA,NA,NA,NA,NA,NA,NA,"KQES 010450Z AUTO 34010G13KT 9999 CLR 17/00 A3021 RMK A02 TSNO"
"530","QES",2019-11-01 05:00:00,126.45,36.9667,64.4,32,29.63,330,8,0,30.21,NA,6.21,NA,"CLR",NA,NA,NA,NA,NA,NA,NA,NA,NA,NA,NA,NA,NA,NA,NA,"KQES 010500Z AUTO 33008KT 9999 CLR 18/00 A3021 RMK A02 TSNO"
"531","QES",2019-11-01 05:10:00,126.45,36.9667,64.4,32,29.63,340,9,0,30.21,NA,6.21,12,"CLR",NA,NA,NA,NA,NA,NA,NA,NA,NA,NA,NA,NA,NA,NA,NA,"KQES 010510Z AUTO 34009G12KT 9999 CLR 18/00 A3021 RMK A02 TSNO"
"532","QES",2019-11-01 05:20:00,126.45,36.9667,64.4,30.2,27.55,330,8,0,30.21,NA,6.21,NA,"CLR",NA,NA,NA,NA,NA,NA,NA,NA,NA,NA,NA,NA,NA,NA,NA,"KQES 010520Z AUTO 33008KT 9999 CLR 18/M01 A3021 RMK A02 TSNO"
"533","QES",2019-11-01 05:30:00,126.45,36.9667,64.4,30.2,27.55,330,4,0,30.21,NA,6.21,NA,"CLR",NA,NA,NA,NA,NA,NA,NA,NA,NA,NA,NA,NA,NA,NA,NA,"KQES 010530Z AUTO 33004KT 9999 CLR 18/M01 A3021 RMK A02 TSNO"
"534","QES",2019-11-01 05:40:00,126.45,36.9667,64.4,32,29.63,330,8,0,30.2,NA,6.21,11,"CLR",NA,NA,NA,NA,NA,NA,NA,NA,NA,NA,NA,NA,NA,NA,NA,"KQES 010540Z AUTO 33008G11KT 9999 CLR 18/00 A3020 RMK A02 TSNO"
"535","QES",2019-11-01 05:50:00,126.45,36.9667,64.4,33.8,31.85,340,7,0,30.2,NA,6.21,12,"CLR",NA,NA,NA,NA,NA,NA,NA,NA,NA,NA,NA,NA,NA,NA,NA,"KQES 010550Z AUTO 34007G12KT 9999 CLR 18/01 A3020 RMK A02 TSNO"
"536","QES",2019-11-01 06:00:00,126.45,36.9667,64.4,32,29.63,330,7,0,30.2,NA,6.21,11,"CLR",NA,NA,NA,NA,NA,NA,NA,NA,NA,NA,NA,NA,NA,NA,NA,"KQES 010600Z AUTO 33007G11KT 9999 CLR 18/00 A3020 RMK A02 TSNO"
"537","QES",2019-11-01 06:10:00,126.45,36.9667,64.4,35.6,34.22,330,6,0,30.21,NA,6.21,NA,"CLR",NA,NA,NA,NA,NA,NA,NA,NA,NA,NA,NA,NA,NA,NA,NA,"KQES 010610Z AUTO 33006KT 9999 CLR 18/02 A3021 RMK A02 TSNO"
"538","QES",2019-11-01 06:20:00,126.45,36.9667,64.4,33.8,31.85,330,8,0,30.21,NA,6.21,NA,"CLR",NA,NA,NA,NA,NA,NA,NA,NA,NA,NA,NA,NA,NA,NA,NA,"KQES 010620Z AUTO 33008KT 9999 CLR 18/01 A3021 RMK A02 TSNO"
"539","QES",2019-11-01 06:30:00,126.45,36.9667,64.4,32,29.63,340,7,0,30.2,NA,6.21,NA,"CLR",NA,NA,NA,NA,NA,NA,NA,NA,NA,NA,NA,NA,NA,NA,NA,"KQES 010630Z AUTO 34007KT 9999 CLR 18/00 A3020 RMK A02 TSNO"
"540","QES",2019-11-01 06:40:00,126.45,36.9667,64.4,35.6,34.22,320,5,0,30.2,NA,6.21,NA,"CLR",NA,NA,NA,NA,NA,NA,NA,NA,NA,NA,NA,NA,NA,NA,NA,"KQES 010640Z AUTO 32005KT 9999 CLR 18/02 A3020 RMK A02 TSNO"
"541","QES",2019-11-01 06:50:00,126.45,36.9667,64.4,35.6,34.22,330,7,0,30.21,NA,6.21,NA,"CLR",NA,NA,NA,NA,NA,NA,NA,NA,NA,NA,NA,NA,NA,NA,NA,"KQES 010650Z AUTO 33007KT 9999 CLR 18/02 A3021 RMK A02 TSNO"
"542","QES",2019-11-01 07:00:00,126.45,36.9667,64.4,35.6,34.22,320,7,0,30.21,NA,6.21,NA,"CLR",NA,NA,NA,NA,NA,NA,NA,NA,NA,NA,NA,NA,NA,NA,NA,"KQES 010700Z AUTO 32007KT 9999 CLR 18/02 A3021 RMK A02 TSNO"
"543","QES",2019-11-01 07:10:00,126.45,36.9667,62.6,35.6,36.45,330,5,0,30.21,NA,6.21,NA,"CLR",NA,NA,NA,NA,NA,NA,NA,NA,NA,NA,NA,NA,NA,NA,NA,"KQES 010710Z AUTO 33005KT 9999 CLR 17/02 A3021 RMK A02 TSNO"
"544","QES",2019-11-01 07:20:00,126.45,36.9667,62.6,35.6,36.45,310,7,0,30.21,NA,6.21,NA,"CLR",NA,NA,NA,NA,NA,NA,NA,NA,NA,NA,NA,NA,NA,NA,NA,"KQES 010720Z AUTO 31007KT 9999 CLR 17/02 A3021 RMK A02 TSNO"
"545","QES",2019-11-01 07:30:00,126.45,36.9667,62.6,37.4,39.14,340,6,0,30.21,NA,6.21,NA,"CLR",NA,NA,NA,NA,NA,NA,NA,NA,NA,NA,NA,NA,NA,NA,NA,"KQES 010730Z AUTO 34006KT 9999 CLR 17/03 A3021 RMK A02 TSNO"
"546","QES",2019-11-01 07:40:00,126.45,36.9667,62.6,37.4,39.14,320,6,0,30.21,NA,6.21,10,"CLR",NA,NA,NA,NA,NA,NA,NA,NA,NA,NA,NA,NA,NA,NA,NA,"KQES 010740Z AUTO 32006G10KT 9999 CLR 17/03 A3021 RMK A02 TSNO"
"547","QES",2019-11-01 07:50:00,126.45,36.9667,62.6,37.4,39.14,310,6,0,30.21,NA,6.21,NA,"CLR",NA,NA,NA,NA,NA,NA,NA,NA,NA,NA,NA,NA,NA,NA,NA,"KQES 010750Z AUTO 31006KT 9999 CLR 17/03 A3021 RMK A02 TSNO"
"548","QES",2019-11-01 08:00:00,126.45,36.9667,62.6,37.4,39.14,320,8,0,30.22,NA,6.21,NA,"CLR",NA,NA,NA,NA,NA,NA,NA,NA,NA,NA,NA,NA,NA,NA,NA,"KQES 010800Z AUTO 32008KT 9999 CLR 17/03 A3022 RMK A02 TSNO"
"549","QES",2019-11-01 08:10:00,126.45,36.9667,60.8,39.2,44.76,330,6,0,30.22,NA,6.21,NA,"CLR",NA,NA,NA,NA,NA,NA,NA,NA,NA,NA,NA,NA,NA,NA,NA,"KQES 010810Z AUTO 33006KT 9999 CLR 16/04 A3022 RMK A02 TSNO"
"550","QES",2019-11-01 08:20:00,126.45,36.9667,60.8,39.2,44.76,330,6,0,30.21,NA,6.21,NA,"CLR",NA,NA,NA,NA,NA,NA,NA,NA,NA,NA,NA,NA,NA,NA,NA,"KQES 010820Z AUTO 33006KT 9999 CLR 16/04 A3021 RMK A02 TSNO"
"551","QES",2019-11-01 08:30:00,126.45,36.9667,60.8,37.4,41.71,330,6,0,30.21,NA,6.21,NA,"CLR",NA,NA,NA,NA,NA,NA,NA,NA,NA,NA,NA,NA,NA,NA,NA,"KQES 010830Z AUTO 33006KT 9999 CLR 16/03 A3021 RMK A02 TSNO"
"552","QES",2019-11-01 08:40:00,126.45,36.9667,60.8,39.2,44.76,320,4,0,30.21,NA,6.21,NA,"CLR",NA,NA,NA,NA,NA,NA,NA,NA,NA,NA,NA,NA,NA,NA,NA,"KQES 010840Z AUTO 32004KT 9999 CLR 16/04 A3021 RMK A02 TSNO"
"553","QES",2019-11-01 08:50:00,126.45,36.9667,60.8,37.4,41.71,320,5,0,30.21,NA,6.21,NA,"CLR",NA,NA,NA,NA,NA,NA,NA,NA,NA,NA,NA,NA,NA,NA,NA,"KQES 010850Z AUTO 32005KT 9999 CLR 16/03 A3021 RMK A02 TSNO"
"554","QES",2019-11-01 09:00:00,126.45,36.9667,60.8,37.4,41.71,320,5,0,30.21,NA,6.21,NA,"CLR",NA,NA,NA,NA,NA,NA,NA,NA,NA,NA,NA,NA,NA,NA,NA,"KQES 010900Z AUTO 32005KT 9999 CLR 16/03 A3021 RMK A02 TSNO"
"555","QES",2019-11-01 09:10:00,126.45,36.9667,60.8,37.4,41.71,330,5,0,30.21,NA,6.21,NA,"CLR",NA,NA,NA,NA,NA,NA,NA,NA,NA,NA,NA,NA,NA,NA,NA,"KQES 010910Z AUTO 33005KT 9999 CLR 16/03 A3021 RMK A02 TSNO"
"556","QES",2019-11-01 09:20:00,126.45,36.9667,60.8,39.2,44.76,330,5,0,30.22,NA,6.21,NA,"CLR",NA,NA,NA,NA,NA,NA,NA,NA,NA,NA,NA,NA,NA,NA,NA,"KQES 010920Z AUTO 33005KT 9999 CLR 16/04 A3022 RMK A02 TSNO"
"557","QES",2019-11-01 09:30:00,126.45,36.9667,60.8,37.4,41.71,330,5,0,30.22,NA,6.21,NA,"CLR",NA,NA,NA,NA,NA,NA,NA,NA,NA,NA,NA,NA,NA,NA,NA,"KQES 010930Z AUTO 33005KT 9999 CLR 16/03 A3022 RMK A02 TSNO"
"558","QES",2019-11-01 09:40:00,126.45,36.9667,60.8,37.4,41.71,320,5,0,30.22,NA,6.21,NA,"CLR",NA,NA,NA,NA,NA,NA,NA,NA,NA,NA,NA,NA,NA,NA,NA,"KQES 010940Z AUTO 32005KT 9999 CLR 16/03 A3022 RMK A02 TSNO"
"559","QES",2019-11-01 09:50:00,126.45,36.9667,60.8,39.2,44.76,320,4,0,30.22,NA,6.21,NA,"CLR",NA,NA,NA,NA,NA,NA,NA,NA,NA,NA,NA,NA,NA,NA,NA,"KQES 010950Z AUTO 32004KT 9999 CLR 16/04 A3022 RMK A02 TSNO"
"560","QES",2019-11-01 10:00:00,126.45,36.9667,60.8,39.2,44.76,330,4,0,30.22,NA,6.21,NA,"CLR",NA,NA,NA,NA,NA,NA,NA,NA,NA,NA,NA,NA,NA,NA,NA,"KQES 011000Z AUTO 33004KT 9999 CLR 16/04 A3022 RMK A02 TSNO"
"561","QES",2019-11-01 10:10:00,126.45,36.9667,60.8,37.4,41.71,330,4,0,30.22,NA,6.21,NA,"CLR",NA,NA,NA,NA,NA,NA,NA,NA,NA,NA,NA,NA,NA,NA,NA,"KQES 011010Z AUTO 33004KT 9999 CLR 16/03 A3022 RMK A02 TSNO"
"562","QES",2019-11-01 10:20:00,126.45,36.9667,59,39.2,47.72,340,3,0,30.22,NA,6.21,NA,"CLR",NA,NA,NA,NA,NA,NA,NA,NA,NA,NA,NA,NA,NA,NA,NA,"KQES 011020Z AUTO 34003KT 9999 CLR 15/04 A3022 RMK A02 TSNO"
"563","QES",2019-11-01 10:30:00,126.45,36.9667,57.2,44.6,62.69,170,4,0,30.22,NA,6.21,NA,"CLR",NA,NA,NA,NA,NA,NA,NA,NA,NA,NA,NA,NA,NA,NA,NA,"KQES 011030Z AUTO 17004KT 9999 CLR 14/07 A3022 RMK A02 TSNO"
"564","QES",2019-11-01 10:40:00,126.45,36.9667,55.4,46.4,71.64,160,5,0,30.22,NA,6.21,NA,"CLR",NA,NA,NA,NA,NA,NA,NA,NA,NA,NA,NA,NA,NA,NA,NA,"KQES 011040Z AUTO 16005KT 9999 CLR 13/08 A3022 RMK A02 TSNO"
"565","QES",2019-11-01 10:50:00,126.45,36.9667,55.4,44.6,66.91,130,2,0,30.22,NA,6.21,NA,"CLR",NA,NA,NA,NA,NA,NA,NA,NA,NA,NA,NA,NA,NA,NA,NA,"KQES 011050Z AUTO 13002KT 9999 CLR 13/07 A3022 RMK A02 TSNO"
"566","QES",2019-11-01 11:00:00,126.45,36.9667,55.4,46.4,71.64,160,5,0,30.21,NA,6.21,NA,"CLR",NA,NA,NA,NA,NA,NA,NA,NA,NA,NA,NA,NA,NA,NA,NA,"KQES 011100Z AUTO 16005KT 9999 CLR 13/08 A3021 RMK A02 TSNO"
"567","QES",2019-11-01 11:10:00,126.45,36.9667,53.6,46.4,76.5,150,4,0,30.21,NA,6.21,NA,"CLR",NA,NA,NA,NA,NA,NA,NA,NA,NA,NA,NA,NA,NA,NA,NA,"KQES 011110Z AUTO 15004KT 9999 CLR 12/08 A3021 RMK A02 TSNO"
"568","QES",2019-11-01 11:20:00,126.45,36.9667,53.6,48.2,81.87,180,5,0,30.21,NA,6.21,NA,"CLR",NA,NA,NA,NA,NA,NA,NA,NA,NA,NA,NA,NA,NA,NA,NA,"KQES 011120Z AUTO 18005KT 9999 CLR 12/09 A3021 RMK A02 TSNO"
"569","QES",2019-11-01 11:30:00,126.45,36.9667,53.6,48.2,81.87,170,5,0,30.22,NA,6.21,NA,"CLR",NA,NA,NA,NA,NA,NA,NA,NA,NA,NA,NA,NA,NA,NA,NA,"KQES 011130Z AUTO 17005KT 9999 CLR 12/09 A3022 RMK A02 TSNO"
"570","QES",2019-11-01 11:40:00,126.45,36.9667,55.4,48.2,76.66,160,4,0,30.22,NA,6.21,NA,"CLR",NA,NA,NA,NA,NA,NA,NA,NA,NA,NA,NA,NA,NA,NA,NA,"KQES 011140Z AUTO 16004KT 9999 CLR 13/09 A3022 RMK A02 TSNO"
"571","QES",2019-11-01 11:50:00,126.45,36.9667,53.6,46.4,76.5,170,5,0,30.22,NA,6.21,NA,"CLR",NA,NA,NA,NA,NA,NA,NA,NA,NA,NA,NA,NA,NA,NA,NA,"KQES 011150Z AUTO 17005KT 9999 CLR 12/08 A3022 RMK A02 TSNO"
"572","QES",2019-11-01 12:00:00,126.45,36.9667,53.6,46.4,76.5,160,4,0,30.22,NA,6.21,NA,"CLR",NA,NA,NA,NA,NA,NA,NA,NA,NA,NA,NA,NA,NA,NA,NA,"KQES 011200Z AUTO 16004KT 9999 CLR 12/08 A3022 RMK A02 TSNO"
"573","QES",2019-11-01 12:10:00,126.45,36.9667,53.6,46.4,76.5,160,4,0,30.22,NA,6.21,NA,"CLR",NA,NA,NA,NA,NA,NA,NA,NA,NA,NA,NA,NA,NA,NA,NA,"KQES 011210Z AUTO 16004KT 9999 CLR 12/08 A3022 RMK A02 TSNO"
"574","QES",2019-11-01 12:20:00,126.45,36.9667,51.8,46.4,81.74,160,6,0,30.22,NA,6.21,NA,"CLR",NA,NA,NA,NA,NA,NA,NA,NA,NA,NA,NA,NA,NA,NA,NA,"KQES 011220Z AUTO 16006KT 9999 CLR 11/08 A3022 RMK A02 TSNO"
"575","QES",2019-11-01 12:30:00,126.45,36.9667,51.8,46.4,81.74,150,5,0,30.22,NA,6.21,NA,"CLR",NA,NA,NA,NA,NA,NA,NA,NA,NA,NA,NA,NA,NA,NA,NA,"KQES 011230Z AUTO 15005KT 9999 CLR 11/08 A3022 RMK A02 TSNO"
"576","QES",2019-11-01 12:40:00,126.45,36.9667,53.6,46.4,76.5,160,4,0,30.22,NA,6.21,NA,"CLR",NA,NA,NA,NA,NA,NA,NA,NA,NA,NA,NA,NA,NA,NA,NA,"KQES 011240Z AUTO 16004KT 9999 CLR 12/08 A3022 RMK A02 TSNO"
"577","QES",2019-11-01 12:50:00,126.45,36.9667,51.8,46.4,81.74,160,6,0,30.22,NA,6.21,NA,"SCT","BKN",NA,NA,2600,20000,NA,NA,NA,NA,NA,NA,NA,NA,NA,NA,"KQES 011250Z AUTO 16006KT 9999 SCT026 BKN200 11/08 A3022 RMK A02 TSNO"
"578","QES",2019-11-01 13:00:00,126.45,36.9667,51.8,48.2,87.47,160,4,0,30.22,NA,6.21,NA,"BKN",NA,NA,NA,2600,NA,NA,NA,NA,NA,NA,NA,NA,NA,NA,NA,"KQES 011300Z AUTO 16004KT 9999 BKN026 11/09 A3022 RMK A02 TSNO"
"579","QES",2019-11-01 13:10:00,126.45,36.9667,51.8,46.4,81.74,150,4,0,30.21,NA,6.21,NA,"BKN",NA,NA,NA,2700,NA,NA,NA,NA,NA,NA,NA,NA,NA,NA,NA,"KQES 011310Z AUTO 15004KT 9999 BKN027 11/08 A3021 RMK A02 TSNO"
"580","QES",2019-11-01 13:20:00,126.45,36.9667,51.8,46.4,81.74,160,6,0,30.22,NA,6.21,NA,"BKN","BKN",NA,NA,2600,25000,NA,NA,NA,NA,NA,NA,NA,NA,NA,NA,"KQES 011320Z AUTO 16006KT 9999 BKN026 BKN250 11/08 A3022 RMK A02 TSNO"
"581","QES",2019-11-01 13:30:00,126.45,36.9667,51.8,48.2,87.47,160,6,0,30.22,NA,6.21,NA,"BKN","BKN",NA,NA,2600,25000,NA,NA,NA,NA,NA,NA,NA,NA,NA,NA,"KQES 011330Z AUTO 16006KT 9999 BKN026 BKN250 11/09 A3022 RMK A02 TSNO"
"582","QES",2019-11-01 13:40:00,126.45,36.9667,51.8,48.2,87.47,150,5,0,30.22,NA,6.21,NA,"SCT","BKN",NA,NA,2600,25000,NA,NA,NA,NA,NA,NA,NA,NA,NA,NA,"KQES 011340Z AUTO 15005KT 9999 SCT026 BKN250 11/09 A3022 RMK A02 TSNO"
"583","QES",2019-11-01 13:50:00,126.45,36.9667,51.8,48.2,87.47,180,5,0,30.22,NA,6.21,NA,"SCT","BKN",NA,NA,2600,24000,NA,NA,NA,NA,NA,NA,NA,NA,NA,NA,"KQES 011350Z AUTO 18005KT 9999 SCT026 BKN240 11/09 A3022 RMK A02 TSNO"
"584","QES",2019-11-01 14:00:00,126.45,36.9667,53.6,48.2,81.87,170,5,0,30.22,NA,6.21,NA,"SCT","BKN",NA,NA,2600,24000,NA,NA,NA,NA,NA,NA,NA,NA,NA,NA,"KQES 011400Z AUTO 17005KT 9999 SCT026 BKN240 12/09 A3022 RMK A02 TSNO"
"585","QES",2019-11-01 14:10:00,126.45,36.9667,51.8,48.2,87.47,170,5,0,30.22,NA,6.21,NA,"FEW","BKN",NA,NA,2600,24000,NA,NA,NA,NA,NA,NA,NA,NA,NA,NA,"KQES 011410Z AUTO 17005KT 9999 FEW026 BKN240 11/09 A3022 RMK A02 TSNO"
"586","QES",2019-11-01 14:20:00,126.45,36.9667,51.8,46.4,81.74,160,6,0,30.22,NA,6.21,NA,"FEW","BKN",NA,NA,2700,24000,NA,NA,NA,NA,NA,NA,NA,NA,NA,NA,"KQES 011420Z AUTO 16006KT 9999 FEW027 BKN240 11/08 A3022 RMK A02 TSNO"
"587","QES",2019-11-01 14:30:00,126.45,36.9667,50,46.4,87.37,170,6,0,30.22,NA,6.21,NA,"CLR",NA,NA,NA,NA,NA,NA,NA,NA,NA,NA,NA,NA,NA,NA,47.21,"KQES 011430Z AUTO 17006KT 9999 CLR 10/08 A3022 RMK A02 TSNO"
"588","QES",2019-11-01 14:40:00,126.45,36.9667,50,46.4,87.37,160,6,0,30.22,NA,6.21,NA,"CLR",NA,NA,NA,NA,NA,NA,NA,NA,NA,NA,NA,NA,NA,NA,47.21,"KQES 011440Z AUTO 16006KT 9999 CLR 10/08 A3022 RMK A02 TSNO"
"589","QES",2019-11-01 14:50:00,126.45,36.9667,50,46.4,87.37,160,7,0,30.22,NA,6.21,NA,"CLR",NA,NA,NA,NA,NA,NA,NA,NA,NA,NA,NA,NA,NA,NA,46.72,"KQES 011450Z AUTO 16007KT 9999 CLR 10/08 A3022 RMK A02 TSNO"
"590","QES",2019-11-01 15:00:00,126.45,36.9667,50,46.4,87.37,150,5,0,30.21,NA,6.21,NA,"CLR",NA,NA,NA,NA,NA,NA,NA,NA,NA,NA,NA,NA,NA,NA,47.77,"KQES 011500Z AUTO 15005KT 9999 CLR 10/08 A3021 RMK A02 TSNO"
"591","QES",2019-11-01 15:10:00,126.45,36.9667,50,46.4,87.37,160,6,0,30.21,NA,6.21,NA,"CLR",NA,NA,NA,NA,NA,NA,NA,NA,NA,NA,NA,NA,NA,NA,47.21,"KQES 011510Z AUTO 16006KT 9999 CLR 10/08 A3021 RMK A02 TSNO"
"592","QES",2019-11-01 15:20:00,126.45,36.9667,50,46.4,87.37,160,7,0,30.21,NA,6.21,NA,"CLR",NA,NA,NA,NA,NA,NA,NA,NA,NA,NA,NA,NA,NA,NA,46.72,"KQES 011520Z AUTO 16007KT 9999 CLR 10/08 A3021 RMK A02 TSNO"
"593","QES",2019-11-01 15:30:00,126.45,36.9667,50,46.4,87.37,160,7,0,30.22,NA,6.21,NA,"CLR",NA,NA,NA,NA,NA,NA,NA,NA,NA,NA,NA,NA,NA,NA,46.72,"KQES 011530Z AUTO 16007KT 9999 CLR 10/08 A3022 RMK A02 TSNO"
"594","QES",2019-11-01 15:40:00,126.45,36.9667,50,44.6,81.61,160,8,0,30.21,NA,6.21,NA,"CLR",NA,NA,NA,NA,NA,NA,NA,NA,NA,NA,NA,NA,NA,NA,46.29,"KQES 011540Z AUTO 16008KT 9999 CLR 10/07 A3021 RMK A02 TSNO"
"595","QES",2019-11-01 15:50:00,126.45,36.9667,48.2,44.6,87.28,150,9,0,30.21,NA,6.21,NA,"CLR",NA,NA,NA,NA,NA,NA,NA,NA,NA,NA,NA,NA,NA,NA,43.66,"KQES 011550Z AUTO 15009KT 9999 CLR 09/07 A3021 RMK A02 TSNO"
"596","QES",2019-11-01 16:00:00,126.45,36.9667,48.2,46.4,93.45,160,8,0,30.21,NA,6.21,NA,"CLR",NA,NA,NA,NA,NA,NA,NA,NA,NA,NA,NA,NA,NA,NA,44.07,"KQES 011600Z AUTO 16008KT 9999 CLR 09/08 A3021 RMK A02 TSNO"
"597","QES",2019-11-01 16:10:00,126.45,36.9667,50,46.4,87.37,160,7,0,30.21,NA,6.21,NA,"CLR",NA,NA,NA,NA,NA,NA,NA,NA,NA,NA,NA,NA,NA,NA,46.72,"KQES 011610Z AUTO 16007KT 9999 CLR 10/08 A3021 RMK A02 TSNO"
"598","QES",2019-11-01 16:20:00,126.45,36.9667,50,46.4,87.37,160,6,0,30.21,NA,6.21,NA,"CLR",NA,NA,NA,NA,NA,NA,NA,NA,NA,NA,NA,NA,NA,NA,47.21,"KQES 011620Z AUTO 16006KT 9999 CLR 10/08 A3021 RMK A02 TSNO"
"599","QES",2019-11-01 16:30:00,126.45,36.9667,50,46.4,87.37,160,6,0,30.21,NA,6.21,NA,"CLR",NA,NA,NA,NA,NA,NA,NA,NA,NA,NA,NA,NA,NA,NA,47.21,"KQES 011630Z AUTO 16006KT 9999 CLR 10/08 A3021 RMK A02 TSNO"
"600","QES",2019-11-01 16:40:00,126.45,36.9667,48.2,46.4,93.45,150,7,0,30.21,NA,6.21,NA,"CLR",NA,NA,NA,NA,NA,NA,NA,NA,NA,NA,NA,NA,NA,NA,44.53,"KQES 011640Z AUTO 15007KT 9999 CLR 09/08 A3021 RMK A02 TSNO"
"601","QES",2019-11-01 16:50:00,126.45,36.9667,48.2,46.4,93.45,150,7,0,30.21,NA,6.21,NA,"CLR",NA,NA,NA,NA,NA,NA,NA,NA,NA,NA,NA,NA,NA,NA,44.53,"KQES 011650Z AUTO 15007KT 9999 CLR 09/08 A3021 RMK A02 TSNO"
"602","QES",2019-11-01 17:00:00,126.45,36.9667,48.2,46.4,93.45,150,7,0,30.21,NA,6.21,NA,"CLR",NA,NA,NA,NA,NA,NA,NA,NA,NA,NA,NA,NA,NA,NA,44.53,"KQES 011700Z AUTO 15007KT 9999 CLR 09/08 A3021 RMK A02 TSNO"
"603","QES",2019-11-01 17:10:00,126.45,36.9667,48.2,46.4,93.45,150,7,0,30.21,NA,6.21,NA,"CLR",NA,NA,NA,NA,NA,NA,NA,NA,NA,NA,NA,NA,NA,NA,44.53,"KQES 011710Z AUTO 15007KT 9999 CLR 09/08 A3021 RMK A02 TSNO"
"604","QES",2019-11-01 17:20:00,126.45,36.9667,48.2,46.4,93.45,160,6,0,30.21,NA,6.21,NA,"CLR",NA,NA,NA,NA,NA,NA,NA,NA,NA,NA,NA,NA,NA,NA,45.04,"KQES 011720Z AUTO 16006KT 9999 CLR 09/08 A3021 RMK A02 TSNO"
"605","QES",2019-11-01 17:30:00,126.45,36.9667,48.2,46.4,93.45,150,6,0,30.2,NA,6.21,NA,"CLR",NA,NA,NA,NA,NA,NA,NA,NA,NA,NA,NA,NA,NA,NA,45.04,"KQES 011730Z AUTO 15006KT 9999 CLR 09/08 A3020 RMK A02 TSNO"
"606","QES",2019-11-01 17:40:00,126.45,36.9667,46.4,44.6,93.4,150,5,0,30.2,NA,6.21,NA,"CLR",NA,NA,NA,NA,NA,NA,NA,NA,NA,NA,NA,NA,NA,NA,43.5,"KQES 011740Z AUTO 15005KT 9999 CLR 08/07 A3020 RMK A02 TSNO"
"607","QES",2019-11-01 17:50:00,126.45,36.9667,48.2,46.4,93.45,150,6,0,30.2,NA,6.21,NA,"CLR",NA,NA,NA,NA,NA,NA,NA,NA,NA,NA,NA,NA,NA,NA,45.04,"KQES 011750Z AUTO 15006KT 9999 CLR 09/08 A3020 RMK A02 TSNO"
"608","QES",2019-11-01 18:00:00,126.45,36.9667,48.2,46.4,93.45,150,6,0,30.21,NA,6.21,NA,"CLR",NA,NA,NA,NA,NA,NA,NA,NA,NA,NA,NA,NA,NA,NA,45.04,"KQES 011800Z AUTO 15006KT 9999 CLR 09/08 A3021 RMK A02 TSNO"
"609","QES",2019-11-01 18:10:00,126.45,36.9667,48.2,46.4,93.45,140,4,0,30.2,NA,6.21,NA,"CLR",NA,NA,NA,NA,NA,NA,NA,NA,NA,NA,NA,NA,NA,NA,46.34,"KQES 011810Z AUTO 14004KT 9999 CLR 09/08 A3020 RMK A02 TSNO"
"610","QES",2019-11-01 18:20:00,126.45,36.9667,48.2,44.6,87.28,140,4,0,30.2,NA,6.21,NA,"CLR",NA,NA,NA,NA,NA,NA,NA,NA,NA,NA,NA,NA,NA,NA,46.34,"KQES 011820Z AUTO 14004KT 9999 CLR 09/07 A3020 RMK A02 TSNO"
"611","QES",2019-11-01 18:30:00,126.45,36.9667,48.2,46.4,93.45,150,4,0,30.2,NA,6.21,NA,"CLR",NA,NA,NA,NA,NA,NA,NA,NA,NA,NA,NA,NA,NA,NA,46.34,"KQES 011830Z AUTO 15004KT 9999 CLR 09/08 A3020 RMK A02 TSNO"
"612","QES",2019-11-01 18:40:00,126.45,36.9667,48.2,46.4,93.45,140,3,0,30.2,NA,6.21,NA,"CLR",NA,NA,NA,NA,NA,NA,NA,NA,NA,NA,NA,NA,NA,NA,47.21,"KQES 011840Z AUTO 14003KT 9999 CLR 09/08 A3020 RMK A02 TSNO"
"613","QES",2019-11-01 18:50:00,126.45,36.9667,48.2,46.4,93.45,130,2,0,30.2,NA,6.21,NA,"CLR",NA,NA,NA,NA,NA,NA,NA,NA,NA,NA,NA,NA,NA,NA,NA,"KQES 011850Z AUTO 13002KT 9999 CLR 09/08 A3020 RMK A02 TSNO"
"614","QES",2019-11-01 19:00:00,126.45,36.9667,48.2,46.4,93.45,140,2,0,30.2,NA,6.21,NA,"CLR",NA,NA,NA,NA,NA,NA,NA,NA,NA,NA,NA,NA,NA,NA,NA,"KQES 011900Z AUTO 14002KT 9999 CLR 09/08 A3020 RMK A02 TSNO"
"615","QES",2019-11-01 19:10:00,126.45,36.9667,48.2,46.4,93.45,120,1,0,30.2,NA,6.21,NA,"CLR",NA,NA,NA,NA,NA,NA,NA,NA,NA,NA,NA,NA,NA,NA,NA,"KQES 011910Z AUTO 12001KT 9999 CLR 09/08 A3020 RMK A02 TSNO"
"616","QES",2019-11-01 19:20:00,126.45,36.9667,48.2,44.6,87.28,120,1,0,30.19,NA,6.21,NA,"CLR",NA,NA,NA,NA,NA,NA,NA,NA,NA,NA,NA,NA,NA,NA,NA,"KQES 011920Z AUTO 12001KT 9999 CLR 09/07 A3019 RMK A02 TSNO"
"617","QES",2019-11-01 19:30:00,126.45,36.9667,46.4,44.6,93.4,120,2,0,30.19,NA,6.21,NA,"CLR",NA,NA,NA,NA,NA,NA,NA,NA,NA,NA,NA,NA,NA,NA,NA,"KQES 011930Z AUTO 12002KT 9999 CLR 08/07 A3019 RMK A02 TSNO"
"618","QES",2019-11-01 19:40:00,126.45,36.9667,48.2,44.6,87.28,140,2,0,30.19,NA,6.21,NA,"CLR",NA,NA,NA,NA,NA,NA,NA,NA,NA,NA,NA,NA,NA,NA,NA,"KQES 011940Z AUTO 14002KT 9999 CLR 09/07 A3019 RMK A02 TSNO"
"619","QES",2019-11-01 19:50:00,126.45,36.9667,48.2,42.8,81.47,140,3,0,30.19,NA,6.21,NA,"CLR",NA,NA,NA,NA,NA,NA,NA,NA,NA,NA,NA,NA,NA,NA,47.21,"KQES 011950Z AUTO 14003KT 9999 CLR 09/06 A3019 RMK A02 TSNO"
"620","QES",2019-11-01 20:00:00,126.45,36.9667,46.4,42.8,87.19,130,2,0,30.19,NA,6.21,NA,"CLR",NA,NA,NA,NA,NA,NA,NA,NA,NA,NA,NA,NA,NA,NA,NA,"KQES 012000Z AUTO 13002KT 9999 CLR 08/06 A3019 RMK A02 TSNO"
"621","QES",2019-11-01 20:10:00,126.45,36.9667,46.4,41,81.34,80,1,0,30.19,NA,6.21,NA,"CLR",NA,NA,NA,NA,NA,NA,NA,NA,NA,NA,NA,NA,NA,NA,NA,"KQES 012010Z AUTO 08001KT 9999 CLR 08/05 A3019 RMK A02 TSNO"
"622","QES",2019-11-01 20:20:00,126.45,36.9667,48.2,41,76.01,150,5,0,30.19,NA,6.21,NA,"CLR",NA,NA,NA,NA,NA,NA,NA,NA,NA,NA,NA,NA,NA,NA,45.63,"KQES 012020Z AUTO 15005KT 9999 CLR 09/05 A3019 RMK A02 TSNO"
"623","QES",2019-11-01 20:30:00,126.45,36.9667,48.2,41,76.01,130,2,0,30.19,NA,6.21,NA,"CLR",NA,NA,NA,NA,NA,NA,NA,NA,NA,NA,NA,NA,NA,NA,NA,"KQES 012030Z AUTO 13002KT 9999 CLR 09/05 A3019 RMK A02 TSNO"
"624","QES",2019-11-01 20:40:00,126.45,36.9667,46.4,41,81.34,290,1,0,30.19,NA,6.21,NA,"CLR",NA,NA,NA,NA,NA,NA,NA,NA,NA,NA,NA,NA,NA,NA,NA,"KQES 012040Z AUTO 29001KT 9999 CLR 08/05 A3019 RMK A02 TSNO"
"625","QES",2019-11-01 20:50:00,126.45,36.9667,46.4,41,81.34,320,1,0,30.19,NA,6.21,NA,"CLR",NA,NA,NA,NA,NA,NA,NA,NA,NA,NA,NA,NA,NA,NA,NA,"KQES 012050Z AUTO 32001KT 9999 CLR 08/05 A3019 RMK A02 TSNO"
"626","QES",2019-11-01 21:00:00,126.45,36.9667,46.4,39.2,75.84,120,1,0,30.19,NA,6.21,NA,"CLR",NA,NA,NA,NA,NA,NA,NA,NA,NA,NA,NA,NA,NA,NA,NA,"KQES 012100Z AUTO 12001KT 9999 CLR 08/04 A3019 RMK A02 TSNO"
"627","QES",2019-11-01 21:10:00,126.45,36.9667,48.2,39.2,70.88,140,2,0,30.19,NA,6.21,NA,"CLR",NA,NA,NA,NA,NA,NA,NA,NA,NA,NA,NA,NA,NA,NA,NA,"KQES 012110Z AUTO 14002KT 9999 CLR 09/04 A3019 RMK A02 TSNO"
"628","QES",2019-11-01 21:20:00,126.45,36.9667,48.2,39.2,70.88,130,1,0,30.19,NA,6.21,NA,"CLR",NA,NA,NA,NA,NA,NA,NA,NA,NA,NA,NA,NA,NA,NA,NA,"KQES 012120Z AUTO 13001KT 9999 CLR 09/04 A3019 RMK A02 TSNO"
"629","QES",2019-11-01 21:30:00,126.45,36.9667,48.2,41,76.01,140,3,0,30.19,NA,6.21,NA,"CLR",NA,NA,NA,NA,NA,NA,NA,NA,NA,NA,NA,NA,NA,NA,47.21,"KQES 012130Z AUTO 14003KT 9999 CLR 09/05 A3019 RMK A02 TSNO"
"630","QES",2019-11-01 21:40:00,126.45,36.9667,48.2,41,76.01,140,4,0,30.19,NA,6.21,NA,"CLR",NA,NA,NA,NA,NA,NA,NA,NA,NA,NA,NA,NA,NA,NA,46.34,"KQES 012140Z AUTO 14004KT 9999 CLR 09/05 A3019 RMK A02 TSNO"
"631","QES",2019-11-01 21:50:00,126.45,36.9667,48.2,41,76.01,150,5,0,30.19,NA,6.21,NA,"CLR",NA,NA,NA,NA,NA,NA,NA,NA,NA,NA,NA,NA,NA,NA,45.63,"KQES 012150Z AUTO 15005KT 9999 CLR 09/05 A3019 RMK A02 TSNO"
"632","QES",2019-11-01 22:00:00,126.45,36.9667,48.2,41,76.01,140,3,0,30.2,NA,6.21,NA,"CLR",NA,NA,NA,NA,NA,NA,NA,NA,NA,NA,NA,NA,NA,NA,47.21,"KQES 012200Z AUTO 14003KT 9999 CLR 09/05 A3020 RMK A02 TSNO"
"633","QES",2019-11-01 22:10:00,126.45,36.9667,48.2,41,76.01,150,5,0,30.2,NA,6.21,NA,"CLR",NA,NA,NA,NA,NA,NA,NA,NA,NA,NA,NA,NA,NA,NA,45.63,"KQES 012210Z AUTO 15005KT 9999 CLR 09/05 A3020 RMK A02 TSNO"
"634","QES",2019-11-01 22:20:00,126.45,36.9667,48.2,41,76.01,90,1,0,30.2,NA,6.21,NA,"CLR",NA,NA,NA,NA,NA,NA,NA,NA,NA,NA,NA,NA,NA,NA,NA,"KQES 012220Z AUTO 09001KT 9999 CLR 09/05 A3020 RMK A02 TSNO"
"635","QES",2019-11-01 22:30:00,126.45,36.9667,48.2,42.8,81.47,340,1,0,30.2,NA,6.21,NA,"CLR",NA,NA,NA,NA,NA,NA,NA,NA,NA,NA,NA,NA,NA,NA,NA,"KQES 012230Z AUTO 34001KT 9999 CLR 09/06 A3020 RMK A02 TSNO"
"636","QES",2019-11-01 22:40:00,126.45,36.9667,48.2,41,76.01,20,1,0,30.2,NA,6.21,NA,"CLR",NA,NA,NA,NA,NA,NA,NA,NA,NA,NA,NA,NA,NA,NA,NA,"KQES 012240Z AUTO 02001KT 9999 CLR 09/05 A3020 RMK A02 TSNO"
"637","QES",2019-11-01 22:50:00,126.45,36.9667,48.2,42.8,81.47,310,1,0,30.21,NA,6.21,NA,"CLR",NA,NA,NA,NA,NA,NA,NA,NA,NA,NA,NA,NA,NA,NA,NA,"KQES 012250Z AUTO 31001KT 9999 CLR 09/06 A3021 RMK A02 TSNO"
"638","QES",2019-11-01 23:00:00,126.45,36.9667,48.2,42.8,81.47,130,1,0,30.21,NA,6.21,NA,"CLR",NA,NA,NA,NA,NA,NA,NA,NA,NA,NA,NA,NA,NA,NA,NA,"KQES 012300Z AUTO 13001KT 9999 CLR 09/06 A3021 RMK A02 TSNO"
"639","QES",2019-11-01 23:10:00,126.45,36.9667,50,42.8,76.18,150,1,0,30.21,NA,6.21,NA,"CLR",NA,NA,NA,NA,NA,NA,NA,NA,NA,NA,NA,NA,NA,NA,NA,"KQES 012310Z AUTO 15001KT 9999 CLR 10/06 A3021 RMK A02 TSNO"
"640","QES",2019-11-01 23:20:00,126.45,36.9667,50,42.8,76.18,120,2,0,30.22,NA,6.21,NA,"CLR",NA,NA,NA,NA,NA,NA,NA,NA,NA,NA,NA,NA,NA,NA,NA,"KQES 012320Z AUTO 12002KT 9999 CLR 10/06 A3022 RMK A02 TSNO"
"641","QES",2019-11-01 23:30:00,126.45,36.9667,50,42.8,76.18,100,1,0,30.21,NA,6.21,NA,"CLR",NA,NA,NA,NA,NA,NA,NA,NA,NA,NA,NA,NA,NA,NA,NA,"KQES 012330Z AUTO 10001KT 9999 CLR 10/06 A3021 RMK A02 TSNO"
"642","QES",2019-11-01 23:40:00,126.45,36.9667,50,44.6,81.61,150,4,0,30.22,NA,6.21,NA,"CLR",NA,NA,NA,NA,NA,NA,NA,NA,NA,NA,NA,NA,NA,NA,48.44,"KQES 012340Z AUTO 15004KT 9999 CLR 10/07 A3022 RMK A02 TSNO"
"643","QEX",2019-11-01 00:00:00,128.3,36.1,53.6,55.4,NA,60,2,0,30.11,NA,2.98,NA,"OVC",NA,NA,NA,2500,NA,NA,NA,NA,NA,NA,NA,NA,NA,NA,NA,"KQEX 010000Z AUTO 06002KT 4800 // OVC025 12/13 A3011 RMK A02 TSNO"
"644","QEX",2019-11-01 00:10:00,128.3,36.1,53.6,55.4,NA,20,1,0,30.11,NA,2.98,NA,"OVC",NA,NA,NA,2500,NA,NA,NA,NA,NA,NA,NA,NA,NA,NA,NA,"KQEX 010010Z AUTO 02001KT 4800 // OVC025 12/13 A3011 RMK A02 TSNO"
"645","QEX",2019-11-01 00:20:00,128.3,36.1,55.4,55.4,100,10,1,0,30.11,NA,2.98,NA,"OVC",NA,NA,NA,2500,NA,NA,NA,NA,NA,NA,NA,NA,NA,NA,NA,"KQEX 010020Z AUTO 01001KT 4800 // OVC025 13/13 A3011 RMK A02 TSNO"
"646","QEX",2019-11-01 00:30:00,128.3,36.1,55.4,55.4,100,320,1,0,30.11,NA,2.98,NA,"BKN",NA,NA,NA,2500,NA,NA,NA,NA,NA,NA,NA,NA,NA,NA,NA,"KQEX 010030Z AUTO 32001KT 4800 // BKN025 13/13 A3011 RMK A02 TSNO"
"647","QEX",2019-11-01 00:40:00,128.3,36.1,57.2,55.4,93.69,30,1,0,30.11,NA,3.73,NA,"BKN",NA,NA,NA,2500,NA,NA,NA,NA,NA,NA,NA,NA,NA,NA,NA,"KQEX 010040Z AUTO 03001KT 6000 // BKN025 14/13 A3011 RMK A02 TSNO"
"648","QEX",2019-11-01 00:50:00,128.3,36.1,59,55.4,87.83,340,1,0,30.1,NA,3.73,NA,"SCT",NA,NA,NA,2500,NA,NA,NA,NA,NA,NA,NA,NA,NA,NA,NA,"KQEX 010050Z AUTO 34001KT 6000 // SCT025 15/13 A3010 RMK A02 TSNO"
"649","QEX",2019-11-01 01:10:00,128.3,36.1,60.8,53.6,77.14,30,3,0,30.1,NA,3.73,NA,"FEW",NA,NA,NA,3000,NA,NA,NA,"HZ",NA,NA,NA,NA,NA,NA,NA,"KQEX 010110Z AUTO 03003KT 6000 HZ FEW030 16/12 A3010 RMK A02 TSNO"
"650","QEX",2019-11-01 01:20:00,128.3,36.1,60.8,55.4,82.37,30,2,0,30.1,NA,3.73,NA,"CLR",NA,NA,NA,NA,NA,NA,NA,"HZ",NA,NA,NA,NA,NA,NA,NA,"KQEX 010120Z AUTO 03002KT 6000 HZ CLR 16/13 A3010 RMK A02 TSNO"
"651","QEX",2019-11-01 01:30:00,128.3,36.1,62.6,53.6,72.38,330,1,0,30.1,NA,3.73,NA,"CLR",NA,NA,NA,NA,NA,NA,NA,"HZ",NA,NA,NA,NA,NA,NA,NA,"KQEX 010130Z AUTO 33001KT 6000 HZ CLR 17/12 A3010 RMK A02 TSNO"
"652","QEX",2019-11-01 01:40:00,128.3,36.1,64.4,53.6,67.95,40,2,0,30.1,NA,3.73,NA,"CLR",NA,NA,NA,NA,NA,NA,NA,"HZ",NA,NA,NA,NA,NA,NA,NA,"KQEX 010140Z AUTO 04002KT 6000 HZ CLR 18/12 A3010 RMK A02 TSNO"
"653","QEX",2019-11-01 01:50:00,128.3,36.1,64.4,51.8,63.6,40,2,0,30.1,NA,3.73,NA,"CLR",NA,NA,NA,NA,NA,NA,NA,"HZ",NA,NA,NA,NA,NA,NA,NA,"KQEX 010150Z AUTO 04002KT 6000 HZ CLR 18/11 A3010 RMK A02 TSNO"
"654","QEX",2019-11-01 02:00:00,128.3,36.1,64.4,51.8,63.6,20,3,0,30.09,NA,3.73,NA,"CLR",NA,NA,NA,NA,NA,NA,NA,"HZ",NA,NA,NA,NA,NA,NA,NA,"KQEX 010200Z AUTO 02003KT 6000 HZ CLR 18/11 A3009 RMK A02 TSNO"
"655","QEX",2019-11-01 02:10:00,128.3,36.1,66.2,50,55.88,40,2,0,30.09,NA,3.73,NA,"CLR",NA,NA,NA,NA,NA,NA,NA,"HZ",NA,NA,NA,NA,NA,NA,NA,"KQEX 010210Z AUTO 04002KT 6000 HZ CLR 19/10 A3009 RMK A02 TSNO"
"656","QEX",2019-11-01 02:20:00,128.3,36.1,66.2,51.8,59.74,50,2,0,30.09,NA,4.97,NA,"FEW",NA,NA,NA,3200,NA,NA,NA,"HZ",NA,NA,NA,NA,NA,NA,NA,"KQEX 010220Z AUTO 05002KT 8000 HZ FEW032 19/11 A3009 RMK A02 TSNO"
"657","QEX",2019-11-01 02:30:00,128.3,36.1,66.2,51.8,59.74,180,2,0,30.09,NA,4.97,NA,"BKN",NA,NA,NA,3100,NA,NA,NA,"HZ",NA,NA,NA,NA,NA,NA,NA,"KQEX 010230Z AUTO 18002KT 8000 HZ BKN031 19/11 A3009 RMK A02 TSNO"
"658","QEX",2019-11-01 02:40:00,128.3,36.1,68,50,52.51,40,3,0,30.08,NA,4.97,NA,"BKN",NA,NA,NA,3100,NA,NA,NA,"HZ",NA,NA,NA,NA,NA,NA,NA,"KQEX 010240Z AUTO 04003KT 8000 HZ BKN031 20/10 A3008 RMK A02 TSNO"
"659","QEX",2019-11-01 02:50:00,128.3,36.1,66.2,50,55.88,10,1,0,30.08,NA,4.97,NA,"SCT",NA,NA,NA,3100,NA,NA,NA,"HZ",NA,NA,NA,NA,NA,NA,NA,"KQEX 010250Z AUTO 01001KT 8000 HZ SCT031 19/10 A3008 RMK A02 TSNO"
"660","QEX",2019-11-01 03:00:00,128.3,36.1,68,50,52.51,50,2,0,30.08,NA,4.97,NA,"FEW",NA,NA,NA,3200,NA,NA,NA,"HZ",NA,NA,NA,NA,NA,NA,NA,"KQEX 010300Z AUTO 05002KT 8000 HZ FEW032 20/10 A3008 RMK A02 TSNO"
"661","QEX",2019-11-01 03:10:00,128.3,36.1,68,50,52.51,40,3,0,30.08,NA,4.97,NA,"FEW",NA,NA,NA,3300,NA,NA,NA,"HZ",NA,NA,NA,NA,NA,NA,NA,"KQEX 010310Z AUTO 04003KT 8000 HZ FEW033 20/10 A3008 RMK A02 TSNO"
"662","QEX",2019-11-01 03:20:00,128.3,36.1,68,50,52.51,40,4,0,30.08,NA,5.59,NA,"SCT",NA,NA,NA,3500,NA,NA,NA,"HZ",NA,NA,NA,NA,NA,NA,NA,"KQEX 010320Z AUTO 04004KT 9000 HZ SCT035 20/10 A3008 RMK A02 TSNO"
"663","QEX",2019-11-01 03:40:00,128.3,36.1,68,50,52.51,30,3,0,30.07,NA,5.59,NA,"BKN",NA,NA,NA,3600,NA,NA,NA,"HZ",NA,NA,NA,NA,NA,NA,NA,"KQEX 010340Z AUTO 03003KT 9000 HZ BKN036 20/10 A3007 RMK A02 TSNO"
"664","QEX",2019-11-01 03:50:00,128.3,36.1,69.8,50,49.37,40,2,0,30.06,NA,6.21,NA,"BKN",NA,NA,NA,3600,NA,NA,NA,NA,NA,NA,NA,NA,NA,NA,NA,"KQEX 010350Z AUTO 04002KT 9999 BKN036 21/10 A3006 RMK A02 TSNO"
"665","QEX",2019-11-01 04:00:00,128.3,36.1,69.8,48.2,46.16,50,1,0,30.06,NA,6.21,NA,"BKN",NA,NA,NA,3700,NA,NA,NA,NA,NA,NA,NA,NA,NA,NA,NA,"KQEX 010400Z AUTO 05001KT 9999 BKN037 21/09 A3006 RMK A02 TSNO"
"666","QEX",2019-11-01 04:10:00,128.3,36.1,69.8,50,49.37,40,3,0,30.05,NA,6.21,NA,"BKN",NA,NA,NA,3700,NA,NA,NA,NA,NA,NA,NA,NA,NA,NA,NA,"KQEX 010410Z AUTO 04003KT 9999 BKN037 21/10 A3005 RMK A02 TSNO"
"667","QEX",2019-11-01 04:20:00,128.3,36.1,69.8,48.2,46.16,50,2,0,30.05,NA,6.21,NA,"BKN",NA,NA,NA,3800,NA,NA,NA,NA,NA,NA,NA,NA,NA,NA,NA,"KQEX 010420Z AUTO 05002KT 9999 BKN038 21/09 A3005 RMK A02 TSNO"
"668","QEX",2019-11-01 04:30:00,128.3,36.1,69.8,48.2,46.16,40,4,0,30.04,NA,6.21,NA,"SCT",NA,NA,NA,3800,NA,NA,NA,NA,NA,NA,NA,NA,NA,NA,NA,"KQEX 010430Z AUTO 04004KT 9999 SCT038 21/09 A3004 RMK A02 TSNO"
"669","QEX",2019-11-01 04:40:00,128.3,36.1,69.8,48.2,46.16,30,2,0,30.04,NA,6.21,NA,"FEW",NA,NA,NA,4000,NA,NA,NA,NA,NA,NA,NA,NA,NA,NA,NA,"KQEX 010440Z AUTO 03002KT 9999 FEW040 21/09 A3004 RMK A02 TSNO"
"670","QEX",2019-11-01 04:50:00,128.3,36.1,71.6,46.4,40.57,40,2,0,30.04,NA,6.21,NA,"FEW",NA,NA,NA,4100,NA,NA,NA,NA,NA,NA,NA,NA,NA,NA,NA,"KQEX 010450Z AUTO 04002KT 9999 FEW041 22/08 A3004 RMK A02 TSNO"
"671","QEX",2019-11-01 05:00:00,128.3,36.1,71.6,46.4,40.57,40,2,0,30.04,NA,6.21,NA,"FEW",NA,NA,NA,4200,NA,NA,NA,NA,NA,NA,NA,NA,NA,NA,NA,"KQEX 010500Z AUTO 04002KT 9999 FEW042 22/08 A3004 RMK A02 TSNO"
"672","QEX",2019-11-01 05:10:00,128.3,36.1,71.6,46.4,40.57,40,2,0,30.04,NA,6.21,NA,"FEW",NA,NA,NA,4300,NA,NA,NA,NA,NA,NA,NA,NA,NA,NA,NA,"KQEX 010510Z AUTO 04002KT 9999 FEW043 22/08 A3004 RMK A02 TSNO"
"673","QEX",2019-11-01 05:20:00,128.3,36.1,71.6,44.6,37.89,80,3,0,30.04,NA,6.21,NA,"FEW",NA,NA,NA,4500,NA,NA,NA,NA,NA,NA,NA,NA,NA,NA,NA,"KQEX 010520Z AUTO 08003KT 9999 FEW045 22/07 A3004 RMK A02 TSNO"
"674","QEX",2019-11-01 05:30:00,128.3,36.1,71.6,44.6,37.89,40,3,0,30.04,NA,6.21,NA,"CLR",NA,NA,NA,NA,NA,NA,NA,NA,NA,NA,NA,NA,NA,NA,NA,"KQEX 010530Z AUTO 04003KT 9999 CLR 22/07 A3004 RMK A02 TSNO"
"675","QEX",2019-11-01 05:40:00,128.3,36.1,71.6,44.6,37.89,30,4,0,30.04,NA,6.21,NA,"CLR",NA,NA,NA,NA,NA,NA,NA,NA,NA,NA,NA,NA,NA,NA,NA,"KQEX 010540Z AUTO 03004KT 9999 CLR 22/07 A3004 RMK A02 TSNO"
"676","QEX",2019-11-01 05:50:00,128.3,36.1,71.6,44.6,37.89,350,1,0,30.04,NA,6.21,NA,"CLR",NA,NA,NA,NA,NA,NA,NA,NA,NA,NA,NA,NA,NA,NA,NA,"KQEX 010550Z AUTO 35001KT 9999 CLR 22/07 A3004 RMK A02 TSNO"
"677","QEX",2019-11-01 06:00:00,128.3,36.1,73.4,44.6,35.66,30,1,0,30.04,NA,6.21,NA,"CLR",NA,NA,NA,NA,NA,NA,NA,NA,NA,NA,NA,NA,NA,NA,NA,"KQEX 010600Z AUTO 03001KT 9999 CLR 23/07 A3004 RMK A02 TSNO"
"678","QEX",2019-11-01 06:10:00,128.3,36.1,71.6,44.6,37.89,50,1,0,30.04,NA,6.21,NA,"CLR",NA,NA,NA,NA,NA,NA,NA,NA,NA,NA,NA,NA,NA,NA,NA,"KQEX 010610Z AUTO 05001KT 9999 CLR 22/07 A3004 RMK A02 TSNO"
"679","QEX",2019-11-01 06:20:00,128.3,36.1,71.6,42.8,35.37,40,3,0,30.04,NA,6.21,NA,"CLR",NA,NA,NA,NA,NA,NA,NA,NA,NA,NA,NA,NA,NA,NA,NA,"KQEX 010620Z AUTO 04003KT 9999 CLR 22/06 A3004 RMK A02 TSNO"
"680","QEX",2019-11-01 06:30:00,128.3,36.1,71.6,44.6,37.89,40,1,0,30.04,NA,6.21,NA,"CLR",NA,NA,NA,NA,NA,NA,NA,NA,NA,NA,NA,NA,NA,NA,NA,"KQEX 010630Z AUTO 04001KT 9999 CLR 22/07 A3004 RMK A02 TSNO"
"681","QEX",2019-11-01 06:40:00,128.3,36.1,71.6,44.6,37.89,80,1,0,30.04,NA,6.21,NA,"CLR",NA,NA,NA,NA,NA,NA,NA,NA,NA,NA,NA,NA,NA,NA,NA,"KQEX 010640Z AUTO 08001KT 9999 CLR 22/07 A3004 RMK A02 TSNO"
"682","QEX",2019-11-01 06:50:00,128.3,36.1,71.6,44.6,37.89,50,2,0,30.04,NA,6.21,NA,"CLR",NA,NA,NA,NA,NA,NA,NA,NA,NA,NA,NA,NA,NA,NA,NA,"KQEX 010650Z AUTO 05002KT 9999 CLR 22/07 A3004 RMK A02 TSNO"
"683","QEX",2019-11-01 07:00:00,128.3,36.1,71.6,44.6,37.89,30,1,0,30.05,NA,6.21,NA,"CLR",NA,NA,NA,NA,NA,NA,NA,NA,NA,NA,NA,NA,NA,NA,NA,"KQEX 010700Z AUTO 03001KT 9999 CLR 22/07 A3005 RMK A02 TSNO"
"684","QEX",2019-11-01 07:10:00,128.3,36.1,71.6,42.8,35.37,40,2,0,30.04,NA,6.21,NA,"CLR",NA,NA,NA,NA,NA,NA,NA,NA,NA,NA,NA,NA,NA,NA,NA,"KQEX 010710Z AUTO 04002KT 9999 CLR 22/06 A3004 RMK A02 TSNO"
"685","QEX",2019-11-01 07:20:00,128.3,36.1,71.6,42.8,35.37,40,2,0,30.05,NA,6.21,NA,"CLR",NA,NA,NA,NA,NA,NA,NA,NA,NA,NA,NA,NA,NA,NA,NA,"KQEX 010720Z AUTO 04002KT 9999 CLR 22/06 A3005 RMK A02 TSNO"
"686","QEX",2019-11-01 07:30:00,128.3,36.1,71.6,42.8,35.37,40,1,0,30.04,NA,6.21,NA,"CLR",NA,NA,NA,NA,NA,NA,NA,NA,NA,NA,NA,NA,NA,NA,NA,"KQEX 010730Z AUTO 04001KT 9999 CLR 22/06 A3004 RMK A02 TSNO"
"687","QEX",2019-11-01 07:40:00,128.3,36.1,69.8,42.8,37.61,50,1,0,30.05,NA,6.21,NA,"CLR",NA,NA,NA,NA,NA,NA,NA,NA,NA,NA,NA,NA,NA,NA,NA,"KQEX 010740Z AUTO 05001KT 9999 CLR 21/06 A3005 RMK A02 TSNO"
"688","QEX",2019-11-01 07:50:00,128.3,36.1,69.8,44.6,40.29,40,1,0,30.05,NA,6.21,NA,"CLR",NA,NA,NA,NA,NA,NA,NA,NA,NA,NA,NA,NA,NA,NA,NA,"KQEX 010750Z AUTO 04001KT 9999 CLR 21/07 A3005 RMK A02 TSNO"
"689","QEX",2019-11-01 08:00:00,128.3,36.1,69.8,46.4,43.13,50,1,0,30.05,NA,6.21,NA,"CLR",NA,NA,NA,NA,NA,NA,NA,NA,NA,NA,NA,NA,NA,NA,NA,"KQEX 010800Z AUTO 05001KT 9999 CLR 21/08 A3005 RMK A02 TSNO"
"690","QEX",2019-11-01 08:10:00,128.3,36.1,68,48.2,49.1,30,1,0,30.05,NA,6.21,NA,"CLR",NA,NA,NA,NA,NA,NA,NA,NA,NA,NA,NA,NA,NA,NA,NA,"KQEX 010810Z AUTO 03001KT 9999 CLR 20/09 A3005 RMK A02 TSNO"
"691","QEX",2019-11-01 08:20:00,128.3,36.1,68,48.2,49.1,30,1,0,30.05,NA,6.21,NA,"CLR",NA,NA,NA,NA,NA,NA,NA,NA,NA,NA,NA,NA,NA,NA,NA,"KQEX 010820Z AUTO 03001KT 9999 CLR 20/09 A3005 RMK A02 TSNO"
"692","QEX",2019-11-01 08:30:00,128.3,36.1,68,48.2,49.1,330,1,0,30.06,NA,6.21,NA,"CLR",NA,NA,NA,NA,NA,NA,NA,NA,NA,NA,NA,NA,NA,NA,NA,"KQEX 010830Z AUTO 33001KT 9999 CLR 20/09 A3006 RMK A02 TSNO"
"693","QEX",2019-11-01 08:40:00,128.3,36.1,66.2,48.2,52.25,280,2,0,30.06,NA,6.21,NA,"CLR",NA,NA,NA,NA,NA,NA,NA,NA,NA,NA,NA,NA,NA,NA,NA,"KQEX 010840Z AUTO 28002KT 9999 CLR 19/09 A3006 RMK A02 TSNO"
"694","QEX",2019-11-01 08:50:00,128.3,36.1,66.2,48.2,52.25,310,2,0,30.06,NA,6.21,NA,"CLR",NA,NA,NA,NA,NA,NA,NA,NA,NA,NA,NA,NA,NA,NA,NA,"KQEX 010850Z AUTO 31002KT 9999 CLR 19/09 A3006 RMK A02 TSNO"
"695","QEX",2019-11-01 09:00:00,128.3,36.1,64.4,48.2,55.63,260,1,0,30.07,NA,6.21,NA,"CLR",NA,NA,NA,NA,NA,NA,NA,NA,NA,NA,NA,NA,NA,NA,NA,"KQEX 010900Z AUTO 26001KT 9999 CLR 18/09 A3007 RMK A02 TSNO"
"696","QEX",2019-11-01 09:10:00,128.3,36.1,64.4,46.4,51.98,340,1,0,30.07,NA,6.21,NA,"CLR",NA,NA,NA,NA,NA,NA,NA,NA,NA,NA,NA,NA,NA,NA,NA,"KQEX 010910Z AUTO 34001KT 9999 CLR 18/08 A3007 RMK A02 TSNO"
"697","QEX",2019-11-01 09:20:00,128.3,36.1,64.4,46.4,51.98,320,1,0,30.07,NA,6.21,NA,"CLR",NA,NA,NA,NA,NA,NA,NA,NA,NA,NA,NA,NA,NA,NA,NA,"KQEX 010920Z AUTO 32001KT 9999 CLR 18/08 A3007 RMK A02 TSNO"
"698","QEX",2019-11-01 09:30:00,128.3,36.1,64.4,46.4,51.98,320,2,0,30.07,NA,6.21,NA,"CLR",NA,NA,NA,NA,NA,NA,NA,NA,NA,NA,NA,NA,NA,NA,NA,"KQEX 010930Z AUTO 32002KT 9999 CLR 18/08 A3007 RMK A02 TSNO"
"699","QEX",2019-11-01 09:40:00,128.3,36.1,62.6,48.2,59.26,240,1,0,30.08,NA,6.21,NA,"CLR",NA,NA,NA,NA,NA,NA,NA,NA,NA,NA,NA,NA,NA,NA,NA,"KQEX 010940Z AUTO 24001KT 9999 CLR 17/09 A3008 RMK A02 TSNO"
"700","QEX",2019-11-01 09:50:00,128.3,36.1,62.6,48.2,59.26,310,2,0,30.08,NA,6.21,NA,"CLR",NA,NA,NA,NA,NA,NA,NA,NA,NA,NA,NA,NA,NA,NA,NA,"KQEX 010950Z AUTO 31002KT 9999 CLR 17/09 A3008 RMK A02 TSNO"
"701","QEX",2019-11-01 10:00:00,128.3,36.1,62.6,48.2,59.26,350,2,0,30.08,NA,6.21,NA,"CLR",NA,NA,NA,NA,NA,NA,NA,NA,NA,NA,NA,NA,NA,NA,NA,"KQEX 011000Z AUTO 35002KT 9999 CLR 17/09 A3008 RMK A02 TSNO"
"702","QEX",2019-11-01 10:10:00,128.3,36.1,60.8,48.2,63.15,340,3,0,30.09,NA,6.21,NA,"CLR",NA,NA,NA,NA,NA,NA,NA,NA,NA,NA,NA,NA,NA,NA,NA,"KQEX 011010Z AUTO 34003KT 9999 CLR 16/09 A3009 RMK A02 TSNO"
"703","QEX",2019-11-01 10:20:00,128.3,36.1,60.8,50,67.54,20,2,0,30.09,NA,6.21,NA,"CLR",NA,NA,NA,NA,NA,NA,NA,NA,NA,NA,NA,NA,NA,NA,NA,"KQEX 011020Z AUTO 02002KT 9999 CLR 16/10 A3009 RMK A02 TSNO"
"704","QEX",2019-11-01 10:30:00,128.3,36.1,60.8,50,67.54,340,1,0,30.09,NA,6.21,NA,"CLR",NA,NA,NA,NA,NA,NA,NA,NA,NA,NA,NA,NA,NA,NA,NA,"KQEX 011030Z AUTO 34001KT 9999 CLR 16/10 A3009 RMK A02 TSNO"
"705","QEX",2019-11-01 10:40:00,128.3,36.1,59,50,72.01,350,3,0,30.09,NA,5.59,NA,"CLR",NA,NA,NA,NA,NA,NA,NA,"HZ",NA,NA,NA,NA,NA,NA,NA,"KQEX 011040Z AUTO 35003KT 9000 HZ CLR 15/10 A3009 RMK A02 TSNO"
"706","QEX",2019-11-01 10:50:00,128.3,36.1,59,51.8,76.98,300,2,0,30.1,NA,3.73,NA,"CLR",NA,NA,NA,NA,NA,NA,NA,"HZ",NA,NA,NA,NA,NA,NA,NA,"KQEX 011050Z AUTO 30002KT 6000 HZ CLR 15/11 A3010 RMK A02 TSNO"
"707","QEX",2019-11-01 11:00:00,128.3,36.1,59,50,72.01,280,1,0,30.1,NA,4.97,NA,"CLR",NA,NA,NA,NA,NA,NA,NA,"HZ",NA,NA,NA,NA,NA,NA,NA,"KQEX 011100Z AUTO 28001KT 8000 HZ CLR 15/10 A3010 RMK A02 TSNO"
"708","QEX",2019-11-01 11:10:00,128.3,36.1,59,50,72.01,0,0,0,30.1,NA,5.59,NA,"CLR",NA,NA,NA,NA,NA,NA,NA,"HZ",NA,NA,NA,NA,NA,NA,NA,"KQEX 011110Z AUTO 00000KT 9000 HZ CLR 15/10 A3010 RMK A02 TSNO"
"709","QEX",2019-11-01 11:20:00,128.3,36.1,59,50,72.01,50,1,0,30.1,NA,5.59,NA,"CLR",NA,NA,NA,NA,NA,NA,NA,"HZ",NA,NA,NA,NA,NA,NA,NA,"KQEX 011120Z AUTO 05001KT 9000 HZ CLR 15/10 A3010 RMK A02 TSNO"
"710","QEX",2019-11-01 11:30:00,128.3,36.1,59,48.2,67.33,30,3,0,30.1,NA,6.21,NA,"CLR",NA,NA,NA,NA,NA,NA,NA,NA,NA,NA,NA,NA,NA,NA,NA,"KQEX 011130Z AUTO 03003KT 9999 CLR 15/09 A3010 RMK A02 TSNO"
"711","QEX",2019-11-01 11:40:00,128.3,36.1,59,48.2,67.33,30,2,0,30.1,NA,5.59,NA,"CLR",NA,NA,NA,NA,NA,NA,NA,"HZ",NA,NA,NA,NA,NA,NA,NA,"KQEX 011140Z AUTO 03002KT 9000 HZ CLR 15/09 A3010 RMK A02 TSNO"
"712","QEX",2019-11-01 11:50:00,128.3,36.1,59,50,72.01,40,1,0,30.1,NA,6.21,NA,"CLR",NA,NA,NA,NA,NA,NA,NA,NA,NA,NA,NA,NA,NA,NA,NA,"KQEX 011150Z AUTO 04001KT 9999 CLR 15/10 A3010 RMK A02 TSNO"
"713","QEX",2019-11-01 12:00:00,128.3,36.1,59,50,72.01,310,1,0,30.11,NA,5.59,NA,"CLR",NA,NA,NA,NA,NA,NA,NA,"HZ",NA,NA,NA,NA,NA,NA,NA,"KQEX 011200Z AUTO 31001KT 9000 HZ CLR 15/10 A3011 RMK A02 TSNO"
"714","QEX",2019-11-01 12:10:00,128.3,36.1,57.2,50,76.82,330,1,0,30.11,NA,6.21,NA,"CLR",NA,NA,NA,NA,NA,NA,NA,NA,NA,NA,NA,NA,NA,NA,NA,"KQEX 011210Z AUTO 33001KT 9999 CLR 14/10 A3011 RMK A02 TSNO"
"715","QEX",2019-11-01 12:20:00,128.3,36.1,57.2,50,76.82,320,1,0,30.11,NA,6.21,NA,"CLR",NA,NA,NA,NA,NA,NA,NA,NA,NA,NA,NA,NA,NA,NA,NA,"KQEX 011220Z AUTO 32001KT 9999 CLR 14/10 A3011 RMK A02 TSNO"
"716","QEX",2019-11-01 12:30:00,128.3,36.1,57.2,50,76.82,350,1,0,30.11,NA,6.21,NA,"CLR",NA,NA,NA,NA,NA,NA,NA,NA,NA,NA,NA,NA,NA,NA,NA,"KQEX 011230Z AUTO 35001KT 9999 CLR 14/10 A3011 RMK A02 TSNO"
"717","QEX",2019-11-01 12:40:00,128.3,36.1,57.2,48.2,71.83,360,1,0,30.11,NA,6.21,NA,"CLR",NA,NA,NA,NA,NA,NA,NA,NA,NA,NA,NA,NA,NA,NA,NA,"KQEX 011240Z AUTO 36001KT 9999 CLR 14/09 A3011 RMK A02 TSNO"
"718","QEX",2019-11-01 12:50:00,128.3,36.1,57.2,51.8,82.12,30,2,0,30.12,NA,5.59,NA,"CLR",NA,NA,NA,NA,NA,NA,NA,"HZ",NA,NA,NA,NA,NA,NA,NA,"KQEX 011250Z AUTO 03002KT 9000 HZ CLR 14/11 A3012 RMK A02 TSNO"
"719","QEX",2019-11-01 13:00:00,128.3,36.1,57.2,51.8,82.12,330,1,0,30.12,NA,4.97,NA,"CLR",NA,NA,NA,NA,NA,NA,NA,"HZ",NA,NA,NA,NA,NA,NA,NA,"KQEX 011300Z AUTO 33001KT 8000 HZ CLR 14/11 A3012 RMK A02 TSNO"
"720","QEX",2019-11-01 13:10:00,128.3,36.1,57.2,51.8,82.12,30,2,0,30.12,NA,4.97,NA,"CLR",NA,NA,NA,NA,NA,NA,NA,"HZ",NA,NA,NA,NA,NA,NA,NA,"KQEX 011310Z AUTO 03002KT 8000 HZ CLR 14/11 A3012 RMK A02 TSNO"
"721","QEX",2019-11-01 13:20:00,128.3,36.1,55.4,51.8,87.65,330,1,0,30.13,NA,4.97,NA,"CLR",NA,NA,NA,NA,NA,NA,NA,"HZ",NA,NA,NA,NA,NA,NA,NA,"KQEX 011320Z AUTO 33001KT 8000 HZ CLR 13/11 A3013 RMK A02 TSNO"
"722","QEX",2019-11-01 13:30:00,128.3,36.1,55.4,53.6,93.65,330,1,0,30.13,NA,3.73,NA,"CLR",NA,NA,NA,NA,NA,NA,NA,NA,NA,NA,NA,NA,NA,NA,NA,"KQEX 011330Z AUTO 33001KT 6000 // CLR 13/12 A3013 RMK A02 TSNO"
"723","QEX",2019-11-01 13:40:00,128.3,36.1,55.4,50,81.99,360,1,0,30.13,NA,3.73,NA,"CLR",NA,NA,NA,NA,NA,NA,NA,"HZ",NA,NA,NA,NA,NA,NA,NA,"KQEX 011340Z AUTO 36001KT 6000 HZ CLR 13/10 A3013 RMK A02 TSNO"
"724","QEX",2019-11-01 13:50:00,128.3,36.1,55.4,46.4,71.64,310,3,0,30.13,NA,6.21,NA,"CLR",NA,NA,NA,NA,NA,NA,NA,NA,NA,NA,NA,NA,NA,NA,NA,"KQEX 011350Z AUTO 31003KT 9999 CLR 13/08 A3013 RMK A02 TSNO"
"725","QEX",2019-11-01 14:00:00,128.3,36.1,55.4,46.4,71.64,330,1,0,30.13,NA,6.21,NA,"CLR",NA,NA,NA,NA,NA,NA,NA,NA,NA,NA,NA,NA,NA,NA,NA,"KQEX 011400Z AUTO 33001KT 9999 CLR 13/08 A3013 RMK A02 TSNO"
"726","QEX",2019-11-01 14:10:00,128.3,36.1,55.4,46.4,71.64,310,1,0,30.12,NA,6.21,NA,"CLR",NA,NA,NA,NA,NA,NA,NA,NA,NA,NA,NA,NA,NA,NA,NA,"KQEX 011410Z AUTO 31001KT 9999 CLR 13/08 A3012 RMK A02 TSNO"
"727","QEX",2019-11-01 14:20:00,128.3,36.1,53.6,48.2,81.87,30,3,0,30.12,NA,6.21,NA,"CLR",NA,NA,NA,NA,NA,NA,NA,NA,NA,NA,NA,NA,NA,NA,NA,"KQEX 011420Z AUTO 03003KT 9999 CLR 12/09 A3012 RMK A02 TSNO"
"728","QEX",2019-11-01 14:30:00,128.3,36.1,53.6,46.4,76.5,350,2,0,30.12,NA,6.21,NA,"CLR",NA,NA,NA,NA,NA,NA,NA,NA,NA,NA,NA,NA,NA,NA,NA,"KQEX 011430Z AUTO 35002KT 9999 CLR 12/08 A3012 RMK A02 TSNO"
"729","QEX",2019-11-01 14:40:00,128.3,36.1,53.6,46.4,76.5,290,1,0,30.12,NA,6.21,NA,"CLR",NA,NA,NA,NA,NA,NA,NA,NA,NA,NA,NA,NA,NA,NA,NA,"KQEX 011440Z AUTO 29001KT 9999 CLR 12/08 A3012 RMK A02 TSNO"
"730","QEX",2019-11-01 14:50:00,128.3,36.1,53.6,51.8,93.6,10,2,0,30.12,NA,6.21,NA,"CLR",NA,NA,NA,NA,NA,NA,NA,NA,NA,NA,NA,NA,NA,NA,NA,"KQEX 011450Z AUTO 01002KT 9999 CLR 12/11 A3012 RMK A02 TSNO"
"731","QEX",2019-11-01 15:00:00,128.3,36.1,53.6,53.6,100,30,3,0,30.12,NA,3.73,NA,"CLR",NA,NA,NA,NA,NA,NA,NA,NA,NA,NA,NA,NA,NA,NA,NA,"KQEX 011500Z AUTO 03003KT 6000 // CLR 12/12 A3012 RMK A02 TSNO"
"732","QEX",2019-11-01 15:10:00,128.3,36.1,53.6,53.6,100,20,2,0,30.12,NA,3.73,NA,"CLR",NA,NA,NA,NA,NA,NA,NA,NA,NA,NA,NA,NA,NA,NA,NA,"KQEX 011510Z AUTO 02002KT 6000 // CLR 12/12 A3012 RMK A02 TSNO"
"733","QEX",2019-11-01 15:20:00,128.3,36.1,53.6,53.6,100,330,1,0,30.12,NA,4.97,NA,"CLR",NA,NA,NA,NA,NA,NA,NA,NA,NA,NA,NA,NA,NA,NA,NA,"KQEX 011520Z AUTO 33001KT 8000 // CLR 12/12 A3012 RMK A02 TSNO"
"734","QEX",2019-11-01 15:30:00,128.3,36.1,53.6,53.6,100,20,1,0,30.12,NA,3.73,NA,"CLR",NA,NA,NA,NA,NA,NA,NA,NA,NA,NA,NA,NA,NA,NA,NA,"KQEX 011530Z AUTO 02001KT 6000 // CLR 12/12 A3012 RMK A02 TSNO"
"735","QEX",2019-11-01 15:40:00,128.3,36.1,53.6,53.6,100,20,2,0,30.13,NA,3.73,NA,"CLR",NA,NA,NA,NA,NA,NA,NA,NA,NA,NA,NA,NA,NA,NA,NA,"KQEX 011540Z AUTO 02002KT 6000 // CLR 12/12 A3013 RMK A02 TSNO"
"736","QEX",2019-11-01 15:50:00,128.3,36.1,51.8,53.6,NA,40,3,0,30.13,NA,3.73,NA,"FEW",NA,NA,NA,5000,NA,NA,NA,NA,NA,NA,NA,NA,NA,NA,NA,"KQEX 011550Z AUTO 04003KT 6000 // FEW050 11/12 A3013 RMK A02 TSNO"
"737","QEX",2019-11-01 16:00:00,128.3,36.1,51.8,53.6,NA,30,3,0,30.13,NA,3.73,NA,"FEW",NA,NA,NA,4900,NA,NA,NA,NA,NA,NA,NA,NA,NA,NA,NA,"KQEX 011600Z AUTO 03003KT 6000 // FEW049 11/12 A3013 RMK A02 TSNO"
"738","QEX",2019-11-01 16:10:00,128.3,36.1,51.8,53.6,NA,30,2,0,30.13,NA,3.73,NA,"FEW",NA,NA,NA,4800,NA,NA,NA,NA,NA,NA,NA,NA,NA,NA,NA,"KQEX 011610Z AUTO 03002KT 6000 // FEW048 11/12 A3013 RMK A02 TSNO"
"739","QEX",2019-11-01 16:20:00,128.3,36.1,51.8,53.6,NA,40,3,0,30.13,NA,3.73,NA,"FEW",NA,NA,NA,4800,NA,NA,NA,NA,NA,NA,NA,NA,NA,NA,NA,"KQEX 011620Z AUTO 04003KT 6000 // FEW048 11/12 A3013 RMK A02 TSNO"
"740","QEX",2019-11-01 16:30:00,128.3,36.1,NA,NA,NA,30,3,0,NA,NA,NA,NA,NA,NA,NA,NA,NA,NA,NA,NA,NA,NA,NA,NA,NA,NA,NA,NA,"KQEX 011630Z AUTO 03003KT 6000 // FEW048 11/12 / RMK A02 TSNO"
"741","QEX",2019-11-01 16:40:00,128.3,36.1,NA,NA,NA,30,2,0,NA,NA,NA,NA,NA,NA,NA,NA,NA,NA,NA,NA,NA,NA,NA,NA,NA,NA,NA,NA,"KQEX 011640Z AUTO 03002KT 6000 // FEW048 11/12 / RMK A02 TSNO"
"742","QEX",2019-11-01 16:50:00,128.3,36.1,NA,NA,NA,360,2,0,NA,NA,NA,NA,NA,NA,NA,NA,NA,NA,NA,NA,NA,NA,NA,NA,NA,NA,NA,NA,"KQEX 011650Z AUTO 36002KT 6000 // FEW048 11/12 / RMK A02 TSNO"
"743","QEX",2019-11-01 17:00:00,128.3,36.1,51.8,53.6,NA,360,2,0,30.13,NA,3.73,NA,"FEW","FEW",NA,NA,4900,25000,NA,NA,NA,NA,NA,NA,NA,NA,NA,NA,"KQEX 011700Z AUTO 36002KT 6000 // FEW049 FEW250 11/12 A3013 RMK A02 TSNO"
"744","QEX",2019-11-01 17:10:00,128.3,36.1,51.8,53.6,NA,360,2,0,30.13,NA,3.73,NA,"FEW",NA,NA,NA,4800,NA,NA,NA,NA,NA,NA,NA,NA,NA,NA,NA,"KQEX 011710Z AUTO 36002KT 6000 // FEW048 11/12 A3013 RMK A02 TSNO"
"745","QEX",2019-11-01 17:20:00,128.3,36.1,50,53.6,NA,30,2,0,30.13,NA,3.73,NA,"FEW",NA,NA,NA,4800,NA,NA,NA,NA,NA,NA,NA,NA,NA,NA,NA,"KQEX 011720Z AUTO 03002KT 6000 // FEW048 10/12 A3013 RMK A02 TSNO"
"746","QEX",2019-11-01 17:30:00,128.3,36.1,50,53.6,NA,30,2,0,30.13,NA,3.73,NA,"FEW",NA,NA,NA,4800,NA,NA,NA,NA,NA,NA,NA,NA,NA,NA,NA,"KQEX 011730Z AUTO 03002KT 6000 // FEW048 10/12 A3013 RMK A02 TSNO"
"747","QEX",2019-11-01 17:40:00,128.3,36.1,50,51.8,NA,340,2,0,30.12,NA,3.73,NA,"SCT",NA,NA,NA,4700,NA,NA,NA,NA,NA,NA,NA,NA,NA,NA,NA,"KQEX 011740Z AUTO 34002KT 6000 // SCT047 10/11 A3012 RMK A02 TSNO"
"748","QEX",2019-11-01 17:50:00,128.3,36.1,50,50,100,340,1,0,30.12,NA,4.97,NA,"FEW",NA,NA,NA,4700,NA,NA,NA,NA,NA,NA,NA,NA,NA,NA,NA,"KQEX 011750Z AUTO 34001KT 8000 // FEW047 10/10 A3012 RMK A02 TSNO"
"749","QEX",2019-11-01 18:00:00,128.3,36.1,NA,NA,NA,30,3,0,NA,NA,NA,NA,NA,NA,NA,NA,NA,NA,NA,NA,NA,NA,NA,NA,NA,NA,NA,NA,"KQEX 011800Z AUTO 03003KT 6000 // SCT047 10/10 / RMK A02 TSNO"
"750","QEX",2019-11-01 18:10:00,128.3,36.1,NA,NA,NA,40,3,0,NA,NA,NA,NA,NA,NA,NA,NA,NA,NA,NA,NA,NA,NA,NA,NA,NA,NA,NA,NA,"KQEX 011810Z AUTO 04003KT 4800 // SCT047 10/10 / RMK A02 TSNO"
"751","QEX",2019-11-01 18:20:00,128.3,36.1,NA,NA,NA,10,2,0,NA,NA,NA,NA,NA,NA,NA,NA,NA,NA,NA,NA,NA,NA,NA,NA,NA,NA,NA,NA,"KQEX 011820Z AUTO 01002KT 4800 // SCT046 10/10 / RMK A02 TSNO"
"752","QEX",2019-11-01 18:30:00,128.3,36.1,NA,NA,NA,30,2,0,NA,NA,NA,NA,NA,NA,NA,NA,NA,NA,NA,NA,NA,NA,NA,NA,NA,NA,NA,NA,"KQEX 011830Z AUTO 03002KT 6000 // BKN045 10/10 / RMK A02 TSNO"
"753","QEX",2019-11-01 18:40:00,128.3,36.1,NA,NA,NA,20,2,0,NA,NA,NA,NA,NA,NA,NA,NA,NA,NA,NA,NA,NA,NA,NA,NA,NA,NA,NA,NA,"KQEX 011840Z AUTO 02002KT 4800 // BKN045 10/10 / RMK A02 TSNO"
"754","QEX",2019-11-01 18:50:00,128.3,36.1,NA,NA,NA,20,2,0,NA,NA,NA,NA,NA,NA,NA,NA,NA,NA,NA,NA,NA,NA,NA,NA,NA,NA,NA,NA,"KQEX 011850Z AUTO 02002KT 4800 // BKN045 10/10 / RMK A02 TSNO"
"755","QEX",2019-11-01 19:00:00,128.3,36.1,NA,NA,NA,20,2,0,NA,NA,NA,NA,NA,NA,NA,NA,NA,NA,NA,NA,NA,NA,NA,NA,NA,NA,NA,NA,"KQEX 011900Z AUTO 02002KT 4800 // SCT045 10/10 / RMK A02 TSNO"
"756","QEX",2019-11-01 19:10:00,128.3,36.1,NA,NA,NA,20,2,0,NA,NA,NA,NA,NA,NA,NA,NA,NA,NA,NA,NA,NA,NA,NA,NA,NA,NA,NA,NA,"KQEX 011910Z AUTO 02002KT 6000 // SCT046 10/10 / RMK A02 TSNO"
"757","QEX",2019-11-01 19:20:00,128.3,36.1,NA,NA,NA,30,3,0,NA,NA,NA,NA,NA,NA,NA,NA,NA,NA,NA,NA,NA,NA,NA,NA,NA,NA,NA,NA,"KQEX 011920Z AUTO 03003KT 4800 // BKN045 10/10 / RMK A02 TSNO"
"758","QEX",2019-11-01 19:30:00,128.3,36.1,NA,NA,NA,30,2,0,NA,NA,NA,NA,NA,NA,NA,NA,NA,NA,NA,NA,NA,NA,NA,NA,NA,NA,NA,NA,"KQEX 011930Z AUTO 03002KT 4800 // BKN045 10/10 / RMK A02 TSNO"
"759","QEX",2019-11-01 19:40:00,128.3,36.1,NA,NA,NA,40,3,0,NA,NA,NA,NA,NA,NA,NA,NA,NA,NA,NA,NA,NA,NA,NA,NA,NA,NA,NA,NA,"KQEX 011940Z AUTO 04003KT 4800 // BKN045 10/10 / RMK A02 TSNO"
"760","QEX",2019-11-01 19:50:00,128.3,36.1,NA,NA,NA,10,2,0,NA,NA,NA,NA,NA,NA,NA,NA,NA,NA,NA,NA,NA,NA,NA,NA,NA,NA,NA,NA,"KQEX 011950Z AUTO 01002KT 4800 // BKN044 10/10 / RMK A02 TSNO"
"761","QEX",2019-11-01 20:00:00,128.3,36.1,NA,NA,NA,10,3,0,NA,NA,NA,NA,NA,NA,NA,NA,NA,NA,NA,NA,NA,NA,NA,NA,NA,NA,NA,NA,"KQEX 012000Z AUTO 01003KT 4800 // BKN044 10/10 / RMK A02 TSNO"
"762","QEX",2019-11-01 20:10:00,128.3,36.1,NA,NA,NA,40,3,0,NA,NA,NA,NA,NA,NA,NA,NA,NA,NA,NA,NA,NA,NA,NA,NA,NA,NA,NA,NA,"KQEX 012010Z AUTO 04003KT 4800 // BKN044 10/10 / RMK A02 TSNO"
"763","QEX",2019-11-01 20:20:00,128.3,36.1,NA,NA,NA,20,2,0,NA,NA,NA,NA,NA,NA,NA,NA,NA,NA,NA,NA,NA,NA,NA,NA,NA,NA,NA,NA,"KQEX 012020Z AUTO 02002KT 4800 // BKN043 10/10 / RMK A02 TSNO"
"764","QEX",2019-11-01 20:30:00,128.3,36.1,NA,NA,NA,10,2,0,NA,NA,NA,NA,NA,NA,NA,NA,NA,NA,NA,NA,NA,NA,NA,NA,NA,NA,NA,NA,"KQEX 012030Z AUTO 01002KT 4800 // BKN044 10/10 / RMK A02 TSNO"
"765","QEX",2019-11-01 20:40:00,128.3,36.1,NA,NA,NA,360,2,0,NA,NA,NA,NA,NA,NA,NA,NA,NA,NA,NA,NA,NA,NA,NA,NA,NA,NA,NA,NA,"KQEX 012040Z AUTO 36002KT 4800 // BKN043 10/10 / RMK A02 TSNO"
"766","QEX",2019-11-01 20:50:00,128.3,36.1,NA,NA,NA,10,2,0,NA,NA,NA,NA,NA,NA,NA,NA,NA,NA,NA,NA,NA,NA,NA,NA,NA,NA,NA,NA,"KQEX 012050Z AUTO 01002KT 4000 // BKN043 10/10 / RMK A02 TSNO"
"767","QEX",2019-11-01 21:00:00,128.3,36.1,NA,NA,NA,350,2,0,NA,NA,NA,NA,NA,NA,NA,NA,NA,NA,NA,NA,NA,NA,NA,NA,NA,NA,NA,NA,"KQEX 012100Z AUTO 35002KT 4000 // SCT043 10/10 / RMK A02 TSNO"
"768","QEX",2019-11-01 21:10:00,128.3,36.1,NA,NA,NA,20,3,0,NA,NA,NA,NA,NA,NA,NA,NA,NA,NA,NA,NA,NA,NA,NA,NA,NA,NA,NA,NA,"KQEX 012110Z AUTO 02003KT 3200 // SCT043 10/10 / RMK A02 TSNO"
"769","QEX",2019-11-01 21:20:00,128.3,36.1,NA,NA,NA,40,2,0,NA,NA,NA,NA,NA,NA,NA,NA,NA,NA,NA,NA,NA,NA,NA,NA,NA,NA,NA,NA,"KQEX 012120Z AUTO 04002KT 4000 // FEW044 10/10 / RMK A02 TSNO"
"770","QEX",2019-11-01 21:30:00,128.3,36.1,NA,NA,NA,30,3,0,NA,NA,NA,NA,NA,NA,NA,NA,NA,NA,NA,NA,NA,NA,NA,NA,NA,NA,NA,NA,"KQEX 012130Z AUTO 03003KT 4000 // FEW044 10/10 / RMK A02 TSNO"
"771","QEX",2019-11-01 21:40:00,128.3,36.1,NA,NA,NA,30,2,0,NA,NA,NA,NA,NA,NA,NA,NA,NA,NA,NA,NA,NA,NA,NA,NA,NA,NA,NA,NA,"KQEX 012140Z AUTO 03002KT 3200 // FEW044 10/10 / RMK A02 TSNO"
"772","QEX",2019-11-01 21:50:00,128.3,36.1,NA,NA,NA,10,2,0,NA,NA,NA,NA,NA,NA,NA,NA,NA,NA,NA,NA,NA,NA,NA,NA,NA,NA,NA,NA,"KQEX 012150Z AUTO 01002KT 3200 // FEW042 10/10 / RMK A02 TSNO"
"773","QEX",2019-11-01 22:00:00,128.3,36.1,NA,NA,NA,10,2,0,NA,NA,NA,NA,NA,NA,NA,NA,NA,NA,NA,NA,NA,NA,NA,NA,NA,NA,NA,NA,"KQEX 012200Z AUTO 01002KT 4000 // FEW042 10/10 / RMK A02 TSNO"
"774","QEX",2019-11-01 22:10:00,128.3,36.1,NA,NA,NA,30,2,0,NA,NA,NA,NA,NA,NA,NA,NA,NA,NA,NA,NA,NA,NA,NA,NA,NA,NA,NA,NA,"KQEX 012210Z AUTO 03002KT 4000 // FEW043 10/10 / RMK A02 TSNO"
"775","QEX",2019-11-01 22:20:00,128.3,36.1,NA,NA,NA,30,2,0,NA,NA,NA,NA,NA,NA,NA,NA,NA,NA,NA,NA,NA,NA,NA,NA,NA,NA,NA,NA,"KQEX 012220Z AUTO 03002KT 4000 // CLR 10/10 / RMK A02 TSNO"
"776","QEX",2019-11-01 22:30:00,128.3,36.1,NA,NA,NA,40,2,0,NA,NA,NA,NA,NA,NA,NA,NA,NA,NA,NA,NA,NA,NA,NA,NA,NA,NA,NA,NA,"KQEX 012230Z AUTO 04002KT 4800 // CLR 10/10 / RMK A02 TSNO"
"777","QEX",2019-11-01 22:40:00,128.3,36.1,NA,NA,NA,360,2,0,NA,NA,NA,NA,NA,NA,NA,NA,NA,NA,NA,NA,NA,NA,NA,NA,NA,NA,NA,NA,"KQEX 012240Z AUTO 36002KT 4800 // CLR 10/10 / RMK A02 TSNO"
"778","QEX",2019-11-01 22:50:00,128.3,36.1,NA,NA,NA,350,2,0,NA,NA,NA,NA,NA,NA,NA,NA,NA,NA,NA,NA,NA,NA,NA,NA,NA,NA,NA,NA,"KQEX 012250Z AUTO 35002KT 4800 // CLR 10/10 / RMK A02 TSNO"
"779","QEX",2019-11-01 23:00:00,128.3,36.1,NA,NA,NA,350,2,0,NA,NA,NA,NA,NA,NA,NA,NA,NA,NA,NA,NA,NA,NA,NA,NA,NA,NA,NA,NA,"KQEX 012300Z AUTO 35002KT 4800 // CLR 10/10 / RMK A02 TSNO"
"780","QEX",2019-11-01 23:10:00,128.3,36.1,NA,NA,NA,30,2,0,NA,NA,NA,NA,NA,NA,NA,NA,NA,NA,NA,NA,NA,NA,NA,NA,NA,NA,NA,NA,"KQEX 012310Z AUTO 03002KT 4000 // CLR 10/10 / RMK A02 TSNO"
"781","QEX",2019-11-01 23:20:00,128.3,36.1,NA,NA,NA,30,3,0,NA,NA,NA,NA,NA,NA,NA,NA,NA,NA,NA,NA,NA,NA,NA,NA,NA,NA,NA,NA,"KQEX 012320Z AUTO 03003KT 3200 // CLR 10/10 / RMK A02 TSNO"
"782","QEX",2019-11-01 23:30:00,128.3,36.1,NA,NA,NA,40,3,0,NA,NA,NA,NA,NA,NA,NA,NA,NA,NA,NA,NA,NA,NA,NA,NA,NA,NA,NA,NA,"KQEX 012330Z AUTO 04003KT 2400 // CLR 10/10 / RMK A02 TSNO"
"783","QEX",2019-11-01 23:40:00,128.3,36.1,NA,NA,NA,30,3,0,NA,NA,NA,NA,NA,NA,NA,NA,NA,NA,NA,NA,NA,NA,NA,NA,NA,NA,NA,NA,"KQEX 012340Z AUTO 03003KT 2800 // CLR 10/10 / RMK A02 TSNO"
"784","RKJJ",2019-11-01 00:00:00,126.8089,35.1264,53.6,51.8,93.6,230,2,0,30.21,1023.6,2.24,NA,"BKN",NA,NA,NA,2000,NA,NA,NA,"BR",NA,NA,NA,NA,NA,NA,NA,"RKJJ 010000Z 23002KT 3600 BR BKN020 12/11 Q1023 RMK CIG020 SLP236 8/600 9/500"
"785","RKJJ",2019-11-01 00:17:00,126.8089,35.1264,55.4,51.8,87.65,230,1,0,30.23,NA,2.98,NA,"SCT",NA,NA,NA,2500,NA,NA,NA,"BR",NA,NA,NA,NA,NA,NA,NA,"RKJJ 010017Z 23001KT 4800 BR SCT025 13/11 A3023"
"786","RKJJ",2019-11-01 00:21:00,126.8089,35.1264,NA,NA,NA,NA,NA,0,NA,NA,NA,NA,NA,NA,NA,NA,NA,NA,NA,NA,NA,NA,NA,NA,NA,NA,NA,NA,"RKJJ 010021Z 01SPECI"
"787","RKJJ",2019-11-01 01:00:00,126.8089,35.1264,59,53.6,82.25,200,1,0,30.21,1023.4,3.73,NA,"SCT",NA,NA,NA,2500,NA,NA,NA,NA,NA,NA,NA,NA,NA,NA,NA,"RKJJ 010100Z 20001KT 6000 SCT025 15/12 Q1023 RMK SLP234 8/500 9/300"
"788","RKJJ",2019-11-01 02:00:00,126.8089,35.1264,64.4,57.2,77.45,310,1,0,30.21,1023.1,3.73,NA,"SCT",NA,NA,NA,2500,NA,NA,NA,NA,NA,NA,NA,NA,NA,NA,NA,"RKJJ 010200Z 31001KT 6000 SCT025 18/14 Q1023 RMK SLP231 8/500 9/300"
"789","RKJJ",2019-11-01 03:00:00,126.8089,35.1264,69.8,57.2,64.26,50,2,0,30.18,1022.4,3.73,NA,"SCT",NA,NA,NA,2500,NA,NA,NA,NA,NA,NA,NA,NA,NA,NA,NA,"RKJJ 010300Z 05002KT 6000 SCT025 21/14 Q1022 RMK SLP224 8/500 9/300"
"790","RKJJ",2019-11-01 04:00:00,126.8089,35.1264,71.6,55.4,56.63,20,2,0,30.15,1021.2,3.73,NA,"FEW",NA,NA,NA,3000,NA,NA,NA,NA,NA,NA,NA,NA,NA,NA,NA,"RKJJ 010400Z 02002KT 6000 FEW030 22/13 Q1021 RMK SLP212 8/500 9/200"
"791","RKJJ",2019-11-01 05:00:00,126.8089,35.1264,71.6,53.6,53.03,320,5,0,30.12,1020.6,5.59,NA,"FEW",NA,NA,NA,4000,NA,NA,NA,NA,NA,NA,NA,NA,NA,NA,NA,"RKJJ 010500Z 32005KT 9000 FEW040 22/12 Q1020 RMK SLP206 8/500 9/100"
"792","RKJJ",2019-11-01 06:00:00,126.8089,35.1264,73.4,50,43.69,320,5,0,30.12,1020.4,5.59,NA,"FEW",NA,NA,NA,4000,NA,NA,NA,NA,NA,NA,NA,NA,NA,NA,NA,"RKJJ 010600Z 32005KT 9000 FEW040 23/10 Q1020 RMK SLP204 8/500 9/200"
"793","RKJJ",2019-11-01 07:00:00,126.8089,35.1264,71.6,55.4,56.63,310,6,0,30.09,1020.1,5.59,NA,"FEW",NA,NA,NA,4000,NA,NA,NA,NA,NA,NA,NA,NA,NA,NA,NA,"RKJJ 010700Z 31006KT 9000 FEW040 22/13 Q1019 RMK SLP201 8/500 9/200"
"794","RKJJ",2019-11-01 08:00:00,126.8089,35.1264,68,53.6,59.97,310,9,0,30.12,1020.3,5.59,NA,"NSC",NA,NA,NA,NA,NA,NA,NA,NA,NA,NA,NA,NA,NA,NA,NA,"RKJJ 010800Z 31009KT 9000 NSC 20/12 Q1020 RMK SLP203 8/008 9/004"
"795","RKJJ",2019-11-01 09:00:00,126.8089,35.1264,64.4,50,59.5,310,6,0,30.15,1021.1,5.59,NA,"NSC",NA,NA,NA,NA,NA,NA,NA,NA,NA,NA,NA,NA,NA,NA,NA,"RKJJ 010900Z 31006KT 9000 NSC 18/10 Q1021 RMK SLP211 8/008 9/004"
"796","RKJJ",2019-11-01 10:00:00,126.8089,35.1264,60.8,51.8,72.2,300,4,0,30.15,1021.7,6.21,NA,NA,NA,NA,NA,NA,NA,NA,NA,NA,NA,NA,NA,NA,NA,NA,NA,"RKJJ 011000Z 30004KT CAVOK 16/11 Q1021 RMK SLP217 8/008 9/004"
"797","RKJJ",2019-11-01 11:00:00,126.8089,35.1264,60.8,50,67.54,330,1,0,30.15,1021.7,6.21,NA,NA,NA,NA,NA,NA,NA,NA,NA,NA,NA,NA,NA,NA,NA,NA,NA,"RKJJ 011100Z 33001KT CAVOK 16/10 Q1021 RMK SLP217 8/008 9/003"
"798","RKJJ",2019-11-01 12:00:00,126.8089,35.1264,51.8,48.2,87.47,230,1,0,30.18,1022,6.21,NA,NA,NA,NA,NA,NA,NA,NA,NA,NA,NA,NA,NA,NA,NA,NA,NA,"RKJJ 011200Z 23001KT CAVOK 11/09 Q1022 RMK SLP220 8/008 9/003"
"799","RKJJ",2019-11-01 13:00:00,126.8089,35.1264,51.8,50,93.55,220,1,0,30.18,1022.2,6.21,NA,NA,NA,NA,NA,NA,NA,NA,NA,NA,NA,NA,NA,NA,NA,NA,NA,"RKJJ 011300Z 22001KT CAVOK 11/10 Q1022 RMK SLP222 8/008 9/003"
"800","RKJJ",2019-11-01 14:00:00,126.8089,35.1264,48.2,46.4,93.45,200,1,0,30.18,1022.2,6.21,NA,NA,NA,NA,NA,NA,NA,NA,NA,NA,NA,NA,NA,NA,NA,NA,NA,"RKJJ 011400Z 20001KT CAVOK 09/08 Q1022 RMK SLP222 8/008 9/003"
"801","RKJJ",2019-11-01 15:00:00,126.8089,35.1264,50,48.2,93.5,300,1,0,30.18,1022,6.21,NA,NA,NA,NA,NA,NA,NA,NA,NA,NA,NA,NA,NA,NA,NA,NA,NA,"RKJJ 011500Z 30001KT CAVOK 10/09 Q1022 RMK SLP220 8/008 9/003"
"802","RKJJ",2019-11-01 16:00:00,126.8089,35.1264,46.4,46.4,100,170,1,0,30.18,1022.4,4.97,NA,"FEW","SCT",NA,NA,3000,20000,NA,NA,NA,NA,NA,NA,NA,NA,NA,NA,"RKJJ 011600Z 17001KT 8000 FEW030 SCT200 08/08 Q1022 RMK SLP224 8/508 9/102"
"803","RKJJ",2019-11-01 17:00:00,126.8089,35.1264,44.6,44.6,100,130,1,0,30.18,1022.6,4.97,NA,"FEW","SCT",NA,NA,3000,20000,NA,NA,NA,NA,NA,NA,NA,NA,NA,NA,"RKJJ 011700Z 13001KT 8000 FEW030 SCT200 07/07 Q1022 RMK SLP226 8/508 9/102"
"804","RKJJ",2019-11-01 18:00:00,126.8089,35.1264,44.6,44.6,100,310,1,0,30.18,1022,3.73,NA,"NSC",NA,NA,NA,NA,NA,NA,NA,NA,NA,NA,NA,NA,NA,NA,NA,"RKJJ 011800Z 31001KT 6000 NSC 07/07 Q1022 RMK SLP220 8/008 9/002"
"805","RKJJ",2019-11-01 19:00:00,126.8089,35.1264,46.4,46.4,100,270,1,0,30.15,1021.7,3.73,NA,"NSC",NA,NA,NA,NA,NA,NA,NA,NA,NA,NA,NA,NA,NA,NA,NA,"RKJJ 011900Z 27001KT 6000 NSC 08/08 Q1021 RMK SLP217 8/008 9/002"
"806","RKJJ",2019-11-01 20:00:00,126.8089,35.1264,44.6,42.8,93.35,180,1,0,30.15,1021.8,3.73,NA,"NSC",NA,NA,NA,NA,NA,NA,NA,NA,NA,NA,NA,NA,NA,NA,NA,"RKJJ 012000Z 18001KT 6000 NSC 07/06 Q1021 RMK SLP218 8/008 9/001"
"807","RKJJ",2019-11-01 21:00:00,126.8089,35.1264,44.6,44.6,100,30,1,0,30.15,1021.8,3.73,NA,"NSC",NA,NA,NA,NA,NA,NA,NA,NA,NA,NA,NA,NA,NA,NA,NA,"RKJJ 012100Z 03001KT 6000 NSC 07/07 Q1021 RMK SLP218 8/008 9/001"
"808","RKJJ",2019-11-01 22:00:00,126.8089,35.1264,42.8,42.8,100,260,1,0,30.18,1022,3.73,NA,"NSC",NA,NA,NA,NA,NA,NA,NA,NA,NA,NA,NA,NA,NA,NA,NA,"RKJJ 012200Z 26001KT 6000 NSC 06/06 Q1022 RMK SLP220 8/008 9/002"
"809","RKJJ",2019-11-01 23:00:00,126.8089,35.1264,46.4,46.4,100,220,1,0,30.18,1022.6,5.59,NA,"NSC",NA,NA,NA,NA,NA,NA,NA,NA,NA,NA,NA,NA,NA,NA,NA,"RKJJ 012300Z 22001KT 9000 NSC 08/08 Q1022 RMK SLP226 8/008 9/004"
"810","QEP",2019-11-01 00:00:00,127.2667,37.4,55.4,55.4,100,240,2,0,30.22,NA,0.25,NA,"OVC",NA,NA,NA,100,NA,NA,NA,"FG",NA,NA,NA,NA,NA,NA,NA,"KQEP 010000Z AUTO 24002KT 0400 FG OVC001 13/13 A3022 RMK A02 TSNO"
"811","QEP",2019-11-01 00:10:00,127.2667,37.4,53.6,55.4,NA,340,2,0,30.22,NA,0.5,NA,"OVC",NA,NA,NA,100,NA,NA,NA,"FG",NA,NA,NA,NA,NA,NA,NA,"KQEP 010010Z AUTO 34002KT 0800 FG OVC001 12/13 A3022 RMK A02 TSNO"
"812","QEP",2019-11-01 00:20:00,127.2667,37.4,55.4,57.2,NA,320,2,0,30.22,NA,0.75,NA,"OVC",NA,NA,NA,100,NA,NA,NA,"BR",NA,NA,NA,NA,NA,NA,NA,"KQEP 010020Z AUTO 32002KT 1200 BR OVC001 13/14 A3022 RMK A02 TSNO"
"813","QEP",2019-11-01 00:30:00,127.2667,37.4,55.4,55.4,100,20,2,0,30.22,NA,0.75,NA,"OVC",NA,NA,NA,100,NA,NA,NA,"BR",NA,NA,NA,NA,NA,NA,NA,"KQEP 010030Z AUTO 02002KT 1200 BR OVC001 13/13 A3022 RMK A02 TSNO"
"814","QEP",2019-11-01 00:40:00,127.2667,37.4,57.2,55.4,93.69,310,1,0,30.22,NA,1.49,NA,"OVC",NA,NA,NA,200,NA,NA,NA,"BR",NA,NA,NA,NA,NA,NA,NA,"KQEP 010040Z AUTO 31001KT 2400 BR OVC002 14/13 A3022 RMK A02 TSNO"
"815","QEP",2019-11-01 00:50:00,127.2667,37.4,57.2,55.4,93.69,250,1,0,30.22,NA,1.99,NA,"BKN",NA,NA,NA,200,NA,NA,NA,"BR",NA,NA,NA,NA,NA,NA,NA,"KQEP 010050Z AUTO 25001KT 3200 BR BKN002 14/13 A3022 RMK A02 TSNO"
"816","QEP",2019-11-01 01:00:00,127.2667,37.4,59,53.6,82.25,320,2,0,30.21,NA,2.98,NA,"SCT","BKN",NA,NA,300,2400,NA,NA,"HZ",NA,NA,NA,NA,NA,NA,NA,"KQEP 010100Z AUTO 32002KT 4800 HZ SCT003 BKN024 15/12 A3021 RMK A02 TSNO"
"817","QEP",2019-11-01 01:10:00,127.2667,37.4,59,53.6,82.25,10,3,0,30.21,NA,2.98,NA,"FEW","BKN",NA,NA,400,2300,NA,NA,"HZ",NA,NA,NA,NA,NA,NA,NA,"KQEP 010110Z AUTO 01003KT 4800 HZ FEW004 BKN023 15/12 A3021 RMK A02 TSNO"
"818","QEP",2019-11-01 01:20:00,127.2667,37.4,59,53.6,82.25,230,4,0,30.21,NA,3.73,NA,"BKN",NA,NA,NA,2300,NA,NA,NA,"HZ",NA,NA,NA,NA,NA,NA,NA,"KQEP 010120Z AUTO 23004KT 6000 HZ BKN023 15/12 A3021 RMK A02 TSNO"
"819","QEP",2019-11-01 01:30:00,127.2667,37.4,60.8,53.6,77.14,290,1,0,30.21,NA,3.73,NA,"BKN",NA,NA,NA,2100,NA,NA,NA,"HZ",NA,NA,NA,NA,NA,NA,NA,"KQEP 010130Z AUTO 29001KT 6000 HZ BKN021 16/12 A3021 RMK A02 TSNO"
"820","QEP",2019-11-01 01:40:00,127.2667,37.4,60.8,51.8,72.2,250,5,0,30.21,NA,3.73,NA,"SCT",NA,NA,NA,1900,NA,NA,NA,"HZ",NA,NA,NA,NA,NA,NA,NA,"KQEP 010140Z AUTO 25005KT 6000 HZ SCT019 16/11 A3021 RMK A02 TSNO"
"821","QEP",2019-11-01 01:50:00,127.2667,37.4,60.8,46.4,59.01,220,2,0,30.21,NA,4.97,NA,"BKN",NA,NA,NA,1900,NA,NA,NA,"HZ",NA,NA,NA,NA,NA,NA,NA,"KQEP 010150Z AUTO 22002KT 8000 HZ BKN019 16/08 A3021 RMK A02 TSNO"
"822","QEP",2019-11-01 02:00:00,127.2667,37.4,60.8,46.4,59.01,230,3,0,30.21,NA,6.21,NA,"SCT",NA,NA,NA,2100,NA,NA,NA,NA,NA,NA,NA,NA,NA,NA,NA,"KQEP 010200Z AUTO 23003KT 9999 SCT021 16/08 A3021 RMK A02 TSNO"
"823","QEP",2019-11-01 02:10:00,127.2667,37.4,62.6,48.2,59.26,230,4,0,30.21,NA,6.21,NA,"SCT",NA,NA,NA,2200,NA,NA,NA,NA,NA,NA,NA,NA,NA,NA,NA,"KQEP 010210Z AUTO 23004KT 9999 SCT022 17/09 A3021 RMK A02 TSNO"
"824","QEP",2019-11-01 02:20:00,127.2667,37.4,62.6,46.4,55.37,260,6,0,30.21,NA,6.21,NA,"FEW",NA,NA,NA,2300,NA,NA,NA,NA,NA,NA,NA,NA,NA,NA,NA,"KQEP 010220Z AUTO 26006KT 9999 FEW023 17/08 A3021 RMK A02 TSNO"
"825","QEP",2019-11-01 02:30:00,127.2667,37.4,62.6,48.2,59.26,260,5,0,30.21,NA,6.21,NA,"CLR",NA,NA,NA,NA,NA,NA,NA,NA,NA,NA,NA,NA,NA,NA,NA,"KQEP 010230Z AUTO 26005KT 9999 CLR 17/09 A3021 RMK A02 TSNO"
"826","QEP",2019-11-01 02:40:00,127.2667,37.4,62.6,46.4,55.37,170,2,0,30.2,NA,6.21,NA,"CLR",NA,NA,NA,NA,NA,NA,NA,NA,NA,NA,NA,NA,NA,NA,NA,"KQEP 010240Z AUTO 17002KT 9999 CLR 17/08 A3020 RMK A02 TSNO"
"827","QEP",2019-11-01 02:50:00,127.2667,37.4,64.4,46.4,51.98,250,4,0,30.2,NA,6.21,NA,"CLR",NA,NA,NA,NA,NA,NA,NA,NA,NA,NA,NA,NA,NA,NA,NA,"KQEP 010250Z AUTO 25004KT 9999 CLR 18/08 A3020 RMK A02 TSNO"
"828","QEP",2019-11-01 03:00:00,127.2667,37.4,62.6,42.8,48.28,220,5,0,30.2,NA,6.21,NA,"CLR",NA,NA,NA,NA,NA,NA,NA,NA,NA,NA,NA,NA,NA,NA,NA,"KQEP 010300Z AUTO 22005KT 9999 CLR 17/06 A3020 RMK A02 TSNO"
"829","QEP",2019-11-01 03:10:00,127.2667,37.4,64.4,42.8,45.32,260,4,0,30.2,NA,6.21,NA,"CLR",NA,NA,NA,NA,NA,NA,NA,NA,NA,NA,NA,NA,NA,NA,NA,"KQEP 010310Z AUTO 26004KT 9999 CLR 18/06 A3020 RMK A02 TSNO"
"830","QEP",2019-11-01 03:20:00,127.2667,37.4,64.4,42.8,45.32,180,4,0,30.19,NA,6.21,NA,"CLR",NA,NA,NA,NA,NA,NA,NA,NA,NA,NA,NA,NA,NA,NA,NA,"KQEP 010320Z AUTO 18004KT 9999 CLR 18/06 A3019 RMK A02 TSNO"
"831","QEP",2019-11-01 03:40:00,127.2667,37.4,64.4,41,42.28,250,3,0,30.19,NA,6.21,NA,"CLR",NA,NA,NA,NA,NA,NA,NA,NA,NA,NA,NA,NA,NA,NA,NA,"KQEP 010340Z AUTO 25003KT 9999 CLR 18/05 A3019 RMK A02 TSNO"
"832","QEP",2019-11-01 03:50:00,127.2667,37.4,66.2,41,39.72,340,3,0,30.18,NA,6.21,NA,"CLR",NA,NA,NA,NA,NA,NA,NA,NA,NA,NA,NA,NA,NA,NA,NA,"KQEP 010350Z AUTO 34003KT 9999 CLR 19/05 A3018 RMK A02 TSNO"
"833","QEP",2019-11-01 04:00:00,127.2667,37.4,66.2,41,39.72,250,3,0,30.18,NA,6.21,NA,"CLR",NA,NA,NA,NA,NA,NA,NA,NA,NA,NA,NA,NA,NA,NA,NA,"KQEP 010400Z AUTO 25003KT 9999 CLR 19/05 A3018 RMK A02 TSNO"
"834","QEP",2019-11-01 04:10:00,127.2667,37.4,66.2,41,39.72,250,3,0,30.18,NA,6.21,NA,"CLR",NA,NA,NA,NA,NA,NA,NA,NA,NA,NA,NA,NA,NA,NA,NA,"KQEP 010410Z AUTO 25003KT 9999 CLR 19/05 A3018 RMK A02 TSNO"
"835","QEP",2019-11-01 04:20:00,127.2667,37.4,66.2,39.2,37.03,80,2,0,30.17,NA,6.21,NA,"CLR",NA,NA,NA,NA,NA,NA,NA,NA,NA,NA,NA,NA,NA,NA,NA,"KQEP 010420Z AUTO 08002KT 9999 CLR 19/04 A3017 RMK A02 TSNO"
"836","QEP",2019-11-01 04:30:00,127.2667,37.4,68,39.2,34.8,140,3,0,30.17,NA,6.21,NA,"CLR",NA,NA,NA,NA,NA,NA,NA,NA,NA,NA,NA,NA,NA,NA,NA,"KQEP 010430Z AUTO 14003KT 9999 CLR 20/04 A3017 RMK A02 TSNO"
"837","QEP",2019-11-01 04:40:00,127.2667,37.4,68,39.2,34.8,120,2,0,30.16,NA,6.21,NA,"CLR",NA,NA,NA,NA,NA,NA,NA,NA,NA,NA,NA,NA,NA,NA,NA,"KQEP 010440Z AUTO 12002KT 9999 CLR 20/04 A3016 RMK A02 TSNO"
"838","QEP",2019-11-01 04:50:00,127.2667,37.4,66.2,39.2,37.03,260,4,0,30.16,NA,6.21,NA,"CLR",NA,NA,NA,NA,NA,NA,NA,NA,NA,NA,NA,NA,NA,NA,NA,"KQEP 010450Z AUTO 26004KT 9999 CLR 19/04 A3016 RMK A02 TSNO"
"839","QEP",2019-11-01 05:00:00,127.2667,37.4,68,39.2,34.8,220,2,0,30.16,NA,6.21,NA,"CLR",NA,NA,NA,NA,NA,NA,NA,NA,NA,NA,NA,NA,NA,NA,NA,"KQEP 010500Z AUTO 22002KT 9999 CLR 20/04 A3016 RMK A02 TSNO"
"840","QEP",2019-11-01 05:20:00,127.2667,37.4,68,37.4,32.43,110,1,0,30.17,NA,6.21,NA,"CLR",NA,NA,NA,NA,NA,NA,NA,NA,NA,NA,NA,NA,NA,NA,NA,"KQEP 010520Z AUTO 11001KT 9999 CLR 20/03 A3017 RMK A02 TSNO"
"841","QEP",2019-11-01 05:30:00,127.2667,37.4,68,37.4,32.43,250,5,0,30.16,NA,6.21,NA,"CLR",NA,NA,NA,NA,NA,NA,NA,NA,NA,NA,NA,NA,NA,NA,NA,"KQEP 010530Z AUTO 25005KT 9999 CLR 20/03 A3016 RMK A02 TSNO"
"842","QEP",2019-11-01 05:40:00,127.2667,37.4,68,37.4,32.43,260,4,0,30.16,NA,6.21,NA,"CLR",NA,NA,NA,NA,NA,NA,NA,NA,NA,NA,NA,NA,NA,NA,NA,"KQEP 010540Z AUTO 26004KT 9999 CLR 20/03 A3016 RMK A02 TSNO"
"843","QEP",2019-11-01 05:50:00,127.2667,37.4,68,35.6,30.2,250,3,0,30.16,NA,6.21,NA,"CLR",NA,NA,NA,NA,NA,NA,NA,NA,NA,NA,NA,NA,NA,NA,NA,"KQEP 010550Z AUTO 25003KT 9999 CLR 20/02 A3016 RMK A02 TSNO"
"844","QEP",2019-11-01 06:00:00,127.2667,37.4,69.8,35.6,28.39,200,2,0,30.16,NA,6.21,NA,"CLR",NA,NA,NA,NA,NA,NA,NA,NA,NA,NA,NA,NA,NA,NA,NA,"KQEP 010600Z AUTO 20002KT 9999 CLR 21/02 A3016 RMK A02 TSNO"
"845","QEP",2019-11-01 06:10:00,127.2667,37.4,68,37.4,32.43,230,3,0,30.16,NA,6.21,NA,"CLR",NA,NA,NA,NA,NA,NA,NA,NA,NA,NA,NA,NA,NA,NA,NA,"KQEP 010610Z AUTO 23003KT 9999 CLR 20/03 A3016 RMK A02 TSNO"
"846","QEP",2019-11-01 06:20:00,127.2667,37.4,69.8,37.4,30.49,280,2,0,30.16,NA,6.21,NA,"CLR",NA,NA,NA,NA,NA,NA,NA,NA,NA,NA,NA,NA,NA,NA,NA,"KQEP 010620Z AUTO 28002KT 9999 CLR 21/03 A3016 RMK A02 TSNO"
"847","QEP",2019-11-01 06:30:00,127.2667,37.4,68,37.4,32.43,240,3,0,30.16,NA,6.21,NA,"CLR",NA,NA,NA,NA,NA,NA,NA,NA,NA,NA,NA,NA,NA,NA,NA,"KQEP 010630Z AUTO 24003KT 9999 CLR 20/03 A3016 RMK A02 TSNO"
"848","QEP",2019-11-01 06:40:00,127.2667,37.4,68,35.6,30.2,260,2,0,30.16,NA,6.21,NA,"CLR",NA,NA,NA,NA,NA,NA,NA,NA,NA,NA,NA,NA,NA,NA,NA,"KQEP 010640Z AUTO 26002KT 9999 CLR 20/02 A3016 RMK A02 TSNO"
"849","QEP",2019-11-01 06:50:00,127.2667,37.4,68,35.6,30.2,230,2,0,30.16,NA,6.21,NA,"CLR",NA,NA,NA,NA,NA,NA,NA,NA,NA,NA,NA,NA,NA,NA,NA,"KQEP 010650Z AUTO 23002KT 9999 CLR 20/02 A3016 RMK A02 TSNO"
"850","QEP",2019-11-01 07:00:00,127.2667,37.4,68,37.4,32.43,260,2,0,30.16,NA,6.21,NA,"CLR",NA,NA,NA,NA,NA,NA,NA,NA,NA,NA,NA,NA,NA,NA,NA,"KQEP 010700Z AUTO 26002KT 9999 CLR 20/03 A3016 RMK A02 TSNO"
"851","QEP",2019-11-01 07:10:00,127.2667,37.4,68,35.6,30.2,240,2,0,30.16,NA,6.21,NA,"CLR",NA,NA,NA,NA,NA,NA,NA,NA,NA,NA,NA,NA,NA,NA,NA,"KQEP 010710Z AUTO 24002KT 9999 CLR 20/02 A3016 RMK A02 TSNO"
"852","QEP",2019-11-01 07:20:00,127.2667,37.4,68,35.6,30.2,280,3,0,30.16,NA,6.21,NA,"CLR",NA,NA,NA,NA,NA,NA,NA,NA,NA,NA,NA,NA,NA,NA,NA,"KQEP 010720Z AUTO 28003KT 9999 CLR 20/02 A3016 RMK A02 TSNO"
"853","QEP",2019-11-01 07:30:00,127.2667,37.4,68,35.6,30.2,250,2,0,30.16,NA,6.21,NA,"CLR",NA,NA,NA,NA,NA,NA,NA,NA,NA,NA,NA,NA,NA,NA,NA,"KQEP 010730Z AUTO 25002KT 9999 CLR 20/02 A3016 RMK A02 TSNO"
"854","QEP",2019-11-01 07:40:00,127.2667,37.4,66.2,41,39.72,230,2,0,30.16,NA,6.21,NA,"CLR",NA,NA,NA,NA,NA,NA,NA,NA,NA,NA,NA,NA,NA,NA,NA,"KQEP 010740Z AUTO 23002KT 9999 CLR 19/05 A3016 RMK A02 TSNO"
"855","QEP",2019-11-01 07:50:00,127.2667,37.4,64.4,42.8,45.32,270,1,0,30.16,NA,6.21,NA,"CLR",NA,NA,NA,NA,NA,NA,NA,NA,NA,NA,NA,NA,NA,NA,NA,"KQEP 010750Z AUTO 27001KT 9999 CLR 18/06 A3016 RMK A02 TSNO"
"856","QEP",2019-11-01 08:00:00,127.2667,37.4,62.6,42.8,48.28,0,0,0,30.17,NA,6.21,NA,"CLR",NA,NA,NA,NA,NA,NA,NA,NA,NA,NA,NA,NA,NA,NA,NA,"KQEP 010800Z AUTO 00000KT 9999 CLR 17/06 A3017 RMK A02 TSNO"
"857","QEP",2019-11-01 08:10:00,127.2667,37.4,62.6,42.8,48.28,280,1,0,30.17,NA,6.21,NA,"CLR",NA,NA,NA,NA,NA,NA,NA,NA,NA,NA,NA,NA,NA,NA,NA,"KQEP 010810Z AUTO 28001KT 9999 CLR 17/06 A3017 RMK A02 TSNO"
"858","QEP",2019-11-01 08:20:00,127.2667,37.4,60.8,42.8,51.45,250,1,0,30.17,NA,6.21,NA,"CLR",NA,NA,NA,NA,NA,NA,NA,NA,NA,NA,NA,NA,NA,NA,NA,"KQEP 010820Z AUTO 25001KT 9999 CLR 16/06 A3017 RMK A02 TSNO"
"859","QEP",2019-11-01 08:30:00,127.2667,37.4,60.8,42.8,51.45,330,2,0,30.18,NA,6.21,NA,"CLR",NA,NA,NA,NA,NA,NA,NA,NA,NA,NA,NA,NA,NA,NA,NA,"KQEP 010830Z AUTO 33002KT 9999 CLR 16/06 A3018 RMK A02 TSNO"
"860","QEP",2019-11-01 08:40:00,127.2667,37.4,59,44.6,58.77,250,1,0,30.18,NA,6.21,NA,"CLR",NA,NA,NA,NA,NA,NA,NA,NA,NA,NA,NA,NA,NA,NA,NA,"KQEP 010840Z AUTO 25001KT 9999 CLR 15/07 A3018 RMK A02 TSNO"
"861","QEP",2019-11-01 08:50:00,127.2667,37.4,59,44.6,58.77,0,0,0,30.18,NA,6.21,NA,"CLR",NA,NA,NA,NA,NA,NA,NA,NA,NA,NA,NA,NA,NA,NA,NA,"KQEP 010850Z AUTO 00000KT 9999 CLR 15/07 A3018 RMK A02 TSNO"
"862","QEP",2019-11-01 09:00:00,127.2667,37.4,57.2,44.6,62.69,0,0,0,30.18,NA,6.21,NA,"CLR",NA,NA,NA,NA,NA,NA,NA,NA,NA,NA,NA,NA,NA,NA,NA,"KQEP 010900Z AUTO 00000KT 9999 CLR 14/07 A3018 RMK A02 TSNO"
"863","QEP",2019-11-01 09:10:00,127.2667,37.4,57.2,44.6,62.69,350,1,0,30.18,NA,6.21,NA,"CLR",NA,NA,NA,NA,NA,NA,NA,NA,NA,NA,NA,NA,NA,NA,NA,"KQEP 010910Z AUTO 35001KT 9999 CLR 14/07 A3018 RMK A02 TSNO"
"864","QEP",2019-11-01 09:20:00,127.2667,37.4,57.2,44.6,62.69,40,1,0,30.19,NA,6.21,NA,"CLR",NA,NA,NA,NA,NA,NA,NA,NA,NA,NA,NA,NA,NA,NA,NA,"KQEP 010920Z AUTO 04001KT 9999 CLR 14/07 A3019 RMK A02 TSNO"
"865","QEP",2019-11-01 09:30:00,127.2667,37.4,55.4,44.6,66.91,0,0,0,30.19,NA,6.21,NA,"CLR",NA,NA,NA,NA,NA,NA,NA,NA,NA,NA,NA,NA,NA,NA,NA,"KQEP 010930Z AUTO 00000KT 9999 CLR 13/07 A3019 RMK A02 TSNO"
"866","QEP",2019-11-01 09:40:00,127.2667,37.4,55.4,44.6,66.91,10,1,0,30.19,NA,6.21,NA,"CLR",NA,NA,NA,NA,NA,NA,NA,NA,NA,NA,NA,NA,NA,NA,NA,"KQEP 010940Z AUTO 01001KT 9999 CLR 13/07 A3019 RMK A02 TSNO"
"867","QEP",2019-11-01 09:50:00,127.2667,37.4,55.4,44.6,66.91,70,1,0,30.19,NA,6.21,NA,"CLR",NA,NA,NA,NA,NA,NA,NA,NA,NA,NA,NA,NA,NA,NA,NA,"KQEP 010950Z AUTO 07001KT 9999 CLR 13/07 A3019 RMK A02 TSNO"
"868","QEP",2019-11-01 10:00:00,127.2667,37.4,55.4,44.6,66.91,120,1,0,30.2,NA,6.21,NA,"CLR",NA,NA,NA,NA,NA,NA,NA,NA,NA,NA,NA,NA,NA,NA,NA,"KQEP 011000Z AUTO 12001KT 9999 CLR 13/07 A3020 RMK A02 TSNO"
"869","QEP",2019-11-01 10:10:00,127.2667,37.4,53.6,44.6,71.45,130,1,0,30.2,NA,6.21,NA,"CLR",NA,NA,NA,NA,NA,NA,NA,NA,NA,NA,NA,NA,NA,NA,NA,"KQEP 011010Z AUTO 13001KT 9999 CLR 12/07 A3020 RMK A02 TSNO"
"870","QEP",2019-11-01 10:20:00,127.2667,37.4,53.6,44.6,71.45,320,1,0,30.2,NA,6.21,NA,"CLR",NA,NA,NA,NA,NA,NA,NA,NA,NA,NA,NA,NA,NA,NA,NA,"KQEP 011020Z AUTO 32001KT 9999 CLR 12/07 A3020 RMK A02 TSNO"
"871","QEP",2019-11-01 10:30:00,127.2667,37.4,53.6,44.6,71.45,140,1,0,30.2,NA,6.21,NA,"CLR",NA,NA,NA,NA,NA,NA,NA,NA,NA,NA,NA,NA,NA,NA,NA,"KQEP 011030Z AUTO 14001KT 9999 CLR 12/07 A3020 RMK A02 TSNO"
"872","QEP",2019-11-01 10:40:00,127.2667,37.4,53.6,46.4,76.5,50,1,0,30.2,NA,6.21,NA,"CLR",NA,NA,NA,NA,NA,NA,NA,NA,NA,NA,NA,NA,NA,NA,NA,"KQEP 011040Z AUTO 05001KT 9999 CLR 12/08 A3020 RMK A02 TSNO"
"873","QEP",2019-11-01 10:50:00,127.2667,37.4,51.8,44.6,76.34,80,1,0,30.2,NA,6.21,NA,"CLR",NA,NA,NA,NA,NA,NA,NA,NA,NA,NA,NA,NA,NA,NA,NA,"KQEP 011050Z AUTO 08001KT 9999 CLR 11/07 A3020 RMK A02 TSNO"
"874","QEP",2019-11-01 11:00:00,127.2667,37.4,51.8,44.6,76.34,110,2,0,30.2,NA,4.97,NA,"CLR",NA,NA,NA,NA,NA,NA,NA,"HZ",NA,NA,NA,NA,NA,NA,NA,"KQEP 011100Z AUTO 11002KT 8000 HZ CLR 11/07 A3020 RMK A02 TSNO"
"875","QEP",2019-11-01 11:10:00,127.2667,37.4,51.8,44.6,76.34,0,0,0,30.21,NA,6.21,NA,"CLR",NA,NA,NA,NA,NA,NA,NA,NA,NA,NA,NA,NA,NA,NA,NA,"KQEP 011110Z AUTO 00000KT 9999 CLR 11/07 A3021 RMK A02 TSNO"
"876","QEP",2019-11-01 11:20:00,127.2667,37.4,51.8,44.6,76.34,0,0,0,30.2,NA,6.21,NA,"CLR",NA,NA,NA,NA,NA,NA,NA,NA,NA,NA,NA,NA,NA,NA,NA,"KQEP 011120Z AUTO 00000KT 9999 CLR 11/07 A3020 RMK A02 TSNO"
"877","QEP",2019-11-01 11:30:00,127.2667,37.4,51.8,44.6,76.34,180,1,0,30.2,NA,6.21,NA,"CLR",NA,NA,NA,NA,NA,NA,NA,NA,NA,NA,NA,NA,NA,NA,NA,"KQEP 011130Z AUTO 18001KT 9999 CLR 11/07 A3020 RMK A02 TSNO"
"878","QEP",2019-11-01 11:40:00,127.2667,37.4,50,44.6,81.61,130,1,0,30.2,NA,6.21,NA,"CLR",NA,NA,NA,NA,NA,NA,NA,NA,NA,NA,NA,NA,NA,NA,NA,"KQEP 011140Z AUTO 13001KT 9999 CLR 10/07 A3020 RMK A02 TSNO"
"879","QEP",2019-11-01 11:50:00,127.2667,37.4,50,46.4,87.37,30,2,0,30.2,NA,6.21,NA,"CLR",NA,NA,NA,NA,NA,NA,NA,NA,NA,NA,NA,NA,NA,NA,NA,"KQEP 011150Z AUTO 03002KT 9999 CLR 10/08 A3020 RMK A02 TSNO"
"880","QEP",2019-11-01 12:00:00,127.2667,37.4,50,46.4,87.37,0,0,0,30.2,NA,6.21,NA,"CLR",NA,NA,NA,NA,NA,NA,NA,NA,NA,NA,NA,NA,NA,NA,NA,"KQEP 011200Z AUTO 00000KT 9999 CLR 10/08 A3020 RMK A02 TSNO"
"881","QEP",2019-11-01 12:10:00,127.2667,37.4,50,46.4,87.37,130,1,0,30.2,NA,6.21,NA,"CLR",NA,NA,NA,NA,NA,NA,NA,NA,NA,NA,NA,NA,NA,NA,NA,"KQEP 011210Z AUTO 13001KT 9999 CLR 10/08 A3020 RMK A02 TSNO"
"882","QEP",2019-11-01 12:20:00,127.2667,37.4,50,46.4,87.37,50,1,0,30.2,NA,6.21,NA,"CLR",NA,NA,NA,NA,NA,NA,NA,NA,NA,NA,NA,NA,NA,NA,NA,"KQEP 011220Z AUTO 05001KT 9999 CLR 10/08 A3020 RMK A02 TSNO"
"883","QEP",2019-11-01 12:30:00,127.2667,37.4,50,46.4,87.37,30,1,0,30.2,NA,5.59,NA,"CLR",NA,NA,NA,NA,NA,NA,NA,NA,NA,NA,NA,NA,NA,NA,NA,"KQEP 011230Z AUTO 03001KT 9000 CLR 10/08 A3020 RMK A02 TSNO"
"884","QEP",2019-11-01 12:40:00,127.2667,37.4,50,46.4,87.37,80,1,0,30.21,NA,5.59,NA,"CLR",NA,NA,NA,NA,NA,NA,NA,NA,NA,NA,NA,NA,NA,NA,NA,"KQEP 011240Z AUTO 08001KT 9000 CLR 10/08 A3021 RMK A02 TSNO"
"885","QEP",2019-11-01 12:50:00,127.2667,37.4,48.2,46.4,93.45,90,1,0,30.21,NA,5.59,NA,"CLR",NA,NA,NA,NA,NA,NA,NA,NA,NA,NA,NA,NA,NA,NA,NA,"KQEP 011250Z AUTO 09001KT 9000 CLR 09/08 A3021 RMK A02 TSNO"
"886","QEP",2019-11-01 13:00:00,127.2667,37.4,48.2,46.4,93.45,120,1,0,30.21,NA,5.59,NA,"CLR",NA,NA,NA,NA,NA,NA,NA,NA,NA,NA,NA,NA,NA,NA,NA,"KQEP 011300Z AUTO 12001KT 9000 CLR 09/08 A3021 RMK A02 TSNO"
"887","QEP",2019-11-01 13:10:00,127.2667,37.4,48.2,46.4,93.45,0,0,0,30.21,NA,6.21,NA,"CLR",NA,NA,NA,NA,NA,NA,NA,NA,NA,NA,NA,NA,NA,NA,NA,"KQEP 011310Z AUTO 00000KT 9999 CLR 09/08 A3021 RMK A02 TSNO"
"888","QEP",2019-11-01 13:20:00,127.2667,37.4,48.2,46.4,93.45,40,1,0,30.21,NA,6.21,NA,"CLR",NA,NA,NA,NA,NA,NA,NA,NA,NA,NA,NA,NA,NA,NA,NA,"KQEP 011320Z AUTO 04001KT 9999 CLR 09/08 A3021 RMK A02 TSNO"
"889","QEP",2019-11-01 13:30:00,127.2667,37.4,48.2,46.4,93.45,50,1,0,30.21,NA,5.59,NA,"CLR",NA,NA,NA,NA,NA,NA,NA,NA,NA,NA,NA,NA,NA,NA,NA,"KQEP 011330Z AUTO 05001KT 9000 CLR 09/08 A3021 RMK A02 TSNO"
"890","QEP",2019-11-01 13:40:00,127.2667,37.4,48.2,46.4,93.45,80,1,0,30.21,NA,5.59,NA,"CLR",NA,NA,NA,NA,NA,NA,NA,NA,NA,NA,NA,NA,NA,NA,NA,"KQEP 011340Z AUTO 08001KT 9000 CLR 09/08 A3021 RMK A02 TSNO"
"891","QEP",2019-11-01 13:50:00,127.2667,37.4,48.2,44.6,87.28,110,2,0,30.21,NA,4.97,NA,"CLR",NA,NA,NA,NA,NA,NA,NA,NA,NA,NA,NA,NA,NA,NA,NA,"KQEP 011350Z AUTO 11002KT 8000 CLR 09/07 A3021 RMK A02 TSNO"
"892","QEP",2019-11-01 14:00:00,127.2667,37.4,48.2,46.4,93.45,130,1,0,30.21,NA,6.21,NA,"CLR",NA,NA,NA,NA,NA,NA,NA,NA,NA,NA,NA,NA,NA,NA,NA,"KQEP 011400Z AUTO 13001KT 9999 CLR 09/08 A3021 RMK A02 TSNO"
"893","QEP",2019-11-01 14:10:00,127.2667,37.4,48.2,44.6,87.28,120,1,0,30.21,NA,6.21,NA,"CLR",NA,NA,NA,NA,NA,NA,NA,NA,NA,NA,NA,NA,NA,NA,NA,"KQEP 011410Z AUTO 12001KT 9999 CLR 09/07 A3021 RMK A02 TSNO"
"894","QEP",2019-11-01 14:20:00,127.2667,37.4,48.2,44.6,87.28,90,1,0,30.21,NA,6.21,NA,"CLR",NA,NA,NA,NA,NA,NA,NA,NA,NA,NA,NA,NA,NA,NA,NA,"KQEP 011420Z AUTO 09001KT 9999 CLR 09/07 A3021 RMK A02 TSNO"
"895","QEP",2019-11-01 14:30:00,127.2667,37.4,48.2,44.6,87.28,60,1,0,30.21,NA,6.21,NA,"CLR",NA,NA,NA,NA,NA,NA,NA,NA,NA,NA,NA,NA,NA,NA,NA,"KQEP 011430Z AUTO 06001KT 9999 CLR 09/07 A3021 RMK A02 TSNO"
"896","QEP",2019-11-01 14:40:00,127.2667,37.4,46.4,46.4,100,0,0,0,30.21,NA,5.59,NA,"CLR",NA,NA,NA,NA,NA,NA,NA,NA,NA,NA,NA,NA,NA,NA,NA,"KQEP 011440Z AUTO 00000KT 9000 CLR 08/08 A3021 RMK A02 TSNO"
"897","QEP",2019-11-01 14:50:00,127.2667,37.4,46.4,46.4,100,120,1,0,30.21,NA,5.59,NA,"CLR",NA,NA,NA,NA,NA,NA,NA,NA,NA,NA,NA,NA,NA,NA,NA,"KQEP 011450Z AUTO 12001KT 9000 CLR 08/08 A3021 RMK A02 TSNO"
"898","QEP",2019-11-01 15:00:00,127.2667,37.4,46.4,44.6,93.4,100,1,0,30.21,NA,6.21,NA,"CLR",NA,NA,NA,NA,NA,NA,NA,NA,NA,NA,NA,NA,NA,NA,NA,"KQEP 011500Z AUTO 10001KT 9999 CLR 08/07 A3021 RMK A02 TSNO"
"899","QEP",2019-11-01 15:10:00,127.2667,37.4,46.4,44.6,93.4,20,1,0,30.21,NA,5.59,NA,"CLR",NA,NA,NA,NA,NA,NA,NA,NA,NA,NA,NA,NA,NA,NA,NA,"KQEP 011510Z AUTO 02001KT 9000 CLR 08/07 A3021 RMK A02 TSNO"
"900","QEP",2019-11-01 15:20:00,127.2667,37.4,46.4,44.6,93.4,0,0,0,30.21,NA,4.97,NA,"CLR",NA,NA,NA,NA,NA,NA,NA,NA,NA,NA,NA,NA,NA,NA,NA,"KQEP 011520Z AUTO 00000KT 8000 CLR 08/07 A3021 RMK A02 TSNO"
"901","QEP",2019-11-01 15:30:00,127.2667,37.4,46.4,44.6,93.4,60,1,0,30.21,NA,5.59,NA,"CLR",NA,NA,NA,NA,NA,NA,NA,NA,NA,NA,NA,NA,NA,NA,NA,"KQEP 011530Z AUTO 06001KT 9000 CLR 08/07 A3021 RMK A02 TSNO"
"902","QEP",2019-11-01 15:40:00,127.2667,37.4,46.4,44.6,93.4,130,2,0,30.22,NA,4.97,NA,"CLR",NA,NA,NA,NA,NA,NA,NA,NA,NA,NA,NA,NA,NA,NA,NA,"KQEP 011540Z AUTO 13002KT 8000 CLR 08/07 A3022 RMK A02 TSNO"
"903","QEP",2019-11-01 15:50:00,127.2667,37.4,44.6,44.6,100,130,2,0,30.22,NA,3.73,NA,"CLR",NA,NA,NA,NA,NA,NA,NA,NA,NA,NA,NA,NA,NA,NA,NA,"KQEP 011550Z AUTO 13002KT 6000 CLR 07/07 A3022 RMK A02 TSNO"
"904","QEP",2019-11-01 16:00:00,127.2667,37.4,44.6,44.6,100,110,2,0,30.21,NA,4.97,NA,"CLR",NA,NA,NA,NA,NA,NA,NA,NA,NA,NA,NA,NA,NA,NA,NA,"KQEP 011600Z AUTO 11002KT 8000 CLR 07/07 A3021 RMK A02 TSNO"
"905","QEP",2019-11-01 16:10:00,127.2667,37.4,44.6,44.6,100,80,1,0,30.21,NA,4.97,NA,"CLR",NA,NA,NA,NA,NA,NA,NA,NA,NA,NA,NA,NA,NA,NA,NA,"KQEP 011610Z AUTO 08001KT 8000 CLR 07/07 A3021 RMK A02 TSNO"
"906","QEP",2019-11-01 16:20:00,127.2667,37.4,44.6,44.6,100,0,0,0,30.21,NA,4.97,NA,"CLR",NA,NA,NA,NA,NA,NA,NA,NA,NA,NA,NA,NA,NA,NA,NA,"KQEP 011620Z AUTO 00000KT 8000 CLR 07/07 A3021 RMK A02 TSNO"
"907","QEP",2019-11-01 16:30:00,127.2667,37.4,44.6,44.6,100,0,0,0,30.21,NA,5.59,NA,"CLR",NA,NA,NA,NA,NA,NA,NA,NA,NA,NA,NA,NA,NA,NA,NA,"KQEP 011630Z AUTO 00000KT 9000 CLR 07/07 A3021 RMK A02 TSNO"
"908","QEP",2019-11-01 16:40:00,127.2667,37.4,44.6,44.6,100,130,1,0,30.21,NA,4.97,NA,"CLR",NA,NA,NA,NA,NA,NA,NA,NA,NA,NA,NA,NA,NA,NA,NA,"KQEP 011640Z AUTO 13001KT 8000 CLR 07/07 A3021 RMK A02 TSNO"
"909","QEP",2019-11-01 16:50:00,127.2667,37.4,44.6,44.6,100,50,1,0,30.21,NA,4.97,NA,"CLR",NA,NA,NA,NA,NA,NA,NA,NA,NA,NA,NA,NA,NA,NA,NA,"KQEP 011650Z AUTO 05001KT 8000 CLR 07/07 A3021 RMK A02 TSNO"
"910","QEP",2019-11-01 17:10:00,127.2667,37.4,44.6,44.6,100,40,1,0,30.21,NA,3.73,NA,"CLR",NA,NA,NA,NA,NA,NA,NA,NA,NA,NA,NA,NA,NA,NA,NA,"KQEP 011710Z AUTO 04001KT 6000 CLR 07/07 A3021 RMK A02 TSNO"
"911","QEP",2019-11-01 17:20:00,127.2667,37.4,44.6,44.6,100,0,0,0,30.21,NA,3.73,NA,"CLR",NA,NA,NA,NA,NA,NA,NA,NA,NA,NA,NA,NA,NA,NA,NA,"KQEP 011720Z AUTO 00000KT 6000 CLR 07/07 A3021 RMK A02 TSNO"
"912","QEP",2019-11-01 17:30:00,127.2667,37.4,44.6,44.6,100,70,1,0,30.21,NA,3.73,NA,"CLR",NA,NA,NA,NA,NA,NA,NA,NA,NA,NA,NA,NA,NA,NA,NA,"KQEP 011730Z AUTO 07001KT 6000 CLR 07/07 A3021 RMK A02 TSNO"
"913","QEP",2019-11-01 17:40:00,127.2667,37.4,44.6,42.8,93.35,110,1,0,30.21,NA,3.73,NA,"CLR",NA,NA,NA,NA,NA,NA,NA,NA,NA,NA,NA,NA,NA,NA,NA,"KQEP 011740Z AUTO 11001KT 6000 CLR 07/06 A3021 RMK A02 TSNO"
"914","QEP",2019-11-01 17:50:00,127.2667,37.4,42.8,42.8,100,120,1,0,30.21,NA,3.73,NA,"CLR",NA,NA,NA,NA,NA,NA,NA,NA,NA,NA,NA,NA,NA,NA,NA,"KQEP 011750Z AUTO 12001KT 6000 CLR 06/06 A3021 RMK A02 TSNO"
"915","QEP",2019-11-01 18:00:00,127.2667,37.4,42.8,42.8,100,90,1,0,30.21,NA,3.73,NA,"CLR",NA,NA,NA,NA,NA,NA,NA,NA,NA,NA,NA,NA,NA,NA,NA,"KQEP 011800Z AUTO 09001KT 6000 CLR 06/06 A3021 RMK A02 TSNO"
"916","QEP",2019-11-01 18:10:00,127.2667,37.4,42.8,42.8,100,40,1,0,30.21,NA,3.73,NA,"CLR",NA,NA,NA,NA,NA,NA,NA,NA,NA,NA,NA,NA,NA,NA,NA,"KQEP 011810Z AUTO 04001KT 6000 CLR 06/06 A3021 RMK A02 TSNO"
"917","QEP",2019-11-01 18:20:00,127.2667,37.4,42.8,42.8,100,0,0,0,30.21,NA,3.73,NA,"CLR",NA,NA,NA,NA,NA,NA,NA,NA,NA,NA,NA,NA,NA,NA,NA,"KQEP 011820Z AUTO 00000KT 6000 CLR 06/06 A3021 RMK A02 TSNO"
"918","QEP",2019-11-01 18:30:00,127.2667,37.4,42.8,42.8,100,80,1,0,30.21,NA,3.73,NA,"CLR",NA,NA,NA,NA,NA,NA,NA,NA,NA,NA,NA,NA,NA,NA,NA,"KQEP 011830Z AUTO 08001KT 6000 CLR 06/06 A3021 RMK A02 TSNO"
"919","QEP",2019-11-01 18:40:00,127.2667,37.4,42.8,42.8,100,120,1,0,30.21,NA,3.73,NA,"CLR",NA,NA,NA,NA,NA,NA,NA,NA,NA,NA,NA,NA,NA,NA,NA,"KQEP 011840Z AUTO 12001KT 6000 CLR 06/06 A3021 RMK A02 TSNO"
"920","QEP",2019-11-01 18:50:00,127.2667,37.4,42.8,42.8,100,0,0,0,30.21,NA,3.73,NA,"CLR",NA,NA,NA,NA,NA,NA,NA,NA,NA,NA,NA,NA,NA,NA,NA,"KQEP 011850Z AUTO 00000KT 6000 CLR 06/06 A3021 RMK A02 TSNO"
"921","QEP",2019-11-01 19:00:00,127.2667,37.4,42.8,42.8,100,50,1,0,30.21,NA,3.73,NA,"CLR",NA,NA,NA,NA,NA,NA,NA,NA,NA,NA,NA,NA,NA,NA,NA,"KQEP 011900Z AUTO 05001KT 6000 CLR 06/06 A3021 RMK A02 TSNO"
"922","QEP",2019-11-01 19:10:00,127.2667,37.4,42.8,42.8,100,100,1,0,30.21,NA,3.73,NA,"CLR",NA,NA,NA,NA,NA,NA,NA,NA,NA,NA,NA,NA,NA,NA,NA,"KQEP 011910Z AUTO 10001KT 6000 CLR 06/06 A3021 RMK A02 TSNO"
"923","QEP",2019-11-01 19:20:00,127.2667,37.4,42.8,42.8,100,120,1,0,30.21,NA,3.73,NA,"CLR",NA,NA,NA,NA,NA,NA,NA,NA,NA,NA,NA,NA,NA,NA,NA,"KQEP 011920Z AUTO 12001KT 6000 CLR 06/06 A3021 RMK A02 TSNO"
"924","QEP",2019-11-01 19:30:00,127.2667,37.4,42.8,42.8,100,110,1,0,30.21,NA,3.73,NA,"CLR",NA,NA,NA,NA,NA,NA,NA,NA,NA,NA,NA,NA,NA,NA,NA,"KQEP 011930Z AUTO 11001KT 6000 CLR 06/06 A3021 RMK A02 TSNO"
"925","QEP",2019-11-01 19:40:00,127.2667,37.4,42.8,42.8,100,110,1,0,30.21,NA,3.73,NA,"CLR",NA,NA,NA,NA,NA,NA,NA,NA,NA,NA,NA,NA,NA,NA,NA,"KQEP 011940Z AUTO 11001KT 6000 CLR 06/06 A3021 RMK A02 TSNO"
"926","QEP",2019-11-01 19:50:00,127.2667,37.4,42.8,42.8,100,90,1,0,30.21,NA,3.73,NA,"CLR",NA,NA,NA,NA,NA,NA,NA,NA,NA,NA,NA,NA,NA,NA,NA,"KQEP 011950Z AUTO 09001KT 6000 CLR 06/06 A3021 RMK A02 TSNO"
"927","QEP",2019-11-01 20:00:00,127.2667,37.4,42.8,42.8,100,110,1,0,30.2,NA,3.73,NA,"CLR",NA,NA,NA,NA,NA,NA,NA,NA,NA,NA,NA,NA,NA,NA,NA,"KQEP 012000Z AUTO 11001KT 6000 CLR 06/06 A3020 RMK A02 TSNO"
"928","QEP",2019-11-01 20:10:00,127.2667,37.4,42.8,42.8,100,100,1,0,30.21,NA,3.73,NA,"CLR",NA,NA,NA,NA,NA,NA,NA,NA,NA,NA,NA,NA,NA,NA,NA,"KQEP 012010Z AUTO 10001KT 6000 CLR 06/06 A3021 RMK A02 TSNO"
"929","QEP",2019-11-01 20:20:00,127.2667,37.4,41,42.8,NA,0,0,0,30.2,NA,3.73,NA,"CLR",NA,NA,NA,NA,NA,NA,NA,NA,NA,NA,NA,NA,NA,NA,NA,"KQEP 012020Z AUTO 00000KT 6000 CLR 05/06 A3020 RMK A02 TSNO"
"930","QEP",2019-11-01 20:30:00,127.2667,37.4,41,42.8,NA,130,1,0,30.2,NA,3.73,NA,"CLR",NA,NA,NA,NA,NA,NA,NA,NA,NA,NA,NA,NA,NA,NA,NA,"KQEP 012030Z AUTO 13001KT 6000 CLR 05/06 A3020 RMK A02 TSNO"
"931","QEP",2019-11-01 20:40:00,127.2667,37.4,41,42.8,NA,130,1,0,30.2,NA,3.73,NA,"CLR",NA,NA,NA,NA,NA,NA,NA,NA,NA,NA,NA,NA,NA,NA,NA,"KQEP 012040Z AUTO 13001KT 6000 CLR 05/06 A3020 RMK A02 TSNO"
"932","QEP",2019-11-01 20:50:00,127.2667,37.4,41,42.8,NA,30,1,0,30.2,NA,3.73,NA,"CLR",NA,NA,NA,NA,NA,NA,NA,NA,NA,NA,NA,NA,NA,NA,NA,"KQEP 012050Z AUTO 03001KT 6000 CLR 05/06 A3020 RMK A02 TSNO"
"933","QEP",2019-11-01 21:00:00,127.2667,37.4,41,42.8,NA,90,1,0,30.2,NA,2.98,NA,"CLR",NA,NA,NA,NA,NA,NA,NA,NA,NA,NA,NA,NA,NA,NA,NA,"KQEP 012100Z AUTO 09001KT 4800 CLR 05/06 A3020 RMK A02 TSNO"
"934","QEP",2019-11-01 21:10:00,127.2667,37.4,41,42.8,NA,110,1,0,30.2,NA,3.73,NA,"CLR",NA,NA,NA,NA,NA,NA,NA,NA,NA,NA,NA,NA,NA,NA,NA,"KQEP 012110Z AUTO 11001KT 6000 CLR 05/06 A3020 RMK A02 TSNO"
"935","QEP",2019-11-01 21:20:00,127.2667,37.4,41,41,100,110,1,0,30.2,NA,3.73,NA,"CLR",NA,NA,NA,NA,NA,NA,NA,NA,NA,NA,NA,NA,NA,NA,NA,"KQEP 012120Z AUTO 11001KT 6000 CLR 05/05 A3020 RMK A02 TSNO"
"936","QEP",2019-11-01 21:30:00,127.2667,37.4,41,41,100,100,1,0,30.2,NA,3.73,NA,"CLR",NA,NA,NA,NA,NA,NA,NA,NA,NA,NA,NA,NA,NA,NA,NA,"KQEP 012130Z AUTO 10001KT 6000 CLR 05/05 A3020 RMK A02 TSNO"
"937","QEP",2019-11-01 21:40:00,127.2667,37.4,41,41,100,40,1,0,30.2,NA,3.73,NA,"CLR",NA,NA,NA,NA,NA,NA,NA,NA,NA,NA,NA,NA,NA,NA,NA,"KQEP 012140Z AUTO 04001KT 6000 CLR 05/05 A3020 RMK A02 TSNO"
"938","QEP",2019-11-01 21:50:00,127.2667,37.4,41,42.8,NA,340,1,0,30.2,NA,2.98,NA,"CLR",NA,NA,NA,NA,NA,NA,NA,NA,NA,NA,NA,NA,NA,NA,NA,"KQEP 012150Z AUTO 34001KT 4800 CLR 05/06 A3020 RMK A02 TSNO"
"939","QEP",2019-11-01 22:00:00,127.2667,37.4,41,42.8,NA,330,1,0,30.2,NA,1.99,NA,"CLR",NA,NA,NA,NA,NA,NA,NA,"BR",NA,NA,NA,NA,NA,NA,NA,"KQEP 012200Z AUTO 33001KT 3200 BR CLR 05/06 A3020 RMK A02 TSNO"
"940","QEP",2019-11-01 22:10:00,127.2667,37.4,41,42.8,NA,340,1,0,30.21,NA,0.5,NA,"FEW",NA,NA,NA,2400,NA,NA,NA,"BR",NA,NA,NA,NA,NA,NA,NA,"KQEP 012210Z AUTO 34001KT 0800 BR FEW024 05/06 A3021 RMK A02 TSNO"
"941","QEP",2019-11-01 22:20:00,127.2667,37.4,41,42.8,NA,330,1,0,30.21,NA,0.75,NA,"FEW",NA,NA,NA,2200,NA,NA,NA,"BR",NA,NA,NA,NA,NA,NA,NA,"KQEP 012220Z AUTO 33001KT 1200 BR FEW022 05/06 A3021 RMK A02 TSNO"
"942","QEP",2019-11-01 22:30:00,127.2667,37.4,41,42.8,NA,0,0,0,30.21,NA,0.99,NA,"FEW",NA,NA,NA,300,NA,NA,NA,"BR",NA,NA,NA,NA,NA,NA,NA,"KQEP 012230Z AUTO 00000KT 1600 BR FEW003 05/06 A3021 RMK A02 TSNO"
"943","QEP",2019-11-01 22:40:00,127.2667,37.4,41,42.8,NA,320,1,0,30.21,NA,0.5,NA,"BKN",NA,NA,NA,200,NA,NA,NA,"BR",NA,NA,NA,NA,NA,NA,NA,"KQEP 012240Z AUTO 32001KT 0800 BR BKN002 05/06 A3021 RMK A02 TSNO"
"944","QEP",2019-11-01 22:50:00,127.2667,37.4,42.8,42.8,100,360,1,0,30.22,NA,1.74,NA,"SCT",NA,NA,NA,200,NA,NA,NA,"BR",NA,NA,NA,NA,NA,NA,NA,"KQEP 012250Z AUTO 36001KT 2800 BR SCT002 06/06 A3022 RMK A02 TSNO"
"945","QEP",2019-11-01 23:00:00,127.2667,37.4,42.8,42.8,100,340,1,0,30.22,NA,1.99,NA,"SCT",NA,NA,NA,200,NA,NA,NA,"BR",NA,NA,NA,NA,NA,NA,NA,"KQEP 012300Z AUTO 34001KT 3200 BR SCT002 06/06 A3022 RMK A02 TSNO"
"946","QEP",2019-11-01 23:10:00,127.2667,37.4,42.8,44.6,NA,310,1,0,30.22,NA,0.99,NA,"SCT",NA,NA,NA,200,NA,NA,NA,"BR",NA,NA,NA,NA,NA,NA,NA,"KQEP 012310Z AUTO 31001KT 1600 BR SCT002 06/07 A3022 RMK A02 TSNO"
"947","QEP",2019-11-01 23:20:00,127.2667,37.4,42.8,44.6,NA,320,1,0,30.23,NA,0.25,NA,"BKN",NA,NA,NA,200,NA,NA,NA,"FG",NA,NA,NA,NA,NA,NA,NA,"KQEP 012320Z AUTO 32001KT 0400 FG BKN002 06/07 A3023 RMK A02 TSNO"
"948","QEP",2019-11-01 23:30:00,127.2667,37.4,44.6,44.6,100,360,1,0,30.23,NA,0.99,NA,"BKN",NA,NA,NA,200,NA,NA,NA,"BR",NA,NA,NA,NA,NA,NA,NA,"KQEP 012330Z AUTO 36001KT 1600 BR BKN002 07/07 A3023 RMK A02 TSNO"
"949","QEP",2019-11-01 23:40:00,127.2667,37.4,44.6,44.6,100,290,1,0,30.23,NA,1.99,NA,"BKN",NA,NA,NA,200,NA,NA,NA,"BR",NA,NA,NA,NA,NA,NA,NA,"KQEP 012340Z AUTO 29001KT 3200 BR BKN002 07/07 A3023 RMK A02 TSNO"
"950","QFW",2019-11-01 00:00:00,127.8833,37.6667,50,51.8,NA,350,2,0,30.21,NA,0.25,NA,"CLR",NA,NA,NA,NA,NA,NA,NA,NA,NA,NA,NA,NA,NA,NA,NA,"KQFW 010000Z AUTO 35002KT M0400 // CLR 10/11 A3021 RMK A02 TSNO"
"951","QFW",2019-11-01 00:10:00,127.8833,37.6667,50,51.8,NA,40,1,0,30.21,NA,0.25,NA,"CLR",NA,NA,NA,NA,NA,NA,NA,NA,NA,NA,NA,NA,NA,NA,NA,"KQFW 010010Z AUTO 04001KT M0400 // CLR 10/11 A3021 RMK A02 TSNO"
"952","QFW",2019-11-01 00:20:00,127.8833,37.6667,50,51.8,NA,250,1,0,30.21,NA,0.25,NA,"CLR",NA,NA,NA,NA,NA,NA,NA,NA,NA,NA,NA,NA,NA,NA,NA,"KQFW 010020Z AUTO 25001KT M0400 // CLR 10/11 A3021 RMK A02 TSNO"
"953","QFW",2019-11-01 00:30:00,127.8833,37.6667,50,51.8,NA,330,1,0,30.22,NA,0.25,NA,"CLR",NA,NA,NA,NA,NA,NA,NA,NA,NA,NA,NA,NA,NA,NA,NA,"KQFW 010030Z AUTO 33001KT M0400 // CLR 10/11 A3022 RMK A02 TSNO"
"954","QFW",2019-11-01 00:40:00,127.8833,37.6667,50,51.8,NA,30,1,0,30.21,NA,0.25,NA,"OVC",NA,NA,NA,200,NA,NA,NA,NA,NA,NA,NA,NA,NA,NA,NA,"KQFW 010040Z AUTO 03001KT 0400 // OVC002 10/11 A3021 RMK A02 TSNO"
"955","QFW",2019-11-01 00:50:00,127.8833,37.6667,51.8,51.8,100,300,1,0,30.21,NA,0.5,NA,"OVC",NA,NA,NA,200,NA,NA,NA,NA,NA,NA,NA,NA,NA,NA,NA,"KQFW 010050Z AUTO 30001KT 0800 // OVC002 11/11 A3021 RMK A02 TSNO"
"956","QFW",2019-11-01 01:00:00,127.8833,37.6667,50,51.8,NA,70,1,0,30.21,NA,0.75,NA,"OVC",NA,NA,NA,200,NA,NA,NA,NA,NA,NA,NA,NA,NA,NA,NA,"KQFW 010100Z AUTO 07001KT 1200 // OVC002 10/11 A3021 RMK A02 TSNO"
"957","QFW",2019-11-01 01:10:00,127.8833,37.6667,51.8,53.6,NA,250,2,0,30.21,NA,0.75,NA,"OVC",NA,NA,NA,200,NA,NA,NA,NA,NA,NA,NA,NA,NA,NA,NA,"KQFW 010110Z AUTO 25002KT 1200 // OVC002 11/12 A3021 RMK A02 TSNO"
"958","QFW",2019-11-01 01:20:00,127.8833,37.6667,51.8,53.6,NA,300,2,0,30.21,NA,0.99,NA,"OVC",NA,NA,NA,200,NA,NA,NA,NA,NA,NA,NA,NA,NA,NA,NA,"KQFW 010120Z AUTO 30002KT 1600 // OVC002 11/12 A3021 RMK A02 TSNO"
"959","QFW",2019-11-01 01:30:00,127.8833,37.6667,51.8,53.6,NA,250,2,0,30.21,NA,0.99,NA,"OVC",NA,NA,NA,200,NA,NA,NA,NA,NA,NA,NA,NA,NA,NA,NA,"KQFW 010130Z AUTO 25002KT 1600 // OVC002 11/12 A3021 RMK A02 TSNO"
"960","QFW",2019-11-01 01:40:00,127.8833,37.6667,51.8,53.6,NA,250,2,0,30.21,NA,0.99,NA,"OVC",NA,NA,NA,200,NA,NA,NA,NA,NA,NA,NA,NA,NA,NA,NA,"KQFW 010140Z AUTO 25002KT 1600 // OVC002 11/12 A3021 RMK A02 TSNO"
"961","QFW",2019-11-01 01:50:00,127.8833,37.6667,53.6,55.4,NA,0,0,0,30.21,NA,0.99,NA,"OVC",NA,NA,NA,300,NA,NA,NA,NA,NA,NA,NA,NA,NA,NA,NA,"KQFW 010150Z AUTO 00000KT 1600 // OVC003 12/13 A3021 RMK A02 TSNO"
"962","QFW",2019-11-01 02:00:00,127.8833,37.6667,55.4,53.6,93.65,320,1,0,30.21,NA,1.49,NA,"OVC",NA,NA,NA,300,NA,NA,NA,NA,NA,NA,NA,NA,NA,NA,NA,"KQFW 010200Z AUTO 32001KT 2400 // OVC003 13/12 A3021 RMK A02 TSNO"
"963","QFW",2019-11-01 02:10:00,127.8833,37.6667,55.4,53.6,93.65,210,1,0,30.21,NA,1.74,NA,"BKN",NA,NA,NA,300,NA,NA,NA,NA,NA,NA,NA,NA,NA,NA,NA,"KQFW 010210Z AUTO 21001KT 2800 // BKN003 13/12 A3021 RMK A02 TSNO"
"964","QFW",2019-11-01 02:20:00,127.8833,37.6667,57.2,51.8,82.12,200,1,0,30.2,NA,1.99,NA,"SCT",NA,NA,NA,400,NA,NA,NA,"HZ",NA,NA,NA,NA,NA,NA,NA,"KQFW 010220Z AUTO 20001KT 3200 HZ SCT004 14/11 A3020 RMK A02 TSNO"
"965","QFW",2019-11-01 02:30:00,127.8833,37.6667,59,51.8,76.98,110,1,0,30.2,NA,2.49,NA,"FEW",NA,NA,NA,400,NA,NA,NA,"HZ",NA,NA,NA,NA,NA,NA,NA,"KQFW 010230Z AUTO 11001KT 4000 HZ FEW004 15/11 A3020 RMK A02 TSNO"
"966","QFW",2019-11-01 02:40:00,127.8833,37.6667,60.8,51.8,72.2,180,2,0,30.2,NA,2.98,NA,"CLR",NA,NA,NA,NA,NA,NA,NA,"HZ",NA,NA,NA,NA,NA,NA,NA,"KQFW 010240Z AUTO 18002KT 4800 HZ CLR 16/11 A3020 RMK A02 TSNO"
"967","QFW",2019-11-01 02:50:00,127.8833,37.6667,60.8,50,67.54,150,2,0,30.19,NA,3.73,NA,"FEW",NA,NA,NA,22000,NA,NA,NA,"HZ",NA,NA,NA,NA,NA,NA,NA,"KQFW 010250Z AUTO 15002KT 6000 HZ FEW220 16/10 A3019 RMK A02 TSNO"
"968","QFW",2019-11-01 03:00:00,127.8833,37.6667,60.8,46.4,59.01,240,2,0,30.19,NA,3.73,NA,"CLR",NA,NA,NA,NA,NA,NA,NA,"HZ",NA,NA,NA,NA,NA,NA,NA,"KQFW 010300Z AUTO 24002KT 6000 HZ CLR 16/08 A3019 RMK A02 TSNO"
"969","QFW",2019-11-01 03:20:00,127.8833,37.6667,62.6,44.6,51.72,270,3,0,30.18,NA,6.21,NA,"CLR",NA,NA,NA,NA,NA,NA,NA,NA,NA,NA,NA,NA,NA,NA,NA,"KQFW 010320Z AUTO 27003KT 9999 CLR 17/07 A3018 RMK A02 TSNO"
"970","QFW",2019-11-01 03:30:00,127.8833,37.6667,64.4,42.8,45.32,30,3,0,30.18,NA,6.21,NA,"CLR",NA,NA,NA,NA,NA,NA,NA,NA,NA,NA,NA,NA,NA,NA,NA,"KQFW 010330Z AUTO 03003KT 9999 CLR 18/06 A3018 RMK A02 TSNO"
"971","QFW",2019-11-01 03:40:00,127.8833,37.6667,64.4,41,42.28,230,2,0,30.17,NA,6.21,NA,"CLR",NA,NA,NA,NA,NA,NA,NA,NA,NA,NA,NA,NA,NA,NA,NA,"KQFW 010340Z AUTO 23002KT 9999 CLR 18/05 A3017 RMK A02 TSNO"
"972","QFW",2019-11-01 03:50:00,127.8833,37.6667,64.4,41,42.28,260,3,0,30.17,NA,6.21,NA,"CLR",NA,NA,NA,NA,NA,NA,NA,NA,NA,NA,NA,NA,NA,NA,NA,"KQFW 010350Z AUTO 26003KT 9999 CLR 18/05 A3017 RMK A02 TSNO"
"973","QFW",2019-11-01 04:00:00,127.8833,37.6667,64.4,42.8,45.32,220,2,0,30.16,NA,6.21,NA,"CLR",NA,NA,NA,NA,NA,NA,NA,NA,NA,NA,NA,NA,NA,NA,NA,"KQFW 010400Z AUTO 22002KT 9999 CLR 18/06 A3016 RMK A02 TSNO"
"974","QFW",2019-11-01 04:10:00,127.8833,37.6667,66.2,42.8,42.57,280,2,0,30.16,NA,6.21,NA,"CLR",NA,NA,NA,NA,NA,NA,NA,NA,NA,NA,NA,NA,NA,NA,NA,"KQFW 010410Z AUTO 28002KT 9999 CLR 19/06 A3016 RMK A02 TSNO"
"975","QFW",2019-11-01 04:20:00,127.8833,37.6667,66.2,41,39.72,230,3,0,30.16,NA,6.21,NA,"CLR",NA,NA,NA,NA,NA,NA,NA,NA,NA,NA,NA,NA,NA,NA,NA,"KQFW 010420Z AUTO 23003KT 9999 CLR 19/05 A3016 RMK A02 TSNO"
"976","QFW",2019-11-01 04:30:00,127.8833,37.6667,66.2,39.2,37.03,210,2,0,30.15,NA,6.21,NA,"CLR",NA,NA,NA,NA,NA,NA,NA,NA,NA,NA,NA,NA,NA,NA,NA,"KQFW 010430Z AUTO 21002KT 9999 CLR 19/04 A3015 RMK A02 TSNO"
"977","QFW",2019-11-01 04:40:00,127.8833,37.6667,68,41,37.32,340,1,0,30.15,NA,6.21,NA,"CLR",NA,NA,NA,NA,NA,NA,NA,NA,NA,NA,NA,NA,NA,NA,NA,"KQFW 010440Z AUTO 34001KT 9999 CLR 20/05 A3015 RMK A02 TSNO"
"978","QFW",2019-11-01 04:50:00,127.8833,37.6667,66.2,41,39.72,280,3,0,30.15,NA,6.21,NA,"CLR",NA,NA,NA,NA,NA,NA,NA,NA,NA,NA,NA,NA,NA,NA,NA,"KQFW 010450Z AUTO 28003KT 9999 CLR 19/05 A3015 RMK A02 TSNO"
"979","QFW",2019-11-01 05:00:00,127.8833,37.6667,68,37.4,32.43,210,1,0,30.14,NA,6.21,NA,"CLR",NA,NA,NA,NA,NA,NA,NA,NA,NA,NA,NA,NA,NA,NA,NA,"KQFW 010500Z AUTO 21001KT 9999 CLR 20/03 A3014 RMK A02 TSNO"
"980","QFW",2019-11-01 05:10:00,127.8833,37.6667,68,41,37.32,290,2,0,30.14,NA,6.21,NA,"CLR",NA,NA,NA,NA,NA,NA,NA,NA,NA,NA,NA,NA,NA,NA,NA,"KQFW 010510Z AUTO 29002KT 9999 CLR 20/05 A3014 RMK A02 TSNO"
"981","QFW",2019-11-01 05:20:00,127.8833,37.6667,68,39.2,34.8,160,2,0,30.14,NA,6.21,NA,"CLR",NA,NA,NA,NA,NA,NA,NA,NA,NA,NA,NA,NA,NA,NA,NA,"KQFW 010520Z AUTO 16002KT 9999 CLR 20/04 A3014 RMK A02 TSNO"
"982","QFW",2019-11-01 05:30:00,127.8833,37.6667,68,41,37.32,190,2,0,30.14,NA,6.21,NA,"CLR",NA,NA,NA,NA,NA,NA,NA,NA,NA,NA,NA,NA,NA,NA,NA,"KQFW 010530Z AUTO 19002KT 9999 CLR 20/05 A3014 RMK A02 TSNO"
"983","QFW",2019-11-01 05:40:00,127.8833,37.6667,68,41,37.32,280,3,0,30.14,NA,6.21,NA,"CLR",NA,NA,NA,NA,NA,NA,NA,NA,NA,NA,NA,NA,NA,NA,NA,"KQFW 010540Z AUTO 28003KT 9999 CLR 20/05 A3014 RMK A02 TSNO"
"984","QFW",2019-11-01 05:50:00,127.8833,37.6667,68,41,37.32,220,1,0,30.14,NA,6.21,NA,"CLR",NA,NA,NA,NA,NA,NA,NA,NA,NA,NA,NA,NA,NA,NA,NA,"KQFW 010550Z AUTO 22001KT 9999 CLR 20/05 A3014 RMK A02 TSNO"
"985","QFW",2019-11-01 06:00:00,127.8833,37.6667,68,41,37.32,240,2,0,30.14,NA,6.21,NA,"CLR",NA,NA,NA,NA,NA,NA,NA,NA,NA,NA,NA,NA,NA,NA,NA,"KQFW 010600Z AUTO 24002KT 9999 CLR 20/05 A3014 RMK A02 TSNO"
"986","QFW",2019-11-01 06:10:00,127.8833,37.6667,69.8,41,35.09,350,1,0,30.14,NA,6.21,NA,"CLR",NA,NA,NA,NA,NA,NA,NA,NA,NA,NA,NA,NA,NA,NA,NA,"KQFW 010610Z AUTO 35001KT 9999 CLR 21/05 A3014 RMK A02 TSNO"
"987","QFW",2019-11-01 06:20:00,127.8833,37.6667,69.8,41,35.09,240,2,0,30.14,NA,6.21,NA,"CLR",NA,NA,NA,NA,NA,NA,NA,NA,NA,NA,NA,NA,NA,NA,NA,"KQFW 010620Z AUTO 24002KT 9999 CLR 21/05 A3014 RMK A02 TSNO"
"988","QFW",2019-11-01 06:30:00,127.8833,37.6667,69.8,41,35.09,320,1,0,30.14,NA,6.21,NA,"CLR",NA,NA,NA,NA,NA,NA,NA,NA,NA,NA,NA,NA,NA,NA,NA,"KQFW 010630Z AUTO 32001KT 9999 CLR 21/05 A3014 RMK A02 TSNO"
"989","QFW",2019-11-01 06:40:00,127.8833,37.6667,68,41,37.32,300,3,0,30.14,NA,6.21,NA,"CLR",NA,NA,NA,NA,NA,NA,NA,NA,NA,NA,NA,NA,NA,NA,NA,"KQFW 010640Z AUTO 30003KT 9999 CLR 20/05 A3014 RMK A02 TSNO"
"990","QFW",2019-11-01 06:50:00,127.8833,37.6667,68,41,37.32,200,2,0,30.15,NA,6.21,NA,"CLR",NA,NA,NA,NA,NA,NA,NA,NA,NA,NA,NA,NA,NA,NA,NA,"KQFW 010650Z AUTO 20002KT 9999 CLR 20/05 A3015 RMK A02 TSNO"
"991","QFW",2019-11-01 07:00:00,127.8833,37.6667,68,41,37.32,280,3,0,30.14,NA,6.21,NA,"CLR",NA,NA,NA,NA,NA,NA,NA,NA,NA,NA,NA,NA,NA,NA,NA,"KQFW 010700Z AUTO 28003KT 9999 CLR 20/05 A3014 RMK A02 TSNO"
"992","QFW",2019-11-01 07:10:00,127.8833,37.6667,68,42.8,40,190,2,0,30.14,NA,6.21,NA,"CLR",NA,NA,NA,NA,NA,NA,NA,NA,NA,NA,NA,NA,NA,NA,NA,"KQFW 010710Z AUTO 19002KT 9999 CLR 20/06 A3014 RMK A02 TSNO"
"993","QFW",2019-11-01 07:20:00,127.8833,37.6667,66.2,44.6,45.6,120,2,0,30.14,NA,6.21,NA,"CLR",NA,NA,NA,NA,NA,NA,NA,NA,NA,NA,NA,NA,NA,NA,NA,"KQFW 010720Z AUTO 12002KT 9999 CLR 19/07 A3014 RMK A02 TSNO"
"994","QFW",2019-11-01 07:30:00,127.8833,37.6667,64.4,44.6,48.55,140,3,0,30.15,NA,6.21,NA,"CLR",NA,NA,NA,NA,NA,NA,NA,NA,NA,NA,NA,NA,NA,NA,NA,"KQFW 010730Z AUTO 14003KT 9999 CLR 18/07 A3015 RMK A02 TSNO"
"995","QFW",2019-11-01 07:40:00,127.8833,37.6667,64.4,44.6,48.55,130,3,0,30.15,NA,6.21,NA,"CLR",NA,NA,NA,NA,NA,NA,NA,NA,NA,NA,NA,NA,NA,NA,NA,"KQFW 010740Z AUTO 13003KT 9999 CLR 18/07 A3015 RMK A02 TSNO"
"996","QFW",2019-11-01 07:50:00,127.8833,37.6667,62.6,44.6,51.72,130,3,0,30.14,NA,6.21,NA,"CLR",NA,NA,NA,NA,NA,NA,NA,NA,NA,NA,NA,NA,NA,NA,NA,"KQFW 010750Z AUTO 13003KT 9999 CLR 17/07 A3014 RMK A02 TSNO"
"997","QFW",2019-11-01 08:00:00,127.8833,37.6667,62.6,44.6,51.72,130,2,0,30.14,NA,6.21,NA,"CLR",NA,NA,NA,NA,NA,NA,NA,NA,NA,NA,NA,NA,NA,NA,NA,"KQFW 010800Z AUTO 13002KT 9999 CLR 17/07 A3014 RMK A02 TSNO"
"998","QFW",2019-11-01 08:10:00,127.8833,37.6667,60.8,44.6,55.12,150,3,0,30.15,NA,6.21,NA,"CLR",NA,NA,NA,NA,NA,NA,NA,NA,NA,NA,NA,NA,NA,NA,NA,"KQFW 010810Z AUTO 15003KT 9999 CLR 16/07 A3015 RMK A02 TSNO"
"999","QFW",2019-11-01 08:20:00,127.8833,37.6667,60.8,44.6,55.12,150,2,0,30.15,NA,6.21,NA,"CLR",NA,NA,NA,NA,NA,NA,NA,NA,NA,NA,NA,NA,NA,NA,NA,"KQFW 010820Z AUTO 15002KT 9999 CLR 16/07 A3015 RMK A02 TSNO"
"1000","QFW",2019-11-01 08:30:00,127.8833,37.6667,60.8,44.6,55.12,120,1,0,30.16,NA,6.21,NA,"CLR",NA,NA,NA,NA,NA,NA,NA,NA,NA,NA,NA,NA,NA,NA,NA,"KQFW 010830Z AUTO 12001KT 9999 CLR 16/07 A3016 RMK A02 TSNO"
"1001","QFW",2019-11-01 08:40:00,127.8833,37.6667,59,46.4,62.92,160,2,0,30.16,NA,6.21,NA,"CLR",NA,NA,NA,NA,NA,NA,NA,NA,NA,NA,NA,NA,NA,NA,NA,"KQFW 010840Z AUTO 16002KT 9999 CLR 15/08 A3016 RMK A02 TSNO"
"1002","QFW",2019-11-01 08:50:00,127.8833,37.6667,59,46.4,62.92,180,2,0,30.16,NA,6.21,NA,"CLR",NA,NA,NA,NA,NA,NA,NA,NA,NA,NA,NA,NA,NA,NA,NA,"KQFW 010850Z AUTO 18002KT 9999 CLR 15/08 A3016 RMK A02 TSNO"
"1003","QFW",2019-11-01 09:00:00,127.8833,37.6667,59,46.4,62.92,130,2,0,30.17,NA,6.21,NA,"CLR",NA,NA,NA,NA,NA,NA,NA,NA,NA,NA,NA,NA,NA,NA,NA,"KQFW 010900Z AUTO 13002KT 9999 CLR 15/08 A3017 RMK A02 TSNO"
"1004","QFW",2019-11-01 09:10:00,127.8833,37.6667,57.2,46.4,67.12,160,2,0,30.17,NA,6.21,NA,"CLR",NA,NA,NA,NA,NA,NA,NA,NA,NA,NA,NA,NA,NA,NA,NA,"KQFW 010910Z AUTO 16002KT 9999 CLR 14/08 A3017 RMK A02 TSNO"
"1005","QFW",2019-11-01 09:20:00,127.8833,37.6667,57.2,46.4,67.12,140,2,0,30.18,NA,6.21,NA,"CLR",NA,NA,NA,NA,NA,NA,NA,NA,NA,NA,NA,NA,NA,NA,NA,"KQFW 010920Z AUTO 14002KT 9999 CLR 14/08 A3018 RMK A02 TSNO"
"1006","QFW",2019-11-01 09:30:00,127.8833,37.6667,55.4,46.4,71.64,100,2,0,30.18,NA,6.21,NA,"CLR",NA,NA,NA,NA,NA,NA,NA,NA,NA,NA,NA,NA,NA,NA,NA,"KQFW 010930Z AUTO 10002KT 9999 CLR 13/08 A3018 RMK A02 TSNO"
"1007","QFW",2019-11-01 09:40:00,127.8833,37.6667,55.4,46.4,71.64,120,1,0,30.18,NA,6.21,NA,"CLR",NA,NA,NA,NA,NA,NA,NA,NA,NA,NA,NA,NA,NA,NA,NA,"KQFW 010940Z AUTO 12001KT 9999 CLR 13/08 A3018 RMK A02 TSNO"
"1008","QFW",2019-11-01 09:50:00,127.8833,37.6667,55.4,46.4,71.64,130,1,0,30.19,NA,6.21,NA,"CLR",NA,NA,NA,NA,NA,NA,NA,NA,NA,NA,NA,NA,NA,NA,NA,"KQFW 010950Z AUTO 13001KT 9999 CLR 13/08 A3019 RMK A02 TSNO"
"1009","QFW",2019-11-01 10:00:00,127.8833,37.6667,55.4,46.4,71.64,0,0,0,30.19,NA,6.21,NA,"CLR",NA,NA,NA,NA,NA,NA,NA,NA,NA,NA,NA,NA,NA,NA,NA,"KQFW 011000Z AUTO 00000KT 9999 CLR 13/08 A3019 RMK A02 TSNO"
"1010","QFW",2019-11-01 10:10:00,127.8833,37.6667,53.6,46.4,76.5,140,1,0,30.19,NA,6.21,NA,"CLR",NA,NA,NA,NA,NA,NA,NA,NA,NA,NA,NA,NA,NA,NA,NA,"KQFW 011010Z AUTO 14001KT 9999 CLR 12/08 A3019 RMK A02 TSNO"
"1011","QFW",2019-11-01 10:20:00,127.8833,37.6667,53.6,46.4,76.5,120,1,0,30.19,NA,6.21,NA,"CLR",NA,NA,NA,NA,NA,NA,NA,NA,NA,NA,NA,NA,NA,NA,NA,"KQFW 011020Z AUTO 12001KT 9999 CLR 12/08 A3019 RMK A02 TSNO"
"1012","QFW",2019-11-01 10:30:00,127.8833,37.6667,53.6,46.4,76.5,130,1,0,30.19,NA,6.21,NA,"CLR",NA,NA,NA,NA,NA,NA,NA,NA,NA,NA,NA,NA,NA,NA,NA,"KQFW 011030Z AUTO 13001KT 9999 CLR 12/08 A3019 RMK A02 TSNO"
"1013","QFW",2019-11-01 10:40:00,127.8833,37.6667,53.6,46.4,76.5,100,1,0,30.19,NA,6.21,NA,"CLR",NA,NA,NA,NA,NA,NA,NA,NA,NA,NA,NA,NA,NA,NA,NA,"KQFW 011040Z AUTO 10001KT 9999 CLR 12/08 A3019 RMK A02 TSNO"
"1014","QFW",2019-11-01 10:50:00,127.8833,37.6667,53.6,46.4,76.5,70,1,0,30.2,NA,6.21,NA,"CLR",NA,NA,NA,NA,NA,NA,NA,NA,NA,NA,NA,NA,NA,NA,NA,"KQFW 011050Z AUTO 07001KT 9999 CLR 12/08 A3020 RMK A02 TSNO"
"1015","QFW",2019-11-01 11:00:00,127.8833,37.6667,51.8,46.4,81.74,90,2,0,30.19,NA,6.21,NA,"CLR",NA,NA,NA,NA,NA,NA,NA,NA,NA,NA,NA,NA,NA,NA,NA,"KQFW 011100Z AUTO 09002KT 9999 CLR 11/08 A3019 RMK A02 TSNO"
"1016","QFW",2019-11-01 11:10:00,127.8833,37.6667,51.8,46.4,81.74,360,3,0,30.19,NA,6.21,NA,"CLR",NA,NA,NA,NA,NA,NA,NA,NA,NA,NA,NA,NA,NA,NA,NA,"KQFW 011110Z AUTO 36003KT 9999 CLR 11/08 A3019 RMK A02 TSNO"
"1017","QFW",2019-11-01 11:20:00,127.8833,37.6667,51.8,46.4,81.74,140,2,0,30.2,NA,6.21,NA,"CLR",NA,NA,NA,NA,NA,NA,NA,NA,NA,NA,NA,NA,NA,NA,NA,"KQFW 011120Z AUTO 14002KT 9999 CLR 11/08 A3020 RMK A02 TSNO"
"1018","QFW",2019-11-01 11:30:00,127.8833,37.6667,51.8,46.4,81.74,0,0,0,30.2,NA,6.21,NA,"CLR",NA,NA,NA,NA,NA,NA,NA,NA,NA,NA,NA,NA,NA,NA,NA,"KQFW 011130Z AUTO 00000KT 9999 CLR 11/08 A3020 RMK A02 TSNO"
"1019","QFW",2019-11-01 11:40:00,127.8833,37.6667,51.8,46.4,81.74,130,1,0,30.2,NA,5.59,NA,"CLR",NA,NA,NA,NA,NA,NA,NA,NA,NA,NA,NA,NA,NA,NA,NA,"KQFW 011140Z AUTO 13001KT 9000 // CLR 11/08 A3020 RMK A02 TSNO"
"1020","QFW",2019-11-01 11:50:00,127.8833,37.6667,50,48.2,93.5,70,1,0,30.2,NA,6.21,NA,"CLR",NA,NA,NA,NA,NA,NA,NA,NA,NA,NA,NA,NA,NA,NA,NA,"KQFW 011150Z AUTO 07001KT 9999 CLR 10/09 A3020 RMK A02 TSNO"
"1021","QFW",2019-11-01 12:00:00,127.8833,37.6667,50,48.2,93.5,120,1,0,30.2,NA,5.59,NA,"CLR",NA,NA,NA,NA,NA,NA,NA,NA,NA,NA,NA,NA,NA,NA,NA,"KQFW 011200Z AUTO 12001KT 9000 // CLR 10/09 A3020 RMK A02 TSNO"
"1022","QFW",2019-11-01 12:10:00,127.8833,37.6667,50,46.4,87.37,90,2,0,30.2,NA,5.59,NA,"CLR",NA,NA,NA,NA,NA,NA,NA,NA,NA,NA,NA,NA,NA,NA,NA,"KQFW 011210Z AUTO 09002KT 9000 // CLR 10/08 A3020 RMK A02 TSNO"
"1023","QFW",2019-11-01 12:20:00,127.8833,37.6667,50,48.2,93.5,60,1,0,30.2,NA,4.97,NA,"CLR",NA,NA,NA,NA,NA,NA,NA,NA,NA,NA,NA,NA,NA,NA,NA,"KQFW 011220Z AUTO 06001KT 8000 // CLR 10/09 A3020 RMK A02 TSNO"
"1024","QFW",2019-11-01 12:30:00,127.8833,37.6667,50,48.2,93.5,90,1,0,30.21,NA,4.97,NA,"CLR",NA,NA,NA,NA,NA,NA,NA,NA,NA,NA,NA,NA,NA,NA,NA,"KQFW 011230Z AUTO 09001KT 8000 // CLR 10/09 A3021 RMK A02 TSNO"
"1025","QFW",2019-11-01 12:40:00,127.8833,37.6667,50,48.2,93.5,130,1,0,30.21,NA,4.97,NA,"CLR",NA,NA,NA,NA,NA,NA,NA,NA,NA,NA,NA,NA,NA,NA,NA,"KQFW 011240Z AUTO 13001KT 8000 // CLR 10/09 A3021 RMK A02 TSNO"
"1026","QFW",2019-11-01 12:50:00,127.8833,37.6667,48.2,48.2,100,110,1,0,30.21,NA,3.73,NA,"CLR",NA,NA,NA,NA,NA,NA,NA,NA,NA,NA,NA,NA,NA,NA,NA,"KQFW 011250Z AUTO 11001KT 6000 // CLR 09/09 A3021 RMK A02 TSNO"
"1027","QFW",2019-11-01 13:00:00,127.8833,37.6667,48.2,48.2,100,60,1,0,30.21,NA,3.73,NA,"CLR",NA,NA,NA,NA,NA,NA,NA,NA,NA,NA,NA,NA,NA,NA,NA,"KQFW 011300Z AUTO 06001KT 6000 // CLR 09/09 A3021 RMK A02 TSNO"
"1028","QFW",2019-11-01 13:10:00,127.8833,37.6667,48.2,48.2,100,110,1,0,30.21,NA,3.73,NA,"CLR",NA,NA,NA,NA,NA,NA,NA,NA,NA,NA,NA,NA,NA,NA,NA,"KQFW 011310Z AUTO 11001KT 6000 // CLR 09/09 A3021 RMK A02 TSNO"
"1029","QFW",2019-11-01 13:20:00,127.8833,37.6667,48.2,48.2,100,120,1,0,30.21,NA,3.73,NA,"CLR",NA,NA,NA,NA,NA,NA,NA,NA,NA,NA,NA,NA,NA,NA,NA,"KQFW 011320Z AUTO 12001KT 6000 // CLR 09/09 A3021 RMK A02 TSNO"
"1030","QFW",2019-11-01 13:30:00,127.8833,37.6667,48.2,48.2,100,140,1,0,30.21,NA,3.73,NA,"CLR",NA,NA,NA,NA,NA,NA,NA,NA,NA,NA,NA,NA,NA,NA,NA,"KQFW 011330Z AUTO 14001KT 6000 // CLR 09/09 A3021 RMK A02 TSNO"
"1031","QFW",2019-11-01 13:40:00,127.8833,37.6667,48.2,48.2,100,120,1,0,30.21,NA,3.73,NA,"CLR",NA,NA,NA,NA,NA,NA,NA,NA,NA,NA,NA,NA,NA,NA,NA,"KQFW 011340Z AUTO 12001KT 6000 // CLR 09/09 A3021 RMK A02 TSNO"
"1032","QFW",2019-11-01 13:50:00,127.8833,37.6667,48.2,48.2,100,80,1,0,30.21,NA,3.73,NA,"CLR",NA,NA,NA,NA,NA,NA,NA,NA,NA,NA,NA,NA,NA,NA,NA,"KQFW 011350Z AUTO 08001KT 6000 // CLR 09/09 A3021 RMK A02 TSNO"
"1033","QFW",2019-11-01 14:00:00,127.8833,37.6667,48.2,48.2,100,90,1,0,30.21,NA,3.73,NA,"CLR",NA,NA,NA,NA,NA,NA,NA,NA,NA,NA,NA,NA,NA,NA,NA,"KQFW 011400Z AUTO 09001KT 6000 // CLR 09/09 A3021 RMK A02 TSNO"
"1034","QFW",2019-11-01 14:10:00,127.8833,37.6667,46.4,48.2,NA,80,1,0,30.21,NA,3.73,NA,"CLR",NA,NA,NA,NA,NA,NA,NA,NA,NA,NA,NA,NA,NA,NA,NA,"KQFW 011410Z AUTO 08001KT 6000 // CLR 08/09 A3021 RMK A02 TSNO"
"1035","QFW",2019-11-01 14:20:00,127.8833,37.6667,46.4,46.4,100,90,1,0,30.21,NA,2.98,NA,"CLR",NA,NA,NA,NA,NA,NA,NA,NA,NA,NA,NA,NA,NA,NA,NA,"KQFW 011420Z AUTO 09001KT 4800 // CLR 08/08 A3021 RMK A02 TSNO"
"1036","QFW",2019-11-01 14:30:00,127.8833,37.6667,46.4,48.2,NA,140,1,0,30.21,NA,2.98,NA,"CLR",NA,NA,NA,NA,NA,NA,NA,NA,NA,NA,NA,NA,NA,NA,NA,"KQFW 011430Z AUTO 14001KT 4800 // CLR 08/09 A3021 RMK A02 TSNO"
"1037","QFW",2019-11-01 14:40:00,127.8833,37.6667,46.4,46.4,100,130,1,0,30.21,NA,2.98,NA,"CLR",NA,NA,NA,NA,NA,NA,NA,NA,NA,NA,NA,NA,NA,NA,NA,"KQFW 011440Z AUTO 13001KT 4800 // CLR 08/08 A3021 RMK A02 TSNO"
"1038","QFW",2019-11-01 14:50:00,127.8833,37.6667,46.4,46.4,100,150,1,0,30.21,NA,2.98,NA,"CLR",NA,NA,NA,NA,NA,NA,NA,NA,NA,NA,NA,NA,NA,NA,NA,"KQFW 011450Z AUTO 15001KT 4800 // CLR 08/08 A3021 RMK A02 TSNO"
"1039","QFW",2019-11-01 15:00:00,127.8833,37.6667,46.4,46.4,100,150,1,0,30.21,NA,2.98,NA,"CLR",NA,NA,NA,NA,NA,NA,NA,NA,NA,NA,NA,NA,NA,NA,NA,"KQFW 011500Z AUTO 15001KT 4800 // CLR 08/08 A3021 RMK A02 TSNO"
"1040","QFW",2019-11-01 15:10:00,127.8833,37.6667,46.4,46.4,100,60,1,0,30.21,NA,2.98,NA,"CLR",NA,NA,NA,NA,NA,NA,NA,NA,NA,NA,NA,NA,NA,NA,NA,"KQFW 011510Z AUTO 06001KT 4800 // CLR 08/08 A3021 RMK A02 TSNO"
"1041","QFW",2019-11-01 15:20:00,127.8833,37.6667,46.4,46.4,100,100,1,0,30.21,NA,2.98,NA,"CLR",NA,NA,NA,NA,NA,NA,NA,NA,NA,NA,NA,NA,NA,NA,NA,"KQFW 011520Z AUTO 10001KT 4800 // CLR 08/08 A3021 RMK A02 TSNO"
"1042","QFW",2019-11-01 15:30:00,127.8833,37.6667,46.4,46.4,100,100,1,0,30.21,NA,2.98,NA,"CLR",NA,NA,NA,NA,NA,NA,NA,NA,NA,NA,NA,NA,NA,NA,NA,"KQFW 011530Z AUTO 10001KT 4800 // CLR 08/08 A3021 RMK A02 TSNO"
"1043","QFW",2019-11-01 15:40:00,127.8833,37.6667,44.6,46.4,NA,60,1,0,30.21,NA,2.98,NA,"CLR",NA,NA,NA,NA,NA,NA,NA,NA,NA,NA,NA,NA,NA,NA,NA,"KQFW 011540Z AUTO 06001KT 4800 // CLR 07/08 A3021 RMK A02 TSNO"
"1044","QFW",2019-11-01 15:50:00,127.8833,37.6667,44.6,46.4,NA,140,1,0,30.22,NA,2.98,NA,"CLR",NA,NA,NA,NA,NA,NA,NA,NA,NA,NA,NA,NA,NA,NA,NA,"KQFW 011550Z AUTO 14001KT 4800 // CLR 07/08 A3022 RMK A02 TSNO"
"1045","QFW",2019-11-01 16:00:00,127.8833,37.6667,44.6,46.4,NA,110,1,0,30.22,NA,2.98,NA,"CLR",NA,NA,NA,NA,NA,NA,NA,NA,NA,NA,NA,NA,NA,NA,NA,"KQFW 011600Z AUTO 11001KT 4800 // CLR 07/08 A3022 RMK A02 TSNO"
"1046","QFW",2019-11-01 16:10:00,127.8833,37.6667,44.6,46.4,NA,0,0,0,30.21,NA,2.98,NA,"CLR",NA,NA,NA,NA,NA,NA,NA,NA,NA,NA,NA,NA,NA,NA,NA,"KQFW 011610Z AUTO 00000KT 4800 // CLR 07/08 A3021 RMK A02 TSNO"
"1047","QFW",2019-11-01 16:20:00,127.8833,37.6667,44.6,46.4,NA,100,1,0,30.21,NA,2.98,NA,"CLR",NA,NA,NA,NA,NA,NA,NA,NA,NA,NA,NA,NA,NA,NA,NA,"KQFW 011620Z AUTO 10001KT 4800 // CLR 07/08 A3021 RMK A02 TSNO"
"1048","QFW",2019-11-01 16:30:00,127.8833,37.6667,44.6,44.6,100,230,1,0,30.22,NA,2.98,NA,"CLR",NA,NA,NA,NA,NA,NA,NA,NA,NA,NA,NA,NA,NA,NA,NA,"KQFW 011630Z AUTO 23001KT 4800 // CLR 07/07 A3022 RMK A02 TSNO"
"1049","QFW",2019-11-01 16:40:00,127.8833,37.6667,44.6,44.6,100,0,0,0,30.22,NA,2.98,NA,"CLR",NA,NA,NA,NA,NA,NA,NA,NA,NA,NA,NA,NA,NA,NA,NA,"KQFW 011640Z AUTO 00000KT 4800 // CLR 07/07 A3022 RMK A02 TSNO"
"1050","QFW",2019-11-01 16:50:00,127.8833,37.6667,44.6,44.6,100,0,0,0,30.22,NA,2.98,NA,"CLR",NA,NA,NA,NA,NA,NA,NA,NA,NA,NA,NA,NA,NA,NA,NA,"KQFW 011650Z AUTO 00000KT 4800 // CLR 07/07 A3022 RMK A02 TSNO"
"1051","QFW",2019-11-01 17:00:00,127.8833,37.6667,44.6,44.6,100,0,0,0,30.22,NA,2.98,NA,"CLR",NA,NA,NA,NA,NA,NA,NA,NA,NA,NA,NA,NA,NA,NA,NA,"KQFW 011700Z AUTO 00000KT 4800 // CLR 07/07 A3022 RMK A02 TSNO"
"1052","QFW",2019-11-01 17:10:00,127.8833,37.6667,44.6,44.6,100,40,2,0,30.22,NA,2.98,NA,"CLR",NA,NA,NA,NA,NA,NA,NA,NA,NA,NA,NA,NA,NA,NA,NA,"KQFW 011710Z AUTO 04002KT 4800 // CLR 07/07 A3022 RMK A02 TSNO"
"1053","QFW",2019-11-01 17:20:00,127.8833,37.6667,42.8,44.6,NA,0,0,0,30.22,NA,2.98,NA,"CLR",NA,NA,NA,NA,NA,NA,NA,NA,NA,NA,NA,NA,NA,NA,NA,"KQFW 011720Z AUTO 00000KT 4800 // CLR 06/07 A3022 RMK A02 TSNO"
"1054","QFW",2019-11-01 17:30:00,127.8833,37.6667,42.8,44.6,NA,90,1,0,30.22,NA,2.98,NA,"FEW",NA,NA,NA,400,NA,NA,NA,NA,NA,NA,NA,NA,NA,NA,NA,"KQFW 011730Z AUTO 09001KT 4800 // FEW004 06/07 A3022 RMK A02 TSNO"
"1055","QFW",2019-11-01 17:40:00,127.8833,37.6667,42.8,44.6,NA,120,1,0,30.22,NA,2.49,NA,"BKN",NA,NA,NA,400,NA,NA,NA,NA,NA,NA,NA,NA,NA,NA,NA,"KQFW 011740Z AUTO 12001KT 4000 // BKN004 06/07 A3022 RMK A02 TSNO"
"1056","QFW",2019-11-01 17:50:00,127.8833,37.6667,42.8,44.6,NA,80,1,0,30.21,NA,2.98,NA,"BKN",NA,NA,NA,300,NA,NA,NA,NA,NA,NA,NA,NA,NA,NA,NA,"KQFW 011750Z AUTO 08001KT 4800 // BKN003 06/07 A3021 RMK A02 TSNO"
"1057","QFW",2019-11-01 18:00:00,127.8833,37.6667,42.8,44.6,NA,0,0,0,30.21,NA,2.98,NA,"BKN",NA,NA,NA,300,NA,NA,NA,NA,NA,NA,NA,NA,NA,NA,NA,"KQFW 011800Z AUTO 00000KT 4800 // BKN003 06/07 A3021 RMK A02 TSNO"
"1058","QFW",2019-11-01 18:10:00,127.8833,37.6667,42.8,44.6,NA,110,1,0,30.21,NA,2.49,NA,"BKN",NA,NA,NA,300,NA,NA,NA,NA,NA,NA,NA,NA,NA,NA,NA,"KQFW 011810Z AUTO 11001KT 4000 // BKN003 06/07 A3021 RMK A02 TSNO"
"1059","QFW",2019-11-01 18:20:00,127.8833,37.6667,42.8,44.6,NA,80,1,0,30.21,NA,2.49,NA,"OVC",NA,NA,NA,300,NA,NA,NA,NA,NA,NA,NA,NA,NA,NA,NA,"KQFW 011820Z AUTO 08001KT 4000 // OVC003 06/07 A3021 RMK A02 TSNO"
"1060","QFW",2019-11-01 18:30:00,127.8833,37.6667,42.8,44.6,NA,10,2,0,30.21,NA,0.99,NA,"OVC",NA,NA,NA,300,NA,NA,NA,NA,NA,NA,NA,NA,NA,NA,NA,"KQFW 011830Z AUTO 01002KT 1600 // OVC003 06/07 A3021 RMK A02 TSNO"
"1061","QFW",2019-11-01 18:40:00,127.8833,37.6667,42.8,44.6,NA,30,2,0,30.21,NA,0.99,NA,"OVC",NA,NA,NA,300,NA,NA,NA,NA,NA,NA,NA,NA,NA,NA,NA,"KQFW 011840Z AUTO 03002KT 1600 // OVC003 06/07 A3021 RMK A02 TSNO"
"1062","QFW",2019-11-01 18:50:00,127.8833,37.6667,42.8,44.6,NA,10,1,0,30.21,NA,0.75,NA,"OVC",NA,NA,NA,200,NA,NA,NA,NA,NA,NA,NA,NA,NA,NA,NA,"KQFW 011850Z AUTO 01001KT 1200 // OVC002 06/07 A3021 RMK A02 TSNO"
"1063","QFW",2019-11-01 19:00:00,127.8833,37.6667,42.8,44.6,NA,340,1,0,30.21,NA,0.75,NA,"OVC",NA,NA,NA,200,NA,NA,NA,NA,NA,NA,NA,NA,NA,NA,NA,"KQFW 011900Z AUTO 34001KT 1200 // OVC002 06/07 A3021 RMK A02 TSNO"
"1064","QFW",2019-11-01 19:10:00,127.8833,37.6667,42.8,44.6,NA,360,2,0,30.21,NA,0.75,NA,"OVC",NA,NA,NA,200,NA,NA,NA,NA,NA,NA,NA,NA,NA,NA,NA,"KQFW 011910Z AUTO 36002KT 1200 // OVC002 06/07 A3021 RMK A02 TSNO"
"1065","QFW",2019-11-01 19:20:00,127.8833,37.6667,42.8,44.6,NA,90,1,0,30.22,NA,0.5,NA,"OVC",NA,NA,NA,200,NA,NA,NA,NA,NA,NA,NA,NA,NA,NA,NA,"KQFW 011920Z AUTO 09001KT 0800 // OVC002 06/07 A3022 RMK A02 TSNO"
"1066","QFW",2019-11-01 19:30:00,127.8833,37.6667,42.8,44.6,NA,10,2,0,30.21,NA,0.5,NA,"OVC",NA,NA,NA,200,NA,NA,NA,NA,NA,NA,NA,NA,NA,NA,NA,"KQFW 011930Z AUTO 01002KT 0800 // OVC002 06/07 A3021 RMK A02 TSNO"
"1067","QFW",2019-11-01 19:40:00,127.8833,37.6667,42.8,44.6,NA,40,1,0,30.21,NA,0.5,NA,"OVC",NA,NA,NA,200,NA,NA,NA,NA,NA,NA,NA,NA,NA,NA,NA,"KQFW 011940Z AUTO 04001KT 0800 // OVC002 06/07 A3021 RMK A02 TSNO"
"1068","QFW",2019-11-01 19:50:00,127.8833,37.6667,42.8,44.6,NA,10,2,0,30.22,NA,0.25,NA,"CLR",NA,NA,NA,NA,NA,NA,NA,NA,NA,NA,NA,NA,NA,NA,NA,"KQFW 011950Z AUTO 01002KT 0400 // CLR 06/07 A3022 RMK A02 TSNO"
"1069","QFW",2019-11-01 20:00:00,127.8833,37.6667,42.8,44.6,NA,20,2,0,30.22,NA,0.25,NA,"CLR",NA,NA,NA,NA,NA,NA,NA,NA,NA,NA,NA,NA,NA,NA,NA,"KQFW 012000Z AUTO 02002KT 0400 // CLR 06/07 A3022 RMK A02 TSNO"
"1070","QFW",2019-11-01 20:10:00,127.8833,37.6667,42.8,44.6,NA,360,2,0,30.21,NA,0.25,NA,"CLR",NA,NA,NA,NA,NA,NA,NA,NA,NA,NA,NA,NA,NA,NA,NA,"KQFW 012010Z AUTO 36002KT 0400 // CLR 06/07 A3021 RMK A02 TSNO"
"1071","QFW",2019-11-01 20:20:00,127.8833,37.6667,42.8,44.6,NA,40,2,0,30.21,NA,0.25,NA,"CLR",NA,NA,NA,NA,NA,NA,NA,NA,NA,NA,NA,NA,NA,NA,NA,"KQFW 012020Z AUTO 04002KT 0400 // CLR 06/07 A3021 RMK A02 TSNO"
"1072","QFW",2019-11-01 20:30:00,127.8833,37.6667,42.8,44.6,NA,80,1,0,30.21,NA,0.25,NA,"CLR",NA,NA,NA,NA,NA,NA,NA,NA,NA,NA,NA,NA,NA,NA,NA,"KQFW 012030Z AUTO 08001KT 0400 // CLR 06/07 A3021 RMK A02 TSNO"
"1073","QFW",2019-11-01 20:40:00,127.8833,37.6667,42.8,44.6,NA,340,3,0,30.21,NA,0.25,NA,"CLR",NA,NA,NA,NA,NA,NA,NA,NA,NA,NA,NA,NA,NA,NA,NA,"KQFW 012040Z AUTO 34003KT M0400 // CLR 06/07 A3021 RMK A02 TSNO"
"1074","QFW",2019-11-01 20:50:00,127.8833,37.6667,41,42.8,NA,10,2,0,30.21,NA,0.25,NA,"CLR",NA,NA,NA,NA,NA,NA,NA,NA,NA,NA,NA,NA,NA,NA,NA,"KQFW 012050Z AUTO 01002KT M0400 // CLR 05/06 A3021 RMK A02 TSNO"
"1075","QFW",2019-11-01 21:00:00,127.8833,37.6667,41,42.8,NA,50,1,0,30.21,NA,0.25,NA,"CLR",NA,NA,NA,NA,NA,NA,NA,NA,NA,NA,NA,NA,NA,NA,NA,"KQFW 012100Z AUTO 05001KT M0400 // CLR 05/06 A3021 RMK A02 TSNO"
"1076","QFW",2019-11-01 21:10:00,127.8833,37.6667,41,42.8,NA,350,2,0,30.21,NA,0.25,NA,"CLR",NA,NA,NA,NA,NA,NA,NA,NA,NA,NA,NA,NA,NA,NA,NA,"KQFW 012110Z AUTO 35002KT M0400 // CLR 05/06 A3021 RMK A02 TSNO"
"1077","QFW",2019-11-01 21:20:00,127.8833,37.6667,41,42.8,NA,20,2,0,30.21,NA,0.25,NA,"CLR",NA,NA,NA,NA,NA,NA,NA,NA,NA,NA,NA,NA,NA,NA,NA,"KQFW 012120Z AUTO 02002KT M0400 // CLR 05/06 A3021 RMK A02 TSNO"
"1078","QFW",2019-11-01 21:30:00,127.8833,37.6667,41,42.8,NA,150,1,0,30.21,NA,0.25,NA,"CLR",NA,NA,NA,NA,NA,NA,NA,NA,NA,NA,NA,NA,NA,NA,NA,"KQFW 012130Z AUTO 15001KT M0400 // CLR 05/06 A3021 RMK A02 TSNO"
"1079","QFW",2019-11-01 21:40:00,127.8833,37.6667,41,42.8,NA,90,2,0,30.21,NA,0.25,NA,"CLR",NA,NA,NA,NA,NA,NA,NA,NA,NA,NA,NA,NA,NA,NA,NA,"KQFW 012140Z AUTO 09002KT M0400 // CLR 05/06 A3021 RMK A02 TSNO"
"1080","QFW",2019-11-01 21:50:00,127.8833,37.6667,41,42.8,NA,100,3,0,30.21,NA,0.25,NA,"CLR",NA,NA,NA,NA,NA,NA,NA,NA,NA,NA,NA,NA,NA,NA,NA,"KQFW 012150Z AUTO 10003KT 0400 // CLR 05/06 A3021 RMK A02 TSNO"
"1081","QFW",2019-11-01 22:00:00,127.8833,37.6667,41,42.8,NA,100,1,0,30.21,NA,0.25,NA,"CLR",NA,NA,NA,NA,NA,NA,NA,NA,NA,NA,NA,NA,NA,NA,NA,"KQFW 012200Z AUTO 10001KT M0400 // CLR 05/06 A3021 RMK A02 TSNO"
"1082","QFW",2019-11-01 22:10:00,127.8833,37.6667,41,42.8,NA,70,1,0,30.21,NA,0.25,NA,"CLR",NA,NA,NA,NA,NA,NA,NA,NA,NA,NA,NA,NA,NA,NA,NA,"KQFW 012210Z AUTO 07001KT 0400 // CLR 05/06 A3021 RMK A02 TSNO"
"1083","QFW",2019-11-01 22:20:00,127.8833,37.6667,41,42.8,NA,30,2,0,30.21,NA,0.25,NA,"CLR",NA,NA,NA,NA,NA,NA,NA,NA,NA,NA,NA,NA,NA,NA,NA,"KQFW 012220Z AUTO 03002KT 0400 // CLR 05/06 A3021 RMK A02 TSNO"
"1084","QFW",2019-11-01 22:30:00,127.8833,37.6667,41,42.8,NA,90,2,0,30.21,NA,0.25,NA,"CLR",NA,NA,NA,NA,NA,NA,NA,NA,NA,NA,NA,NA,NA,NA,NA,"KQFW 012230Z AUTO 09002KT 0400 // CLR 05/06 A3021 RMK A02 TSNO"
"1085","QFW",2019-11-01 22:40:00,127.8833,37.6667,41,42.8,NA,40,2,0,30.22,NA,0.5,NA,"OVC",NA,NA,NA,200,NA,NA,NA,NA,NA,NA,NA,NA,NA,NA,NA,"KQFW 012240Z AUTO 04002KT 0800 // OVC002 05/06 A3022 RMK A02 TSNO"
"1086","QFW",2019-11-01 22:50:00,127.8833,37.6667,41,42.8,NA,20,2,0,30.22,NA,0.25,NA,"OVC",NA,NA,NA,200,NA,NA,NA,NA,NA,NA,NA,NA,NA,NA,NA,"KQFW 012250Z AUTO 02002KT 0400 // OVC002 05/06 A3022 RMK A02 TSNO"
"1087","QFW",2019-11-01 23:00:00,127.8833,37.6667,41,42.8,NA,360,2,0,30.22,NA,0.25,NA,"OVC",NA,NA,NA,200,NA,NA,NA,NA,NA,NA,NA,NA,NA,NA,NA,"KQFW 012300Z AUTO 36002KT 0400 // OVC002 05/06 A3022 RMK A02 TSNO"
"1088","QFW",2019-11-01 23:10:00,127.8833,37.6667,42.8,42.8,100,10,1,0,30.23,NA,0.5,NA,"OVC",NA,NA,NA,200,NA,NA,NA,NA,NA,NA,NA,NA,NA,NA,NA,"KQFW 012310Z AUTO 01001KT 0800 // OVC002 06/06 A3023 RMK A02 TSNO"
"1089","QFW",2019-11-01 23:20:00,127.8833,37.6667,42.8,44.6,NA,300,1,0,30.23,NA,0.5,NA,"OVC",NA,NA,NA,200,NA,NA,NA,NA,NA,NA,NA,NA,NA,NA,NA,"KQFW 012320Z AUTO 30001KT 0800 // OVC002 06/07 A3023 RMK A02 TSNO"
"1090","QFW",2019-11-01 23:30:00,127.8833,37.6667,42.8,44.6,NA,360,2,0,30.24,NA,0.99,NA,"OVC",NA,NA,NA,200,NA,NA,NA,NA,NA,NA,NA,NA,NA,NA,NA,"KQFW 012330Z AUTO 36002KT 1600 // OVC002 06/07 A3024 RMK A02 TSNO"
"1091","QFW",2019-11-01 23:40:00,127.8833,37.6667,42.8,44.6,NA,20,1,0,30.24,NA,0.75,NA,"OVC",NA,NA,NA,200,NA,NA,NA,NA,NA,NA,NA,NA,NA,NA,NA,"KQFW 012340Z AUTO 02001KT 1200 // OVC002 06/07 A3024 RMK A02 TSNO"
"1092","RKPC",2019-11-01 00:00:00,126.493,33.5113,66.2,55.4,68.15,220,5,0,30.21,NA,4.97,NA,"SCT",NA,NA,NA,3000,NA,NA,NA,NA,NA,NA,NA,NA,NA,NA,NA,"RKPC 010000Z 22005KT 8000 SCT030 19/13 Q1023 NOSIG"
"1093","RKPC",2019-11-01 01:00:00,126.493,33.5113,68,57.2,68.35,280,2,0,30.21,NA,4.35,NA,"FEW",NA,NA,NA,3000,NA,NA,NA,NA,NA,NA,NA,NA,NA,NA,NA,"RKPC 010100Z 28002KT 7000 FEW030 20/14 Q1023 NOSIG"
"1094","RKPC",2019-11-01 02:00:00,126.493,33.5113,68,55.4,64.04,320,4,0,30.21,NA,4.35,NA,"FEW",NA,NA,NA,2500,NA,NA,NA,NA,NA,NA,NA,NA,NA,NA,NA,"RKPC 010200Z 32004KT 270V010 7000 FEW025 20/13 Q1023 NOSIG"
"1095","RKPC",2019-11-01 03:00:00,126.493,33.5113,68,57.2,68.35,310,5,0,30.18,NA,4.35,NA,"FEW",NA,NA,NA,2000,NA,NA,NA,NA,NA,NA,NA,NA,NA,NA,NA,"RKPC 010300Z 31005KT 270V350 7000 FEW020 20/14 Q1022 NOSIG"
"1096","RKPC",2019-11-01 04:00:00,126.493,33.5113,68,57.2,68.35,320,6,0,30.15,NA,4.35,NA,"FEW",NA,NA,NA,2000,NA,NA,NA,NA,NA,NA,NA,NA,NA,NA,NA,"RKPC 010400Z 32006KT 300V010 7000 FEW020 20/14 Q1021 NOSIG"
"1097","RKPC",2019-11-01 05:00:00,126.493,33.5113,68,57.2,68.35,320,5,0,30.12,NA,4.35,NA,"FEW",NA,NA,NA,3000,NA,NA,NA,NA,NA,NA,NA,NA,NA,NA,NA,"RKPC 010500Z 32005KT 280V350 7000 FEW030 20/14 Q1020 NOSIG"
"1098","RKPC",2019-11-01 06:00:00,126.493,33.5113,68,57.2,68.35,320,6,0,30.15,NA,4.35,NA,"NSC",NA,NA,NA,NA,NA,NA,NA,NA,NA,NA,NA,NA,NA,NA,NA,"RKPC 010600Z 32006KT 290V360 7000 NSC 20/14 Q1021 NOSIG"
"1099","RKPC",2019-11-01 07:00:00,126.493,33.5113,68,59,72.92,310,4,0,30.15,NA,4.35,NA,"FEW",NA,NA,NA,3000,NA,NA,NA,NA,NA,NA,NA,NA,NA,NA,NA,"RKPC 010700Z 31004KT 270V010 7000 FEW030 20/15 Q1021 NOSIG"
"1100","RKPC",2019-11-01 08:00:00,126.493,33.5113,66.2,59,77.6,300,4,0,30.15,NA,4.35,NA,"SCT",NA,NA,NA,3000,NA,NA,NA,NA,NA,NA,NA,NA,NA,NA,NA,"RKPC 010800Z 30004KT 260V330 7000 SCT030 19/15 Q1021 NOSIG"
"1101","RKPC",2019-11-01 09:00:00,126.493,33.5113,66.2,59,77.6,300,4,0,30.15,NA,4.35,NA,"SCT",NA,NA,NA,2000,NA,NA,NA,NA,NA,NA,NA,NA,NA,NA,NA,"RKPC 010900Z 30004KT 260V330 7000 SCT020 19/15 Q1021 NOSIG"
"1102","RKPC",2019-11-01 10:00:00,126.493,33.5113,62.6,57.2,82.5,240,3,0,30.15,NA,4.35,NA,"FEW",NA,NA,NA,2000,NA,NA,NA,NA,NA,NA,NA,NA,NA,NA,NA,"RKPC 011000Z 24003KT 7000 FEW020 17/14 Q1021 NOSIG"
"1103","RKPC",2019-11-01 11:00:00,126.493,33.5113,62.6,55.4,77.29,190,4,0,30.15,NA,3.73,NA,"SCT",NA,NA,NA,2000,NA,NA,NA,NA,NA,NA,NA,NA,NA,NA,NA,"RKPC 011100Z 19004KT 6000 SCT020 17/13 Q1021 NOSIG"
"1104","RKPC",2019-11-01 12:00:00,126.493,33.5113,62.6,55.4,77.29,170,5,0,30.15,NA,3.73,NA,"SCT",NA,NA,NA,2000,NA,NA,NA,NA,NA,NA,NA,NA,NA,NA,NA,"RKPC 011200Z 17005KT 120V230 6000 SCT020 17/13 Q1021 NOSIG"
"1105","RKPC",2019-11-01 13:00:00,126.493,33.5113,60.8,55.4,82.37,170,5,0,30.15,NA,3.73,NA,"SCT",NA,NA,NA,2000,NA,NA,NA,NA,NA,NA,NA,NA,NA,NA,NA,"RKPC 011300Z 17005KT 140V210 6000 SCT020 16/13 Q1021 NOSIG"
"1106","RKPC",2019-11-01 14:00:00,126.493,33.5113,60.8,53.6,77.14,180,5,0,30.15,NA,3.73,NA,"SCT",NA,NA,NA,2000,NA,NA,NA,NA,NA,NA,NA,NA,NA,NA,NA,"RKPC 011400Z 18005KT 6000 SCT020 16/12 Q1021 NOSIG"
"1107","RKPC",2019-11-01 15:00:00,126.493,33.5113,60.8,53.6,77.14,200,3,0,30.15,NA,3.73,NA,"SCT",NA,NA,NA,2000,NA,NA,NA,NA,NA,NA,NA,NA,NA,NA,NA,"RKPC 011500Z 20003KT 6000 SCT020 16/12 Q1021 NOSIG"
"1108","RKPC",2019-11-01 16:00:00,126.493,33.5113,60.8,53.6,77.14,160,4,0,30.15,NA,3.73,NA,"SCT",NA,NA,NA,2500,NA,NA,NA,NA,NA,NA,NA,NA,NA,NA,NA,"RKPC 011600Z 16004KT 6000 SCT025 16/12 Q1021 NOSIG"
"1109","RKPC",2019-11-01 17:00:00,126.493,33.5113,59,55.4,87.83,160,5,0,30.15,NA,3.73,NA,"SCT",NA,NA,NA,2500,NA,NA,NA,NA,NA,NA,NA,NA,NA,NA,NA,"RKPC 011700Z 16005KT 6000 SCT025 15/13 Q1021 NOSIG"
"1110","RKPC",2019-11-01 18:00:00,126.493,33.5113,60.8,53.6,77.14,160,6,0,30.12,NA,4.35,NA,"SCT",NA,NA,NA,2500,NA,NA,NA,NA,NA,NA,NA,NA,NA,NA,NA,"RKPC 011800Z 16006KT 7000 SCT025 16/12 Q1020 NOSIG"
"1111","RKPC",2019-11-01 19:00:00,126.493,33.5113,59,50,72.01,150,5,0,30.12,NA,4.97,NA,"SCT",NA,NA,NA,2500,NA,NA,NA,NA,NA,NA,NA,NA,NA,NA,NA,"RKPC 011900Z 15005KT 8000 SCT025 15/10 Q1020 NOSIG"
"1112","RKPC",2019-11-01 20:00:00,126.493,33.5113,57.2,42.8,58.52,130,3,0,30.12,NA,6.21,NA,"FEW",NA,NA,NA,2500,NA,NA,NA,NA,NA,NA,NA,NA,NA,NA,NA,"RKPC 012000Z 13003KT 9999 FEW025 14/06 Q1020 NOSIG"
"1113","RKPC",2019-11-01 21:00:00,126.493,33.5113,59,46.4,62.92,140,4,0,30.12,NA,6.21,NA,NA,NA,NA,NA,NA,NA,NA,NA,NA,NA,NA,NA,NA,NA,NA,NA,"RKPC 012100Z 14004KT CAVOK 15/08 Q1020 NOSIG"
"1114","RKPC",2019-11-01 22:00:00,126.493,33.5113,60.8,48.2,63.15,140,6,0,30.12,NA,6.21,NA,NA,NA,NA,NA,NA,NA,NA,NA,NA,NA,NA,NA,NA,NA,NA,NA,"RKPC 012200Z 14006KT CAVOK 16/09 Q1020 NOSIG"
"1115","RKPC",2019-11-01 23:00:00,126.493,33.5113,62.6,48.2,59.26,140,4,0,30.15,NA,6.21,NA,NA,NA,NA,NA,NA,NA,NA,NA,NA,NA,NA,NA,NA,NA,NA,NA,"RKPC 012300Z 14004KT 090V180 CAVOK 17/09 Q1021 NOSIG"
"1116","RKTU",2019-11-01 00:00:00,127.4991,36.7166,55.4,55.4,100,250,5,0,30.21,NA,0.99,NA,"FEW","BKN",NA,NA,200,500,NA,NA,"BR",NA,NA,NA,NA,NA,NA,NA,"RKTU 010000Z 25005KT 1600 BR FEW002 BKN005 13/13 Q1023"
"1117","RKTU",2019-11-01 00:20:00,127.4991,36.7166,57.2,57.2,100,250,6,0,30.21,NA,1.49,NA,"SCT","BKN",NA,NA,400,700,NA,NA,"BR",NA,NA,NA,NA,NA,NA,NA,"RKTU 010020Z 25006KT 2400 BR SCT004 BKN007 14/14 Q1023 RMK CIG007"
"1118","RKTU",2019-11-01 00:28:00,127.4991,36.7166,NA,NA,NA,NA,NA,0,NA,NA,NA,NA,NA,NA,NA,NA,NA,NA,NA,NA,NA,NA,NA,NA,NA,NA,NA,NA,"RKTU 010028Z 01SPECI"
"1119","RKTU",2019-11-01 01:00:00,127.4991,36.7166,57.2,55.4,93.69,250,4,0,30.18,NA,1.74,NA,"FEW","BKN",NA,NA,400,800,NA,NA,"BR",NA,NA,NA,NA,NA,NA,NA,"RKTU 010100Z 25004KT 2800 BR FEW004 BKN008 14/13 Q1022"
"1120","RKTU",2019-11-01 01:10:00,127.4991,36.7166,59,57.2,93.74,230,4,0,30.18,NA,1.99,NA,"FEW","BKN",NA,NA,700,1000,NA,NA,"BR",NA,NA,NA,NA,NA,NA,NA,"RKTU 010110Z 23004KT 3200 BR FEW007 BKN010 15/14 Q1022 RMK CIG010"
"1121","RKTU",2019-11-01 01:11:00,127.4991,36.7166,59,57.2,93.74,230,4,0,30.2,NA,1.99,NA,"FEW","BKN",NA,NA,700,1000,NA,NA,"BR",NA,NA,NA,NA,NA,NA,NA,"RKTU 010111Z 23004KT 3200 BR FEW007 BKN010 15/14 A3020 RMK CIG010"
"1122","RKTU",2019-11-01 01:12:00,127.4991,36.7166,59,57.2,93.74,230,4,0,30.2,NA,1.99,NA,"FEW","BKN",NA,NA,700,1200,NA,NA,"BR",NA,NA,NA,NA,NA,NA,NA,"RKTU 010112Z 23004KT 3200 BR FEW007 BKN012 15/14 A3020 RMK CIG012"
"1123","RKTU",2019-11-01 01:15:00,127.4991,36.7166,NA,NA,NA,NA,NA,0,NA,NA,NA,NA,NA,NA,NA,NA,NA,NA,NA,NA,NA,NA,NA,NA,NA,NA,NA,NA,"RKTU 010115Z 01SPECI"
"1124","RKTU",2019-11-01 01:16:00,127.4991,36.7166,NA,NA,NA,NA,NA,0,NA,NA,NA,NA,NA,NA,NA,NA,NA,NA,NA,NA,NA,NA,NA,NA,NA,NA,NA,NA,"RKTU 010116Z 01SPECI"
"1125","RKTU",2019-11-01 02:00:00,127.4991,36.7166,60.8,55.4,82.37,240,3,0,30.21,NA,2.98,NA,"SCT",NA,NA,NA,1300,NA,NA,NA,"BR",NA,NA,NA,NA,NA,NA,NA,"RKTU 010200Z 24003KT 4800 BR SCT013 16/13 Q1023"
"1126","RKTU",2019-11-01 03:00:00,127.4991,36.7166,64.4,51.8,63.6,260,4,0,30.18,NA,3.73,NA,"FEW",NA,NA,NA,2500,NA,NA,NA,NA,NA,NA,NA,NA,NA,NA,NA,"RKTU 010300Z 26004KT 6000 FEW025 18/11 Q1022"
"1127","RKTU",2019-11-01 04:00:00,127.4991,36.7166,66.2,50,55.88,360,3,0,30.15,NA,5.59,NA,"FEW",NA,NA,NA,2500,NA,NA,NA,NA,NA,NA,NA,NA,NA,NA,NA,"RKTU 010400Z 36003KT 9000 FEW025 19/10 Q1021"
"1128","RKTU",2019-11-01 05:00:00,127.4991,36.7166,68,44.6,42.85,280,4,0,30.12,NA,5.59,NA,"FEW",NA,NA,NA,2500,NA,NA,NA,NA,NA,NA,NA,NA,NA,NA,NA,"RKTU 010500Z 28004KT 9000 FEW025 20/07 Q1020"
"1129","RKTU",2019-11-01 06:00:00,127.4991,36.7166,69.8,44.6,40.29,260,5,0,30.12,NA,6.21,NA,NA,NA,NA,NA,NA,NA,NA,NA,NA,NA,NA,NA,NA,NA,NA,NA,"RKTU 010600Z 26005KT CAVOK 21/07 Q1020"
"1130","RKTU",2019-11-01 07:00:00,127.4991,36.7166,68,41,37.32,250,5,0,30.12,NA,6.21,NA,NA,NA,NA,NA,NA,NA,NA,NA,NA,NA,NA,NA,NA,NA,NA,NA,"RKTU 010700Z 25005KT CAVOK 20/05 Q1020"
"1131","RKTU",2019-11-01 08:00:00,127.4991,36.7166,64.4,41,42.28,270,5,0,30.12,NA,6.21,NA,NA,NA,NA,NA,NA,NA,NA,NA,NA,NA,NA,NA,NA,NA,NA,NA,"RKTU 010800Z 27005KT CAVOK 18/05 Q1020"
"1132","RKTU",2019-11-01 09:00:00,127.4991,36.7166,59,42.8,54.86,50,1,0,30.15,NA,6.21,NA,NA,NA,NA,NA,NA,NA,NA,NA,NA,NA,NA,NA,NA,NA,NA,NA,"RKTU 010900Z 05001KT CAVOK 15/06 Q1021"
"1133","RKTU",2019-11-01 10:00:00,127.4991,36.7166,53.6,44.6,71.45,120,1,0,30.18,NA,6.21,NA,NA,NA,NA,NA,NA,NA,NA,NA,NA,NA,NA,NA,NA,NA,NA,NA,"RKTU 011000Z 12001KT CAVOK 12/07 Q1022"
"1134","RKTU",2019-11-01 11:00:00,127.4991,36.7166,50,42.8,76.18,230,1,0,30.18,NA,6.21,NA,NA,NA,NA,NA,NA,NA,NA,NA,NA,NA,NA,NA,NA,NA,NA,NA,"RKTU 011100Z 23001KT CAVOK 10/06 Q1022"
"1135","RKTU",2019-11-01 12:00:00,127.4991,36.7166,50,42.8,76.18,150,1,0,30.18,NA,6.21,NA,NA,NA,NA,NA,NA,NA,NA,NA,NA,NA,NA,NA,NA,NA,NA,NA,"RKTU 011200Z 15001KT CAVOK 10/06 Q1022"
"1136","RKTU",2019-11-01 13:00:00,127.4991,36.7166,46.4,41,81.34,120,1,0,30.18,NA,6.21,NA,NA,NA,NA,NA,NA,NA,NA,NA,NA,NA,NA,NA,NA,NA,NA,NA,"RKTU 011300Z 12001KT CAVOK 08/05 Q1022"
"1137","RKTU",2019-11-01 14:00:00,127.4991,36.7166,48.2,42.8,81.47,120,2,0,30.18,NA,6.21,NA,NA,NA,NA,NA,NA,NA,NA,NA,NA,NA,NA,NA,NA,NA,NA,NA,"RKTU 011400Z 12002KT CAVOK 09/06 Q1022"
"1138","RKTU",2019-11-01 15:00:00,127.4991,36.7166,44.6,41,87.09,70,2,0,30.18,NA,6.21,NA,NA,NA,NA,NA,NA,NA,NA,NA,NA,NA,NA,NA,NA,NA,NA,NA,"RKTU 011500Z 07002KT CAVOK 07/05 Q1022"
"1139","RKTU",2019-11-01 16:00:00,127.4991,36.7166,42.8,42.8,100,110,1,0,30.18,NA,6.21,NA,NA,NA,NA,NA,NA,NA,NA,NA,NA,NA,NA,NA,NA,NA,NA,NA,"RKTU 011600Z 11001KT CAVOK 06/06 Q1022"
"1140","RKTU",2019-11-01 17:00:00,127.4991,36.7166,42.8,41,93.3,20,1,0,30.18,NA,6.21,NA,NA,NA,NA,NA,NA,NA,NA,NA,NA,NA,NA,NA,NA,NA,NA,NA,"RKTU 011700Z 02001KT CAVOK 06/05 Q1022"
"1141","RKTU",2019-11-01 18:00:00,127.4991,36.7166,42.8,41,93.3,100,1,0,30.18,NA,5.59,NA,"NSC",NA,NA,NA,NA,NA,NA,NA,NA,NA,NA,NA,NA,NA,NA,NA,"RKTU 011800Z 10001KT 9000 NSC 06/05 Q1022"
"1142","RKTU",2019-11-01 19:00:00,127.4991,36.7166,41,39.2,93.24,220,1,0,30.18,NA,4.97,NA,"NSC",NA,NA,NA,NA,NA,NA,NA,NA,NA,NA,NA,NA,NA,NA,NA,"RKTU 011900Z 22001KT 8000 NSC 05/04 Q1022"
"1143","RKTU",2019-11-01 20:00:00,127.4991,36.7166,42.8,41,93.3,110,1,0,30.18,NA,3.73,NA,"NSC",NA,NA,NA,NA,NA,NA,NA,NA,NA,NA,NA,NA,NA,NA,NA,"RKTU 012000Z 11001KT 6000 NSC 06/05 Q1022"
"1144","RKTU",2019-11-01 21:00:00,127.4991,36.7166,39.2,37.4,93.19,60,1,0,30.18,NA,3.73,NA,"NSC",NA,NA,NA,NA,NA,NA,NA,NA,NA,NA,NA,NA,NA,NA,NA,"RKTU 012100Z 06001KT 6000 NSC 04/03 Q1022"
"1145","RKTU",2019-11-01 22:00:00,127.4991,36.7166,37.4,37.4,100,80,2,0,30.18,NA,2.98,NA,"NSC",NA,NA,NA,NA,NA,NA,NA,"BR",NA,NA,NA,NA,NA,NA,NA,"RKTU 012200Z 08002KT 4800 BR NSC 03/03 Q1022"
"1146","RKTU",2019-11-01 23:00:00,127.4991,36.7166,41,41,100,70,1,0,30.18,NA,2.98,NA,"NSC",NA,NA,NA,NA,NA,NA,NA,"BR",NA,NA,NA,NA,NA,NA,NA,"RKTU 012300Z 07001KT 4800 BR NSC 05/05 Q1022"
"1147","RKTU",2019-11-01 23:41:00,127.4991,36.7166,46.4,44.6,93.4,90,2,0,30.21,NA,2.98,NA,"NSC",NA,NA,NA,NA,NA,NA,NA,"BR",NA,NA,NA,NA,NA,NA,NA,"RKTU 012341Z 09002KT 4800 BR NSC 08/07 Q1023 RMK CIG200 VIS N 2"
"1148","RKTU",2019-11-01 23:43:00,127.4991,36.7166,46.4,44.6,93.4,90,2,0,30.21,NA,2.98,NA,"BKN",NA,NA,NA,20000,NA,NA,NA,"BR",NA,NA,NA,NA,NA,NA,NA,"RKTU 012343Z 09002KT 4800 BR BKN200 08/07 A3021 RMK CIG200 VIS N 2"
"1149","RKTU",2019-11-01 23:47:00,127.4991,36.7166,NA,NA,NA,NA,NA,0,NA,NA,NA,NA,NA,NA,NA,NA,NA,NA,NA,NA,NA,NA,NA,NA,NA,NA,NA,NA,"RKTU 012347Z 01SPECI"
"1150","RKTI",2019-11-01 00:06:00,127.8853,37.03,53.6,51.8,93.6,20,1,0,30.18,NA,0.75,NA,"FEW","BKN",NA,NA,0,500,NA,NA,"BR",NA,NA,NA,NA,NA,NA,NA,"RKTI 010006Z 02001KT 1200 R36/1600 BR FEW000 BKN005 12/11 A3018 RMK CIG005 FG FEW000"
"1151","RKTI",2019-11-01 00:16:00,127.8853,37.03,53.6,51.8,93.6,360,2,0,30.19,NA,0.99,NA,"FEW","BKN",NA,NA,0,1200,NA,NA,"BR",NA,NA,NA,NA,NA,NA,NA,"RKTI 010016Z 36002KT 1600 BR FEW000 BKN012 12/11 A3019 RMK CIG012 FG FEW000"
"1152","RKTI",2019-11-01 00:30:00,127.8853,37.03,53.6,53.6,100,330,2,0,30.19,NA,1.24,NA,"FEW","BKN",NA,NA,0,1500,NA,NA,"BR",NA,NA,NA,NA,NA,NA,NA,"RKTI 010030Z 33002KT 2000 BR FEW000 BKN015 12/12 A3019 RMK CIG015 FG FEW000"
"1153","RKTI",2019-11-01 01:33:00,127.8853,37.03,60.8,55.4,82.37,330,1,0,30.18,NA,2.98,NA,"SCT",NA,NA,NA,2000,NA,NA,NA,"BR",NA,NA,NA,NA,NA,NA,NA,"RKTI 010133Z 33001KT 4800 BR SCT020 16/13 A3018"
"1154","RKTI",2019-11-01 02:33:00,127.8853,37.03,62.6,53.6,72.38,60,3,0,30.17,NA,3.73,NA,"SCT",NA,NA,NA,3000,NA,NA,NA,"BR",NA,NA,NA,NA,NA,NA,NA,"RKTI 010233Z 06003KT 6000 BR SCT030 17/12 A3017"
"1155","RKTI",2019-11-01 16:30:00,127.8853,37.03,41,41,100,350,1,0,30.2,NA,1.99,NA,"FEW",NA,NA,NA,20000,NA,NA,NA,"BR",NA,NA,NA,NA,NA,NA,NA,"RKTI 011630Z 35001KT 3200 BR FEW200 05/05 A3020"
"1156","RKTI",2019-11-01 17:37:00,127.8853,37.03,41,41,100,300,1,0,30.19,NA,0.99,NA,"FEW","SCT",NA,NA,0,200,NA,NA,"BR",NA,NA,NA,NA,NA,NA,NA,"RKTI 011737Z 30001KT 1600 BR FEW000 SCT002 05/05 A3019 RMK FG FEW000"
"1157","RKTI",2019-11-01 18:16:00,127.8853,37.03,39.2,39.2,100,10,3,0,30.19,NA,0.06,NA,"SCT","BKN",NA,NA,0,200,NA,NA,"FG",NA,NA,NA,NA,NA,NA,36.92,"RKTI 011816Z 01003KT 0100 R36/M0050 FG SCT000 BKN002 04/04 A3019 RMK CIG002 FG SCT000"
"1158","RKNN",2019-11-01 05:57:00,128.9436,37.7536,66.2,53.6,63.82,100,9,0,30.13,NA,6.21,NA,"FEW",NA,NA,NA,3000,NA,NA,NA,NA,NA,NA,NA,NA,NA,NA,NA,"RKNN 010557Z 10009KT 9999 FEW030 19/12 A3013"
"1159","RKJK",2019-11-01 00:32:00,126.622,35.8994,59,59,100,130,3,0,30.19,1022.8,0.12,NA,"VV ",NA,NA,NA,0,NA,NA,NA,"FG",NA,NA,NA,NA,NA,NA,NA,"RKJK 010032Z AUTO 13003KT 1/8SM R36/1400V1800FT FG VV000 15/15 A3019 RMK AO2 SLP228 $"
"1160","RKJK",2019-11-01 00:56:00,126.622,35.8994,58.8,58.8,100,80,3,0,30.19,1022.8,0.25,NA,"VV ",NA,NA,NA,100,NA,NA,NA,"FG",NA,NA,NA,NA,NA,NA,NA,"RKJK 010056Z 08003KT 1/4SM R36/2000V2600FT FG VV001 15/15 A3019 RMK AO2A CIG 000 RWY18 SLP228 T01490149 $"
"1161","RKJK",2019-11-01 01:20:00,126.622,35.8994,59,59,100,0,0,0,30.2,1023.1,0.5,NA,"VV ",NA,NA,NA,200,NA,NA,NA,"FG",NA,NA,NA,NA,NA,NA,NA,"RKJK 010120Z 00000KT 1/2SM R36/4000V4500FT FG VV002 15/15 A3020 RMK AO2A CIG 001 RWY18 SLP231 $"
"1162","RKJK",2019-11-01 01:30:00,126.622,35.8994,60.8,60.8,100,0,0,0,30.2,1023.1,0.75,NA,"VV ",NA,NA,NA,200,NA,NA,NA,"BR",NA,NA,NA,NA,NA,NA,NA,"RKJK 010130Z 00000KT 3/4SM R36/4000V5500FT BR VV002 16/16 A3020 RMK AO2A SLP231 $"
"1163","RKJK",2019-11-01 01:38:00,126.622,35.8994,59,59,100,0,0,0,30.2,1023.1,1,NA,"OVC",NA,NA,NA,300,NA,NA,NA,"BR",NA,NA,NA,NA,NA,NA,NA,"RKJK 010138Z 00000KT 1SM BR OVC003 15/15 A3020 RMK AO2A VIS 3/4V1 1/4 SLP231 $"
"1164","RKJK",2019-11-01 01:47:00,126.622,35.8994,60.8,60.8,100,0,0,0,30.21,1023.4,1.25,NA,"BKN",NA,NA,NA,300,NA,NA,NA,"BR",NA,NA,NA,NA,NA,NA,NA,"RKJK 010147Z 00000KT 1 1/4SM BR BKN003 16/16 A3021 RMK AO2A SLP234 $"
"1165","RKJK",2019-11-01 01:56:00,126.622,35.8994,61,61,100,0,0,0,30.2,1023.1,1.25,NA,"BKN",NA,NA,NA,500,NA,NA,NA,"BR",NA,NA,NA,NA,NA,NA,NA,"RKJK 010156Z 00000KT 1 1/4SM BR BKN005 16/16 A3020 RMK AO2A CIG 003V005 SLP231 T01610161 $"
"1166","RKJK",2019-11-01 02:06:00,126.622,35.8994,60.8,60.8,100,10,3,0,30.2,1023.1,2.25,NA,"BKN",NA,NA,NA,500,NA,NA,NA,"BR",NA,NA,NA,NA,NA,NA,NA,"RKJK 010206Z 01003KT 2 1/4SM BR BKN005 16/16 A3020 RMK AO2A BKN V OVC SLP231 $"
"1167","RKJK",2019-11-01 02:23:00,126.622,35.8994,62.6,62.6,100,NA,3,0,30.2,1023.1,2.5,NA,"SCT","SCT",NA,NA,700,20000,NA,NA,"BR",NA,NA,NA,NA,NA,NA,NA,"RKJK 010223Z VRB03KT 2 1/2SM BR SCT007 SCT200 17/17 A3020 RMK SLP231 $"
"1168","RKJK",2019-11-01 02:56:00,126.622,35.8994,64.2,64.2,100,250,5,0,30.18,1022.4,2.5,NA,"BKN",NA,NA,NA,20000,NA,NA,NA,"BR",NA,NA,NA,NA,NA,NA,NA,"RKJK 010256Z 25005KT 2 1/2SM BR BKN200 18/18 A3018 RMK AO2A SLP224 T01790179 55003 $"
"1169","RKJK",2019-11-01 03:56:00,126.622,35.8994,64.2,64.2,100,280,8,0,30.16,1021.8,2.75,NA,"FEW",NA,NA,NA,3000,NA,NA,NA,"BR",NA,NA,NA,NA,NA,NA,NA,"RKJK 010356Z 28008KT 2 3/4SM BR FEW030 18/18 A3016 RMK AO2A SLP218 T01790179 $"
"1170","RKJK",2019-11-01 04:06:00,126.622,35.8994,64.4,64.4,100,280,6,0,30.16,1021.8,5,NA,"FEW",NA,NA,NA,3000,NA,NA,NA,"BR",NA,NA,NA,NA,NA,NA,NA,"RKJK 010406Z 28006KT 5SM BR FEW030 18/18 A3016 RMK AO2A SLP218 $"
"1171","RKJK",2019-11-01 04:56:00,126.622,35.8994,66,65.1,96.92,280,9,0,30.14,1021.1,4,NA,"CLR",NA,NA,NA,NA,NA,NA,NA,"BR",NA,NA,NA,NA,NA,NA,NA,"RKJK 010456Z AUTO 28009KT 4SM BR CLR 19/18 A3014 RMK AO2 SLP211 T01890184 $"
"1172","RKJK",2019-11-01 05:43:00,126.622,35.8994,68,42.8,40,340,8,0,30.14,1021.1,10,NA,"CLR",NA,NA,NA,NA,NA,NA,NA,NA,NA,NA,NA,NA,NA,NA,NA,"RKJK 010543Z 34008KT 10SM CLR 20/06 A3014 RMK SLP211 $"
"1173","RKJK",2019-11-01 05:56:00,126.622,35.8994,67.8,38.5,34.09,320,9,0,30.14,1021.1,10,NA,"CLR",NA,NA,NA,NA,NA,NA,NA,NA,NA,NA,NA,NA,NA,NA,NA,"RKJK 010556Z AUTO 32009KT 10SM CLR 20/04 A3014 RMK AO2 SLP211 T01990036 10200 20142 57014 $"
"1174","RKJK",2019-11-01 06:56:00,126.622,35.8994,66.7,42.3,41.04,340,8,0,30.14,1021.1,10,NA,"CLR",NA,NA,NA,NA,NA,NA,NA,NA,NA,NA,NA,NA,NA,NA,NA,"RKJK 010656Z AUTO 34008KT 10SM CLR 19/06 A3014 RMK AO2 SLP211 T01930057 $"
"1175","RKJK",2019-11-01 07:56:00,126.622,35.8994,62.4,46.6,56.19,340,6,0,30.13,1020.7,10,NA,"CLR",NA,NA,NA,NA,NA,NA,NA,NA,NA,NA,NA,NA,NA,NA,NA,"RKJK 010756Z AUTO 34006KT 10SM CLR 17/08 A3013 RMK AO2 SLP207 T01690081 $"
"1176","RKJK",2019-11-01 08:56:00,126.622,35.8994,59,49.3,70.16,320,5,0,30.14,1021.1,10,NA,"CLR",NA,NA,NA,NA,NA,NA,NA,NA,NA,NA,NA,NA,NA,NA,NA,"RKJK 010856Z AUTO 32005KT 10SM CLR 15/10 A3014 RMK AO2 SLP211 T01500096 53001 $"
"1177","RKJK",2019-11-01 09:56:00,126.622,35.8994,55.9,50.2,81.12,350,6,0,30.14,1021.1,10,NA,"CLR",NA,NA,NA,NA,NA,NA,NA,NA,NA,NA,NA,NA,NA,NA,NA,"RKJK 010956Z AUTO 35006KT 10SM CLR 13/10 A3014 RMK AO2 SLP211 T01330101 $"
"1178","RKJK",2019-11-01 10:56:00,126.622,35.8994,55.4,50.4,83.22,350,7,0,30.15,1021.4,10,NA,"CLR",NA,NA,NA,NA,NA,NA,NA,NA,NA,NA,NA,NA,NA,NA,NA,"RKJK 011056Z AUTO 35007KT 10SM CLR 13/10 A3015 RMK AO2 SLP214 T01300102 $"
"1179","RKJK",2019-11-01 11:56:00,126.622,35.8994,57.7,42.6,57.04,40,3,0,30.15,1021.4,10,NA,"CLR",NA,NA,NA,NA,NA,NA,NA,NA,NA,NA,NA,NA,NA,NA,NA,"RKJK 011156Z AUTO 04003KT 10SM CLR 14/06 A3015 RMK AO2 SLP214 T01430059 10201 20122 52003 $"
"1180","RKJK",2019-11-01 12:56:00,126.622,35.8994,53.6,51.3,91.88,110,4,0,30.15,1021.4,10,NA,"CLR",NA,NA,NA,NA,NA,NA,NA,NA,NA,NA,NA,NA,NA,NA,NA,"RKJK 011256Z AUTO 11004KT 10SM CLR 12/11 A3015 RMK AO2 SLP214 T01200107 $"
"1181","RKJK",2019-11-01 13:56:00,126.622,35.8994,51.3,51.3,100,20,4,0,30.15,1021.4,10,NA,"CLR",NA,NA,NA,NA,NA,NA,NA,NA,NA,NA,NA,NA,NA,NA,NA,"RKJK 011356Z AUTO 02004KT 10SM CLR 11/11 A3015 RMK AO2 SLP214 T01070107 $"
"1182","RKJK",2019-11-01 14:56:00,126.622,35.8994,50,50,100,100,4,0,30.14,1021.1,10,NA,"CLR",NA,NA,NA,NA,NA,NA,NA,NA,NA,NA,NA,NA,NA,NA,48.44,"RKJK 011456Z AUTO 10004KT 10SM CLR 10/10 A3014 RMK AO2 SLP211 T01000100 402010100 58002 $"
"1183","RKJK",2019-11-01 15:56:00,126.622,35.8994,49.5,49.5,100,0,0,0,30.15,1021.4,10,NA,"CLR",NA,NA,NA,NA,NA,NA,NA,NA,NA,NA,NA,NA,NA,NA,NA,"RKJK 011556Z AUTO 00000KT 10SM CLR 10/10 A3015 RMK AO2 SLP214 T00970097 $"
"1184","RKJK",2019-11-01 16:56:00,126.622,35.8994,49.6,49.6,100,0,0,0,30.15,1021.4,10,NA,"CLR",NA,NA,NA,NA,NA,NA,NA,NA,NA,NA,NA,NA,NA,NA,NA,"RKJK 011656Z AUTO 00000KT 10SM CLR 10/10 A3015 RMK AO2 SLP214 T00980098 $"
"1185","RKJK",2019-11-01 17:56:00,126.622,35.8994,48.2,48.2,100,80,5,0,30.14,1021.1,7,NA,"CLR",NA,NA,NA,NA,NA,NA,NA,NA,NA,NA,NA,NA,NA,NA,45.63,"RKJK 011756Z AUTO 08005KT 7SM CLR 09/09 A3014 RMK AO2 SLP211 T00900090 10143 20089 58001 $"
"1186","RKJK",2019-11-01 18:56:00,126.622,35.8994,48,48,100,90,3,0,30.14,1021.1,8,NA,"CLR",NA,NA,NA,NA,NA,NA,NA,NA,NA,NA,NA,NA,NA,NA,46.98,"RKJK 011856Z AUTO 09003KT 8SM CLR 09/09 A3014 RMK AO2 SLP211 T00890089 $"
"1187","RKJK",2019-11-01 19:56:00,126.622,35.8994,46.4,46.4,100,100,4,0,30.13,1020.7,8,NA,"CLR",NA,NA,NA,NA,NA,NA,NA,NA,NA,NA,NA,NA,NA,NA,44.24,"RKJK 011956Z AUTO 10004KT 8SM CLR 08/08 A3013 RMK AO2 SLP207 T00800080 $"
"1188","RKJK",2019-11-01 20:56:00,126.622,35.8994,47.3,47.3,100,0,0,0,30.13,1020.7,8,NA,"CLR",NA,NA,NA,NA,NA,NA,NA,NA,NA,NA,NA,NA,NA,NA,NA,"RKJK 012056Z AUTO 00000KT 8SM CLR 09/09 A3013 RMK AO2 SLP207 T00850085 55002 $"
"1189","RKJK",2019-11-01 21:56:00,126.622,35.8994,47.1,47.1,100,120,5,0,30.14,1021.1,7,NA,"CLR",NA,NA,NA,NA,NA,NA,NA,NA,NA,NA,NA,NA,NA,NA,44.33,"RKJK 012156Z AUTO 12005KT 7SM CLR 08/08 A3014 RMK AO2 SLP211 T00840084 $"
"1190","RKJK",2019-11-01 22:56:00,126.622,35.8994,47.5,47.5,100,110,3,0,30.16,1021.8,8,NA,"CLR",NA,NA,NA,NA,NA,NA,NA,NA,NA,NA,NA,NA,NA,NA,46.41,"RKJK 012256Z AUTO 11003KT 8SM CLR 09/09 A3016 RMK AO2 SLP218 T00860086 $"
"1191","RKJK",2019-11-01 23:56:00,126.622,35.8994,54.3,54.3,100,80,5,0,30.18,1022.4,8,NA,"CLR",NA,NA,NA,NA,NA,NA,NA,NA,NA,NA,NA,NA,NA,NA,NA,"RKJK 012356Z AUTO 08005KT 8SM CLR 12/12 A3018 RMK AO2 SLP224 T01240124 10124 20069 53015 $"
"1192","QFU",2019-11-01 00:00:00,126.9667,37.8,60.8,62.6,NA,320,2,0,NA,NA,0.99,NA,"BKN",NA,NA,NA,200,NA,NA,NA,"BR",NA,NA,NA,NA,NA,NA,NA,"KQFU 010000Z AUTO 32002KT 1600 BR BKN002 16/17 / RMK A02 TSNO"
"1193","QFU",2019-11-01 00:10:00,126.9667,37.8,60.8,62.6,NA,330,1,0,NA,NA,1.24,NA,"SCT",NA,NA,NA,200,NA,NA,NA,"BR",NA,NA,NA,NA,NA,NA,NA,"KQFU 010010Z AUTO 33001KT 2000 BR SCT002 16/17 / RMK A02 TSNO"
"1194","QFU",2019-11-01 00:20:00,126.9667,37.8,60.8,62.6,NA,240,2,0,NA,NA,1.49,NA,"FEW","SCT",NA,NA,300,400,NA,NA,"BR",NA,NA,NA,NA,NA,NA,NA,"KQFU 010020Z AUTO 24002KT 2400 BR FEW003 SCT004 16/17 / RMK A02 TSNO"
"1195","QFU",2019-11-01 00:30:00,126.9667,37.8,60.8,62.6,NA,150,2,0,NA,NA,1.49,NA,"FEW",NA,NA,NA,400,NA,NA,NA,"BR",NA,NA,NA,NA,NA,NA,NA,"KQFU 010030Z AUTO 15002KT 2400 BR FEW004 16/17 / RMK A02 TSNO"
"1196","QFU",2019-11-01 00:40:00,126.9667,37.8,60.8,62.6,NA,120,2,0,NA,NA,1.49,NA,"SCT",NA,NA,NA,400,NA,NA,NA,"BR",NA,NA,NA,NA,NA,NA,NA,"KQFU 010040Z AUTO 12002KT 2400 BR SCT004 16/17 / RMK A02 TSNO"
"1197","QFU",2019-11-01 00:50:00,126.9667,37.8,53.6,55.4,NA,150,3,0,30.25,NA,1.49,NA,"FEW",NA,NA,NA,400,NA,NA,NA,"BR",NA,NA,NA,NA,NA,NA,NA,"KQFU 010050Z AUTO 15003KT 2400 BR FEW004 12/13 A3025 RMK A02 TSNO"
"1198","QFU",2019-11-01 01:10:00,126.9667,37.8,57.2,51.8,82.12,120,1,0,30.25,NA,2.49,NA,"FEW",NA,NA,NA,800,NA,NA,NA,"HZ",NA,NA,NA,NA,NA,NA,NA,"KQFU 010110Z AUTO 12001KT 4000 HZ FEW008 14/11 A3025 RMK A02 TSNO"
"1199","QFU",2019-11-01 01:20:00,126.9667,37.8,57.2,48.2,71.83,140,1,0,30.24,NA,2.49,NA,"FEW",NA,NA,NA,800,NA,NA,NA,"HZ",NA,NA,NA,NA,NA,NA,NA,"KQFU 010120Z AUTO 14001KT 4000 HZ FEW008 14/09 A3024 RMK A02 TSNO"
"1200","QFU",2019-11-01 01:30:00,126.9667,37.8,57.2,41,54.6,360,3,0,30.24,NA,3.73,NA,"CLR",NA,NA,NA,NA,NA,NA,NA,"HZ",NA,NA,NA,NA,NA,NA,NA,"KQFU 010130Z AUTO 36003KT 6000 HZ CLR 14/05 A3024 RMK A02 TSNO"
"1201","QFU",2019-11-01 01:40:00,126.9667,37.8,59,41,51.18,10,2,0,30.25,NA,4.97,NA,"CLR",NA,NA,NA,NA,NA,NA,NA,"HZ",NA,NA,NA,NA,NA,NA,NA,"KQFU 010140Z AUTO 01002KT 8000 HZ CLR 15/05 A3025 RMK A02 TSNO"
"1202","QFU",2019-11-01 01:50:00,126.9667,37.8,59,39.2,47.72,330,1,0,30.24,NA,5.59,NA,"CLR",NA,NA,NA,NA,NA,NA,NA,"HZ",NA,NA,NA,NA,NA,NA,NA,"KQFU 010150Z AUTO 33001KT 9000 HZ CLR 15/04 A3024 RMK A02 TSNO"
"1203","QFU",2019-11-01 02:00:00,126.9667,37.8,59,39.2,47.72,340,3,0,30.24,NA,6.21,NA,"CLR",NA,NA,NA,NA,NA,NA,NA,NA,NA,NA,NA,NA,NA,NA,NA,"KQFU 010200Z AUTO 34003KT 9999 CLR 15/04 A3024 RMK A02 TSNO"
"1204","QFU",2019-11-01 02:10:00,126.9667,37.8,60.8,37.4,41.71,70,4,0,30.24,NA,6.21,NA,"CLR",NA,NA,NA,NA,NA,NA,NA,NA,NA,NA,NA,NA,NA,NA,NA,"KQFU 010210Z AUTO 07004KT 9999 CLR 16/03 A3024 RMK A02 TSNO"
"1205","QFU",2019-11-01 02:20:00,126.9667,37.8,60.8,37.4,41.71,330,2,0,30.24,NA,6.21,NA,"CLR",NA,NA,NA,NA,NA,NA,NA,NA,NA,NA,NA,NA,NA,NA,NA,"KQFU 010220Z AUTO 33002KT 9999 CLR 16/03 A3024 RMK A02 TSNO"
"1206","QFU",2019-11-01 02:30:00,126.9667,37.8,62.6,35.6,36.45,360,3,0,30.24,NA,6.21,NA,"CLR",NA,NA,NA,NA,NA,NA,NA,NA,NA,NA,NA,NA,NA,NA,NA,"KQFU 010230Z AUTO 36003KT 9999 CLR 17/02 A3024 RMK A02 TSNO"
"1207","QFU",2019-11-01 02:40:00,126.9667,37.8,62.6,32,31.56,360,3,0,30.24,NA,6.21,NA,"CLR",NA,NA,NA,NA,NA,NA,NA,NA,NA,NA,NA,NA,NA,NA,NA,"KQFU 010240Z AUTO 36003KT 9999 CLR 17/00 A3024 RMK A02 TSNO"
"1208","QFU",2019-11-01 02:50:00,126.9667,37.8,62.6,33.8,33.93,200,2,0,30.24,NA,6.21,NA,"CLR",NA,NA,NA,NA,NA,NA,NA,NA,NA,NA,NA,NA,NA,NA,NA,"KQFU 010250Z AUTO 20002KT 9999 CLR 17/01 A3024 RMK A02 TSNO"
"1209","QFU",2019-11-01 03:00:00,126.9667,37.8,62.6,33.8,33.93,340,3,0,30.23,NA,6.21,NA,"CLR",NA,NA,NA,NA,NA,NA,NA,NA,NA,NA,NA,NA,NA,NA,NA,"KQFU 010300Z AUTO 34003KT 9999 CLR 17/01 A3023 RMK A02 TSNO"
"1210","QFU",2019-11-01 03:10:00,126.9667,37.8,62.6,33.8,33.93,320,3,0,30.23,NA,6.21,NA,"CLR",NA,NA,NA,NA,NA,NA,NA,NA,NA,NA,NA,NA,NA,NA,NA,"KQFU 010310Z AUTO 32003KT 9999 CLR 17/01 A3023 RMK A02 TSNO"
"1211","QFU",2019-11-01 03:20:00,126.9667,37.8,62.6,33.8,33.93,300,2,0,30.22,NA,6.21,NA,"CLR",NA,NA,NA,NA,NA,NA,NA,NA,NA,NA,NA,NA,NA,NA,NA,"KQFU 010320Z AUTO 30002KT 9999 CLR 17/01 A3022 RMK A02 TSNO"
"1212","QFU",2019-11-01 03:40:00,126.9667,37.8,62.6,33.8,33.93,350,4,0,30.21,NA,6.21,NA,"CLR",NA,NA,NA,NA,NA,NA,NA,NA,NA,NA,NA,NA,NA,NA,NA,"KQFU 010340Z AUTO 35004KT 9999 CLR 17/01 A3021 RMK A02 TSNO"
"1213","QFU",2019-11-01 03:50:00,126.9667,37.8,64.4,33.8,31.85,310,2,0,30.21,NA,6.21,NA,"CLR",NA,NA,NA,NA,NA,NA,NA,NA,NA,NA,NA,NA,NA,NA,NA,"KQFU 010350Z AUTO 31002KT 9999 CLR 18/01 A3021 RMK A02 TSNO"
"1214","QFU",2019-11-01 04:00:00,126.9667,37.8,64.4,33.8,31.85,220,2,0,30.21,NA,6.21,NA,"CLR",NA,NA,NA,NA,NA,NA,NA,NA,NA,NA,NA,NA,NA,NA,NA,"KQFU 010400Z AUTO 22002KT 9999 CLR 18/01 A3021 RMK A02 TSNO"
"1215","QFU",2019-11-01 04:10:00,126.9667,37.8,64.4,32,29.63,330,3,0,30.2,NA,6.21,NA,"CLR",NA,NA,NA,NA,NA,NA,NA,NA,NA,NA,NA,NA,NA,NA,NA,"KQFU 010410Z AUTO 33003KT 9999 CLR 18/00 A3020 RMK A02 TSNO"
"1216","QFU",2019-11-01 04:20:00,126.9667,37.8,64.4,32,29.63,360,3,0,30.2,NA,6.21,NA,"CLR",NA,NA,NA,NA,NA,NA,NA,NA,NA,NA,NA,NA,NA,NA,NA,"KQFU 010420Z AUTO 36003KT 9999 CLR 18/00 A3020 RMK A02 TSNO"
"1217","QFU",2019-11-01 04:30:00,126.9667,37.8,66.2,32,27.83,90,3,0,30.2,NA,6.21,NA,"CLR",NA,NA,NA,NA,NA,NA,NA,NA,NA,NA,NA,NA,NA,NA,NA,"KQFU 010430Z AUTO 09003KT 9999 CLR 19/00 A3020 RMK A02 TSNO"
"1218","QFU",2019-11-01 04:40:00,126.9667,37.8,66.2,33.8,29.92,120,1,0,30.19,NA,6.21,NA,"CLR",NA,NA,NA,NA,NA,NA,NA,NA,NA,NA,NA,NA,NA,NA,NA,"KQFU 010440Z AUTO 12001KT 9999 CLR 19/01 A3019 RMK A02 TSNO"
"1219","QFU",2019-11-01 04:50:00,126.9667,37.8,66.2,33.8,29.92,70,3,0,30.19,NA,6.21,NA,"CLR",NA,NA,NA,NA,NA,NA,NA,NA,NA,NA,NA,NA,NA,NA,NA,"KQFU 010450Z AUTO 07003KT 9999 CLR 19/01 A3019 RMK A02 TSNO"
"1220","QFU",2019-11-01 05:00:00,126.9667,37.8,66.2,33.8,29.92,20,2,0,30.19,NA,6.21,NA,"CLR",NA,NA,NA,NA,NA,NA,NA,NA,NA,NA,NA,NA,NA,NA,NA,"KQFU 010500Z AUTO 02002KT 9999 CLR 19/01 A3019 RMK A02 TSNO"
"1221","QFU",2019-11-01 05:10:00,126.9667,37.8,64.4,33.8,31.85,340,5,0,30.19,NA,6.21,NA,"CLR",NA,NA,NA,NA,NA,NA,NA,NA,NA,NA,NA,NA,NA,NA,NA,"KQFU 010510Z AUTO 34005KT 9999 CLR 18/01 A3019 RMK A02 TSNO"
"1222","QFU",2019-11-01 05:20:00,126.9667,37.8,66.2,33.8,29.92,290,2,0,30.19,NA,6.21,NA,"CLR",NA,NA,NA,NA,NA,NA,NA,NA,NA,NA,NA,NA,NA,NA,NA,"KQFU 010520Z AUTO 29002KT 9999 CLR 19/01 A3019 RMK A02 TSNO"
"1223","QFU",2019-11-01 05:30:00,126.9667,37.8,66.2,33.8,29.92,320,2,0,30.19,NA,6.21,NA,"CLR",NA,NA,NA,NA,NA,NA,NA,NA,NA,NA,NA,NA,NA,NA,NA,"KQFU 010530Z AUTO 32002KT 9999 CLR 19/01 A3019 RMK A02 TSNO"
"1224","QFU",2019-11-01 05:40:00,126.9667,37.8,68,33.8,28.11,220,2,0,30.19,NA,6.21,NA,"CLR",NA,NA,NA,NA,NA,NA,NA,NA,NA,NA,NA,NA,NA,NA,NA,"KQFU 010540Z AUTO 22002KT 9999 CLR 20/01 A3019 RMK A02 TSNO"
"1225","QFU",2019-11-01 05:50:00,126.9667,37.8,69.8,33.8,26.43,200,1,0,30.19,NA,6.21,NA,"CLR",NA,NA,NA,NA,NA,NA,NA,NA,NA,NA,NA,NA,NA,NA,NA,"KQFU 010550Z AUTO 20001KT 9999 CLR 21/01 A3019 RMK A02 TSNO"
"1226","QFU",2019-11-01 06:00:00,126.9667,37.8,68,33.8,28.11,210,2,0,30.18,NA,6.21,NA,"CLR",NA,NA,NA,NA,NA,NA,NA,NA,NA,NA,NA,NA,NA,NA,NA,"KQFU 010600Z AUTO 21002KT 9999 CLR 20/01 A3018 RMK A02 TSNO"
"1227","QFU",2019-11-01 06:10:00,126.9667,37.8,68,33.8,28.11,200,2,0,30.19,NA,6.21,NA,"CLR",NA,NA,NA,NA,NA,NA,NA,NA,NA,NA,NA,NA,NA,NA,NA,"KQFU 010610Z AUTO 20002KT 9999 CLR 20/01 A3019 RMK A02 TSNO"
"1228","QFU",2019-11-01 06:20:00,126.9667,37.8,68,33.8,28.11,220,3,0,30.19,NA,6.21,NA,"CLR",NA,NA,NA,NA,NA,NA,NA,NA,NA,NA,NA,NA,NA,NA,NA,"KQFU 010620Z AUTO 22003KT 9999 CLR 20/01 A3019 RMK A02 TSNO"
"1229","QFU",2019-11-01 06:30:00,126.9667,37.8,68,33.8,28.11,230,3,0,30.19,NA,6.21,NA,"CLR",NA,NA,NA,NA,NA,NA,NA,NA,NA,NA,NA,NA,NA,NA,NA,"KQFU 010630Z AUTO 23003KT 9999 CLR 20/01 A3019 RMK A02 TSNO"
"1230","QFU",2019-11-01 06:40:00,126.9667,37.8,68,33.8,28.11,270,3,0,30.19,NA,6.21,NA,"CLR",NA,NA,NA,NA,NA,NA,NA,NA,NA,NA,NA,NA,NA,NA,NA,"KQFU 010640Z AUTO 27003KT 9999 CLR 20/01 A3019 RMK A02 TSNO"
"1231","QFU",2019-11-01 06:50:00,126.9667,37.8,66.2,33.8,29.92,330,2,0,30.19,NA,6.21,NA,"CLR",NA,NA,NA,NA,NA,NA,NA,NA,NA,NA,NA,NA,NA,NA,NA,"KQFU 010650Z AUTO 33002KT 9999 CLR 19/01 A3019 RMK A02 TSNO"
"1232","QFU",2019-11-01 07:00:00,126.9667,37.8,66.2,33.8,29.92,340,1,0,30.19,NA,6.21,NA,"CLR",NA,NA,NA,NA,NA,NA,NA,NA,NA,NA,NA,NA,NA,NA,NA,"KQFU 010700Z AUTO 34001KT 9999 CLR 19/01 A3019 RMK A02 TSNO"
"1233","QFU",2019-11-01 07:10:00,126.9667,37.8,68,35.6,30.2,10,1,0,30.19,NA,6.21,NA,"CLR",NA,NA,NA,NA,NA,NA,NA,NA,NA,NA,NA,NA,NA,NA,NA,"KQFU 010710Z AUTO 01001KT 9999 CLR 20/02 A3019 RMK A02 TSNO"
"1234","QFU",2019-11-01 07:20:00,126.9667,37.8,66.2,33.8,29.92,320,2,0,30.19,NA,6.21,NA,"CLR",NA,NA,NA,NA,NA,NA,NA,NA,NA,NA,NA,NA,NA,NA,NA,"KQFU 010720Z AUTO 32002KT 9999 CLR 19/01 A3019 RMK A02 TSNO"
"1235","QFU",2019-11-01 07:30:00,126.9667,37.8,68,35.6,30.2,270,2,0,30.19,NA,6.21,NA,"CLR",NA,NA,NA,NA,NA,NA,NA,NA,NA,NA,NA,NA,NA,NA,NA,"KQFU 010730Z AUTO 27002KT 9999 CLR 20/02 A3019 RMK A02 TSNO"
"1236","QFU",2019-11-01 07:40:00,126.9667,37.8,66.2,35.6,32.14,330,2,0,30.19,NA,6.21,NA,"CLR",NA,NA,NA,NA,NA,NA,NA,NA,NA,NA,NA,NA,NA,NA,NA,"KQFU 010740Z AUTO 33002KT 9999 CLR 19/02 A3019 RMK A02 TSNO"
"1237","QFU",2019-11-01 07:50:00,126.9667,37.8,66.2,33.8,29.92,340,2,0,30.19,NA,6.21,NA,"CLR",NA,NA,NA,NA,NA,NA,NA,NA,NA,NA,NA,NA,NA,NA,NA,"KQFU 010750Z AUTO 34002KT 9999 CLR 19/01 A3019 RMK A02 TSNO"
"1238","QFU",2019-11-01 08:00:00,126.9667,37.8,64.4,37.4,36.74,240,1,0,30.19,NA,6.21,NA,"CLR",NA,NA,NA,NA,NA,NA,NA,NA,NA,NA,NA,NA,NA,NA,NA,"KQFU 010800Z AUTO 24001KT 9999 CLR 18/03 A3019 RMK A02 TSNO"
"1239","QFU",2019-11-01 08:10:00,126.9667,37.8,62.6,37.4,39.14,260,2,0,30.2,NA,6.21,NA,"CLR",NA,NA,NA,NA,NA,NA,NA,NA,NA,NA,NA,NA,NA,NA,NA,"KQFU 010810Z AUTO 26002KT 9999 CLR 17/03 A3020 RMK A02 TSNO"
"1240","QFU",2019-11-01 08:20:00,126.9667,37.8,60.8,39.2,44.76,250,2,0,30.2,NA,6.21,NA,"CLR",NA,NA,NA,NA,NA,NA,NA,NA,NA,NA,NA,NA,NA,NA,NA,"KQFU 010820Z AUTO 25002KT 9999 CLR 16/04 A3020 RMK A02 TSNO"
"1241","QFU",2019-11-01 08:30:00,126.9667,37.8,60.8,39.2,44.76,250,2,0,30.2,NA,6.21,NA,"CLR",NA,NA,NA,NA,NA,NA,NA,NA,NA,NA,NA,NA,NA,NA,NA,"KQFU 010830Z AUTO 25002KT 9999 CLR 16/04 A3020 RMK A02 TSNO"
"1242","QFU",2019-11-01 08:40:00,126.9667,37.8,59,37.4,44.47,240,2,0,30.21,NA,6.21,NA,"CLR",NA,NA,NA,NA,NA,NA,NA,NA,NA,NA,NA,NA,NA,NA,NA,"KQFU 010840Z AUTO 24002KT 9999 CLR 15/03 A3021 RMK A02 TSNO"
"1243","QFU",2019-11-01 08:50:00,126.9667,37.8,59,37.4,44.47,230,1,0,30.21,NA,6.21,NA,"CLR",NA,NA,NA,NA,NA,NA,NA,NA,NA,NA,NA,NA,NA,NA,NA,"KQFU 010850Z AUTO 23001KT 9999 CLR 15/03 A3021 RMK A02 TSNO"
"1244","QFU",2019-11-01 09:00:00,126.9667,37.8,59,37.4,44.47,150,1,0,30.21,NA,6.21,NA,"CLR",NA,NA,NA,NA,NA,NA,NA,NA,NA,NA,NA,NA,NA,NA,NA,"KQFU 010900Z AUTO 15001KT 9999 CLR 15/03 A3021 RMK A02 TSNO"
"1245","QFU",2019-11-01 09:10:00,126.9667,37.8,59,39.2,47.72,190,1,0,30.21,NA,6.21,NA,"CLR",NA,NA,NA,NA,NA,NA,NA,NA,NA,NA,NA,NA,NA,NA,NA,"KQFU 010910Z AUTO 19001KT 9999 CLR 15/04 A3021 RMK A02 TSNO"
"1246","QFU",2019-11-01 09:20:00,126.9667,37.8,57.2,37.4,47.44,160,1,0,30.22,NA,6.21,NA,"CLR",NA,NA,NA,NA,NA,NA,NA,NA,NA,NA,NA,NA,NA,NA,NA,"KQFU 010920Z AUTO 16001KT 9999 CLR 14/03 A3022 RMK A02 TSNO"
"1247","QFU",2019-11-01 09:30:00,126.9667,37.8,57.2,37.4,47.44,140,1,0,30.21,NA,6.21,NA,"CLR",NA,NA,NA,NA,NA,NA,NA,NA,NA,NA,NA,NA,NA,NA,NA,"KQFU 010930Z AUTO 14001KT 9999 CLR 14/03 A3021 RMK A02 TSNO"
"1248","QFU",2019-11-01 09:40:00,126.9667,37.8,57.2,37.4,47.44,170,1,0,30.21,NA,6.21,NA,"CLR",NA,NA,NA,NA,NA,NA,NA,NA,NA,NA,NA,NA,NA,NA,NA,"KQFU 010940Z AUTO 17001KT 9999 CLR 14/03 A3021 RMK A02 TSNO"
"1249","QFU",2019-11-01 09:50:00,126.9667,37.8,57.2,39.2,50.91,240,1,0,30.21,NA,6.21,NA,"CLR",NA,NA,NA,NA,NA,NA,NA,NA,NA,NA,NA,NA,NA,NA,NA,"KQFU 010950Z AUTO 24001KT 9999 CLR 14/04 A3021 RMK A02 TSNO"
"1250","QFU",2019-11-01 10:00:00,126.9667,37.8,55.4,37.4,50.64,170,1,0,30.22,NA,6.21,NA,"CLR",NA,NA,NA,NA,NA,NA,NA,NA,NA,NA,NA,NA,NA,NA,NA,"KQFU 011000Z AUTO 17001KT 9999 CLR 13/03 A3022 RMK A02 TSNO"
"1251","QFU",2019-11-01 10:10:00,126.9667,37.8,53.6,39.2,58.02,250,2,0,30.22,NA,6.21,NA,"CLR",NA,NA,NA,NA,NA,NA,NA,NA,NA,NA,NA,NA,NA,NA,NA,"KQFU 011010Z AUTO 25002KT 9999 CLR 12/04 A3022 RMK A02 TSNO"
"1252","QFU",2019-11-01 10:20:00,126.9667,37.8,51.8,37.4,57.77,190,1,0,30.22,NA,6.21,NA,"CLR",NA,NA,NA,NA,NA,NA,NA,NA,NA,NA,NA,NA,NA,NA,NA,"KQFU 011020Z AUTO 19001KT 9999 CLR 11/03 A3022 RMK A02 TSNO"
"1253","QFU",2019-11-01 10:30:00,126.9667,37.8,51.8,37.4,57.77,0,0,0,30.22,NA,6.21,NA,"CLR",NA,NA,NA,NA,NA,NA,NA,NA,NA,NA,NA,NA,NA,NA,NA,"KQFU 011030Z AUTO 00000KT 9999 CLR 11/03 A3022 RMK A02 TSNO"
"1254","QFU",2019-11-01 10:40:00,126.9667,37.8,51.8,39.2,61.99,80,1,0,30.22,NA,6.21,NA,"CLR",NA,NA,NA,NA,NA,NA,NA,NA,NA,NA,NA,NA,NA,NA,NA,"KQFU 011040Z AUTO 08001KT 9999 CLR 11/04 A3022 RMK A02 TSNO"
"1255","QFU",2019-11-01 10:50:00,126.9667,37.8,51.8,39.2,61.99,0,0,0,30.22,NA,6.21,NA,"CLR",NA,NA,NA,NA,NA,NA,NA,NA,NA,NA,NA,NA,NA,NA,NA,"KQFU 011050Z AUTO 00000KT 9999 CLR 11/04 A3022 RMK A02 TSNO"
"1256","QFU",2019-11-01 11:00:00,126.9667,37.8,51.8,39.2,61.99,260,1,0,30.22,NA,6.21,NA,"CLR",NA,NA,NA,NA,NA,NA,NA,NA,NA,NA,NA,NA,NA,NA,NA,"KQFU 011100Z AUTO 26001KT 9999 CLR 11/04 A3022 RMK A02 TSNO"
"1257","QFU",2019-11-01 11:10:00,126.9667,37.8,51.8,39.2,61.99,0,0,0,30.22,NA,6.21,NA,"CLR",NA,NA,NA,NA,NA,NA,NA,NA,NA,NA,NA,NA,NA,NA,NA,"KQFU 011110Z AUTO 00000KT 9999 CLR 11/04 A3022 RMK A02 TSNO"
"1258","QFU",2019-11-01 11:20:00,126.9667,37.8,51.8,39.2,61.99,30,1,0,30.22,NA,6.21,NA,"CLR",NA,NA,NA,NA,NA,NA,NA,NA,NA,NA,NA,NA,NA,NA,NA,"KQFU 011120Z AUTO 03001KT 9999 CLR 11/04 A3022 RMK A02 TSNO"
"1259","QFU",2019-11-01 11:30:00,126.9667,37.8,50,39.2,66.27,0,0,0,30.21,NA,6.21,NA,"CLR",NA,NA,NA,NA,NA,NA,NA,NA,NA,NA,NA,NA,NA,NA,NA,"KQFU 011130Z AUTO 00000KT 9999 CLR 10/04 A3021 RMK A02 TSNO"
"1260","QFU",2019-11-01 11:40:00,126.9667,37.8,51.8,41,66.48,70,1,0,30.21,NA,6.21,NA,"CLR",NA,NA,NA,NA,NA,NA,NA,NA,NA,NA,NA,NA,NA,NA,NA,"KQFU 011140Z AUTO 07001KT 9999 CLR 11/05 A3021 RMK A02 TSNO"
"1261","QFU",2019-11-01 11:50:00,126.9667,37.8,50,41,71.07,0,0,0,30.21,NA,6.21,NA,"CLR",NA,NA,NA,NA,NA,NA,NA,NA,NA,NA,NA,NA,NA,NA,NA,"KQFU 011150Z AUTO 00000KT 9999 CLR 10/05 A3021 RMK A02 TSNO"
"1262","QFU",2019-11-01 12:00:00,126.9667,37.8,50,41,71.07,170,2,0,30.22,NA,6.21,NA,"CLR",NA,NA,NA,NA,NA,NA,NA,NA,NA,NA,NA,NA,NA,NA,NA,"KQFU 011200Z AUTO 17002KT 9999 CLR 10/05 A3022 RMK A02 TSNO"
"1263","QFU",2019-11-01 12:10:00,126.9667,37.8,48.2,39.2,70.88,250,1,0,30.22,NA,6.21,NA,"CLR",NA,NA,NA,NA,NA,NA,NA,NA,NA,NA,NA,NA,NA,NA,NA,"KQFU 011210Z AUTO 25001KT 9999 CLR 09/04 A3022 RMK A02 TSNO"
"1264","QFU",2019-11-01 12:20:00,126.9667,37.8,48.2,39.2,70.88,360,1,0,30.22,NA,6.21,NA,"CLR",NA,NA,NA,NA,NA,NA,NA,NA,NA,NA,NA,NA,NA,NA,NA,"KQFU 011220Z AUTO 36001KT 9999 CLR 09/04 A3022 RMK A02 TSNO"
"1265","QFU",2019-11-01 12:30:00,126.9667,37.8,48.2,39.2,70.88,140,1,0,30.22,NA,6.21,NA,"CLR",NA,NA,NA,NA,NA,NA,NA,NA,NA,NA,NA,NA,NA,NA,NA,"KQFU 011230Z AUTO 14001KT 9999 CLR 09/04 A3022 RMK A02 TSNO"
"1266","QFU",2019-11-01 12:40:00,126.9667,37.8,48.2,39.2,70.88,220,1,0,30.22,NA,6.21,NA,"CLR",NA,NA,NA,NA,NA,NA,NA,NA,NA,NA,NA,NA,NA,NA,NA,"KQFU 011240Z AUTO 22001KT 9999 CLR 09/04 A3022 RMK A02 TSNO"
"1267","QFU",2019-11-01 12:50:00,126.9667,37.8,48.2,39.2,70.88,260,1,0,30.22,NA,6.21,NA,"CLR",NA,NA,NA,NA,NA,NA,NA,NA,NA,NA,NA,NA,NA,NA,NA,"KQFU 011250Z AUTO 26001KT 9999 CLR 09/04 A3022 RMK A02 TSNO"
"1268","QFU",2019-11-01 13:00:00,126.9667,37.8,48.2,39.2,70.88,0,0,0,30.22,NA,6.21,NA,"CLR",NA,NA,NA,NA,NA,NA,NA,NA,NA,NA,NA,NA,NA,NA,NA,"KQFU 011300Z AUTO 00000KT 9999 CLR 09/04 A3022 RMK A02 TSNO"
"1269","QFU",2019-11-01 13:10:00,126.9667,37.8,48.2,39.2,70.88,230,1,0,30.22,NA,6.21,NA,"CLR",NA,NA,NA,NA,NA,NA,NA,NA,NA,NA,NA,NA,NA,NA,NA,"KQFU 011310Z AUTO 23001KT 9999 CLR 09/04 A3022 RMK A02 TSNO"
"1270","QFU",2019-11-01 13:20:00,126.9667,37.8,46.4,39.2,75.84,240,1,0,30.23,NA,6.21,NA,"CLR",NA,NA,NA,NA,NA,NA,NA,NA,NA,NA,NA,NA,NA,NA,NA,"KQFU 011320Z AUTO 24001KT 9999 CLR 08/04 A3023 RMK A02 TSNO"
"1271","QFU",2019-11-01 13:30:00,126.9667,37.8,48.2,39.2,70.88,340,1,0,30.23,NA,6.21,NA,"CLR",NA,NA,NA,NA,NA,NA,NA,NA,NA,NA,NA,NA,NA,NA,NA,"KQFU 011330Z AUTO 34001KT 9999 CLR 09/04 A3023 RMK A02 TSNO"
"1272","QFU",2019-11-01 13:40:00,126.9667,37.8,48.2,37.4,66.05,300,1,0,30.23,NA,6.21,NA,"CLR",NA,NA,NA,NA,NA,NA,NA,NA,NA,NA,NA,NA,NA,NA,NA,"KQFU 011340Z AUTO 30001KT 9999 CLR 09/03 A3023 RMK A02 TSNO"
"1273","QFU",2019-11-01 13:50:00,126.9667,37.8,48.2,39.2,70.88,50,1,0,30.23,NA,6.21,NA,"CLR",NA,NA,NA,NA,NA,NA,NA,NA,NA,NA,NA,NA,NA,NA,NA,"KQFU 011350Z AUTO 05001KT 9999 CLR 09/04 A3023 RMK A02 TSNO"
"1274","QFU",2019-11-01 14:00:00,126.9667,37.8,46.4,41,81.34,70,2,0,30.23,NA,6.21,NA,"CLR",NA,NA,NA,NA,NA,NA,NA,NA,NA,NA,NA,NA,NA,NA,NA,"KQFU 011400Z AUTO 07002KT 9999 CLR 08/05 A3023 RMK A02 TSNO"
"1275","QFU",2019-11-01 14:10:00,126.9667,37.8,46.4,41,81.34,330,2,0,30.23,NA,6.21,NA,"CLR",NA,NA,NA,NA,NA,NA,NA,NA,NA,NA,NA,NA,NA,NA,NA,"KQFU 011410Z AUTO 33002KT 9999 CLR 08/05 A3023 RMK A02 TSNO"
"1276","QFU",2019-11-01 14:20:00,126.9667,37.8,46.4,42.8,87.19,340,3,0,30.23,NA,6.21,NA,"CLR",NA,NA,NA,NA,NA,NA,NA,NA,NA,NA,NA,NA,NA,NA,45.15,"KQFU 011420Z AUTO 34003KT 9999 CLR 08/06 A3023 RMK A02 TSNO"
"1277","QFU",2019-11-01 14:30:00,126.9667,37.8,46.4,41,81.34,20,2,0,30.23,NA,6.21,NA,"CLR",NA,NA,NA,NA,NA,NA,NA,NA,NA,NA,NA,NA,NA,NA,NA,"KQFU 011430Z AUTO 02002KT 9999 CLR 08/05 A3023 RMK A02 TSNO"
"1278","QFU",2019-11-01 14:40:00,126.9667,37.8,46.4,41,81.34,140,1,0,30.23,NA,5.59,NA,"CLR",NA,NA,NA,NA,NA,NA,NA,"HZ",NA,NA,NA,NA,NA,NA,NA,"KQFU 011440Z AUTO 14001KT 9000 HZ CLR 08/05 A3023 RMK A02 TSNO"
"1279","QFU",2019-11-01 14:50:00,126.9667,37.8,44.6,42.8,93.35,350,1,0,30.23,NA,6.21,NA,"CLR",NA,NA,NA,NA,NA,NA,NA,NA,NA,NA,NA,NA,NA,NA,NA,"KQFU 011450Z AUTO 35001KT 9999 CLR 07/06 A3023 RMK A02 TSNO"
"1280","QFU",2019-11-01 15:00:00,126.9667,37.8,44.6,41,87.09,190,1,0,30.23,NA,6.21,NA,"CLR",NA,NA,NA,NA,NA,NA,NA,NA,NA,NA,NA,NA,NA,NA,NA,"KQFU 011500Z AUTO 19001KT 9999 CLR 07/05 A3023 RMK A02 TSNO"
"1281","QFU",2019-11-01 15:10:00,126.9667,37.8,44.6,42.8,93.35,190,1,0,30.23,NA,5.59,NA,"CLR",NA,NA,NA,NA,NA,NA,NA,NA,NA,NA,NA,NA,NA,NA,NA,"KQFU 011510Z AUTO 19001KT 9000 CLR 07/06 A3023 RMK A02 TSNO"
"1282","QFU",2019-11-01 15:20:00,126.9667,37.8,44.6,41,87.09,250,1,0,30.23,NA,6.21,NA,"CLR",NA,NA,NA,NA,NA,NA,NA,NA,NA,NA,NA,NA,NA,NA,NA,"KQFU 011520Z AUTO 25001KT 9999 CLR 07/05 A3023 RMK A02 TSNO"
"1283","QFU",2019-11-01 15:30:00,126.9667,37.8,44.6,39.2,81.2,230,1,0,30.22,NA,6.21,NA,"CLR",NA,NA,NA,NA,NA,NA,NA,NA,NA,NA,NA,NA,NA,NA,NA,"KQFU 011530Z AUTO 23001KT 9999 CLR 07/04 A3022 RMK A02 TSNO"
"1284","QFU",2019-11-01 15:40:00,126.9667,37.8,44.6,39.2,81.2,210,1,0,30.22,NA,6.21,NA,"CLR",NA,NA,NA,NA,NA,NA,NA,NA,NA,NA,NA,NA,NA,NA,NA,"KQFU 011540Z AUTO 21001KT 9999 CLR 07/04 A3022 RMK A02 TSNO"
"1285","QFU",2019-11-01 15:50:00,126.9667,37.8,44.6,41,87.09,240,1,0,30.22,NA,6.21,NA,"CLR",NA,NA,NA,NA,NA,NA,NA,NA,NA,NA,NA,NA,NA,NA,NA,"KQFU 011550Z AUTO 24001KT 9999 CLR 07/05 A3022 RMK A02 TSNO"
"1286","QFU",2019-11-01 16:00:00,126.9667,37.8,44.6,39.2,81.2,0,0,0,30.22,NA,6.21,NA,"CLR",NA,NA,NA,NA,NA,NA,NA,NA,NA,NA,NA,NA,NA,NA,NA,"KQFU 011600Z AUTO 00000KT 9999 CLR 07/04 A3022 RMK A02 TSNO"
"1287","QFU",2019-11-01 16:10:00,126.9667,37.8,44.6,39.2,81.2,280,1,0,30.22,NA,6.21,NA,"CLR",NA,NA,NA,NA,NA,NA,NA,NA,NA,NA,NA,NA,NA,NA,NA,"KQFU 011610Z AUTO 28001KT 9999 CLR 07/04 A3022 RMK A02 TSNO"
"1288","QFU",2019-11-01 16:20:00,126.9667,37.8,42.8,39.2,86.99,0,0,0,30.22,NA,6.21,NA,"CLR",NA,NA,NA,NA,NA,NA,NA,NA,NA,NA,NA,NA,NA,NA,NA,"KQFU 011620Z AUTO 00000KT 9999 CLR 06/04 A3022 RMK A02 TSNO"
"1289","QFU",2019-11-01 16:30:00,126.9667,37.8,44.6,41,87.09,350,2,0,30.22,NA,5.59,NA,"CLR",NA,NA,NA,NA,NA,NA,NA,NA,NA,NA,NA,NA,NA,NA,NA,"KQFU 011630Z AUTO 35002KT 9000 CLR 07/05 A3022 RMK A02 TSNO"
"1290","QFU",2019-11-01 16:40:00,126.9667,37.8,42.8,41,93.3,80,1,0,30.22,NA,4.97,NA,"CLR",NA,NA,NA,NA,NA,NA,NA,NA,NA,NA,NA,NA,NA,NA,NA,"KQFU 011640Z AUTO 08001KT 8000 CLR 06/05 A3022 RMK A02 TSNO"
"1291","QFU",2019-11-01 16:50:00,126.9667,37.8,42.8,41,93.3,150,1,0,30.22,NA,4.97,NA,"CLR",NA,NA,NA,NA,NA,NA,NA,NA,NA,NA,NA,NA,NA,NA,NA,"KQFU 011650Z AUTO 15001KT 8000 CLR 06/05 A3022 RMK A02 TSNO"
"1292","QFU",2019-11-01 17:00:00,126.9667,37.8,42.8,41,93.3,0,0,0,30.22,NA,4.97,NA,"CLR",NA,NA,NA,NA,NA,NA,NA,NA,NA,NA,NA,NA,NA,NA,NA,"KQFU 011700Z AUTO 00000KT 8000 CLR 06/05 A3022 RMK A02 TSNO"
"1293","QFU",2019-11-01 17:10:00,126.9667,37.8,42.8,41,93.3,250,1,0,30.22,NA,4.97,NA,"CLR",NA,NA,NA,NA,NA,NA,NA,NA,NA,NA,NA,NA,NA,NA,NA,"KQFU 011710Z AUTO 25001KT 8000 CLR 06/05 A3022 RMK A02 TSNO"
"1294","QFU",2019-11-01 17:20:00,126.9667,37.8,42.8,41,93.3,280,1,0,30.22,NA,3.73,NA,"CLR",NA,NA,NA,NA,NA,NA,NA,NA,NA,NA,NA,NA,NA,NA,NA,"KQFU 011720Z AUTO 28001KT 6000 CLR 06/05 A3022 RMK A02 TSNO"
"1295","QFU",2019-11-01 17:30:00,126.9667,37.8,42.8,41,93.3,0,0,0,30.22,NA,3.73,NA,"CLR",NA,NA,NA,NA,NA,NA,NA,NA,NA,NA,NA,NA,NA,NA,NA,"KQFU 011730Z AUTO 00000KT 6000 CLR 06/05 A3022 RMK A02 TSNO"
"1296","QFU",2019-11-01 17:40:00,126.9667,37.8,42.8,41,93.3,0,0,0,30.22,NA,3.73,NA,"CLR",NA,NA,NA,NA,NA,NA,NA,NA,NA,NA,NA,NA,NA,NA,NA,"KQFU 011740Z AUTO 00000KT 6000 CLR 06/05 A3022 RMK A02 TSNO"
"1297","QFU",2019-11-01 17:50:00,126.9667,37.8,42.8,41,93.3,350,1,0,30.22,NA,3.73,NA,"CLR",NA,NA,NA,NA,NA,NA,NA,NA,NA,NA,NA,NA,NA,NA,NA,"KQFU 011750Z AUTO 35001KT 6000 CLR 06/05 A3022 RMK A02 TSNO"
"1298","QFU",2019-11-01 18:00:00,126.9667,37.8,42.8,42.8,100,0,0,0,30.22,NA,3.73,NA,"CLR",NA,NA,NA,NA,NA,NA,NA,NA,NA,NA,NA,NA,NA,NA,NA,"KQFU 011800Z AUTO 00000KT 6000 CLR 06/06 A3022 RMK A02 TSNO"
"1299","QFU",2019-11-01 18:10:00,126.9667,37.8,41,41,100,0,0,0,30.22,NA,3.73,NA,"CLR",NA,NA,NA,NA,NA,NA,NA,NA,NA,NA,NA,NA,NA,NA,NA,"KQFU 011810Z AUTO 00000KT 6000 CLR 05/05 A3022 RMK A02 TSNO"
"1300","QFU",2019-11-01 18:20:00,126.9667,37.8,41,41,100,140,1,0,30.23,NA,3.73,NA,"CLR",NA,NA,NA,NA,NA,NA,NA,NA,NA,NA,NA,NA,NA,NA,NA,"KQFU 011820Z AUTO 14001KT 6000 CLR 05/05 A3023 RMK A02 TSNO"
"1301","QFU",2019-11-01 18:30:00,126.9667,37.8,41,41,100,200,1,0,30.22,NA,2.98,NA,"CLR",NA,NA,NA,NA,NA,NA,NA,NA,NA,NA,NA,NA,NA,NA,NA,"KQFU 011830Z AUTO 20001KT 4800 CLR 05/05 A3022 RMK A02 TSNO"
"1302","QFU",2019-11-01 18:40:00,126.9667,37.8,41,41,100,170,1,0,30.22,NA,2.98,NA,"CLR",NA,NA,NA,NA,NA,NA,NA,"BR",NA,NA,NA,NA,NA,NA,NA,"KQFU 011840Z AUTO 17001KT 4800 BR CLR 05/05 A3022 RMK A02 TSNO"
"1303","QFU",2019-11-01 18:50:00,126.9667,37.8,42.8,41,93.3,250,1,0,30.22,NA,2.98,NA,"CLR",NA,NA,NA,NA,NA,NA,NA,NA,NA,NA,NA,NA,NA,NA,NA,"KQFU 011850Z AUTO 25001KT 4800 CLR 06/05 A3022 RMK A02 TSNO"
"1304","QFU",2019-11-01 19:00:00,126.9667,37.8,41,41,100,150,1,0,30.22,NA,2.98,NA,"CLR",NA,NA,NA,NA,NA,NA,NA,NA,NA,NA,NA,NA,NA,NA,NA,"KQFU 011900Z AUTO 15001KT 4800 CLR 05/05 A3022 RMK A02 TSNO"
"1305","QFU",2019-11-01 19:10:00,126.9667,37.8,41,41,100,0,0,0,30.22,NA,2.98,NA,"CLR",NA,NA,NA,NA,NA,NA,NA,NA,NA,NA,NA,NA,NA,NA,NA,"KQFU 011910Z AUTO 00000KT 4800 CLR 05/05 A3022 RMK A02 TSNO"
"1306","QFU",2019-11-01 19:20:00,126.9667,37.8,41,41,100,130,1,0,30.22,NA,2.98,NA,"CLR",NA,NA,NA,NA,NA,NA,NA,NA,NA,NA,NA,NA,NA,NA,NA,"KQFU 011920Z AUTO 13001KT 4800 CLR 05/05 A3022 RMK A02 TSNO"
"1307","QFU",2019-11-01 19:30:00,126.9667,37.8,41,41,100,190,1,0,30.22,NA,2.98,NA,"CLR",NA,NA,NA,NA,NA,NA,NA,NA,NA,NA,NA,NA,NA,NA,NA,"KQFU 011930Z AUTO 19001KT 4800 CLR 05/05 A3022 RMK A02 TSNO"
"1308","QFU",2019-11-01 19:40:00,126.9667,37.8,41,41,100,210,1,0,30.21,NA,2.98,NA,"CLR",NA,NA,NA,NA,NA,NA,NA,NA,NA,NA,NA,NA,NA,NA,NA,"KQFU 011940Z AUTO 21001KT 4800 CLR 05/05 A3021 RMK A02 TSNO"
"1309","QFU",2019-11-01 19:50:00,126.9667,37.8,41,41,100,0,0,0,30.21,NA,2.98,NA,"CLR",NA,NA,NA,NA,NA,NA,NA,NA,NA,NA,NA,NA,NA,NA,NA,"KQFU 011950Z AUTO 00000KT 4800 CLR 05/05 A3021 RMK A02 TSNO"
"1310","QFU",2019-11-01 20:00:00,126.9667,37.8,41,41,100,290,1,0,30.21,NA,3.73,NA,"CLR",NA,NA,NA,NA,NA,NA,NA,NA,NA,NA,NA,NA,NA,NA,NA,"KQFU 012000Z AUTO 29001KT 6000 CLR 05/05 A3021 RMK A02 TSNO"
"1311","QFU",2019-11-01 20:10:00,126.9667,37.8,41,41,100,0,0,0,30.21,NA,2.98,NA,"CLR",NA,NA,NA,NA,NA,NA,NA,NA,NA,NA,NA,NA,NA,NA,NA,"KQFU 012010Z AUTO 00000KT 4800 CLR 05/05 A3021 RMK A02 TSNO"
"1312","QFU",2019-11-01 20:20:00,126.9667,37.8,41,42.8,NA,360,2,0,30.21,NA,2.98,NA,"CLR",NA,NA,NA,NA,NA,NA,NA,NA,NA,NA,NA,NA,NA,NA,NA,"KQFU 012020Z AUTO 36002KT 4800 CLR 05/06 A3021 RMK A02 TSNO"
"1313","QFU",2019-11-01 20:30:00,126.9667,37.8,41,42.8,NA,0,0,0,30.21,NA,2.98,NA,"CLR",NA,NA,NA,NA,NA,NA,NA,NA,NA,NA,NA,NA,NA,NA,NA,"KQFU 012030Z AUTO 00000KT 4800 CLR 05/06 A3021 RMK A02 TSNO"
"1314","QFU",2019-11-01 20:40:00,126.9667,37.8,41,41,100,0,0,0,30.21,NA,2.98,NA,"CLR",NA,NA,NA,NA,NA,NA,NA,NA,NA,NA,NA,NA,NA,NA,NA,"KQFU 012040Z AUTO 00000KT 4800 CLR 05/05 A3021 RMK A02 TSNO"
"1315","QFU",2019-11-01 20:50:00,126.9667,37.8,41,41,100,220,1,0,30.21,NA,2.98,NA,"CLR",NA,NA,NA,NA,NA,NA,NA,NA,NA,NA,NA,NA,NA,NA,NA,"KQFU 012050Z AUTO 22001KT 4800 CLR 05/05 A3021 RMK A02 TSNO"
"1316","QFU",2019-11-01 21:00:00,126.9667,37.8,41,41,100,0,0,0,30.21,NA,2.98,NA,"CLR",NA,NA,NA,NA,NA,NA,NA,NA,NA,NA,NA,NA,NA,NA,NA,"KQFU 012100Z AUTO 00000KT 4800 CLR 05/05 A3021 RMK A02 TSNO"
"1317","QFU",2019-11-01 21:10:00,126.9667,37.8,39.2,41,NA,20,1,0,30.21,NA,1.99,NA,"FEW",NA,NA,NA,800,NA,NA,NA,"BR",NA,NA,NA,NA,NA,NA,NA,"KQFU 012110Z AUTO 02001KT 3200 BR FEW008 04/05 A3021 RMK A02 TSNO"
"1318","QFU",2019-11-01 21:20:00,126.9667,37.8,39.2,41,NA,0,0,0,30.21,NA,1.74,NA,"FEW",NA,NA,NA,800,NA,NA,NA,"BR",NA,NA,NA,NA,NA,NA,NA,"KQFU 012120Z AUTO 00000KT 2800 BR FEW008 04/05 A3021 RMK A02 TSNO"
"1319","QFU",2019-11-01 21:30:00,126.9667,37.8,39.2,41,NA,170,1,0,30.21,NA,2.49,NA,"FEW",NA,NA,NA,800,NA,NA,NA,"BR",NA,NA,NA,NA,NA,NA,NA,"KQFU 012130Z AUTO 17001KT 4000 BR FEW008 04/05 A3021 RMK A02 TSNO"
"1320","QFU",2019-11-01 21:40:00,126.9667,37.8,39.2,42.8,NA,210,1,0,30.21,NA,2.49,NA,"CLR",NA,NA,NA,NA,NA,NA,NA,"BR",NA,NA,NA,NA,NA,NA,NA,"KQFU 012140Z AUTO 21001KT 4000 BR CLR 04/06 A3021 RMK A02 TSNO"
"1321","QFU",2019-11-01 21:50:00,126.9667,37.8,39.2,42.8,NA,220,1,0,30.21,NA,2.49,NA,"CLR",NA,NA,NA,NA,NA,NA,NA,"BR",NA,NA,NA,NA,NA,NA,NA,"KQFU 012150Z AUTO 22001KT 4000 BR CLR 04/06 A3021 RMK A02 TSNO"
"1322","QFU",2019-11-01 22:00:00,126.9667,37.8,41,42.8,NA,260,1,0,30.21,NA,2.49,NA,"CLR",NA,NA,NA,NA,NA,NA,NA,"BR",NA,NA,NA,NA,NA,NA,NA,"KQFU 012200Z AUTO 26001KT 4000 BR CLR 05/06 A3021 RMK A02 TSNO"
"1323","QFU",2019-11-01 22:10:00,126.9667,37.8,41,42.8,NA,360,1,0,30.22,NA,2.49,NA,"CLR",NA,NA,NA,NA,NA,NA,NA,"BR",NA,NA,NA,NA,NA,NA,NA,"KQFU 012210Z AUTO 36001KT 4000 BR CLR 05/06 A3022 RMK A02 TSNO"
"1324","QFU",2019-11-01 22:20:00,126.9667,37.8,41,42.8,NA,10,1,0,30.22,NA,2.49,NA,"CLR",NA,NA,NA,NA,NA,NA,NA,"BR",NA,NA,NA,NA,NA,NA,NA,"KQFU 012220Z AUTO 01001KT 4000 BR CLR 05/06 A3022 RMK A02 TSNO"
"1325","QFU",2019-11-01 22:30:00,126.9667,37.8,41,41,100,140,1,0,30.22,NA,2.49,NA,"CLR",NA,NA,NA,NA,NA,NA,NA,"BR",NA,NA,NA,NA,NA,NA,NA,"KQFU 012230Z AUTO 14001KT 4000 BR CLR 05/05 A3022 RMK A02 TSNO"
"1326","QFU",2019-11-01 22:40:00,126.9667,37.8,41,42.8,NA,0,0,0,30.23,NA,1.49,NA,"CLR",NA,NA,NA,NA,NA,NA,NA,"BR",NA,NA,NA,NA,NA,NA,NA,"KQFU 012240Z AUTO 00000KT 2400 BR CLR 05/06 A3023 RMK A02 TSNO"
"1327","QFU",2019-11-01 22:50:00,126.9667,37.8,41,41,100,170,1,0,30.23,NA,1.24,NA,"CLR",NA,NA,NA,NA,NA,NA,NA,"BR",NA,NA,NA,NA,NA,NA,NA,"KQFU 012250Z AUTO 17001KT 2000 BR CLR 05/05 A3023 RMK A02 TSNO"
"1328","QFU",2019-11-01 23:00:00,126.9667,37.8,41,42.8,NA,140,1,0,30.23,NA,1.99,NA,"CLR",NA,NA,NA,NA,NA,NA,NA,"BR",NA,NA,NA,NA,NA,NA,NA,"KQFU 012300Z AUTO 14001KT 3200 BR CLR 05/06 A3023 RMK A02 TSNO"
"1329","QFU",2019-11-01 23:10:00,126.9667,37.8,42.8,42.8,100,160,1,0,30.23,NA,2.49,NA,"CLR",NA,NA,NA,NA,NA,NA,NA,"BR",NA,NA,NA,NA,NA,NA,NA,"KQFU 012310Z AUTO 16001KT 4000 BR CLR 06/06 A3023 RMK A02 TSNO"
"1330","QFU",2019-11-01 23:20:00,126.9667,37.8,42.8,42.8,100,160,1,0,30.23,NA,2.49,NA,"CLR",NA,NA,NA,NA,NA,NA,NA,"BR",NA,NA,NA,NA,NA,NA,NA,"KQFU 012320Z AUTO 16001KT 4000 BR CLR 06/06 A3023 RMK A02 TSNO"
"1331","QFU",2019-11-01 23:30:00,126.9667,37.8,44.6,42.8,93.35,140,1,0,30.23,NA,2.49,NA,"CLR",NA,NA,NA,NA,NA,NA,NA,"BR",NA,NA,NA,NA,NA,NA,NA,"KQFU 012330Z AUTO 14001KT 4000 BR CLR 07/06 A3023 RMK A02 TSNO"
"1332","QFU",2019-11-01 23:40:00,126.9667,37.8,44.6,42.8,93.35,130,1,0,30.23,NA,1.99,NA,"CLR",NA,NA,NA,NA,NA,NA,NA,"BR",NA,NA,NA,NA,NA,NA,NA,"KQFU 012340Z AUTO 13001KT 3200 BR CLR 07/06 A3023 RMK A02 TSNO"
"1333","RKSD",2019-11-01 00:39:00,127.2667,37.35,55.4,53.6,93.65,0,0,0,30.2,NA,0.06,NA,"SCT","BKN",NA,NA,0,100,NA,NA,"FG",NA,NA,NA,NA,NA,NA,NA,"RKSD 010039Z 00000KT 0100 FG SCT000 BKN001 13/12 A3020 RMK CIG001 FG SCT000"
"1334","RKSD",2019-11-01 00:49:00,127.2667,37.35,55.4,55.4,100,210,1,0,30.2,NA,0.25,NA,"SCT","SCT","BKN",NA,0,100,1000,NA,"FG",NA,NA,NA,NA,NA,NA,NA,"RKSD 010049Z 21001KT 0400 FG SCT000 SCT001 BKN010 13/13 A3020 RMK CIG010 FG SCT000"
"1335","RKSD",2019-11-01 01:04:00,127.2667,37.35,57.2,57.2,100,210,1,0,30.2,NA,0.99,NA,"FEW","BKN",NA,NA,0,1000,NA,NA,"BR",NA,NA,NA,NA,NA,NA,NA,"RKSD 010104Z 21001KT 1600 BR FEW000 BKN010 14/14 A3020 RMK CIG010 FG FEW000"
"1336","RKSD",2019-11-01 01:15:00,127.2667,37.35,57.2,57.2,100,90,1,0,30.2,NA,1.49,NA,"FEW","BKN",NA,NA,0,2000,NA,NA,"BR",NA,NA,NA,NA,NA,NA,NA,"RKSD 010115Z 09001KT 2400 BR FEW000 BKN020 14/14 A3020 RMK CIG020 FG FEW000"
"1337","RKSD",2019-11-01 01:21:00,127.2667,37.35,57.2,57.2,100,70,1,0,30.2,NA,1.99,NA,"FEW","SCT",NA,NA,0,2000,NA,NA,"BR",NA,NA,NA,NA,NA,NA,NA,"RKSD 010121Z 07001KT 3200 BR FEW000 SCT020 14/14 A3020 RMK FG FEW000"
"1338","RKSD",2019-11-01 01:31:00,127.2667,37.35,59,55.4,87.83,270,1,0,30.2,NA,2.98,NA,"SCT",NA,NA,NA,2000,NA,NA,NA,"BR",NA,NA,NA,NA,NA,NA,NA,"RKSD 010131Z 27001KT 4800 BR SCT020 15/13 A3020"
"1339","RKJB",2019-11-01 00:00:00,126.38,34.98,57.2,57.2,100,100,4,0,30.21,NA,1.37,NA,"FEW","SCT",NA,NA,600,2500,NA,NA,"BR",NA,NA,NA,NA,NA,NA,NA,"RKJB 010000Z 10004KT 2200 BR FEW006 SCT025 14/14 Q1023 BECMG 4200"
"1340","RKJB",2019-11-01 01:00:00,126.38,34.98,62.6,62.6,100,120,1,0,30.21,NA,2.05,NA,"FEW",NA,NA,NA,2000,NA,NA,NA,"BR",NA,NA,NA,NA,NA,NA,NA,"RKJB 010100Z 12001KT 3300 BR FEW020 17/17 Q1023 NOSIG"
"1341","RKJB",2019-11-01 02:00:00,126.38,34.98,64.4,62.6,93.88,280,2,0,30.21,NA,2.17,NA,"SCT",NA,NA,NA,2000,NA,NA,NA,"DU BR",NA,NA,NA,NA,NA,NA,NA,"RKJB 010200Z 28002KT 3500 DU BR SCT020 18/17 Q1023 NOSIG"
"1342","RKJB",2019-11-01 03:00:00,126.38,34.98,66.2,60.8,82.74,320,4,0,30.18,NA,2.8,NA,"SCT",NA,NA,NA,2000,NA,NA,NA,"DU BR",NA,NA,NA,NA,NA,NA,NA,"RKJB 010300Z 32004KT 270V010 4500 DU BR SCT020 19/16 Q1022 NOSIG"
"1343","RKJB",2019-11-01 03:21:00,126.38,34.98,68,59,72.92,330,4,0,30.18,NA,3.11,NA,"SCT",NA,NA,NA,2000,NA,NA,NA,"DU BR",NA,NA,NA,NA,NA,NA,NA,"RKJB 010321Z 33004KT 300V360 5000 DU BR SCT020 20/15 Q1022 NOSIG"
"1344","RKJB",2019-11-01 04:00:00,126.38,34.98,68,57.2,68.35,310,6,0,30.15,NA,3.11,NA,"SCT",NA,NA,NA,2000,NA,NA,NA,"DU BR",NA,NA,NA,NA,NA,NA,NA,"RKJB 010400Z 31006KT 5000 DU BR SCT020 20/14 Q1021 NOSIG"
"1345","RKJB",2019-11-01 05:00:00,126.38,34.98,68,59,72.92,330,11,0,30.15,NA,3.11,NA,"SCT",NA,NA,NA,2000,NA,NA,NA,"DU BR",NA,NA,NA,NA,NA,NA,NA,"RKJB 010500Z 33011KT 5000 DU BR SCT020 20/15 Q1021 NOSIG"
"1346","RKJB",2019-11-01 06:00:00,126.38,34.98,68,59,72.92,320,10,0,30.15,NA,3.11,NA,"FEW",NA,NA,NA,2000,NA,NA,NA,"DU BR",NA,NA,NA,NA,NA,NA,NA,"RKJB 010600Z 32010KT 5000 DU BR FEW020 20/15 Q1021 NOSIG"
"1347","RKJB",2019-11-01 07:00:00,126.38,34.98,66.2,60.8,82.74,330,11,0,30.15,NA,3.11,NA,"FEW",NA,NA,NA,2000,NA,NA,NA,"DU BR",NA,NA,NA,NA,NA,NA,NA,"RKJB 010700Z 33011KT 5000 DU BR FEW020 19/16 Q1021 NOSIG"
"1348","RKJB",2019-11-01 08:00:00,126.38,34.98,64.4,57.2,77.45,340,10,0,30.15,NA,3.11,NA,"FEW","SCT",NA,NA,2000,24000,NA,NA,"DU BR",NA,NA,NA,NA,NA,NA,NA,"RKJB 010800Z 34010KT 5000 DU BR FEW020 SCT240 18/14 Q1021 NOSIG"
"1349","RKJB",2019-11-01 09:00:00,126.38,34.98,62.6,53.6,72.38,340,9,0,30.15,NA,6.21,NA,"FEW","SCT",NA,NA,3000,24000,NA,NA,NA,NA,NA,NA,NA,NA,NA,NA,"RKJB 010900Z 34009KT 9999 FEW030 SCT240 17/12 Q1021 NOSIG"
"1350","RKJB",2019-11-01 10:00:00,126.38,34.98,57.2,51.8,82.12,350,7,0,30.15,NA,6.21,NA,"FEW","SCT",NA,NA,3000,24000,NA,NA,NA,NA,NA,NA,NA,NA,NA,NA,"RKJB 011000Z 35007KT 9999 FEW030 SCT240 14/11 Q1021 NOSIG"
"1351","RKJB",2019-11-01 11:00:00,126.38,34.98,55.4,48.2,76.66,40,5,0,30.15,NA,6.21,NA,"FEW","SCT",NA,NA,3000,24000,NA,NA,NA,NA,NA,NA,NA,NA,NA,NA,"RKJB 011100Z 04005KT 010V130 9999 FEW030 SCT240 13/09 Q1021 NOSIG"
"1352","RKJB",2019-11-01 12:00:00,126.38,34.98,55.4,50,81.99,90,4,0,30.15,NA,6.21,NA,NA,NA,NA,NA,NA,NA,NA,NA,NA,NA,NA,NA,NA,NA,NA,NA,"RKJB 011200Z 09004KT CAVOK 13/10 Q1021 NOSIG"
"1353","RKJB",2019-11-01 13:00:00,126.38,34.98,53.6,50,87.56,80,3,0,30.15,NA,6.21,NA,NA,NA,NA,NA,NA,NA,NA,NA,NA,NA,NA,NA,NA,NA,NA,NA,"RKJB 011300Z 08003KT 030V100 CAVOK 12/10 Q1021 NOSIG"
"1354","RKJB",2019-11-01 14:00:00,126.38,34.98,50,48.2,93.5,90,5,0,30.15,NA,6.21,NA,"NCD",NA,NA,NA,NA,NA,NA,NA,NA,NA,NA,NA,NA,NA,NA,47.77,"RKJB 011400Z AUTO 09005KT 9999 NCD 10/09 Q1021"
"1355","RKJB",2019-11-01 15:00:00,126.38,34.98,50,48.2,93.5,80,4,0,30.15,NA,6.21,NA,"NCD",NA,NA,NA,NA,NA,NA,NA,NA,NA,NA,NA,NA,NA,NA,48.44,"RKJB 011500Z AUTO 08004KT 9999 NCD 10/09 Q1021"
"1356","RKJB",2019-11-01 16:00:00,126.38,34.98,50,46.4,87.37,100,3,0,30.18,NA,4.97,NA,"NCD",NA,NA,NA,NA,NA,NA,NA,NA,NA,NA,NA,NA,NA,NA,49.27,"RKJB 011600Z AUTO 10003KT 070V130 8000 NCD 10/08 Q1022"
"1357","RKJB",2019-11-01 17:00:00,126.38,34.98,48.2,48.2,100,90,5,0,30.18,NA,6.21,NA,"NCD",NA,NA,NA,NA,NA,NA,NA,NA,NA,NA,NA,NA,NA,NA,45.63,"RKJB 011700Z AUTO 09005KT 9999 NCD 09/09 Q1022"
"1358","RKJB",2019-11-01 18:00:00,126.38,34.98,48.2,48.2,100,90,5,0,30.15,NA,6.21,NA,"NCD",NA,NA,NA,NA,NA,NA,NA,NA,NA,NA,NA,NA,NA,NA,45.63,"RKJB 011800Z AUTO 09005KT 9999 NCD 09/09 Q1021"
"1359","RKJB",2019-11-01 19:00:00,126.38,34.98,48.2,48.2,100,90,6,0,30.15,NA,6.21,NA,"NCD",NA,NA,NA,NA,NA,NA,NA,NA,NA,NA,NA,NA,NA,NA,45.04,"RKJB 011900Z AUTO 09006KT 9999 NCD 09/09 Q1021"
"1360","RKJB",2019-11-01 20:00:00,126.38,34.98,48.2,48.2,100,90,6,0,30.15,NA,4.35,NA,"NSC",NA,NA,NA,NA,NA,NA,NA,NA,NA,NA,NA,NA,NA,NA,45.04,"RKJB 012000Z 09006KT 7000 NSC 09/09 Q1021 NOSIG"
"1361","RKJB",2019-11-01 21:00:00,126.38,34.98,50,50,100,100,6,0,30.15,NA,4.35,NA,"NSC",NA,NA,NA,NA,NA,NA,NA,NA,NA,NA,NA,NA,NA,NA,47.21,"RKJB 012100Z 10006KT 7000 NSC 10/10 Q1021 NOSIG"
"1362","RKJB",2019-11-01 22:00:00,126.38,34.98,50,48.2,93.5,80,4,0,30.15,NA,3.73,NA,"NSC",NA,NA,NA,NA,NA,NA,NA,NA,NA,NA,NA,NA,NA,NA,48.44,"RKJB 012200Z 08004KT 6000 NSC 10/09 Q1021 NOSIG"
"1363","RKJB",2019-11-01 23:00:00,126.38,34.98,51.8,50,93.55,80,4,0,30.15,NA,3.73,NA,"NSC",NA,NA,NA,NA,NA,NA,NA,NA,NA,NA,NA,NA,NA,NA,NA,"RKJB 012300Z 08004KT 6000 NSC 11/10 Q1021 NOSIG"
"1364","QEQ",2019-11-01 00:00:00,127.55,37.85,50,50,100,80,2,0,30.25,NA,0.99,NA,"BKN",NA,NA,NA,200,NA,NA,NA,"BR",NA,NA,NA,NA,NA,NA,NA,"KQEQ 010000Z AUTO 08002KT 1600 BR BKN002 10/10 A3025 RMK A02 TSNO"
"1365","QEQ",2019-11-01 00:10:00,127.55,37.85,50,50,100,210,1,0,30.25,NA,1.74,NA,"BKN",NA,NA,NA,200,NA,NA,NA,"BR",NA,NA,NA,NA,NA,NA,NA,"KQEQ 010010Z AUTO 21001KT 2800 BR BKN002 10/10 A3025 RMK A02 TSNO"
"1366","QEQ",2019-11-01 00:20:00,127.55,37.85,50,50,100,70,1,0,30.25,NA,1.99,NA,"SCT",NA,NA,NA,200,NA,NA,NA,"BR",NA,NA,NA,NA,NA,NA,NA,"KQEQ 010020Z AUTO 07001KT 3200 BR SCT002 10/10 A3025 RMK A02 TSNO"
"1367","QEQ",2019-11-01 00:30:00,127.55,37.85,51.8,51.8,100,70,1,0,30.24,NA,2.98,NA,"FEW",NA,NA,NA,400,NA,NA,NA,"BR",NA,NA,NA,NA,NA,NA,NA,"KQEQ 010030Z AUTO 07001KT 4800 BR FEW004 11/11 A3024 RMK A02 TSNO"
"1368","QEQ",2019-11-01 00:40:00,127.55,37.85,51.8,51.8,100,70,2,0,30.24,NA,3.73,NA,"FEW",NA,NA,NA,400,NA,NA,NA,NA,NA,NA,NA,NA,NA,NA,NA,"KQEQ 010040Z AUTO 07002KT 6000 FEW004 11/11 A3024 RMK A02 TSNO"
"1369","QEQ",2019-11-01 00:50:00,127.55,37.85,51.8,50,93.55,30,4,0,30.24,NA,5.59,NA,"CLR",NA,NA,NA,NA,NA,NA,NA,NA,NA,NA,NA,NA,NA,NA,NA,"KQEQ 010050Z AUTO 03004KT 9000 CLR 11/10 A3024 RMK A02 TSNO"
"1370","QEQ",2019-11-01 01:00:00,127.55,37.85,55.4,42.8,62.46,30,4,0,30.25,NA,6.21,NA,"CLR",NA,NA,NA,NA,NA,NA,NA,NA,NA,NA,NA,NA,NA,NA,NA,"KQEQ 010100Z AUTO 03004KT 9999 CLR 13/06 A3025 RMK A02 TSNO"
"1371","QEQ",2019-11-01 01:10:00,127.55,37.85,57.2,44.6,62.69,80,2,0,30.25,NA,6.21,NA,"CLR",NA,NA,NA,NA,NA,NA,NA,NA,NA,NA,NA,NA,NA,NA,NA,"KQEQ 010110Z AUTO 08002KT 9999 CLR 14/07 A3025 RMK A02 TSNO"
"1372","QEQ",2019-11-01 01:20:00,127.55,37.85,57.2,42.8,58.52,360,3,0,30.25,NA,6.21,NA,"CLR",NA,NA,NA,NA,NA,NA,NA,NA,NA,NA,NA,NA,NA,NA,NA,"KQEQ 010120Z AUTO 36003KT 9999 CLR 14/06 A3025 RMK A02 TSNO"
"1373","QEQ",2019-11-01 01:30:00,127.55,37.85,59,41,51.18,30,3,0,30.25,NA,6.21,NA,"CLR",NA,NA,NA,NA,NA,NA,NA,NA,NA,NA,NA,NA,NA,NA,NA,"KQEQ 010130Z AUTO 03003KT 9999 CLR 15/05 A3025 RMK A02 TSNO"
"1374","QEQ",2019-11-01 01:40:00,127.55,37.85,59,37.4,44.47,20,3,0,30.25,NA,6.21,NA,"CLR",NA,NA,NA,NA,NA,NA,NA,NA,NA,NA,NA,NA,NA,NA,NA,"KQEQ 010140Z AUTO 02003KT 9999 CLR 15/03 A3025 RMK A02 TSNO"
"1375","QEQ",2019-11-01 01:50:00,127.55,37.85,59,35.6,41.42,340,2,0,30.25,NA,6.21,NA,"CLR",NA,NA,NA,NA,NA,NA,NA,NA,NA,NA,NA,NA,NA,NA,NA,"KQEQ 010150Z AUTO 34002KT 9999 CLR 15/02 A3025 RMK A02 TSNO"
"1376","QEQ",2019-11-01 02:00:00,127.55,37.85,59,35.6,41.42,20,5,0,30.24,NA,6.21,NA,"CLR",NA,NA,NA,NA,NA,NA,NA,NA,NA,NA,NA,NA,NA,NA,NA,"KQEQ 010200Z AUTO 02005KT 9999 CLR 15/02 A3024 RMK A02 TSNO"
"1377","QEQ",2019-11-01 02:10:00,127.55,37.85,60.8,35.6,38.85,250,2,0,30.24,NA,6.21,NA,"CLR",NA,NA,NA,NA,NA,NA,NA,NA,NA,NA,NA,NA,NA,NA,NA,"KQEQ 010210Z AUTO 25002KT 9999 CLR 16/02 A3024 RMK A02 TSNO"
"1378","QEQ",2019-11-01 02:20:00,127.55,37.85,60.8,33.8,36.16,360,4,0,30.24,NA,6.21,NA,"CLR",NA,NA,NA,NA,NA,NA,NA,NA,NA,NA,NA,NA,NA,NA,NA,"KQEQ 010220Z AUTO 36004KT 9999 CLR 16/01 A3024 RMK A02 TSNO"
"1379","QEQ",2019-11-01 02:30:00,127.55,37.85,60.8,35.6,38.85,240,1,0,30.24,NA,6.21,NA,"CLR",NA,NA,NA,NA,NA,NA,NA,NA,NA,NA,NA,NA,NA,NA,NA,"KQEQ 010230Z AUTO 24001KT 9999 CLR 16/02 A3024 RMK A02 TSNO"
"1380","QEQ",2019-11-01 02:40:00,127.55,37.85,62.6,37.4,39.14,330,2,0,30.24,NA,6.21,NA,"CLR",NA,NA,NA,NA,NA,NA,NA,NA,NA,NA,NA,NA,NA,NA,NA,"KQEQ 010240Z AUTO 33002KT 9999 CLR 17/03 A3024 RMK A02 TSNO"
"1381","QEQ",2019-11-01 02:50:00,127.55,37.85,60.8,35.6,38.85,210,3,0,30.24,NA,6.21,NA,"CLR",NA,NA,NA,NA,NA,NA,NA,NA,NA,NA,NA,NA,NA,NA,NA,"KQEQ 010250Z AUTO 21003KT 9999 CLR 16/02 A3024 RMK A02 TSNO"
"1382","QEQ",2019-11-01 03:00:00,127.55,37.85,62.6,35.6,36.45,230,3,0,30.23,NA,6.21,NA,"CLR",NA,NA,NA,NA,NA,NA,NA,NA,NA,NA,NA,NA,NA,NA,NA,"KQEQ 010300Z AUTO 23003KT 9999 CLR 17/02 A3023 RMK A02 TSNO"
"1383","QEQ",2019-11-01 03:10:00,127.55,37.85,62.6,37.4,39.14,310,3,0,30.23,NA,6.21,NA,"CLR",NA,NA,NA,NA,NA,NA,NA,NA,NA,NA,NA,NA,NA,NA,NA,"KQEQ 010310Z AUTO 31003KT 9999 CLR 17/03 A3023 RMK A02 TSNO"
"1384","QEQ",2019-11-01 03:20:00,127.55,37.85,62.6,33.8,33.93,310,2,0,30.22,NA,6.21,NA,"CLR",NA,NA,NA,NA,NA,NA,NA,NA,NA,NA,NA,NA,NA,NA,NA,"KQEQ 010320Z AUTO 31002KT 9999 CLR 17/01 A3022 RMK A02 TSNO"
"1385","QEQ",2019-11-01 03:40:00,127.55,37.85,64.4,33.8,31.85,340,3,0,30.22,NA,6.21,NA,"CLR",NA,NA,NA,NA,NA,NA,NA,NA,NA,NA,NA,NA,NA,NA,NA,"KQEQ 010340Z AUTO 34003KT 9999 CLR 18/01 A3022 RMK A02 TSNO"
"1386","QEQ",2019-11-01 03:50:00,127.55,37.85,64.4,33.8,31.85,260,1,0,30.21,NA,6.21,NA,"CLR",NA,NA,NA,NA,NA,NA,NA,NA,NA,NA,NA,NA,NA,NA,NA,"KQEQ 010350Z AUTO 26001KT 9999 CLR 18/01 A3021 RMK A02 TSNO"
"1387","QEQ",2019-11-01 04:00:00,127.55,37.85,66.2,32,27.83,70,1,0,30.21,NA,6.21,NA,"CLR",NA,NA,NA,NA,NA,NA,NA,NA,NA,NA,NA,NA,NA,NA,NA,"KQEQ 010400Z AUTO 07001KT 9999 CLR 19/00 A3021 RMK A02 TSNO"
"1388","QEQ",2019-11-01 04:10:00,127.55,37.85,66.2,32,27.83,280,1,0,30.2,NA,3.73,NA,"CLR",NA,NA,NA,NA,NA,NA,NA,"HZ",NA,NA,NA,NA,NA,NA,NA,"KQEQ 010410Z AUTO 28001KT 6000 HZ CLR 19/00 A3020 RMK A02 TSNO"
"1389","QEQ",2019-11-01 04:20:00,127.55,37.85,66.2,30.2,25.88,320,1,0,30.2,NA,6.21,NA,"CLR",NA,NA,NA,NA,NA,NA,NA,NA,NA,NA,NA,NA,NA,NA,NA,"KQEQ 010420Z AUTO 32001KT 9999 CLR 19/M01 A3020 RMK A02 TSNO"
"1390","QEQ",2019-11-01 04:30:00,127.55,37.85,66.2,32,27.83,280,3,0,30.19,NA,6.21,NA,"CLR",NA,NA,NA,NA,NA,NA,NA,NA,NA,NA,NA,NA,NA,NA,NA,"KQEQ 010430Z AUTO 28003KT 9999 CLR 19/M00 A3019 RMK A02 TSNO"
"1391","QEQ",2019-11-01 04:40:00,127.55,37.85,66.2,28.4,24.04,310,1,0,30.19,NA,6.21,NA,"CLR",NA,NA,NA,NA,NA,NA,NA,NA,NA,NA,NA,NA,NA,NA,NA,"KQEQ 010440Z AUTO 31001KT 9999 CLR 19/M02 A3019 RMK A02 TSNO"
"1392","QEQ",2019-11-01 04:50:00,127.55,37.85,68,30.2,24.32,250,2,0,30.19,NA,6.21,NA,"CLR",NA,NA,NA,NA,NA,NA,NA,NA,NA,NA,NA,NA,NA,NA,NA,"KQEQ 010450Z AUTO 25002KT 9999 CLR 20/M01 A3019 RMK A02 TSNO"
"1393","QEQ",2019-11-01 05:00:00,127.55,37.85,68,28.4,22.59,220,2,0,30.19,NA,6.21,NA,"CLR",NA,NA,NA,NA,NA,NA,NA,NA,NA,NA,NA,NA,NA,NA,NA,"KQEQ 010500Z AUTO 22002KT 9999 CLR 20/M02 A3019 RMK A02 TSNO"
"1394","QEQ",2019-11-01 05:10:00,127.55,37.85,66.2,32,27.83,170,5,0,30.19,NA,6.21,NA,"CLR",NA,NA,NA,NA,NA,NA,NA,NA,NA,NA,NA,NA,NA,NA,NA,"KQEQ 010510Z AUTO 17005KT 9999 CLR 19/M00 A3019 RMK A02 TSNO"
"1395","QEQ",2019-11-01 05:20:00,127.55,37.85,66.2,30.2,25.88,180,6,0,30.19,NA,6.21,NA,"CLR",NA,NA,NA,NA,NA,NA,NA,NA,NA,NA,NA,NA,NA,NA,NA,"KQEQ 010520Z AUTO 18006KT 9999 CLR 19/M01 A3019 RMK A02 TSNO"
"1396","QEQ",2019-11-01 05:30:00,127.55,37.85,68,32,26.15,200,3,0,30.19,NA,6.21,NA,"CLR",NA,NA,NA,NA,NA,NA,NA,NA,NA,NA,NA,NA,NA,NA,NA,"KQEQ 010530Z AUTO 20003KT 9999 CLR 20/00 A3019 RMK A02 TSNO"
"1397","QEQ",2019-11-01 05:40:00,127.55,37.85,68,30.2,24.32,180,5,0,30.18,NA,6.21,NA,"CLR",NA,NA,NA,NA,NA,NA,NA,NA,NA,NA,NA,NA,NA,NA,NA,"KQEQ 010540Z AUTO 18005KT 9999 CLR 20/M01 A3018 RMK A02 TSNO"
"1398","QEQ",2019-11-01 05:50:00,127.55,37.85,66.2,32,27.83,180,5,0,30.18,NA,6.21,NA,"CLR",NA,NA,NA,NA,NA,NA,NA,NA,NA,NA,NA,NA,NA,NA,NA,"KQEQ 010550Z AUTO 18005KT 9999 CLR 19/M00 A3018 RMK A02 TSNO"
"1399","QEQ",2019-11-01 06:00:00,127.55,37.85,68,32,26.15,180,4,0,30.18,NA,6.21,NA,"CLR",NA,NA,NA,NA,NA,NA,NA,NA,NA,NA,NA,NA,NA,NA,NA,"KQEQ 010600Z AUTO 18004KT 9999 CLR 20/00 A3018 RMK A02 TSNO"
"1400","QEQ",2019-11-01 06:10:00,127.55,37.85,68,32,26.15,190,3,0,30.18,NA,6.21,NA,"CLR",NA,NA,NA,NA,NA,NA,NA,NA,NA,NA,NA,NA,NA,NA,NA,"KQEQ 010610Z AUTO 19003KT 9999 CLR 20/00 A3018 RMK A02 TSNO"
"1401","QEQ",2019-11-01 06:20:00,127.55,37.85,68,35.6,30.2,210,3,0,30.18,NA,6.21,NA,"CLR",NA,NA,NA,NA,NA,NA,NA,NA,NA,NA,NA,NA,NA,NA,NA,"KQEQ 010620Z AUTO 21003KT 9999 CLR 20/02 A3018 RMK A02 TSNO"
"1402","QEQ",2019-11-01 06:30:00,127.55,37.85,68,33.8,28.11,220,4,0,30.18,NA,6.21,NA,"CLR",NA,NA,NA,NA,NA,NA,NA,NA,NA,NA,NA,NA,NA,NA,NA,"KQEQ 010630Z AUTO 22004KT 9999 CLR 20/01 A3018 RMK A02 TSNO"
"1403","QEQ",2019-11-01 06:40:00,127.55,37.85,66.2,33.8,29.92,220,4,0,30.18,NA,6.21,NA,"CLR",NA,NA,NA,NA,NA,NA,NA,NA,NA,NA,NA,NA,NA,NA,NA,"KQEQ 010640Z AUTO 22004KT 9999 CLR 19/01 A3018 RMK A02 TSNO"
"1404","QEQ",2019-11-01 06:50:00,127.55,37.85,68,33.8,28.11,220,3,0,30.18,NA,6.21,NA,"CLR",NA,NA,NA,NA,NA,NA,NA,NA,NA,NA,NA,NA,NA,NA,NA,"KQEQ 010650Z AUTO 22003KT 9999 CLR 20/01 A3018 RMK A02 TSNO"
"1405","QEQ",2019-11-01 07:00:00,127.55,37.85,66.2,33.8,29.92,230,3,0,30.18,NA,6.21,NA,"CLR",NA,NA,NA,NA,NA,NA,NA,NA,NA,NA,NA,NA,NA,NA,NA,"KQEQ 010700Z AUTO 23003KT 9999 CLR 19/01 A3018 RMK A02 TSNO"
"1406","QEQ",2019-11-01 07:10:00,127.55,37.85,66.2,33.8,29.92,210,3,0,30.18,NA,6.21,NA,"CLR",NA,NA,NA,NA,NA,NA,NA,NA,NA,NA,NA,NA,NA,NA,NA,"KQEQ 010710Z AUTO 21003KT 9999 CLR 19/01 A3018 RMK A02 TSNO"
"1407","QEQ",2019-11-01 07:20:00,127.55,37.85,66.2,32,27.83,220,4,0,30.19,NA,6.21,NA,"CLR",NA,NA,NA,NA,NA,NA,NA,NA,NA,NA,NA,NA,NA,NA,NA,"KQEQ 010720Z AUTO 22004KT 9999 CLR 19/00 A3019 RMK A02 TSNO"
"1408","QEQ",2019-11-01 07:30:00,127.55,37.85,66.2,33.8,29.92,220,3,0,30.19,NA,6.21,NA,"CLR",NA,NA,NA,NA,NA,NA,NA,NA,NA,NA,NA,NA,NA,NA,NA,"KQEQ 010730Z AUTO 22003KT 9999 CLR 19/01 A3019 RMK A02 TSNO"
"1409","QEQ",2019-11-01 07:40:00,127.55,37.85,64.4,35.6,34.22,210,2,0,30.19,NA,6.21,NA,"CLR",NA,NA,NA,NA,NA,NA,NA,NA,NA,NA,NA,NA,NA,NA,NA,"KQEQ 010740Z AUTO 21002KT 9999 CLR 18/02 A3019 RMK A02 TSNO"
"1410","QEQ",2019-11-01 07:50:00,127.55,37.85,64.4,35.6,34.22,220,3,0,30.19,NA,6.21,NA,"CLR",NA,NA,NA,NA,NA,NA,NA,NA,NA,NA,NA,NA,NA,NA,NA,"KQEQ 010750Z AUTO 22003KT 9999 CLR 18/02 A3019 RMK A02 TSNO"
"1411","QEQ",2019-11-01 08:00:00,127.55,37.85,62.6,33.8,33.93,230,3,0,30.2,NA,6.21,NA,"CLR",NA,NA,NA,NA,NA,NA,NA,NA,NA,NA,NA,NA,NA,NA,NA,"KQEQ 010800Z AUTO 23003KT 9999 CLR 17/01 A3020 RMK A02 TSNO"
"1412","QEQ",2019-11-01 08:10:00,127.55,37.85,60.8,33.8,36.16,220,3,0,30.2,NA,6.21,NA,"CLR",NA,NA,NA,NA,NA,NA,NA,NA,NA,NA,NA,NA,NA,NA,NA,"KQEQ 010810Z AUTO 22003KT 9999 CLR 16/01 A3020 RMK A02 TSNO"
"1413","QEQ",2019-11-01 08:20:00,127.55,37.85,60.8,33.8,36.16,270,1,0,30.2,NA,6.21,NA,"CLR",NA,NA,NA,NA,NA,NA,NA,NA,NA,NA,NA,NA,NA,NA,NA,"KQEQ 010820Z AUTO 27001KT 9999 CLR 16/01 A3020 RMK A02 TSNO"
"1414","QEQ",2019-11-01 08:30:00,127.55,37.85,59,35.6,41.42,170,1,0,30.2,NA,6.21,NA,"CLR",NA,NA,NA,NA,NA,NA,NA,NA,NA,NA,NA,NA,NA,NA,NA,"KQEQ 010830Z AUTO 17001KT 9999 CLR 15/02 A3020 RMK A02 TSNO"
"1415","QEQ",2019-11-01 08:40:00,127.55,37.85,59,35.6,41.42,170,1,0,30.2,NA,6.21,NA,"CLR",NA,NA,NA,NA,NA,NA,NA,NA,NA,NA,NA,NA,NA,NA,NA,"KQEQ 010840Z AUTO 17001KT 9999 CLR 15/02 A3020 RMK A02 TSNO"
"1416","QEQ",2019-11-01 08:50:00,127.55,37.85,59,35.6,41.42,130,1,0,30.2,NA,6.21,NA,"CLR",NA,NA,NA,NA,NA,NA,NA,NA,NA,NA,NA,NA,NA,NA,NA,"KQEQ 010850Z AUTO 13001KT 9999 CLR 15/02 A3020 RMK A02 TSNO"
"1417","QEQ",2019-11-01 09:00:00,127.55,37.85,57.2,35.6,44.19,180,1,0,30.2,NA,6.21,NA,"CLR",NA,NA,NA,NA,NA,NA,NA,NA,NA,NA,NA,NA,NA,NA,NA,"KQEQ 010900Z AUTO 18001KT 9999 CLR 14/02 A3020 RMK A02 TSNO"
"1418","QEQ",2019-11-01 09:10:00,127.55,37.85,57.2,35.6,44.19,90,1,0,30.2,NA,6.21,NA,"CLR",NA,NA,NA,NA,NA,NA,NA,NA,NA,NA,NA,NA,NA,NA,NA,"KQEQ 010910Z AUTO 09001KT 9999 CLR 14/02 A3020 RMK A02 TSNO"
"1419","QEQ",2019-11-01 09:20:00,127.55,37.85,55.4,39.2,54.34,130,2,0,30.2,NA,6.21,NA,"CLR",NA,NA,NA,NA,NA,NA,NA,NA,NA,NA,NA,NA,NA,NA,NA,"KQEQ 010920Z AUTO 13002KT 9999 CLR 13/04 A3020 RMK A02 TSNO"
"1420","QEQ",2019-11-01 09:30:00,127.55,37.85,53.6,37.4,54.07,130,3,0,30.2,NA,6.21,NA,"CLR",NA,NA,NA,NA,NA,NA,NA,NA,NA,NA,NA,NA,NA,NA,NA,"KQEQ 010930Z AUTO 13003KT 9999 CLR 12/03 A3020 RMK A02 TSNO"
"1421","QEQ",2019-11-01 09:40:00,127.55,37.85,53.6,37.4,54.07,70,2,0,30.2,NA,6.21,NA,"CLR",NA,NA,NA,NA,NA,NA,NA,NA,NA,NA,NA,NA,NA,NA,NA,"KQEQ 010940Z AUTO 07002KT 9999 CLR 12/03 A3020 RMK A02 TSNO"
"1422","QEQ",2019-11-01 09:50:00,127.55,37.85,51.8,39.2,61.99,160,3,0,30.21,NA,6.21,NA,"CLR",NA,NA,NA,NA,NA,NA,NA,NA,NA,NA,NA,NA,NA,NA,NA,"KQEQ 010950Z AUTO 16003KT 9999 CLR 11/04 A3021 RMK A02 TSNO"
"1423","QEQ",2019-11-01 10:00:00,127.55,37.85,51.8,37.4,57.77,160,3,0,30.21,NA,6.21,NA,"CLR",NA,NA,NA,NA,NA,NA,NA,NA,NA,NA,NA,NA,NA,NA,NA,"KQEQ 011000Z AUTO 16003KT 9999 CLR 11/03 A3021 RMK A02 TSNO"
"1424","QEQ",2019-11-01 10:10:00,127.55,37.85,51.8,37.4,57.77,130,1,0,30.22,NA,6.21,NA,"CLR",NA,NA,NA,NA,NA,NA,NA,NA,NA,NA,NA,NA,NA,NA,NA,"KQEQ 011010Z AUTO 13001KT 9999 CLR 11/03 A3022 RMK A02 TSNO"
"1425","QEQ",2019-11-01 10:20:00,127.55,37.85,51.8,37.4,57.77,140,2,0,30.22,NA,6.21,NA,"CLR",NA,NA,NA,NA,NA,NA,NA,NA,NA,NA,NA,NA,NA,NA,NA,"KQEQ 011020Z AUTO 14002KT 9999 CLR 11/03 A3022 RMK A02 TSNO"
"1426","QEQ",2019-11-01 10:30:00,127.55,37.85,50,37.4,61.76,160,1,0,30.22,NA,6.21,NA,"CLR",NA,NA,NA,NA,NA,NA,NA,NA,NA,NA,NA,NA,NA,NA,NA,"KQEQ 011030Z AUTO 16001KT 9999 CLR 10/03 A3022 RMK A02 TSNO"
"1427","QEQ",2019-11-01 10:40:00,127.55,37.85,50,37.4,61.76,80,1,0,30.22,NA,6.21,NA,"CLR",NA,NA,NA,NA,NA,NA,NA,NA,NA,NA,NA,NA,NA,NA,NA,"KQEQ 011040Z AUTO 08001KT 9999 CLR 10/03 A3022 RMK A02 TSNO"
"1428","QEQ",2019-11-01 10:50:00,127.55,37.85,50,37.4,61.76,80,1,0,30.21,NA,6.21,NA,"CLR",NA,NA,NA,NA,NA,NA,NA,NA,NA,NA,NA,NA,NA,NA,NA,"KQEQ 011050Z AUTO 08001KT 9999 CLR 10/03 A3021 RMK A02 TSNO"
"1429","QEQ",2019-11-01 11:00:00,127.55,37.85,48.2,39.2,70.88,120,2,0,30.21,NA,6.21,NA,"CLR",NA,NA,NA,NA,NA,NA,NA,NA,NA,NA,NA,NA,NA,NA,NA,"KQEQ 011100Z AUTO 12002KT 9999 CLR 09/04 A3021 RMK A02 TSNO"
"1430","QEQ",2019-11-01 11:10:00,127.55,37.85,50,37.4,61.76,70,1,0,30.21,NA,6.21,NA,"CLR",NA,NA,NA,NA,NA,NA,NA,NA,NA,NA,NA,NA,NA,NA,NA,"KQEQ 011110Z AUTO 07001KT 9999 CLR 10/03 A3021 RMK A02 TSNO"
"1431","QEQ",2019-11-01 11:20:00,127.55,37.85,50,37.4,61.76,110,1,0,30.21,NA,6.21,NA,"CLR",NA,NA,NA,NA,NA,NA,NA,NA,NA,NA,NA,NA,NA,NA,NA,"KQEQ 011120Z AUTO 11001KT 9999 CLR 10/03 A3021 RMK A02 TSNO"
"1432","QEQ",2019-11-01 11:30:00,127.55,37.85,46.4,39.2,75.84,220,1,0,30.21,NA,6.21,NA,"CLR",NA,NA,NA,NA,NA,NA,NA,NA,NA,NA,NA,NA,NA,NA,NA,"KQEQ 011130Z AUTO 22001KT 9999 CLR 08/04 A3021 RMK A02 TSNO"
"1433","QEQ",2019-11-01 11:40:00,127.55,37.85,48.2,39.2,70.88,0,0,0,30.2,NA,6.21,NA,"CLR",NA,NA,NA,NA,NA,NA,NA,NA,NA,NA,NA,NA,NA,NA,NA,"KQEQ 011140Z AUTO 00000KT 9999 CLR 09/04 A3020 RMK A02 TSNO"
"1434","QEQ",2019-11-01 11:50:00,127.55,37.85,48.2,37.4,66.05,50,1,0,30.2,NA,6.21,NA,"CLR",NA,NA,NA,NA,NA,NA,NA,NA,NA,NA,NA,NA,NA,NA,NA,"KQEQ 011150Z AUTO 05001KT 9999 CLR 09/03 A3020 RMK A02 TSNO"
"1435","QEQ",2019-11-01 12:00:00,127.55,37.85,46.4,39.2,75.84,340,1,0,30.21,NA,6.21,NA,"CLR",NA,NA,NA,NA,NA,NA,NA,NA,NA,NA,NA,NA,NA,NA,NA,"KQEQ 011200Z AUTO 34001KT 9999 CLR 08/04 A3021 RMK A02 TSNO"
"1436","QEQ",2019-11-01 12:10:00,127.55,37.85,46.4,39.2,75.84,110,1,0,30.21,NA,6.21,NA,"CLR",NA,NA,NA,NA,NA,NA,NA,NA,NA,NA,NA,NA,NA,NA,NA,"KQEQ 011210Z AUTO 11001KT 9999 CLR 08/04 A3021 RMK A02 TSNO"
"1437","QEQ",2019-11-01 12:20:00,127.55,37.85,46.4,39.2,75.84,40,1,0,30.21,NA,6.21,NA,"CLR",NA,NA,NA,NA,NA,NA,NA,NA,NA,NA,NA,NA,NA,NA,NA,"KQEQ 011220Z AUTO 04001KT 9999 CLR 08/04 A3021 RMK A02 TSNO"
"1438","QEQ",2019-11-01 12:30:00,127.55,37.85,44.6,39.2,81.2,180,4,0,30.22,NA,6.21,NA,"CLR",NA,NA,NA,NA,NA,NA,NA,NA,NA,NA,NA,NA,NA,NA,42.13,"KQEQ 011230Z AUTO 18004KT 9999 CLR 07/04 A3022 RMK A02 TSNO"
"1439","QEQ",2019-11-01 12:40:00,127.55,37.85,44.6,39.2,81.2,20,2,0,30.22,NA,6.21,NA,"CLR",NA,NA,NA,NA,NA,NA,NA,NA,NA,NA,NA,NA,NA,NA,NA,"KQEQ 011240Z AUTO 02002KT 9999 CLR 07/04 A3022 RMK A02 TSNO"
"1440","QEQ",2019-11-01 12:50:00,127.55,37.85,44.6,39.2,81.2,250,1,0,30.22,NA,6.21,NA,"CLR",NA,NA,NA,NA,NA,NA,NA,NA,NA,NA,NA,NA,NA,NA,NA,"KQEQ 011250Z AUTO 25001KT 9999 CLR 07/04 A3022 RMK A02 TSNO"
"1441","QEQ",2019-11-01 13:00:00,127.55,37.85,44.6,39.2,81.2,60,2,0,30.22,NA,6.21,NA,"CLR",NA,NA,NA,NA,NA,NA,NA,NA,NA,NA,NA,NA,NA,NA,NA,"KQEQ 011300Z AUTO 06002KT 9999 CLR 07/04 A3022 RMK A02 TSNO"
"1442","QEQ",2019-11-01 13:10:00,127.55,37.85,44.6,39.2,81.2,60,2,0,30.22,NA,6.21,NA,"CLR",NA,NA,NA,NA,NA,NA,NA,NA,NA,NA,NA,NA,NA,NA,NA,"KQEQ 011310Z AUTO 06002KT 9999 CLR 07/04 A3022 RMK A02 TSNO"
"1443","QEQ",2019-11-01 13:20:00,127.55,37.85,44.6,39.2,81.2,250,1,0,30.22,NA,6.21,NA,"CLR",NA,NA,NA,NA,NA,NA,NA,NA,NA,NA,NA,NA,NA,NA,NA,"KQEQ 011320Z AUTO 25001KT 9999 CLR 07/04 A3022 RMK A02 TSNO"
"1444","QEQ",2019-11-01 13:30:00,127.55,37.85,44.6,39.2,81.2,30,1,0,30.23,NA,6.21,NA,"CLR",NA,NA,NA,NA,NA,NA,NA,NA,NA,NA,NA,NA,NA,NA,NA,"KQEQ 011330Z AUTO 03001KT 9999 CLR 07/04 A3023 RMK A02 TSNO"
"1445","QEQ",2019-11-01 13:40:00,127.55,37.85,42.8,39.2,86.99,60,1,0,30.23,NA,6.21,NA,"CLR",NA,NA,NA,NA,NA,NA,NA,NA,NA,NA,NA,NA,NA,NA,NA,"KQEQ 011340Z AUTO 06001KT 9999 CLR 06/04 A3023 RMK A02 TSNO"
"1446","QEQ",2019-11-01 13:50:00,127.55,37.85,42.8,39.2,86.99,110,2,0,30.22,NA,6.21,NA,"CLR",NA,NA,NA,NA,NA,NA,NA,NA,NA,NA,NA,NA,NA,NA,NA,"KQEQ 011350Z AUTO 11002KT 9999 CLR 06/04 A3022 RMK A02 TSNO"
"1447","QEQ",2019-11-01 14:00:00,127.55,37.85,42.8,39.2,86.99,160,1,0,30.22,NA,6.21,NA,"CLR",NA,NA,NA,NA,NA,NA,NA,NA,NA,NA,NA,NA,NA,NA,NA,"KQEQ 011400Z AUTO 16001KT 9999 CLR 06/04 A3022 RMK A02 TSNO"
"1448","QEQ",2019-11-01 14:10:00,127.55,37.85,42.8,39.2,86.99,70,1,0,30.22,NA,6.21,NA,"CLR",NA,NA,NA,NA,NA,NA,NA,NA,NA,NA,NA,NA,NA,NA,NA,"KQEQ 011410Z AUTO 07001KT 9999 CLR 06/04 A3022 RMK A02 TSNO"
"1449","QEQ",2019-11-01 14:20:00,127.55,37.85,42.8,41,93.3,100,1,0,30.22,NA,6.21,NA,"CLR",NA,NA,NA,NA,NA,NA,NA,NA,NA,NA,NA,NA,NA,NA,NA,"KQEQ 011420Z AUTO 10001KT 9999 CLR 06/05 A3022 RMK A02 TSNO"
"1450","QEQ",2019-11-01 14:30:00,127.55,37.85,41,39.2,93.24,160,1,0,30.23,NA,6.21,NA,"CLR",NA,NA,NA,NA,NA,NA,NA,NA,NA,NA,NA,NA,NA,NA,NA,"KQEQ 011430Z AUTO 16001KT 9999 CLR 05/04 A3023 RMK A02 TSNO"
"1451","QEQ",2019-11-01 14:40:00,127.55,37.85,42.8,39.2,86.99,30,2,0,30.22,NA,6.21,NA,"CLR",NA,NA,NA,NA,NA,NA,NA,NA,NA,NA,NA,NA,NA,NA,NA,"KQEQ 011440Z AUTO 03002KT 9999 CLR 06/04 A3022 RMK A02 TSNO"
"1452","QEQ",2019-11-01 14:50:00,127.55,37.85,42.8,39.2,86.99,100,1,0,30.22,NA,6.21,NA,"CLR",NA,NA,NA,NA,NA,NA,NA,NA,NA,NA,NA,NA,NA,NA,NA,"KQEQ 011450Z AUTO 10001KT 9999 CLR 06/04 A3022 RMK A02 TSNO"
"1453","QEQ",2019-11-01 15:00:00,127.55,37.85,42.8,41,93.3,30,1,0,30.22,NA,6.21,NA,"CLR",NA,NA,NA,NA,NA,NA,NA,NA,NA,NA,NA,NA,NA,NA,NA,"KQEQ 011500Z AUTO 03001KT 9999 CLR 06/05 A3022 RMK A02 TSNO"
"1454","QEQ",2019-11-01 15:10:00,127.55,37.85,41,39.2,93.24,350,2,0,30.22,NA,6.21,NA,"CLR",NA,NA,NA,NA,NA,NA,NA,NA,NA,NA,NA,NA,NA,NA,NA,"KQEQ 011510Z AUTO 35002KT 9999 CLR 05/04 A3022 RMK A02 TSNO"
"1455","QEQ",2019-11-01 15:20:00,127.55,37.85,41,39.2,93.24,50,1,0,30.22,NA,5.59,NA,"CLR",NA,NA,NA,NA,NA,NA,NA,NA,NA,NA,NA,NA,NA,NA,NA,"KQEQ 011520Z AUTO 05001KT 9000 CLR 05/04 A3022 RMK A02 TSNO"
"1456","QEQ",2019-11-01 15:30:00,127.55,37.85,41,39.2,93.24,130,2,0,30.22,NA,6.21,NA,"CLR",NA,NA,NA,NA,NA,NA,NA,NA,NA,NA,NA,NA,NA,NA,NA,"KQEQ 011530Z AUTO 13002KT 9999 CLR 05/04 A3022 RMK A02 TSNO"
"1457","QEQ",2019-11-01 15:40:00,127.55,37.85,41,41,100,90,1,0,30.22,NA,6.21,NA,"CLR",NA,NA,NA,NA,NA,NA,NA,NA,NA,NA,NA,NA,NA,NA,NA,"KQEQ 011540Z AUTO 09001KT 9999 CLR 05/05 A3022 RMK A02 TSNO"
"1458","QEQ",2019-11-01 15:50:00,127.55,37.85,41,39.2,93.24,50,2,0,30.21,NA,6.21,NA,"CLR",NA,NA,NA,NA,NA,NA,NA,NA,NA,NA,NA,NA,NA,NA,NA,"KQEQ 011550Z AUTO 05002KT 9999 CLR 05/04 A3021 RMK A02 TSNO"
"1459","QEQ",2019-11-01 16:00:00,127.55,37.85,42.8,39.2,86.99,90,1,0,30.21,NA,5.59,NA,"CLR",NA,NA,NA,NA,NA,NA,NA,NA,NA,NA,NA,NA,NA,NA,NA,"KQEQ 011600Z AUTO 09001KT 9000 CLR 06/04 A3021 RMK A02 TSNO"
"1460","QEQ",2019-11-01 16:10:00,127.55,37.85,41,39.2,93.24,30,1,0,30.21,NA,4.97,NA,"CLR",NA,NA,NA,NA,NA,NA,NA,NA,NA,NA,NA,NA,NA,NA,NA,"KQEQ 011610Z AUTO 03001KT 8000 CLR 05/04 A3021 RMK A02 TSNO"
"1461","QEQ",2019-11-01 16:20:00,127.55,37.85,41,39.2,93.24,360,1,0,30.21,NA,5.59,NA,"CLR",NA,NA,NA,NA,NA,NA,NA,NA,NA,NA,NA,NA,NA,NA,NA,"KQEQ 011620Z AUTO 36001KT 9000 CLR 05/04 A3021 RMK A02 TSNO"
"1462","QEQ",2019-11-01 16:30:00,127.55,37.85,41,39.2,93.24,40,2,0,30.21,NA,5.59,NA,"CLR",NA,NA,NA,NA,NA,NA,NA,NA,NA,NA,NA,NA,NA,NA,NA,"KQEQ 011630Z AUTO 04002KT 9000 CLR 05/04 A3021 RMK A02 TSNO"
"1463","QEQ",2019-11-01 16:40:00,127.55,37.85,41,39.2,93.24,60,1,0,30.22,NA,4.97,NA,"CLR",NA,NA,NA,NA,NA,NA,NA,NA,NA,NA,NA,NA,NA,NA,NA,"KQEQ 011640Z AUTO 06001KT 8000 CLR 05/04 A3022 RMK A02 TSNO"
"1464","QEQ",2019-11-01 16:50:00,127.55,37.85,41,39.2,93.24,330,1,0,30.22,NA,4.97,NA,"CLR",NA,NA,NA,NA,NA,NA,NA,NA,NA,NA,NA,NA,NA,NA,NA,"KQEQ 011650Z AUTO 33001KT 8000 CLR 05/04 A3022 RMK A02 TSNO"
"1465","QEQ",2019-11-01 17:00:00,127.55,37.85,41,39.2,93.24,10,2,0,30.22,NA,5.59,NA,"CLR",NA,NA,NA,NA,NA,NA,NA,NA,NA,NA,NA,NA,NA,NA,NA,"KQEQ 011700Z AUTO 01002KT 9000 CLR 05/04 A3022 RMK A02 TSNO"
"1466","QEQ",2019-11-01 17:10:00,127.55,37.85,41,39.2,93.24,60,2,0,30.22,NA,6.21,NA,"CLR",NA,NA,NA,NA,NA,NA,NA,NA,NA,NA,NA,NA,NA,NA,NA,"KQEQ 011710Z AUTO 06002KT 9999 CLR 05/04 A3022 RMK A02 TSNO"
"1467","QEQ",2019-11-01 17:20:00,127.55,37.85,41,39.2,93.24,50,2,0,30.22,NA,6.21,NA,"CLR",NA,NA,NA,NA,NA,NA,NA,NA,NA,NA,NA,NA,NA,NA,NA,"KQEQ 011720Z AUTO 05002KT 9999 CLR 05/04 A3022 RMK A02 TSNO"
"1468","QEQ",2019-11-01 17:30:00,127.55,37.85,41,39.2,93.24,40,2,0,30.22,NA,5.59,NA,"CLR",NA,NA,NA,NA,NA,NA,NA,NA,NA,NA,NA,NA,NA,NA,NA,"KQEQ 011730Z AUTO 04002KT 9000 CLR 05/04 A3022 RMK A02 TSNO"
"1469","QEQ",2019-11-01 17:40:00,127.55,37.85,41,39.2,93.24,20,2,0,30.22,NA,4.97,NA,"CLR",NA,NA,NA,NA,NA,NA,NA,NA,NA,NA,NA,NA,NA,NA,NA,"KQEQ 011740Z AUTO 02002KT 8000 CLR 05/04 A3022 RMK A02 TSNO"
"1470","QEQ",2019-11-01 17:50:00,127.55,37.85,41,39.2,93.24,360,2,0,30.22,NA,3.73,NA,"CLR",NA,NA,NA,NA,NA,NA,NA,NA,NA,NA,NA,NA,NA,NA,NA,"KQEQ 011750Z AUTO 36002KT 6000 CLR 05/04 A3022 RMK A02 TSNO"
"1471","QEQ",2019-11-01 18:00:00,127.55,37.85,41,39.2,93.24,360,2,0,30.22,NA,4.97,NA,"CLR",NA,NA,NA,NA,NA,NA,NA,NA,NA,NA,NA,NA,NA,NA,NA,"KQEQ 011800Z AUTO 36002KT 8000 CLR 05/04 A3022 RMK A02 TSNO"
"1472","QEQ",2019-11-01 18:10:00,127.55,37.85,41,39.2,93.24,50,2,0,30.22,NA,3.73,NA,"CLR",NA,NA,NA,NA,NA,NA,NA,NA,NA,NA,NA,NA,NA,NA,NA,"KQEQ 011810Z AUTO 05002KT 6000 CLR 05/04 A3022 RMK A02 TSNO"
"1473","QEQ",2019-11-01 18:20:00,127.55,37.85,41,39.2,93.24,90,2,0,30.22,NA,3.73,NA,"CLR",NA,NA,NA,NA,NA,NA,NA,NA,NA,NA,NA,NA,NA,NA,NA,"KQEQ 011820Z AUTO 09002KT 6000 CLR 05/04 A3022 RMK A02 TSNO"
"1474","QEQ",2019-11-01 18:30:00,127.55,37.85,41,39.2,93.24,50,3,0,30.22,NA,3.73,NA,"CLR",NA,NA,NA,NA,NA,NA,NA,NA,NA,NA,NA,NA,NA,NA,38.98,"KQEQ 011830Z AUTO 05003KT 6000 CLR 05/04 A3022 RMK A02 TSNO"
"1475","QEQ",2019-11-01 18:40:00,127.55,37.85,41,39.2,93.24,50,3,0,30.22,NA,3.73,NA,"CLR",NA,NA,NA,NA,NA,NA,NA,NA,NA,NA,NA,NA,NA,NA,38.98,"KQEQ 011840Z AUTO 05003KT 6000 CLR 05/04 A3022 RMK A02 TSNO"
"1476","QEQ",2019-11-01 18:50:00,127.55,37.85,39.2,39.2,100,60,1,0,30.22,NA,2.98,NA,"CLR",NA,NA,NA,NA,NA,NA,NA,NA,NA,NA,NA,NA,NA,NA,NA,"KQEQ 011850Z AUTO 06001KT 4800 CLR 04/04 A3022 RMK A02 TSNO"
"1477","QEQ",2019-11-01 19:00:00,127.55,37.85,39.2,39.2,100,360,1,0,30.22,NA,2.49,NA,"CLR",NA,NA,NA,NA,NA,NA,NA,"BR",NA,NA,NA,NA,NA,NA,NA,"KQEQ 011900Z AUTO 36001KT 4000 BR CLR 04/04 A3022 RMK A02 TSNO"
"1478","QEQ",2019-11-01 19:10:00,127.55,37.85,39.2,39.2,100,0,0,0,30.21,NA,2.98,NA,"CLR",NA,NA,NA,NA,NA,NA,NA,NA,NA,NA,NA,NA,NA,NA,NA,"KQEQ 011910Z AUTO 00000KT 4800 CLR 04/04 A3021 RMK A02 TSNO"
"1479","QEQ",2019-11-01 19:20:00,127.55,37.85,39.2,39.2,100,90,1,0,30.21,NA,2.98,NA,"CLR",NA,NA,NA,NA,NA,NA,NA,"BR",NA,NA,NA,NA,NA,NA,NA,"KQEQ 011920Z AUTO 09001KT 4800 BR CLR 04/04 A3021 RMK A02 TSNO"
"1480","QEQ",2019-11-01 19:30:00,127.55,37.85,39.2,39.2,100,10,2,0,30.21,NA,2.49,NA,"CLR",NA,NA,NA,NA,NA,NA,NA,"BR",NA,NA,NA,NA,NA,NA,NA,"KQEQ 011930Z AUTO 01002KT 4000 BR CLR 04/04 A3021 RMK A02 TSNO"
"1481","QEQ",2019-11-01 19:40:00,127.55,37.85,39.2,39.2,100,30,2,0,30.21,NA,2.49,NA,"CLR",NA,NA,NA,NA,NA,NA,NA,"BR",NA,NA,NA,NA,NA,NA,NA,"KQEQ 011940Z AUTO 03002KT 4000 BR CLR 04/04 A3021 RMK A02 TSNO"
"1482","QEQ",2019-11-01 19:50:00,127.55,37.85,39.2,39.2,100,10,1,0,30.21,NA,2.98,NA,"CLR",NA,NA,NA,NA,NA,NA,NA,NA,NA,NA,NA,NA,NA,NA,NA,"KQEQ 011950Z AUTO 01001KT 4800 CLR 04/04 A3021 RMK A02 TSNO"
"1483","QEQ",2019-11-01 20:00:00,127.55,37.85,39.2,39.2,100,360,1,0,30.21,NA,2.49,NA,"CLR",NA,NA,NA,NA,NA,NA,NA,"BR",NA,NA,NA,NA,NA,NA,NA,"KQEQ 012000Z AUTO 36001KT 4000 BR CLR 04/04 A3021 RMK A02 TSNO"
"1484","QEQ",2019-11-01 20:10:00,127.55,37.85,39.2,39.2,100,50,1,0,30.21,NA,2.49,NA,"CLR",NA,NA,NA,NA,NA,NA,NA,"BR",NA,NA,NA,NA,NA,NA,NA,"KQEQ 012010Z AUTO 05001KT 4000 BR CLR 04/04 A3021 RMK A02 TSNO"
"1485","QEQ",2019-11-01 20:20:00,127.55,37.85,39.2,39.2,100,340,1,0,30.2,NA,2.49,NA,"CLR",NA,NA,NA,NA,NA,NA,NA,"BR",NA,NA,NA,NA,NA,NA,NA,"KQEQ 012020Z AUTO 34001KT 4000 BR CLR 04/04 A3020 RMK A02 TSNO"
"1486","QEQ",2019-11-01 20:30:00,127.55,37.85,39.2,39.2,100,360,2,0,30.2,NA,3.73,NA,"CLR",NA,NA,NA,NA,NA,NA,NA,NA,NA,NA,NA,NA,NA,NA,NA,"KQEQ 012030Z AUTO 36002KT 6000 CLR 04/04 A3020 RMK A02 TSNO"
"1487","QEQ",2019-11-01 20:40:00,127.55,37.85,39.2,39.2,100,40,1,0,30.2,NA,3.73,NA,"CLR",NA,NA,NA,NA,NA,NA,NA,NA,NA,NA,NA,NA,NA,NA,NA,"KQEQ 012040Z AUTO 04001KT 6000 CLR 04/04 A3020 RMK A02 TSNO"
"1488","QEQ",2019-11-01 20:50:00,127.55,37.85,39.2,39.2,100,360,2,0,30.2,NA,3.73,NA,"CLR",NA,NA,NA,NA,NA,NA,NA,NA,NA,NA,NA,NA,NA,NA,NA,"KQEQ 012050Z AUTO 36002KT 6000 CLR 04/04 A3020 RMK A02 TSNO"
"1489","QEQ",2019-11-01 21:00:00,127.55,37.85,39.2,39.2,100,50,2,0,30.2,NA,3.73,NA,"CLR",NA,NA,NA,NA,NA,NA,NA,NA,NA,NA,NA,NA,NA,NA,NA,"KQEQ 012100Z AUTO 05002KT 6000 CLR 04/04 A3020 RMK A02 TSNO"
"1490","QEQ",2019-11-01 21:10:00,127.55,37.85,39.2,39.2,100,70,1,0,30.2,NA,3.73,NA,"CLR",NA,NA,NA,NA,NA,NA,NA,NA,NA,NA,NA,NA,NA,NA,NA,"KQEQ 012110Z AUTO 07001KT 6000 CLR 04/04 A3020 RMK A02 TSNO"
"1491","QEQ",2019-11-01 21:20:00,127.55,37.85,39.2,39.2,100,360,2,0,30.2,NA,3.73,NA,"CLR",NA,NA,NA,NA,NA,NA,NA,NA,NA,NA,NA,NA,NA,NA,NA,"KQEQ 012120Z AUTO 36002KT 6000 CLR 04/04 A3020 RMK A02 TSNO"
"1492","QEQ",2019-11-01 21:30:00,127.55,37.85,39.2,39.2,100,350,1,0,30.2,NA,3.73,NA,"CLR",NA,NA,NA,NA,NA,NA,NA,NA,NA,NA,NA,NA,NA,NA,NA,"KQEQ 012130Z AUTO 35001KT 6000 CLR 04/04 A3020 RMK A02 TSNO"
"1493","QEQ",2019-11-01 21:40:00,127.55,37.85,39.2,39.2,100,360,2,0,30.2,NA,2.98,NA,"CLR",NA,NA,NA,NA,NA,NA,NA,"BR",NA,NA,NA,NA,NA,NA,NA,"KQEQ 012140Z AUTO 36002KT 4800 BR CLR 04/04 A3020 RMK A02 TSNO"
"1494","QEQ",2019-11-01 21:50:00,127.55,37.85,39.2,37.4,93.19,360,2,0,30.21,NA,2.49,NA,"CLR",NA,NA,NA,NA,NA,NA,NA,"BR",NA,NA,NA,NA,NA,NA,NA,"KQEQ 012150Z AUTO 36002KT 4000 BR CLR 04/03 A3021 RMK A02 TSNO"
"1495","QEQ",2019-11-01 22:00:00,127.55,37.85,39.2,37.4,93.19,330,1,0,30.22,NA,2.49,NA,"CLR",NA,NA,NA,NA,NA,NA,NA,"BR",NA,NA,NA,NA,NA,NA,NA,"KQEQ 012200Z AUTO 33001KT 4000 BR CLR 04/03 A3022 RMK A02 TSNO"
"1496","QEQ",2019-11-01 22:10:00,127.55,37.85,39.2,39.2,100,10,2,0,30.22,NA,3.73,NA,"CLR",NA,NA,NA,NA,NA,NA,NA,NA,NA,NA,NA,NA,NA,NA,NA,"KQEQ 012210Z AUTO 01002KT 6000 CLR 04/04 A3022 RMK A02 TSNO"
"1497","QEQ",2019-11-01 22:20:00,127.55,37.85,39.2,37.4,93.19,70,1,0,30.22,NA,4.97,NA,"CLR",NA,NA,NA,NA,NA,NA,NA,NA,NA,NA,NA,NA,NA,NA,NA,"KQEQ 012220Z AUTO 07001KT 8000 CLR 04/03 A3022 RMK A02 TSNO"
"1498","QEQ",2019-11-01 22:30:00,127.55,37.85,39.2,37.4,93.19,80,1,0,30.22,NA,5.59,NA,"CLR",NA,NA,NA,NA,NA,NA,NA,NA,NA,NA,NA,NA,NA,NA,NA,"KQEQ 012230Z AUTO 08001KT 9000 CLR 04/03 A3022 RMK A02 TSNO"
"1499","QEQ",2019-11-01 22:40:00,127.55,37.85,39.2,37.4,93.19,130,2,0,30.22,NA,6.21,NA,"CLR",NA,NA,NA,NA,NA,NA,NA,NA,NA,NA,NA,NA,NA,NA,NA,"KQEQ 012240Z AUTO 13002KT 9999 CLR 04/03 A3022 RMK A02 TSNO"
"1500","QEQ",2019-11-01 22:50:00,127.55,37.85,41,39.2,93.24,70,2,0,30.22,NA,6.21,NA,"CLR",NA,NA,NA,NA,NA,NA,NA,NA,NA,NA,NA,NA,NA,NA,NA,"KQEQ 012250Z AUTO 07002KT 9999 CLR 05/04 A3022 RMK A02 TSNO"
"1501","QEQ",2019-11-01 23:00:00,127.55,37.85,41,39.2,93.24,70,2,0,30.22,NA,6.21,NA,"CLR",NA,NA,NA,NA,NA,NA,NA,NA,NA,NA,NA,NA,NA,NA,NA,"KQEQ 012300Z AUTO 07002KT 9999 CLR 05/04 A3022 RMK A02 TSNO"
"1502","QEQ",2019-11-01 23:10:00,127.55,37.85,42.8,39.2,86.99,110,1,0,30.23,NA,5.59,NA,"CLR",NA,NA,NA,NA,NA,NA,NA,NA,NA,NA,NA,NA,NA,NA,NA,"KQEQ 012310Z AUTO 11001KT 9000 CLR 06/04 A3023 RMK A02 TSNO"
"1503","QEQ",2019-11-01 23:20:00,127.55,37.85,42.8,39.2,86.99,70,2,0,30.23,NA,6.21,NA,"CLR",NA,NA,NA,NA,NA,NA,NA,NA,NA,NA,NA,NA,NA,NA,NA,"KQEQ 012320Z AUTO 07002KT 9999 CLR 06/04 A3023 RMK A02 TSNO"
"1504","QEQ",2019-11-01 23:30:00,127.55,37.85,42.8,39.2,86.99,80,1,0,30.23,NA,6.21,NA,"CLR",NA,NA,NA,NA,NA,NA,NA,NA,NA,NA,NA,NA,NA,NA,NA,"KQEQ 012330Z AUTO 08001KT 9999 CLR 06/04 A3023 RMK A02 TSNO"
"1505","QEQ",2019-11-01 23:40:00,127.55,37.85,44.6,39.2,81.2,60,2,0,30.23,NA,6.21,NA,"CLR",NA,NA,NA,NA,NA,NA,NA,NA,NA,NA,NA,NA,NA,NA,NA,"KQEQ 012340Z AUTO 06002KT 9999 CLR 07/04 A3023 RMK A02 TSNO"
"1506","RKSO",2019-11-01 00:10:00,127.0296,37.0906,57.2,55.4,93.69,250,3,0,30.19,1022.6,1.5,NA,"FEW",NA,NA,NA,400,NA,NA,NA,"BR",NA,NA,NA,NA,NA,NA,NA,"RKSO 010010Z 25003KT 1 1/2SM BR FEW004 14/13 A3019 RMK SLP226"
"1507","RKSO",2019-11-01 00:17:00,127.0296,37.0906,57.2,57.2,100,220,1,0,30.19,NA,1.99,NA,"FEW","FEW",NA,NA,0,500,NA,NA,"BR",NA,NA,NA,NA,NA,NA,NA,"RKSO 010017Z 22001KT 3200 BR FEW000 FEW005 14/14 A3019 RMK FG FEW000"
"1508","RKSO",2019-11-01 00:42:00,127.0296,37.0906,59,57.2,93.74,220,2,0,30.19,NA,2.98,NA,"FEW",NA,NA,NA,500,NA,NA,NA,"BR",NA,NA,NA,NA,NA,NA,NA,"RKSO 010042Z 22002KT 4800 BR FEW005 15/14 A3019"
"1509","RKSO",2019-11-01 00:43:00,127.0296,37.0906,60.8,53.6,77.14,320,4,0,30.18,1022.3,2.5,NA,"SCT",NA,NA,NA,500,NA,NA,NA,NA,NA,NA,NA,NA,NA,NA,NA,"RKSO 010043Z 32004KT 2 1/2SM SCT005 16/12 A3018 RMK AO2A SLP223"
"1510","RKSO",2019-11-01 00:46:00,127.0296,37.0906,60.8,53.6,77.14,NA,4,0,30.18,1022.3,2.5,NA,"SCT",NA,NA,NA,500,NA,NA,NA,"BR",NA,NA,NA,NA,NA,NA,NA,"RKSO 010046Z VRB04KT 2 1/2SM BR SCT005 16/12 A3018 RMK AO2A SLP223"
"1511","RKSO",2019-11-01 00:58:00,127.0296,37.0906,60.8,51.8,72.2,310,3,0,30.18,1022.3,4,NA,"FEW",NA,NA,NA,3000,NA,NA,NA,"BR",NA,NA,NA,NA,NA,NA,NA,"RKSO 010058Z 31003KT 4SM BR FEW030 16/11 A3018 RMK AO2A SLP223 T01600110 $"
"1512","RKSO",2019-11-01 01:58:00,127.0296,37.0906,64,45.7,51.34,0,0,0,30.18,1022.3,6,NA,"FEW",NA,NA,NA,20000,NA,NA,NA,"BR",NA,NA,NA,NA,NA,NA,NA,"RKSO 010158Z 00000KT 6SM BR FEW200 18/08 A3018 RMK AO2A SLP223 T01780076 $"
"1513","RKSO",2019-11-01 02:58:00,127.0296,37.0906,65.8,44.1,45.37,310,3,0,30.17,1022,7,NA,"FEW","FEW",NA,NA,3000,20000,NA,NA,NA,NA,NA,NA,NA,NA,NA,NA,"RKSO 010258Z 31003KT 7SM FEW030 FEW200 19/07 A3017 RMK AO2A SLP220 T01880067 55005 $"
"1514","RKSO",2019-11-01 03:58:00,127.0296,37.0906,66.6,40.8,38.87,280,4,0,30.15,1021.3,7,NA,"CLR",NA,NA,NA,NA,NA,NA,NA,NA,NA,NA,NA,NA,NA,NA,NA,"RKSO 010358Z 28004KT 7SM CLR 19/05 A3015 RMK AO2A SLP213 T01920049 $"
"1515","RKSO",2019-11-01 04:58:00,127.0296,37.0906,67.5,38.3,34.18,0,0,0,30.14,1020.9,7,NA,"FEW",NA,NA,NA,20000,NA,NA,NA,NA,NA,NA,NA,NA,NA,NA,NA,"RKSO 010458Z 00000KT 7SM FEW200 20/04 A3014 RMK AO2A SLP209 T01970035 $"
"1516","RKSO",2019-11-01 05:58:00,127.0296,37.0906,68.4,35.1,29.2,300,3,0,30.13,1020.6,7,NA,"CLR",NA,NA,NA,NA,NA,NA,NA,NA,NA,NA,NA,NA,NA,NA,NA,"RKSO 010558Z 30003KT 7SM CLR 20/02 A3013 RMK AO2A SLP206 T02020017 10203 20143 56015 $"
"1517","RKSO",2019-11-01 06:58:00,127.0296,37.0906,68,33.1,27.34,0,0,0,30.13,1020.6,7,NA,"FEW","FEW",NA,NA,3000,20000,NA,NA,NA,NA,NA,NA,NA,NA,NA,NA,"RKSO 010658Z 00000KT 7SM FEW030 FEW200 20/01 A3013 RMK AO2A SLP206 T02000006 $"
"1518","RKSO",2019-11-01 07:58:00,127.0296,37.0906,62.6,40.1,43.5,250,7,0,30.14,1020.9,7,NA,"SCT",NA,NA,NA,20000,NA,NA,NA,NA,NA,NA,NA,NA,NA,NA,NA,"RKSO 010758Z 25007KT 7SM SCT200 17/05 A3014 RMK AO2A SLP209 T01700045 $"
"1519","RKSO",2019-11-01 08:58:00,127.0296,37.0906,58.6,40.3,50.53,240,3,0,30.15,1021.3,7,NA,"FEW","FEW",NA,NA,4000,20000,NA,NA,NA,NA,NA,NA,NA,NA,NA,NA,"RKSO 010858Z 24003KT 7SM FEW040 FEW200 15/05 A3015 RMK AO2A SLP213 T01480046 53008 $"
"1520","RKSO",2019-11-01 09:58:00,127.0296,37.0906,55.2,43.7,65.12,0,0,0,30.17,1022,7,NA,"SCT",NA,NA,NA,20000,NA,NA,NA,NA,NA,NA,NA,NA,NA,NA,NA,"RKSO 010958Z 00000KT 7SM SCT200 13/07 A3017 RMK AO2A SLP220 T01290065 $"
"1521","RKSO",2019-11-01 10:58:00,127.0296,37.0906,51.4,44.4,76.89,100,3,0,30.17,1022,7,NA,"SCT",NA,NA,NA,20000,NA,NA,NA,NA,NA,NA,NA,NA,NA,NA,NA,"RKSO 011058Z 10003KT 7SM SCT200 11/07 A3017 RMK AO2A SLP220 T01080069 $"
"1522","RKSO",2019-11-01 11:58:00,127.0296,37.0906,49.3,43.9,81.55,90,4,0,30.17,1022,7,NA,"BKN",NA,NA,NA,20000,NA,NA,NA,NA,NA,NA,NA,NA,NA,NA,47.62,"RKSO 011158Z 09004KT 7SM BKN200 10/07 A3017 RMK AO2A SLP220 T00960066 10202 20095 50005 $"
"1523","RKSO",2019-11-01 12:58:00,127.0296,37.0906,48.6,43.7,83.08,0,0,0,30.17,1022,7,NA,"BKN",NA,NA,NA,20000,NA,NA,NA,NA,NA,NA,NA,NA,NA,NA,NA,"RKSO 011258Z 00000KT 7SM BKN200 09/07 A3017 RMK AO2A SLP220 T00920065 $"
"1524","RKSO",2019-11-01 13:58:00,127.0296,37.0906,47.3,43.9,87.9,90,5,0,30.17,1022,7,NA,"BKN",NA,NA,NA,20000,NA,NA,NA,NA,NA,NA,NA,NA,NA,NA,44.57,"RKSO 011358Z 09005KT 7SM BKN200 09/07 A3017 RMK AO2A SLP220 T00850066 $"
"1525","RKSO",2019-11-01 14:58:00,127.0296,37.0906,46.2,44.2,92.68,90,5,0,30.17,1022,7,NA,"SCT",NA,NA,NA,20000,NA,NA,NA,NA,NA,NA,NA,NA,NA,NA,43.26,"RKSO 011458Z 09005KT 7SM SCT200 08/07 A3017 RMK AO2A SLP220 T00790068 402030078 50001 $"
"1526","RKSO",2019-11-01 15:58:00,127.0296,37.0906,44.8,43.5,95.16,90,4,0,30.18,1022.3,7,NA,"SCT",NA,NA,NA,20000,NA,NA,NA,NA,NA,NA,NA,NA,NA,NA,42.37,"RKSO 011558Z 09004KT 7SM SCT200 07/06 A3018 RMK AO2A SLP223 T00710064 $"
"1527","RKSO",2019-11-01 16:58:00,127.0296,37.0906,44.8,43.3,94.43,90,5,0,30.17,1022,7,NA,"FEW",NA,NA,NA,15000,NA,NA,NA,NA,NA,NA,NA,NA,NA,NA,41.6,"RKSO 011658Z 09005KT 7SM FEW150 07/06 A3017 RMK AO2A SLP220 T00710063 $"
"1528","RKSO",2019-11-01 17:58:00,127.0296,37.0906,43.7,43,97.35,90,3,0,30.16,1021.6,7,NA,"FEW",NA,NA,NA,15000,NA,NA,NA,NA,NA,NA,NA,NA,NA,NA,42.06,"RKSO 011758Z 09003KT 7SM FEW150 07/06 A3016 RMK AO2A SLP216 T00650061 10096 20063 58003 $"
"1529","RKSO",2019-11-01 18:58:00,127.0296,37.0906,42.6,42.1,98.09,90,4,0,30.16,1021.6,7,NA,"CLR",NA,NA,NA,NA,NA,NA,NA,NA,NA,NA,NA,NA,NA,NA,39.8,"RKSO 011858Z 09004KT 7SM CLR 06/06 A3016 RMK AO2A SLP216 T00590056 $"
"1530","RKSO",2019-11-01 19:58:00,127.0296,37.0906,42.4,42.3,99.62,90,5,0,30.15,1021.3,7,NA,"CLR",NA,NA,NA,NA,NA,NA,NA,NA,NA,NA,NA,NA,NA,NA,38.75,"RKSO 011958Z 09005KT 7SM CLR 06/06 A3015 RMK AO2A SLP213 T00580057 $"
"1531","RKSO",2019-11-01 20:58:00,127.0296,37.0906,42.6,42.1,98.09,80,4,0,30.15,1021.3,7,NA,"FEW",NA,NA,NA,20000,NA,NA,NA,NA,NA,NA,NA,NA,NA,NA,39.8,"RKSO 012058Z 08004KT 7SM FEW200 06/06 A3015 RMK AO2A SLP213 T00590056 58004 $"
"1532","RKSO",2019-11-01 21:58:00,127.0296,37.0906,43.2,43,99.24,70,4,0,30.15,1021.3,4,NA,"SCT",NA,NA,NA,20000,NA,NA,NA,"BR",NA,NA,NA,NA,NA,NA,40.5,"RKSO 012158Z 07004KT 4SM BR SCT200 06/06 A3015 RMK AO2A SLP213 T00620061 $"
"1533","RKSO",2019-11-01 22:58:00,127.0296,37.0906,45.7,45.1,97.75,0,0,0,30.17,1022,5,NA,"SCT",NA,NA,NA,20000,NA,NA,NA,"BR",NA,NA,NA,NA,NA,NA,NA,"RKSO 012258Z 00000KT 5SM BR SCT200 08/07 A3017 RMK AO2A SLP220 T00760073 $"
"1534","RKSO",2019-11-01 23:58:00,127.0296,37.0906,50.2,47.7,91.08,80,4,0,30.18,1022.3,5,NA,"BKN",NA,NA,NA,20000,NA,NA,NA,"BR",NA,NA,NA,NA,NA,NA,NA,"RKSO 012358Z 08004KT 5SM BR BKN200 10/09 A3018 RMK AO2A SLP223 T01010087 10101 20054 52010 $"
"1535","RKTH",2019-11-01 00:00:00,129.4205,35.9879,62.6,51.8,67.75,250,7,0,30.15,1021.5,4.97,NA,"NSC",NA,NA,NA,NA,NA,NA,NA,NA,NA,NA,NA,NA,NA,NA,NA,"RKTH 010000Z 25007KT 8000 NSC 17/11 Q1021 RMK SLP215"
"1536","RKTH",2019-11-01 01:00:00,129.4205,35.9879,64.4,50,59.5,260,9,0,30.12,1021.1,4.97,NA,"NSC",NA,NA,NA,NA,NA,NA,NA,NA,NA,NA,NA,NA,NA,NA,NA,"RKTH 010100Z 26009KT 8000 NSC 18/10 Q1020 RMK SLP211"
"1537","RKTH",2019-11-01 02:00:00,129.4205,35.9879,68,51.8,56.13,270,10,0,30.12,1021,4.97,NA,"NSC",NA,NA,NA,NA,NA,NA,NA,NA,NA,NA,NA,NA,NA,NA,NA,"RKTH 010200Z 27010KT 8000 NSC 20/11 Q1020 RMK SLP210"
"1538","RKTH",2019-11-01 03:01:00,129.4205,35.9879,NA,NA,NA,NA,NA,0,NA,NA,NA,NA,NA,NA,NA,NA,NA,NA,NA,NA,NA,NA,NA,NA,NA,NA,NA,NA,"RKTH 010301Z 01SPECI"
"1539","RKTH",2019-11-01 04:00:00,129.4205,35.9879,69.8,46.4,43.13,30,10,0,30.12,1020.6,4.97,NA,"NSC",NA,NA,NA,NA,NA,NA,NA,NA,NA,NA,NA,NA,NA,NA,NA,"RKTH 010400Z 03010KT 8000 NSC 21/08 Q1020 RMK SLP206"
"1540","RKTH",2019-11-01 05:00:00,129.4205,35.9879,69.8,50,49.37,40,10,0,30.09,1020.1,4.97,NA,"NSC",NA,NA,NA,NA,NA,NA,NA,NA,NA,NA,NA,NA,NA,NA,NA,"RKTH 010500Z 04010KT 8000 NSC 21/10 Q1019 RMK SLP201"
"1541","RKTH",2019-11-01 06:00:00,129.4205,35.9879,68,51.8,56.13,40,11,0,30.12,1020.5,4.97,NA,"NSC",NA,NA,NA,NA,NA,NA,NA,NA,NA,NA,NA,NA,NA,NA,NA,"RKTH 010600Z 04011KT 8000 NSC 20/11 Q1020 RMK SLP205"
"1542","RKTH",2019-11-01 07:00:00,129.4205,35.9879,68,51.8,56.13,40,9,0,30.12,1020.8,4.97,NA,"NSC",NA,NA,NA,NA,NA,NA,NA,NA,NA,NA,NA,NA,NA,NA,NA,"RKTH 010700Z 04009KT 8000 NSC 20/11 Q1020 RMK SLP208"
"1543","RKTH",2019-11-01 08:00:00,129.4205,35.9879,66.2,48.2,52.25,20,9,0,30.15,1021.2,4.97,NA,"NSC",NA,NA,NA,NA,NA,NA,NA,NA,NA,NA,NA,NA,NA,NA,NA,"RKTH 010800Z 02009KT 8000 NSC 19/09 Q1021 RMK SLP212"
"1544","RKTH",2019-11-01 09:00:00,129.4205,35.9879,66.2,48.2,52.25,40,6,0,30.15,1021.3,4.97,NA,"NSC",NA,NA,NA,NA,NA,NA,NA,NA,NA,NA,NA,NA,NA,NA,NA,"RKTH 010900Z 04006KT 8000 NSC 19/09 Q1021 RMK SLP213"
"1545","RKTH",2019-11-01 10:00:00,129.4205,35.9879,60.8,51.8,72.2,170,4,0,30.18,1022.2,4.97,NA,"NSC",NA,NA,NA,NA,NA,NA,NA,NA,NA,NA,NA,NA,NA,NA,NA,"RKTH 011000Z 17004KT 8000 NSC 16/11 Q1022 RMK SLP222"
"1546","RKTH",2019-11-01 11:00:00,129.4205,35.9879,59,51.8,76.98,180,5,0,30.18,1022.5,4.97,NA,"SCT",NA,NA,NA,4000,NA,NA,NA,NA,NA,NA,NA,NA,NA,NA,NA,"RKTH 011100Z 18005KT 8000 SCT040 15/11 Q1022 RMK SLP225 8/500 9/400"
"1547","RKTH",2019-11-01 12:00:00,129.4205,35.9879,59,53.6,82.25,190,5,0,30.21,1022.9,4.97,NA,"SCT",NA,NA,NA,4000,NA,NA,NA,NA,NA,NA,NA,NA,NA,NA,NA,"RKTH 011200Z 19005KT 8000 SCT040 15/12 Q1023 RMK SLP229 8/500 9/400"
"1548","RKTH",2019-11-01 14:00:00,129.4205,35.9879,59,55.4,87.83,190,5,0,30.21,1022.9,4.97,NA,"SCT",NA,NA,NA,4000,NA,NA,NA,NA,NA,NA,NA,NA,NA,NA,NA,"RKTH 011400Z 19005KT 8000 SCT040 15/13 Q1023 RMK SLP229 8/500 9/400"
"1549","RKTH",2019-11-01 15:00:00,129.4205,35.9879,59,55.4,87.83,180,4,0,30.18,1022.5,4.97,NA,"SCT",NA,NA,NA,4000,NA,NA,NA,NA,NA,NA,NA,NA,NA,NA,NA,"RKTH 011500Z 18004KT 8000 SCT040 15/13 Q1022 RMK SLP225 8/500 9/400"
"1550","RKTH",2019-11-01 16:00:00,129.4205,35.9879,57.2,57.2,100,190,3,0,30.18,1022.6,4.97,NA,"SCT",NA,NA,NA,4000,NA,NA,NA,NA,NA,NA,NA,NA,NA,NA,NA,"RKTH 011600Z 19003KT 8000 SCT040 14/14 Q1022 RMK SLP226 8/500 9/400"
"1551","RKTH",2019-11-01 18:00:00,129.4205,35.9879,55.4,55.4,100,200,4,0,30.18,NA,4.97,NA,"SCT",NA,NA,NA,4000,NA,NA,NA,NA,NA,NA,NA,NA,NA,NA,NA,"RKTH 011800Z 20004KT 8000 SCT040 13/13 Q1022"
"1552","RKTH",2019-11-01 19:59:00,129.4205,35.9879,53.6,53.6,100,200,4,0,30.19,NA,6.21,NA,"SCT",NA,NA,NA,4000,NA,NA,NA,NA,NA,NA,NA,NA,NA,NA,NA,"RKTH 011959Z 20004KT 9999 SCT040 12/12 A3019"
"1553","RKTH",2019-11-01 20:03:00,129.4205,35.9879,NA,NA,NA,NA,NA,0,NA,NA,NA,NA,NA,NA,NA,NA,NA,NA,NA,NA,NA,NA,NA,NA,NA,NA,NA,NA,"RKTH 012003Z 01SPECI"
"1554","RKTH",2019-11-01 21:00:00,129.4205,35.9879,51.8,51.8,100,200,5,0,30.18,1022.2,6.21,NA,NA,NA,NA,NA,NA,NA,NA,NA,NA,NA,NA,NA,NA,NA,NA,NA,"RKTH 012100Z 20005KT CAVOK 11/11 Q1022 RMK SLP222"
"1555","RKTH",2019-11-01 22:00:00,129.4205,35.9879,51.8,51.8,100,190,6,0,30.18,1022.4,6.21,NA,"SCT",NA,NA,NA,4000,NA,NA,NA,NA,NA,NA,NA,NA,NA,NA,NA,"RKTH 012200Z 19006KT 9999 SCT040 11/11 Q1022 RMK SLP224 8/500 9/300"
"1556","RKTH",2019-11-01 22:35:00,129.4205,35.9879,53.6,53.6,100,190,3,0,30.19,NA,6.21,NA,"SCT",NA,NA,NA,20000,NA,NA,NA,NA,NA,NA,NA,NA,NA,NA,NA,"RKTH 012235Z 19003KT 9999 SCT200 12/12 A3019"
"1557","RKTH",2019-11-01 22:40:00,129.4205,35.9879,NA,NA,NA,NA,NA,0,NA,NA,NA,NA,NA,NA,NA,NA,NA,NA,NA,NA,NA,NA,NA,NA,NA,NA,NA,NA,"RKTH 012240Z 01SPECI"
"1558","RKTH",2019-11-01 23:00:00,129.4205,35.9879,53.6,53.6,100,190,3,0,30.18,1022.3,6.21,NA,NA,NA,NA,NA,NA,NA,NA,NA,NA,NA,NA,NA,NA,NA,NA,NA,"RKTH 012300Z 19003KT CAVOK 12/12 Q1022 RMK SLP223 8/008 9/003"
"1559","RKSG",2019-11-01 00:16:00,127.0311,36.9622,57.2,NA,NA,0,0,0,30.2,1023,0.75,NA,"SCT",NA,NA,NA,200,NA,NA,NA,"BR",NA,NA,NA,NA,NA,NA,NA,"RKSG 010016Z 00000KT 3/4SM BR SCT002 14/ A3020 RMK AO2A SLP230 $"
"1560","RKSG",2019-11-01 00:30:00,127.0311,36.9622,59,NA,NA,0,0,0,30.2,1023,2.5,NA,"CLR",NA,NA,NA,NA,NA,NA,NA,"BR",NA,NA,NA,NA,NA,NA,NA,"RKSG 010030Z AUTO 00000KT 2 1/2SM BR CLR 15/ A3020 RMK AO2 VIS 1 3/4V2 1/2 SLP230 $"
"1561","RKSG",2019-11-01 00:56:00,127.0311,36.9622,61,61,100,330,5,0,30.19,1022.6,1.5,NA,"CLR",NA,NA,NA,NA,NA,NA,NA,"BR",NA,NA,NA,NA,NA,NA,NA,"RKSG 010056Z 33005KT 1 1/2SM BR CLR 16/16 A3019 RMK AO2A SLP226 T01610161 $"
"1562","RKSG",2019-11-01 01:21:00,127.0311,36.9622,62.6,62.6,100,320,5,0,30.19,1022.6,2.5,NA,"FEW",NA,NA,NA,4000,NA,NA,NA,"BR",NA,NA,NA,NA,NA,NA,NA,"RKSG 010121Z 32005KT 2 1/2SM BR FEW040 17/17 A3019 RMK SLP226 $"
"1563","RKSG",2019-11-01 01:56:00,127.0311,36.9622,64.6,51.6,62.69,330,7,0,30.19,1022.6,3,NA,"CLR",NA,NA,NA,NA,NA,NA,NA,"BR",NA,NA,NA,NA,NA,NA,NA,"RKSG 010156Z 33007KT 3SM BR CLR 18/11 A3019 RMK AO2A SLP226 T01810109 $"
"1564","RKSG",2019-11-01 02:56:00,127.0311,36.9622,65.7,42.6,42.98,300,5,0,30.18,1022.3,4,NA,"CLR",NA,NA,NA,NA,NA,NA,NA,"HZ",NA,NA,NA,NA,NA,NA,NA,"RKSG 010256Z 30005KT 4SM HZ CLR 19/06 A3018 RMK AO2A SLP223 T01870059 57006 $ 0310"
"1565","RKSG",2019-11-01 03:56:00,127.0311,36.9622,67.1,33.8,29,300,5,0,30.16,1021.6,4,NA,"CLR",NA,NA,NA,NA,NA,NA,NA,"HZ",NA,NA,NA,NA,NA,NA,NA,"RKSG 010356Z 30005KT 4SM HZ CLR 20/01 A3016 RMK AO2A SLP216 T01950010 $"
"1566","RKSG",2019-11-01 04:56:00,127.0311,36.9622,67.8,34.3,28.88,330,5,0,30.14,1020.9,5,NA,"CLR",NA,NA,NA,NA,NA,NA,NA,"HZ",NA,NA,NA,NA,NA,NA,NA,"RKSG 010456Z 33005KT 5SM HZ CLR 20/01 A3014 RMK AO2A SLP209 T01990013 $"
"1567","RKSG",2019-11-01 05:56:00,127.0311,36.9622,66.9,36.1,32,270,7,0,30.14,1020.9,10,NA,"CLR",NA,NA,NA,NA,NA,NA,NA,NA,NA,NA,NA,NA,NA,NA,NA,"RKSG 010556Z AUTO 27007KT 10SM CLR 19/02 A3014 RMK AO2 SLP209 T01940023 10200 20133 56014 $"
"1568","RKSG",2019-11-01 06:56:00,127.0311,36.9622,65.8,36.7,34.04,260,6,0,30.14,1020.9,5,NA,"CLR",NA,NA,NA,NA,NA,NA,NA,"HZ",NA,NA,NA,NA,NA,NA,NA,"RKSG 010656Z 26006KT 5SM HZ CLR 19/03 A3014 RMK AO2A SLP209 T01880026 $"
"1569","RKSG",2019-11-01 07:56:00,127.0311,36.9622,62.2,38.3,41.12,290,5,0,30.15,1021.3,5,NA,"CLR",NA,NA,NA,NA,NA,NA,NA,"HZ",NA,NA,NA,NA,NA,NA,NA,"RKSG 010756Z 29005KT 5SM HZ CLR 17/04 A3015 RMK AO2A SLP213 T01680035 $"
"1570","RKSG",2019-11-01 08:56:00,127.0311,36.9622,57.4,40.8,53.79,330,8,0,30.16,1021.6,5,NA,"CLR",NA,NA,NA,NA,NA,NA,NA,"HZ",NA,NA,NA,NA,NA,NA,NA,"RKSG 010856Z 33008KT 5SM HZ CLR 14/05 A3016 RMK AO2A SLP216 T01410049 52006 $"
"1571","RKSG",2019-11-01 09:56:00,127.0311,36.9622,56.7,40.3,54.1,0,0,0,30.17,1022,6,NA,"CLR",NA,NA,NA,NA,NA,NA,NA,"HZ",NA,NA,NA,NA,NA,NA,NA,"RKSG 010956Z 00000KT 6SM HZ CLR 14/05 A3017 RMK AO2A SLP220 T01370046 $"
"1572","RKSG",2019-11-01 10:56:00,127.0311,36.9622,53.8,47.1,77.98,0,0,0,30.18,1022.3,5,NA,"CLR",NA,NA,NA,NA,NA,NA,NA,"HZ",NA,NA,NA,NA,NA,NA,NA,"RKSG 011056Z 00000KT 5SM HZ CLR 12/05 A3018 RMK AO2A SLP223 T01210084 $"
"1573","RKSG",2019-11-01 11:56:00,127.0311,36.9622,50.7,41,69.25,0,0,0,30.17,1022,6,NA,"CLR",NA,NA,NA,NA,NA,NA,NA,"HZ",NA,NA,NA,NA,NA,NA,NA,"RKSG 011156Z 00000KT 6SM HZ CLR 10/05 A3017 RMK AO2A SLP220 T01040050 10194 20098 50004 $"
"1574","RKSG",2019-11-01 12:56:00,127.0311,36.9622,53.6,41.9,64.43,0,0,0,30.18,1022.3,6,NA,"CLR",NA,NA,NA,NA,NA,NA,NA,"HZ",NA,NA,NA,NA,NA,NA,NA,"RKSG 011256Z 00000KT 6SM HZ CLR 12/06 A3018 RMK AO2A SLP223 T01200055 $"
"1575","RKSG",2019-11-01 13:56:00,127.0311,36.9622,51.4,42.1,70.4,0,0,0,30.18,1022.3,6,NA,"CLR",NA,NA,NA,NA,NA,NA,NA,"HZ",NA,NA,NA,NA,NA,NA,NA,"RKSG 011356Z 00000KT 6SM HZ CLR 11/06 A3018 RMK AO2A SLP223 T01080056 $"
"1576","RKSG",2019-11-01 14:56:00,127.0311,36.9622,51.1,40.8,67.7,0,0,0,30.17,1022,6,NA,"CLR",NA,NA,NA,NA,NA,NA,NA,"HZ",NA,NA,NA,NA,NA,NA,NA,"RKSG 011456Z 00000KT 6SM HZ CLR 11/05 A3017 RMK AO2A SLP220 T01060049 402000089 58000 $"
"1577","RKSG",2019-11-01 15:56:00,127.0311,36.9622,48.9,41.4,75.2,0,0,0,30.18,1022.3,6,NA,"CLR",NA,NA,NA,NA,NA,NA,NA,"HZ",NA,NA,NA,NA,NA,NA,NA,"RKSG 011556Z 00000KT 6SM HZ CLR 09/05 A3018 RMK AO2A SLP223 T00940052 $"
"1578","RKSG",2019-11-01 16:56:00,127.0311,36.9622,47.8,41.4,78.36,0,0,0,30.18,1022.3,6,NA,"CLR",NA,NA,NA,NA,NA,NA,NA,"HZ",NA,NA,NA,NA,NA,NA,NA,"RKSG 011656Z 00000KT 6SM HZ CLR 09/05 A3018 RMK AO2A SLP223 T00880052 $"
"1579","RKSG",2019-11-01 17:56:00,127.0311,36.9622,47.3,40.5,77.12,110,3,0,30.16,1021.6,6,NA,"CLR",NA,NA,NA,NA,NA,NA,NA,"HZ",NA,NA,NA,NA,NA,NA,46.18,"RKSG 011756Z 11003KT 6SM HZ CLR 09/05 A3016 RMK AO2A SLP216 T00850047 10111 20073 58003 $"
"1580","RKSG",2019-11-01 18:56:00,127.0311,36.9622,46.4,41,81.34,0,0,0,30.16,1021.6,6,NA,"CLR",NA,NA,NA,NA,NA,NA,NA,"BR",NA,NA,NA,NA,NA,NA,NA,"RKSG 011856Z 00000KT 6SM BR CLR 08/05 A3016 RMK AO2A SLP216 T00800050 $"
"1581","RKSG",2019-11-01 19:56:00,127.0311,36.9622,46,41,82.58,110,3,0,30.16,1021.6,6,NA,"CLR",NA,NA,NA,NA,NA,NA,NA,"BR",NA,NA,NA,NA,NA,NA,44.69,"RKSG 011956Z 11003KT 6SM BR CLR 08/05 A3016 RMK AO2A SLP216 T00780050 $"
"1582","RKSG",2019-11-01 20:56:00,127.0311,36.9622,45.3,39.9,81.26,110,3,0,30.15,1021.3,5,NA,"CLR",NA,NA,NA,NA,NA,NA,NA,"BR",NA,NA,NA,NA,NA,NA,43.89,"RKSG 012056Z 11003KT 5SM BR CLR 07/04 A3015 RMK AO2A SLP213 T00740044 57002 $"
"1583","RKSG",2019-11-01 21:56:00,127.0311,36.9622,47.1,41.2,79.83,110,4,0,30.15,1021.3,4,NA,"CLR",NA,NA,NA,NA,NA,NA,NA,"BR",NA,NA,NA,NA,NA,NA,45.05,"RKSG 012156Z 11004KT 4SM BR CLR 08/05 A3015 RMK AO2A SLP213 T00840051 $"
"1584","RKSG",2019-11-01 22:56:00,127.0311,36.9622,49.3,43.7,80.93,100,3,0,30.19,1022.3,3,NA,"CLR",NA,NA,NA,NA,NA,NA,NA,"BR",NA,NA,NA,NA,NA,NA,48.47,"RKSG 012256Z 10003KT 3SM BR CLR 10/07 A3019 RMK AO2A SLP223 T00960065 $"
"1585","RKSG",2019-11-01 23:56:00,127.0311,36.9622,54.1,65.5,NA,110,4,0,30.2,1022.6,4,NA,"CLR",NA,NA,NA,NA,NA,NA,NA,"HZ",NA,NA,NA,NA,NA,NA,NA,"RKSG 012356Z 11004KT 4SM HZ CLR 12/09 A3020 RMK AO2A SLP226 T01230186 10122 20083 401160086 53010 $"
"1586","QFV",2019-11-01 00:00:00,127.5,38.05,50,46.4,87.37,50,1,0,30.23,NA,2.98,NA,"CLR",NA,NA,NA,NA,NA,NA,NA,NA,NA,NA,NA,NA,NA,NA,NA,"KQFV 010000Z AUTO 05001KT 4800 // CLR 10/08 A3023 RMK A02 TSNO"
"1587","QFV",2019-11-01 00:10:00,127.5,38.05,51.8,46.4,81.74,130,1,0,30.23,NA,3.73,NA,"CLR",NA,NA,NA,NA,NA,NA,NA,"HZ",NA,NA,NA,NA,NA,NA,NA,"KQFV 010010Z AUTO 13001KT 6000 HZ CLR 11/08 A3023 RMK A02 TSNO"
"1588","QFV",2019-11-01 00:30:00,127.5,38.05,53.6,46.4,76.5,240,1,0,30.22,NA,3.73,NA,"CLR",NA,NA,NA,NA,NA,NA,NA,"HZ",NA,NA,NA,NA,NA,NA,NA,"KQFV 010030Z AUTO 24001KT 6000 HZ CLR 12/08 A3022 RMK A02 TSNO"
"1589","QFV",2019-11-01 00:40:00,127.5,38.05,55.4,46.4,71.64,10,1,0,30.21,NA,3.73,NA,"CLR",NA,NA,NA,NA,NA,NA,NA,"HZ",NA,NA,NA,NA,NA,NA,NA,"KQFV 010040Z AUTO 01001KT 6000 HZ CLR 13/08 A3021 RMK A02 TSNO"
"1590","QFV",2019-11-01 00:50:00,127.5,38.05,57.2,46.4,67.12,140,1,0,30.21,NA,3.73,NA,"CLR",NA,NA,NA,NA,NA,NA,NA,"HZ",NA,NA,NA,NA,NA,NA,NA,"KQFV 010050Z AUTO 14001KT 6000 HZ CLR 14/08 A3021 RMK A02 TSNO"
"1591","QFV",2019-11-01 01:20:00,127.5,38.05,59,42.8,54.86,110,2,0,30.21,NA,6.21,NA,"CLR",NA,NA,NA,NA,NA,NA,NA,NA,NA,NA,NA,NA,NA,NA,NA,"KQFV 010120Z AUTO 11002KT 9999 CLR 15/06 A3021 RMK A02 TSNO"
"1592","QFV",2019-11-01 01:30:00,127.5,38.05,59,41,51.18,120,2,0,30.21,NA,6.21,NA,"CLR",NA,NA,NA,NA,NA,NA,NA,NA,NA,NA,NA,NA,NA,NA,NA,"KQFV 010130Z AUTO 12002KT 9999 CLR 15/05 A3021 RMK A02 TSNO"
"1593","QFV",2019-11-01 01:40:00,127.5,38.05,60.8,41,48,100,2,0,30.21,NA,6.21,NA,"CLR",NA,NA,NA,NA,NA,NA,NA,NA,NA,NA,NA,NA,NA,NA,NA,"KQFV 010140Z AUTO 10002KT 9999 CLR 16/05 A3021 RMK A02 TSNO"
"1594","QFV",2019-11-01 01:50:00,127.5,38.05,59,39.2,47.72,100,5,0,30.21,NA,6.21,NA,"CLR",NA,NA,NA,NA,NA,NA,NA,NA,NA,NA,NA,NA,NA,NA,NA,"KQFV 010150Z AUTO 10005KT 9999 CLR 15/04 A3021 RMK A02 TSNO"
"1595","QFV",2019-11-01 02:00:00,127.5,38.05,60.8,37.4,41.71,90,5,0,30.21,NA,6.21,NA,"CLR",NA,NA,NA,NA,NA,NA,NA,NA,NA,NA,NA,NA,NA,NA,NA,"KQFV 010200Z AUTO 09005KT 9999 CLR 16/03 A3021 RMK A02 TSNO"
"1596","QFV",2019-11-01 02:10:00,127.5,38.05,60.8,39.2,44.76,120,4,0,30.21,NA,6.21,NA,"CLR",NA,NA,NA,NA,NA,NA,NA,NA,NA,NA,NA,NA,NA,NA,NA,"KQFV 010210Z AUTO 12004KT 9999 CLR 16/04 A3021 RMK A02 TSNO"
"1597","QFV",2019-11-01 02:20:00,127.5,38.05,62.6,39.2,42,140,4,0,30.21,NA,6.21,NA,"CLR",NA,NA,NA,NA,NA,NA,NA,NA,NA,NA,NA,NA,NA,NA,NA,"KQFV 010220Z AUTO 14004KT 9999 CLR 17/04 A3021 RMK A02 TSNO"
"1598","QFV",2019-11-01 02:30:00,127.5,38.05,62.6,39.2,42,120,5,0,30.21,NA,6.21,NA,"CLR",NA,NA,NA,NA,NA,NA,NA,NA,NA,NA,NA,NA,NA,NA,NA,"KQFV 010230Z AUTO 12005KT 9999 CLR 17/04 A3021 RMK A02 TSNO"
"1599","QFV",2019-11-01 02:40:00,127.5,38.05,62.6,39.2,42,110,4,0,30.21,NA,6.21,NA,"CLR",NA,NA,NA,NA,NA,NA,NA,NA,NA,NA,NA,NA,NA,NA,NA,"KQFV 010240Z AUTO 11004KT 9999 CLR 17/04 A3021 RMK A02 TSNO"
"1600","QFV",2019-11-01 02:50:00,127.5,38.05,62.6,37.4,39.14,100,6,0,30.2,NA,6.21,NA,"CLR",NA,NA,NA,NA,NA,NA,NA,NA,NA,NA,NA,NA,NA,NA,NA,"KQFV 010250Z AUTO 10006KT 9999 CLR 17/03 A3020 RMK A02 TSNO"
"1601","QFV",2019-11-01 03:00:00,127.5,38.05,62.6,37.4,39.14,90,4,0,30.2,NA,6.21,NA,"CLR",NA,NA,NA,NA,NA,NA,NA,NA,NA,NA,NA,NA,NA,NA,NA,"KQFV 010300Z AUTO 09004KT 9999 CLR 17/03 A3020 RMK A02 TSNO"
"1602","QFV",2019-11-01 03:10:00,127.5,38.05,64.4,37.4,36.74,130,3,0,30.2,NA,6.21,NA,"CLR",NA,NA,NA,NA,NA,NA,NA,NA,NA,NA,NA,NA,NA,NA,NA,"KQFV 010310Z AUTO 13003KT 9999 CLR 18/03 A3020 RMK A02 TSNO"
"1603","QFV",2019-11-01 03:30:00,127.5,38.05,66.2,39.2,37.03,130,4,0,30.19,NA,6.21,NA,"CLR",NA,NA,NA,NA,NA,NA,NA,NA,NA,NA,NA,NA,NA,NA,NA,"KQFV 010330Z AUTO 13004KT 9999 CLR 19/04 A3019 RMK A02 TSNO"
"1604","QFV",2019-11-01 03:40:00,127.5,38.05,66.2,37.4,34.51,120,3,0,30.19,NA,6.21,NA,"CLR",NA,NA,NA,NA,NA,NA,NA,NA,NA,NA,NA,NA,NA,NA,NA,"KQFV 010340Z AUTO 12003KT 9999 CLR 19/03 A3019 RMK A02 TSNO"
"1605","QFV",2019-11-01 03:50:00,127.5,38.05,64.4,39.2,39.43,110,5,0,30.18,NA,6.21,NA,"CLR",NA,NA,NA,NA,NA,NA,NA,NA,NA,NA,NA,NA,NA,NA,NA,"KQFV 010350Z AUTO 11005KT 9999 CLR 18/04 A3018 RMK A02 TSNO"
"1606","QFV",2019-11-01 04:00:00,127.5,38.05,64.4,39.2,39.43,120,5,0,30.17,NA,6.21,NA,"CLR",NA,NA,NA,NA,NA,NA,NA,NA,NA,NA,NA,NA,NA,NA,NA,"KQFV 010400Z AUTO 12005KT 9999 CLR 18/04 A3017 RMK A02 TSNO"
"1607","QFV",2019-11-01 04:10:00,127.5,38.05,64.4,39.2,39.43,120,7,0,30.17,NA,6.21,NA,"CLR",NA,NA,NA,NA,NA,NA,NA,NA,NA,NA,NA,NA,NA,NA,NA,"KQFV 010410Z AUTO 12007KT 9999 CLR 18/04 A3017 RMK A02 TSNO"
"1608","QFV",2019-11-01 04:20:00,127.5,38.05,64.4,39.2,39.43,90,6,0,30.17,NA,6.21,NA,"CLR",NA,NA,NA,NA,NA,NA,NA,NA,NA,NA,NA,NA,NA,NA,NA,"KQFV 010420Z AUTO 09006KT 9999 CLR 18/04 A3017 RMK A02 TSNO"
"1609","QFV",2019-11-01 04:30:00,127.5,38.05,66.2,39.2,37.03,100,4,0,30.17,NA,6.21,NA,"CLR",NA,NA,NA,NA,NA,NA,NA,NA,NA,NA,NA,NA,NA,NA,NA,"KQFV 010430Z AUTO 10004KT 9999 CLR 19/04 A3017 RMK A02 TSNO"
"1610","QFV",2019-11-01 04:40:00,127.5,38.05,66.2,37.4,34.51,110,6,0,30.16,NA,6.21,NA,"CLR",NA,NA,NA,NA,NA,NA,NA,NA,NA,NA,NA,NA,NA,NA,NA,"KQFV 010440Z AUTO 11006KT 9999 CLR 19/03 A3016 RMK A02 TSNO"
"1611","QFV",2019-11-01 04:50:00,127.5,38.05,66.2,37.4,34.51,110,6,0,30.16,NA,6.21,NA,"CLR",NA,NA,NA,NA,NA,NA,NA,NA,NA,NA,NA,NA,NA,NA,NA,"KQFV 010450Z AUTO 11006KT 9999 CLR 19/03 A3016 RMK A02 TSNO"
"1612","QFV",2019-11-01 05:00:00,127.5,38.05,66.2,39.2,37.03,90,4,0,30.16,NA,6.21,NA,"CLR",NA,NA,NA,NA,NA,NA,NA,NA,NA,NA,NA,NA,NA,NA,NA,"KQFV 010500Z AUTO 09004KT 9999 CLR 19/04 A3016 RMK A02 TSNO"
"1613","QFV",2019-11-01 05:10:00,127.5,38.05,66.2,39.2,37.03,90,5,0,30.16,NA,6.21,NA,"CLR",NA,NA,NA,NA,NA,NA,NA,NA,NA,NA,NA,NA,NA,NA,NA,"KQFV 010510Z AUTO 09005KT 9999 CLR 19/04 A3016 RMK A02 TSNO"
"1614","QFV",2019-11-01 05:20:00,127.5,38.05,66.2,39.2,37.03,110,6,0,30.16,NA,6.21,NA,"CLR",NA,NA,NA,NA,NA,NA,NA,NA,NA,NA,NA,NA,NA,NA,NA,"KQFV 010520Z AUTO 11006KT 9999 CLR 19/04 A3016 RMK A02 TSNO"
"1615","QFV",2019-11-01 05:30:00,127.5,38.05,68,39.2,34.8,110,6,0,30.16,NA,6.21,NA,"CLR",NA,NA,NA,NA,NA,NA,NA,NA,NA,NA,NA,NA,NA,NA,NA,"KQFV 010530Z AUTO 11006KT 9999 CLR 20/04 A3016 RMK A02 TSNO"
"1616","QFV",2019-11-01 05:40:00,127.5,38.05,66.2,39.2,37.03,110,3,0,30.16,NA,6.21,NA,"CLR",NA,NA,NA,NA,NA,NA,NA,NA,NA,NA,NA,NA,NA,NA,NA,"KQFV 010540Z AUTO 11003KT 9999 CLR 19/04 A3016 RMK A02 TSNO"
"1617","QFV",2019-11-01 05:50:00,127.5,38.05,68,39.2,34.8,130,5,0,30.16,NA,6.21,NA,"CLR",NA,NA,NA,NA,NA,NA,NA,NA,NA,NA,NA,NA,NA,NA,NA,"KQFV 010550Z AUTO 13005KT 9999 CLR 20/04 A3016 RMK A02 TSNO"
"1618","QFV",2019-11-01 06:00:00,127.5,38.05,66.2,39.2,37.03,110,4,0,30.16,NA,6.21,NA,"CLR",NA,NA,NA,NA,NA,NA,NA,NA,NA,NA,NA,NA,NA,NA,NA,"KQFV 010600Z AUTO 11004KT 9999 CLR 19/04 A3016 RMK A02 TSNO"
"1619","QFV",2019-11-01 06:10:00,127.5,38.05,68,39.2,34.8,110,4,0,30.16,NA,6.21,NA,"CLR",NA,NA,NA,NA,NA,NA,NA,NA,NA,NA,NA,NA,NA,NA,NA,"KQFV 010610Z AUTO 11004KT 9999 CLR 20/04 A3016 RMK A02 TSNO"
"1620","QFV",2019-11-01 06:20:00,127.5,38.05,66.2,39.2,37.03,110,4,0,30.16,NA,6.21,NA,"CLR",NA,NA,NA,NA,NA,NA,NA,NA,NA,NA,NA,NA,NA,NA,NA,"KQFV 010620Z AUTO 11004KT 9999 CLR 19/04 A3016 RMK A02 TSNO"
"1621","QFV",2019-11-01 06:30:00,127.5,38.05,66.2,39.2,37.03,90,5,0,30.16,NA,6.21,NA,"CLR",NA,NA,NA,NA,NA,NA,NA,NA,NA,NA,NA,NA,NA,NA,NA,"KQFV 010630Z AUTO 09005KT 9999 CLR 19/04 A3016 RMK A02 TSNO"
"1622","QFV",2019-11-01 06:40:00,127.5,38.05,66.2,39.2,37.03,110,4,0,30.16,NA,6.21,NA,"CLR",NA,NA,NA,NA,NA,NA,NA,NA,NA,NA,NA,NA,NA,NA,NA,"KQFV 010640Z AUTO 11004KT 9999 CLR 19/04 A3016 RMK A02 TSNO"
"1623","QFV",2019-11-01 06:50:00,127.5,38.05,66.2,39.2,37.03,110,5,0,30.16,NA,6.21,NA,"CLR",NA,NA,NA,NA,NA,NA,NA,NA,NA,NA,NA,NA,NA,NA,NA,"KQFV 010650Z AUTO 11005KT 9999 CLR 19/04 A3016 RMK A02 TSNO"
"1624","QFV",2019-11-01 07:20:00,127.5,38.05,66.2,44.6,45.6,200,3,0,30.17,NA,6.21,NA,"CLR",NA,NA,NA,NA,NA,NA,NA,NA,NA,NA,NA,NA,NA,NA,NA,"KQFV 010720Z AUTO 20003KT 9999 CLR 19/07 A3017 RMK A02 TSNO"
"1625","QFV",2019-11-01 07:30:00,127.5,38.05,66.2,44.6,45.6,240,5,0,30.17,NA,6.21,NA,"CLR",NA,NA,NA,NA,NA,NA,NA,NA,NA,NA,NA,NA,NA,NA,NA,"KQFV 010730Z AUTO 24005KT 9999 CLR 19/07 A3017 RMK A02 TSNO"
"1626","QFV",2019-11-01 07:40:00,127.5,38.05,64.4,44.6,48.55,260,1,0,30.17,NA,6.21,NA,"CLR",NA,NA,NA,NA,NA,NA,NA,NA,NA,NA,NA,NA,NA,NA,NA,"KQFV 010740Z AUTO 26001KT 9999 CLR 18/07 A3017 RMK A02 TSNO"
"1627","QFV",2019-11-01 07:50:00,127.5,38.05,64.4,44.6,48.55,250,2,0,30.17,NA,6.21,NA,"CLR",NA,NA,NA,NA,NA,NA,NA,NA,NA,NA,NA,NA,NA,NA,NA,"KQFV 010750Z AUTO 25002KT 9999 CLR 18/07 A3017 RMK A02 TSNO"
"1628","QFV",2019-11-01 08:00:00,127.5,38.05,64.4,44.6,48.55,270,2,0,30.17,NA,6.21,NA,"CLR",NA,NA,NA,NA,NA,NA,NA,NA,NA,NA,NA,NA,NA,NA,NA,"KQFV 010800Z AUTO 27002KT 9999 CLR 18/07 A3017 RMK A02 TSNO"
"1629","QFV",2019-11-01 08:10:00,127.5,38.05,62.6,44.6,51.72,220,2,0,30.17,NA,6.21,NA,"CLR",NA,NA,NA,NA,NA,NA,NA,NA,NA,NA,NA,NA,NA,NA,NA,"KQFV 010810Z AUTO 22002KT 9999 CLR 17/07 A3017 RMK A02 TSNO"
"1630","QFV",2019-11-01 08:20:00,127.5,38.05,59,44.6,58.77,120,2,0,30.18,NA,6.21,NA,"CLR",NA,NA,NA,NA,NA,NA,NA,NA,NA,NA,NA,NA,NA,NA,NA,"KQFV 010820Z AUTO 12002KT 9999 CLR 15/07 A3018 RMK A02 TSNO"
"1631","QFV",2019-11-01 08:50:00,127.5,38.05,57.2,44.6,62.69,100,1,0,30.19,NA,5.59,NA,"CLR",NA,NA,NA,NA,NA,NA,NA,"HZ",NA,NA,NA,NA,NA,NA,NA,"KQFV 010850Z AUTO 10001KT 9000 HZ CLR 14/07 A3019 RMK A02 TSNO"
"1632","QFV",2019-11-01 09:00:00,127.5,38.05,57.2,46.4,67.12,80,1,0,30.19,NA,6.21,NA,"CLR",NA,NA,NA,NA,NA,NA,NA,NA,NA,NA,NA,NA,NA,NA,NA,"KQFV 010900Z AUTO 08001KT 9999 CLR 14/08 A3019 RMK A02 TSNO"
"1633","QFV",2019-11-01 09:10:00,127.5,38.05,55.4,46.4,71.64,300,1,0,30.2,NA,5.59,NA,"CLR",NA,NA,NA,NA,NA,NA,NA,"HZ",NA,NA,NA,NA,NA,NA,NA,"KQFV 010910Z AUTO 30001KT 9000 HZ CLR 13/08 A3020 RMK A02 TSNO"
"1634","QFV",2019-11-01 09:20:00,127.5,38.05,55.4,46.4,71.64,250,1,0,30.2,NA,5.59,NA,"CLR",NA,NA,NA,NA,NA,NA,NA,"HZ",NA,NA,NA,NA,NA,NA,NA,"KQFV 010920Z AUTO 25001KT 9000 HZ CLR 13/08 A3020 RMK A02 TSNO"
"1635","QFV",2019-11-01 09:30:00,127.5,38.05,53.6,46.4,76.5,270,1,0,30.21,NA,5.59,NA,"CLR",NA,NA,NA,NA,NA,NA,NA,"HZ",NA,NA,NA,NA,NA,NA,NA,"KQFV 010930Z AUTO 27001KT 9000 HZ CLR 12/08 A3021 RMK A02 TSNO"
"1636","QFV",2019-11-01 09:40:00,127.5,38.05,53.6,46.4,76.5,0,0,0,30.21,NA,5.59,NA,"CLR",NA,NA,NA,NA,NA,NA,NA,"HZ",NA,NA,NA,NA,NA,NA,NA,"KQFV 010940Z AUTO 00000KT 9000 HZ CLR 12/08 A3021 RMK A02 TSNO"
"1637","QFV",2019-11-01 09:50:00,127.5,38.05,51.8,46.4,81.74,110,2,0,30.22,NA,5.59,NA,"CLR",NA,NA,NA,NA,NA,NA,NA,"HZ",NA,NA,NA,NA,NA,NA,NA,"KQFV 010950Z AUTO 11002KT 9000 HZ CLR 11/08 A3022 RMK A02 TSNO"
"1638","QFV",2019-11-01 10:00:00,127.5,38.05,51.8,46.4,81.74,0,0,0,30.22,NA,5.59,NA,"CLR",NA,NA,NA,NA,NA,NA,NA,"HZ",NA,NA,NA,NA,NA,NA,NA,"KQFV 011000Z AUTO 00000KT 9000 HZ CLR 11/08 A3022 RMK A02 TSNO"
"1639","QFV",2019-11-01 10:10:00,127.5,38.05,51.8,46.4,81.74,110,1,0,30.22,NA,4.97,NA,"CLR",NA,NA,NA,NA,NA,NA,NA,"HZ",NA,NA,NA,NA,NA,NA,NA,"KQFV 011010Z AUTO 11001KT 8000 HZ CLR 11/08 A3022 RMK A02 TSNO"
"1640","QFV",2019-11-01 10:20:00,127.5,38.05,51.8,46.4,81.74,100,1,0,30.22,NA,4.97,NA,"CLR",NA,NA,NA,NA,NA,NA,NA,"HZ",NA,NA,NA,NA,NA,NA,NA,"KQFV 011020Z AUTO 10001KT 8000 HZ CLR 11/08 A3022 RMK A02 TSNO"
"1641","QFV",2019-11-01 10:30:00,127.5,38.05,50,46.4,87.37,100,1,0,30.22,NA,4.97,NA,"CLR",NA,NA,NA,NA,NA,NA,NA,"HZ",NA,NA,NA,NA,NA,NA,NA,"KQFV 011030Z AUTO 10001KT 8000 HZ CLR 10/08 A3022 RMK A02 TSNO"
"1642","QFV",2019-11-01 10:40:00,127.5,38.05,50,46.4,87.37,110,1,0,30.22,NA,3.73,NA,"CLR",NA,NA,NA,NA,NA,NA,NA,NA,NA,NA,NA,NA,NA,NA,NA,"KQFV 011040Z AUTO 11001KT 6000 // CLR 10/08 A3022 RMK A02 TSNO"
"1643","QFV",2019-11-01 10:50:00,127.5,38.05,50,46.4,87.37,210,1,0,30.22,NA,3.73,NA,"CLR",NA,NA,NA,NA,NA,NA,NA,NA,NA,NA,NA,NA,NA,NA,NA,"KQFV 011050Z AUTO 21001KT 6000 // CLR 10/08 A3022 RMK A02 TSNO"
"1644","QFV",2019-11-01 11:00:00,127.5,38.05,50,46.4,87.37,280,1,0,30.22,NA,3.73,NA,"CLR",NA,NA,NA,NA,NA,NA,NA,NA,NA,NA,NA,NA,NA,NA,NA,"KQFV 011100Z AUTO 28001KT 6000 // CLR 10/08 A3022 RMK A02 TSNO"
"1645","QFV",2019-11-01 11:50:00,127.5,38.05,48.2,46.4,93.45,120,1,0,30.22,NA,3.73,NA,"CLR",NA,NA,NA,NA,NA,NA,NA,NA,NA,NA,NA,NA,NA,NA,NA,"KQFV 011150Z AUTO 12001KT 6000 // CLR 09/08 A3022 RMK A02 TSNO"
"1646","QFV",2019-11-01 12:00:00,127.5,38.05,46.4,46.4,100,60,1,0,30.22,NA,3.73,NA,"CLR",NA,NA,NA,NA,NA,NA,NA,NA,NA,NA,NA,NA,NA,NA,NA,"KQFV 011200Z AUTO 06001KT 6000 // CLR 08/08 A3022 RMK A02 TSNO"
"1647","QFV",2019-11-01 12:10:00,127.5,38.05,46.4,46.4,100,30,1,0,30.22,NA,3.73,NA,"CLR",NA,NA,NA,NA,NA,NA,NA,NA,NA,NA,NA,NA,NA,NA,NA,"KQFV 011210Z AUTO 03001KT 6000 // CLR 08/08 A3022 RMK A02 TSNO"
"1648","QFV",2019-11-01 12:20:00,127.5,38.05,46.4,46.4,100,130,2,0,30.22,NA,3.73,NA,"CLR",NA,NA,NA,NA,NA,NA,NA,NA,NA,NA,NA,NA,NA,NA,NA,"KQFV 011220Z AUTO 13002KT 6000 // CLR 08/08 A3022 RMK A02 TSNO"
"1649","QFV",2019-11-01 12:30:00,127.5,38.05,44.6,46.4,NA,10,1,0,30.22,NA,2.98,NA,"CLR",NA,NA,NA,NA,NA,NA,NA,NA,NA,NA,NA,NA,NA,NA,NA,"KQFV 011230Z AUTO 01001KT 4800 // CLR 07/08 A3022 RMK A02 TSNO"
"1650","QFV",2019-11-01 12:40:00,127.5,38.05,46.4,46.4,100,180,1,0,30.22,NA,3.73,NA,"CLR",NA,NA,NA,NA,NA,NA,NA,NA,NA,NA,NA,NA,NA,NA,NA,"KQFV 011240Z AUTO 18001KT 6000 // CLR 08/08 A3022 RMK A02 TSNO"
"1651","QFV",2019-11-01 12:50:00,127.5,38.05,44.6,46.4,NA,100,1,0,30.22,NA,2.98,NA,"CLR",NA,NA,NA,NA,NA,NA,NA,NA,NA,NA,NA,NA,NA,NA,NA,"KQFV 011250Z AUTO 10001KT 4800 // CLR 07/08 A3022 RMK A02 TSNO"
"1652","QFV",2019-11-01 13:00:00,127.5,38.05,44.6,46.4,NA,130,1,0,30.22,NA,2.98,NA,"CLR",NA,NA,NA,NA,NA,NA,NA,NA,NA,NA,NA,NA,NA,NA,NA,"KQFV 011300Z AUTO 13001KT 4800 // CLR 07/08 A3022 RMK A02 TSNO"
"1653","QFV",2019-11-01 13:10:00,127.5,38.05,44.6,46.4,NA,10,1,0,30.22,NA,2.98,NA,"CLR",NA,NA,NA,NA,NA,NA,NA,NA,NA,NA,NA,NA,NA,NA,NA,"KQFV 011310Z AUTO 01001KT 4800 // CLR 07/08 A3022 RMK A02 TSNO"
"1654","QFV",2019-11-01 13:20:00,127.5,38.05,44.6,46.4,NA,100,1,0,30.23,NA,3.73,NA,"CLR",NA,NA,NA,NA,NA,NA,NA,NA,NA,NA,NA,NA,NA,NA,NA,"KQFV 011320Z AUTO 10001KT 6000 // CLR 07/08 A3023 RMK A02 TSNO"
"1655","QFV",2019-11-01 13:30:00,127.5,38.05,44.6,46.4,NA,80,1,0,30.23,NA,2.98,NA,"CLR",NA,NA,NA,NA,NA,NA,NA,NA,NA,NA,NA,NA,NA,NA,NA,"KQFV 011330Z AUTO 08001KT 4800 // CLR 07/08 A3023 RMK A02 TSNO"
"1656","QFV",2019-11-01 13:40:00,127.5,38.05,44.6,46.4,NA,20,1,0,30.23,NA,2.98,NA,"CLR",NA,NA,NA,NA,NA,NA,NA,NA,NA,NA,NA,NA,NA,NA,NA,"KQFV 011340Z AUTO 02001KT 4800 // CLR 07/08 A3023 RMK A02 TSNO"
"1657","QFV",2019-11-01 13:50:00,127.5,38.05,42.8,44.6,NA,50,1,0,30.23,NA,2.49,NA,"CLR",NA,NA,NA,NA,NA,NA,NA,NA,NA,NA,NA,NA,NA,NA,NA,"KQFV 011350Z AUTO 05001KT 4000 // CLR 06/07 A3023 RMK A02 TSNO"
"1658","QFV",2019-11-01 14:00:00,127.5,38.05,42.8,46.4,NA,100,1,0,30.23,NA,1.99,NA,"CLR",NA,NA,NA,NA,NA,NA,NA,NA,NA,NA,NA,NA,NA,NA,NA,"KQFV 011400Z AUTO 10001KT 3200 // CLR 06/08 A3023 RMK A02 TSNO"
"1659","QFV",2019-11-01 14:10:00,127.5,38.05,42.8,46.4,NA,260,1,0,30.24,NA,2.49,NA,"CLR",NA,NA,NA,NA,NA,NA,NA,NA,NA,NA,NA,NA,NA,NA,NA,"KQFV 011410Z AUTO 26001KT 4000 // CLR 06/08 A3024 RMK A02 TSNO"
"1660","QFV",2019-11-01 14:20:00,127.5,38.05,42.8,44.6,NA,110,2,0,30.23,NA,2.98,NA,"CLR",NA,NA,NA,NA,NA,NA,NA,NA,NA,NA,NA,NA,NA,NA,NA,"KQFV 011420Z AUTO 11002KT 4800 // CLR 06/07 A3023 RMK A02 TSNO"
"1661","QFV",2019-11-01 14:30:00,127.5,38.05,42.8,44.6,NA,130,1,0,30.23,NA,2.49,NA,"CLR",NA,NA,NA,NA,NA,NA,NA,NA,NA,NA,NA,NA,NA,NA,NA,"KQFV 011430Z AUTO 13001KT 4000 // CLR 06/07 A3023 RMK A02 TSNO"
"1662","QFV",2019-11-01 14:40:00,127.5,38.05,NA,NA,NA,120,1,0,NA,NA,NA,NA,NA,NA,NA,NA,NA,NA,NA,NA,NA,NA,NA,NA,NA,NA,NA,NA,"KQFV 011440Z AUTO 12001KT 4000 // CLR 06/07 / RMK A02 TSNO"
"1663","QFV",2019-11-01 14:50:00,127.5,38.05,NA,NA,NA,110,1,0,NA,NA,NA,NA,NA,NA,NA,NA,NA,NA,NA,NA,NA,NA,NA,NA,NA,NA,NA,NA,"KQFV 011450Z AUTO 11001KT 4000 // CLR 06/07 / RMK A02 TSNO"
"1664","QFV",2019-11-01 15:00:00,127.5,38.05,NA,NA,NA,80,1,0,NA,NA,NA,NA,NA,NA,NA,NA,NA,NA,NA,NA,NA,NA,NA,NA,NA,NA,NA,NA,"KQFV 011500Z AUTO 08001KT 3200 // CLR 06/07 / RMK A02 TSNO"
"1665","QFV",2019-11-01 15:10:00,127.5,38.05,NA,NA,NA,140,1,0,NA,NA,NA,NA,NA,NA,NA,NA,NA,NA,NA,NA,NA,NA,NA,NA,NA,NA,NA,NA,"KQFV 011510Z AUTO 14001KT 4000 // CLR 06/07 / RMK A02 TSNO"
"1666","QFV",2019-11-01 15:20:00,127.5,38.05,NA,NA,NA,0,0,0,NA,NA,NA,NA,NA,NA,NA,NA,NA,NA,NA,NA,NA,NA,NA,NA,NA,NA,NA,NA,"KQFV 011520Z AUTO 00000KT 4000 // CLR 06/07 / RMK A02 TSNO"
"1667","QFV",2019-11-01 15:30:00,127.5,38.05,NA,NA,NA,110,1,0,NA,NA,NA,NA,NA,NA,NA,NA,NA,NA,NA,NA,NA,NA,NA,NA,NA,NA,NA,NA,"KQFV 011530Z AUTO 11001KT 4000 // CLR 06/07 / RMK A02 TSNO"
"1668","QFV",2019-11-01 15:40:00,127.5,38.05,NA,NA,NA,120,1,0,NA,NA,NA,NA,NA,NA,NA,NA,NA,NA,NA,NA,NA,NA,NA,NA,NA,NA,NA,NA,"KQFV 011540Z AUTO 12001KT 4000 // CLR 06/07 / RMK A02 TSNO"
"1669","QFV",2019-11-01 15:50:00,127.5,38.05,NA,NA,NA,330,1,0,NA,NA,NA,NA,NA,NA,NA,NA,NA,NA,NA,NA,NA,NA,NA,NA,NA,NA,NA,NA,"KQFV 011550Z AUTO 33001KT 4000 // CLR 06/07 / RMK A02 TSNO"
"1670","QFV",2019-11-01 16:00:00,127.5,38.05,NA,NA,NA,110,2,0,NA,NA,NA,NA,NA,NA,NA,NA,NA,NA,NA,NA,NA,NA,NA,NA,NA,NA,NA,NA,"KQFV 011600Z AUTO 11002KT 4000 // CLR 06/07 / RMK A02 TSNO"
"1671","QFV",2019-11-01 16:10:00,127.5,38.05,NA,NA,NA,110,1,0,NA,NA,NA,NA,NA,NA,NA,NA,NA,NA,NA,NA,NA,NA,NA,NA,NA,NA,NA,NA,"KQFV 011610Z AUTO 11001KT 4000 // CLR 06/07 / RMK A02 TSNO"
"1672","QFV",2019-11-01 16:20:00,127.5,38.05,NA,NA,NA,300,1,0,NA,NA,NA,NA,NA,NA,NA,NA,NA,NA,NA,NA,NA,NA,NA,NA,NA,NA,NA,NA,"KQFV 011620Z AUTO 30001KT 4000 // CLR 06/07 / RMK A02 TSNO"
"1673","QFV",2019-11-01 16:30:00,127.5,38.05,NA,NA,NA,310,1,0,NA,NA,NA,NA,NA,NA,NA,NA,NA,NA,NA,NA,NA,NA,NA,NA,NA,NA,NA,NA,"KQFV 011630Z AUTO 31001KT 4000 // CLR 06/07 / RMK A02 TSNO"
"1674","QFV",2019-11-01 16:40:00,127.5,38.05,NA,NA,NA,110,1,0,NA,NA,NA,NA,NA,NA,NA,NA,NA,NA,NA,NA,NA,NA,NA,NA,NA,NA,NA,NA,"KQFV 011640Z AUTO 11001KT 4000 // CLR 06/07 / RMK A02 TSNO"
"1675","QFV",2019-11-01 16:50:00,127.5,38.05,NA,NA,NA,100,1,0,NA,NA,NA,NA,NA,NA,NA,NA,NA,NA,NA,NA,NA,NA,NA,NA,NA,NA,NA,NA,"KQFV 011650Z AUTO 10001KT 4000 // CLR 06/07 / RMK A02 TSNO"
"1676","QFV",2019-11-01 17:00:00,127.5,38.05,NA,NA,NA,90,1,0,NA,NA,NA,NA,NA,NA,NA,NA,NA,NA,NA,NA,NA,NA,NA,NA,NA,NA,NA,NA,"KQFV 011700Z AUTO 09001KT 4000 // CLR 06/07 / RMK A02 TSNO"
"1677","QFV",2019-11-01 17:20:00,127.5,38.05,NA,NA,NA,110,1,0,NA,NA,NA,NA,NA,NA,NA,NA,NA,NA,NA,NA,NA,NA,NA,NA,NA,NA,NA,NA,"KQFV 011720Z AUTO 11001KT 4000 // CLR 06/07 / RMK A02 TSNO"
"1678","QFV",2019-11-01 17:30:00,127.5,38.05,NA,NA,NA,0,0,0,NA,NA,NA,NA,NA,NA,NA,NA,NA,NA,NA,NA,NA,NA,NA,NA,NA,NA,NA,NA,"KQFV 011730Z AUTO 00000KT 4000 // CLR 06/07 / RMK A02 TSNO"
"1679","QFV",2019-11-01 17:40:00,127.5,38.05,NA,NA,NA,110,1,0,NA,NA,NA,NA,NA,NA,NA,NA,NA,NA,NA,NA,NA,NA,NA,NA,NA,NA,NA,NA,"KQFV 011740Z AUTO 11001KT 4000 // CLR 06/07 / RMK A02 TSNO"
"1680","QFV",2019-11-01 17:50:00,127.5,38.05,NA,NA,NA,250,1,0,NA,NA,NA,NA,NA,NA,NA,NA,NA,NA,NA,NA,NA,NA,NA,NA,NA,NA,NA,NA,"KQFV 011750Z AUTO 25001KT 4000 // CLR 06/07 / RMK A02 TSNO"
"1681","QFV",2019-11-01 18:00:00,127.5,38.05,NA,NA,NA,250,1,0,NA,NA,NA,NA,NA,NA,NA,NA,NA,NA,NA,NA,NA,NA,NA,NA,NA,NA,NA,NA,"KQFV 011800Z AUTO 25001KT 4000 // CLR 06/07 / RMK A02 TSNO"
"1682","QFV",2019-11-01 18:10:00,127.5,38.05,NA,NA,NA,110,2,0,NA,NA,NA,NA,NA,NA,NA,NA,NA,NA,NA,NA,NA,NA,NA,NA,NA,NA,NA,NA,"KQFV 011810Z AUTO 11002KT 4800 // CLR 06/07 / RMK A02 TSNO"
"1683","QFV",2019-11-01 18:20:00,127.5,38.05,NA,NA,NA,90,1,0,NA,NA,NA,NA,NA,NA,NA,NA,NA,NA,NA,NA,NA,NA,NA,NA,NA,NA,NA,NA,"KQFV 011820Z AUTO 09001KT 4000 // CLR 06/07 / RMK A02 TSNO"
"1684","QFV",2019-11-01 18:30:00,127.5,38.05,NA,NA,NA,120,1,0,NA,NA,NA,NA,NA,NA,NA,NA,NA,NA,NA,NA,NA,NA,NA,NA,NA,NA,NA,NA,"KQFV 011830Z AUTO 12001KT 4000 // CLR 06/07 / RMK A02 TSNO"
"1685","QFV",2019-11-01 18:40:00,127.5,38.05,NA,NA,NA,110,1,0,NA,NA,NA,NA,NA,NA,NA,NA,NA,NA,NA,NA,NA,NA,NA,NA,NA,NA,NA,NA,"KQFV 011840Z AUTO 11001KT 4000 // CLR 06/07 / RMK A02 TSNO"
"1686","QFV",2019-11-01 18:50:00,127.5,38.05,NA,NA,NA,140,1,0,NA,NA,NA,NA,NA,NA,NA,NA,NA,NA,NA,NA,NA,NA,NA,NA,NA,NA,NA,NA,"KQFV 011850Z AUTO 14001KT 4000 // CLR 06/07 / RMK A02 TSNO"
"1687","QFV",2019-11-01 19:00:00,127.5,38.05,NA,NA,NA,90,1,0,NA,NA,NA,NA,NA,NA,NA,NA,NA,NA,NA,NA,NA,NA,NA,NA,NA,NA,NA,NA,"KQFV 011900Z AUTO 09001KT 4000 // CLR 06/07 / RMK A02 TSNO"
"1688","QFV",2019-11-01 19:10:00,127.5,38.05,NA,NA,NA,240,1,0,NA,NA,NA,NA,NA,NA,NA,NA,NA,NA,NA,NA,NA,NA,NA,NA,NA,NA,NA,NA,"KQFV 011910Z AUTO 24001KT 4000 // CLR 06/07 / RMK A02 TSNO"
"1689","QFV",2019-11-01 19:20:00,127.5,38.05,NA,NA,NA,320,1,0,NA,NA,NA,NA,NA,NA,NA,NA,NA,NA,NA,NA,NA,NA,NA,NA,NA,NA,NA,NA,"KQFV 011920Z AUTO 32001KT 4800 // CLR 06/07 / RMK A02 TSNO"
"1690","QFV",2019-11-01 19:30:00,127.5,38.05,NA,NA,NA,140,2,0,NA,NA,NA,NA,NA,NA,NA,NA,NA,NA,NA,NA,NA,NA,NA,NA,NA,NA,NA,NA,"KQFV 011930Z AUTO 14002KT 4800 // CLR 06/07 / RMK A02 TSNO"
"1691","QFV",2019-11-01 19:40:00,127.5,38.05,NA,NA,NA,80,2,0,NA,NA,NA,NA,NA,NA,NA,NA,NA,NA,NA,NA,NA,NA,NA,NA,NA,NA,NA,NA,"KQFV 011940Z AUTO 08002KT 4800 // CLR 06/07 / RMK A02 TSNO"
"1692","QFV",2019-11-01 19:50:00,127.5,38.05,NA,NA,NA,120,1,0,NA,NA,NA,NA,NA,NA,NA,NA,NA,NA,NA,NA,NA,NA,NA,NA,NA,NA,NA,NA,"KQFV 011950Z AUTO 12001KT 4800 // CLR 06/07 / RMK A02 TSNO"
"1693","QFV",2019-11-01 20:00:00,127.5,38.05,NA,NA,NA,100,1,0,NA,NA,NA,NA,NA,NA,NA,NA,NA,NA,NA,NA,NA,NA,NA,NA,NA,NA,NA,NA,"KQFV 012000Z AUTO 10001KT 4000 // CLR 06/07 / RMK A02 TSNO"
"1694","QFV",2019-11-01 20:10:00,127.5,38.05,NA,NA,NA,90,1,0,NA,NA,NA,NA,NA,NA,NA,NA,NA,NA,NA,NA,NA,NA,NA,NA,NA,NA,NA,NA,"KQFV 012010Z AUTO 09001KT 4800 // CLR 06/07 / RMK A02 TSNO"
"1695","QFV",2019-11-01 20:20:00,127.5,38.05,NA,NA,NA,0,0,0,NA,NA,NA,NA,NA,NA,NA,NA,NA,NA,NA,NA,NA,NA,NA,NA,NA,NA,NA,NA,"KQFV 012020Z AUTO 00000KT 4000 // CLR 06/07 / RMK A02 TSNO"
"1696","QFV",2019-11-01 20:30:00,127.5,38.05,NA,NA,NA,0,0,0,NA,NA,NA,NA,NA,NA,NA,NA,NA,NA,NA,NA,NA,NA,NA,NA,NA,NA,NA,NA,"KQFV 012030Z AUTO 00000KT 4800 // CLR 06/07 / RMK A02 TSNO"
"1697","QFV",2019-11-01 20:40:00,127.5,38.05,NA,NA,NA,0,0,0,NA,NA,NA,NA,NA,NA,NA,NA,NA,NA,NA,NA,NA,NA,NA,NA,NA,NA,NA,NA,"KQFV 012040Z AUTO 00000KT 4800 // CLR 06/07 / RMK A02 TSNO"
"1698","QFV",2019-11-01 20:50:00,127.5,38.05,NA,NA,NA,150,1,0,NA,NA,NA,NA,NA,NA,NA,NA,NA,NA,NA,NA,NA,NA,NA,NA,NA,NA,NA,NA,"KQFV 012050Z AUTO 15001KT 4000 // CLR 06/07 / RMK A02 TSNO"
"1699","QFV",2019-11-01 21:00:00,127.5,38.05,NA,NA,NA,0,0,0,NA,NA,NA,NA,NA,NA,NA,NA,NA,NA,NA,NA,NA,NA,NA,NA,NA,NA,NA,NA,"KQFV 012100Z AUTO 00000KT 4000 // FEW004 06/07 / RMK A02 TSNO"
"1700","QFV",2019-11-01 21:10:00,127.5,38.05,NA,NA,NA,90,1,0,NA,NA,NA,NA,NA,NA,NA,NA,NA,NA,NA,NA,NA,NA,NA,NA,NA,NA,NA,NA,"KQFV 012110Z AUTO 09001KT 4000 // FEW004 06/07 / RMK A02 TSNO"
"1701","QFV",2019-11-01 21:20:00,127.5,38.05,NA,NA,NA,0,0,0,NA,NA,NA,NA,NA,NA,NA,NA,NA,NA,NA,NA,NA,NA,NA,NA,NA,NA,NA,NA,"KQFV 012120Z AUTO 00000KT 4000 // FEW004 06/07 / RMK A02 TSNO"
"1702","QFV",2019-11-01 21:30:00,127.5,38.05,NA,NA,NA,130,1,0,NA,NA,NA,NA,NA,NA,NA,NA,NA,NA,NA,NA,NA,NA,NA,NA,NA,NA,NA,NA,"KQFV 012130Z AUTO 13001KT 4000 // CLR 06/07 / RMK A02 TSNO"
"1703","QFV",2019-11-01 21:40:00,127.5,38.05,NA,NA,NA,80,1,0,NA,NA,NA,NA,NA,NA,NA,NA,NA,NA,NA,NA,NA,NA,NA,NA,NA,NA,NA,NA,"KQFV 012140Z AUTO 08001KT 4800 // FEW003 06/07 / RMK A02 TSNO"
"1704","QFV",2019-11-01 21:50:00,127.5,38.05,NA,NA,NA,110,2,0,NA,NA,NA,NA,NA,NA,NA,NA,NA,NA,NA,NA,NA,NA,NA,NA,NA,NA,NA,NA,"KQFV 012150Z AUTO 11002KT 4000 // BKN003 06/07 / RMK A02 TSNO"
"1705","QFV",2019-11-01 22:00:00,127.5,38.05,NA,NA,NA,90,1,0,NA,NA,NA,NA,NA,NA,NA,NA,NA,NA,NA,NA,NA,NA,NA,NA,NA,NA,NA,NA,"KQFV 012200Z AUTO 09001KT 2000 // BKN003 06/07 / RMK A02 TSNO"
"1706","QFV",2019-11-01 22:10:00,127.5,38.05,NA,NA,NA,100,1,0,NA,NA,NA,NA,NA,NA,NA,NA,NA,NA,NA,NA,NA,NA,NA,NA,NA,NA,NA,NA,"KQFV 012210Z AUTO 10001KT 3200 // BKN003 06/07 / RMK A02 TSNO"
"1707","QFV",2019-11-01 22:20:00,127.5,38.05,NA,NA,NA,100,1,0,NA,NA,NA,NA,NA,NA,NA,NA,NA,NA,NA,NA,NA,NA,NA,NA,NA,NA,NA,NA,"KQFV 012220Z AUTO 10001KT 4000 // BKN003 06/07 / RMK A02 TSNO"
"1708","QFV",2019-11-01 22:30:00,127.5,38.05,NA,NA,NA,200,1,0,NA,NA,NA,NA,NA,NA,NA,NA,NA,NA,NA,NA,NA,NA,NA,NA,NA,NA,NA,NA,"KQFV 012230Z AUTO 20001KT 4000 // BKN003 06/07 / RMK A02 TSNO"
"1709","QFV",2019-11-01 22:40:00,127.5,38.05,NA,NA,NA,90,1,0,NA,NA,NA,NA,NA,NA,NA,NA,NA,NA,NA,NA,NA,NA,NA,NA,NA,NA,NA,NA,"KQFV 012240Z AUTO 09001KT 3200 // SCT003 06/07 / RMK A02 TSNO"
"1710","QFV",2019-11-01 22:50:00,127.5,38.05,NA,NA,NA,120,1,0,NA,NA,NA,NA,NA,NA,NA,NA,NA,NA,NA,NA,NA,NA,NA,NA,NA,NA,NA,NA,"KQFV 012250Z AUTO 12001KT 2800 // FEW002 FEW003 06/07 / RMK A02 TSNO"
"1711","QFV",2019-11-01 23:00:00,127.5,38.05,NA,NA,NA,120,1,0,NA,NA,NA,NA,NA,NA,NA,NA,NA,NA,NA,NA,NA,NA,NA,NA,NA,NA,NA,NA,"KQFV 012300Z AUTO 12001KT 3200 // FEW002 06/07 / RMK A02 TSNO"
"1712","QFV",2019-11-01 23:10:00,127.5,38.05,NA,NA,NA,110,1,0,NA,NA,NA,NA,NA,NA,NA,NA,NA,NA,NA,NA,NA,NA,NA,NA,NA,NA,NA,NA,"KQFV 012310Z AUTO 11001KT 3200 // FEW002 06/07 / RMK A02 TSNO"
"1713","QFV",2019-11-01 23:20:00,127.5,38.05,39.2,41,NA,100,1,0,30.24,NA,1.99,NA,"CLR",NA,NA,NA,NA,NA,NA,NA,NA,NA,NA,NA,NA,NA,NA,NA,"KQFV 012320Z AUTO 10001KT 3200 // CLR 04/05 A3024 RMK A02 TSNO"
"1714","QFV",2019-11-01 23:30:00,127.5,38.05,NA,NA,NA,100,2,0,NA,NA,NA,NA,NA,NA,NA,NA,NA,NA,NA,NA,NA,NA,NA,NA,NA,NA,NA,NA,"KQFV 012330Z AUTO 10002KT 2400 // CLR 04/05 / RMK A02 TSNO"
"1715","QFV",2019-11-01 23:40:00,127.5,38.05,41,41,100,60,1,0,30.24,NA,1.99,NA,"CLR",NA,NA,NA,NA,NA,NA,NA,NA,NA,NA,NA,NA,NA,NA,NA,"KQFV 012340Z AUTO 06001KT 3200 // CLR 05/05 A3024 RMK A02 TSNO"
"1716","QFV",2019-11-01 23:50:00,127.5,38.05,41,41,100,130,1,0,30.24,NA,2.49,NA,"FEW",NA,NA,NA,200,NA,NA,NA,NA,NA,NA,NA,NA,NA,NA,NA,"KQFV 012350Z AUTO 13001KT 4000 // FEW002 05/05 A3024 RMK A02 TSNO"
"1717","RKPS",2019-11-01 00:00:00,128.0704,35.0885,50,48.2,93.5,80,2,0,30.21,1023.3,4.97,NA,"NSC",NA,NA,NA,NA,NA,NA,NA,NA,NA,NA,NA,NA,NA,NA,NA,"RKPS 010000Z 08002KT 8000 NSC 10/09 Q1023 RMK SLP233"
"1718","RKPS",2019-11-01 01:00:00,128.0704,35.0885,59,51.8,76.98,70,1,0,30.21,1023.1,6.21,NA,NA,NA,NA,NA,NA,NA,NA,NA,NA,NA,NA,NA,NA,NA,NA,NA,"RKPS 010100Z 07001KT CAVOK 15/11 Q1023 RMK SLP231"
"1719","RKPS",2019-11-01 02:00:00,128.0704,35.0885,64.4,51.8,63.6,90,2,0,30.18,1022.7,6.21,NA,NA,NA,NA,NA,NA,NA,NA,NA,NA,NA,NA,NA,NA,NA,NA,NA,"RKPS 010200Z 09002KT CAVOK 18/11 Q1022 RMK SLP227"
"1720","RKPS",2019-11-01 04:00:00,128.0704,35.0885,71.6,53.6,53.03,290,1,0,30.12,1021,6.21,NA,NA,NA,NA,NA,NA,NA,NA,NA,NA,NA,NA,NA,NA,NA,NA,NA,"RKPS 010400Z 29001KT CAVOK 22/12 Q1020 RMK SLP210"
"1721","RKPS",2019-11-01 05:00:00,128.0704,35.0885,73.4,46.4,38.18,230,3,0,30.12,1020.2,6.21,NA,NA,NA,NA,NA,NA,NA,NA,NA,NA,NA,NA,NA,NA,NA,NA,NA,"RKPS 010500Z 23003KT CAVOK 23/08 Q1020 RMK SLP202"
"1722","RKPS",2019-11-01 06:00:00,128.0704,35.0885,73.4,46.4,38.18,240,6,0,30.12,1020.3,6.21,NA,NA,NA,NA,NA,NA,NA,NA,NA,NA,NA,NA,NA,NA,NA,NA,NA,"RKPS 010600Z 24006KT CAVOK 23/08 Q1020 RMK SLP203"
"1723","RKPS",2019-11-01 06:49:00,128.0704,35.0885,71.6,50,46.43,240,5,0,30.14,NA,6.21,NA,"CLR",NA,NA,NA,NA,NA,NA,NA,NA,NA,NA,NA,NA,NA,NA,NA,"RKPS 010649Z 24005KT 9999 SKC 22/10 A3014"
"1724","RKPS",2019-11-01 06:53:00,128.0704,35.0885,NA,NA,NA,NA,NA,0,NA,NA,NA,NA,NA,NA,NA,NA,NA,NA,NA,NA,NA,NA,NA,NA,NA,NA,NA,NA,"RKPS 010653Z 01SPECI"
"1725","RKPS",2019-11-01 07:00:00,128.0704,35.0885,71.6,51.8,49.64,250,5,0,30,1020.3,6.21,NA,NA,NA,NA,NA,NA,NA,NA,NA,NA,NA,NA,NA,NA,NA,NA,NA,"RKPS 010700Z 25005KT CAVOK 22/11 Q1016 RMK SLP203"
"1726","RKPS",2019-11-01 08:00:00,128.0704,35.0885,64.4,50,59.5,240,5,0,30.12,1020.2,6.21,NA,NA,NA,NA,NA,NA,NA,NA,NA,NA,NA,NA,NA,NA,NA,NA,NA,"RKPS 010800Z 24005KT CAVOK 18/10 Q1020 RMK SLP202"
"1727","RKPS",2019-11-01 08:52:00,128.0704,35.0885,59,48.2,67.33,10,2,0,30.14,NA,6.21,NA,"CLR",NA,NA,NA,NA,NA,NA,NA,NA,NA,NA,NA,NA,NA,NA,NA,"RKPS 010852Z 01002KT 9999 SKC 15/09 A3014"
"1728","RKPS",2019-11-01 08:57:00,128.0704,35.0885,NA,NA,NA,NA,NA,0,NA,NA,NA,NA,NA,NA,NA,NA,NA,NA,NA,NA,NA,NA,NA,NA,NA,NA,NA,NA,"RKPS 010857Z 01SPECI"
"1729","RKPS",2019-11-01 09:00:00,128.0704,35.0885,59,48.2,67.33,20,2,0,30.12,1020.6,6.21,NA,NA,NA,NA,NA,NA,NA,NA,NA,NA,NA,NA,NA,NA,NA,NA,NA,"RKPS 010900Z 02002KT CAVOK 15/09 Q1020 RMK SLP206"
"1730","RKPS",2019-11-01 10:00:00,128.0704,35.0885,55.4,48.2,76.66,10,3,0,30.15,1021.5,6.21,NA,NA,NA,NA,NA,NA,NA,NA,NA,NA,NA,NA,NA,NA,NA,NA,NA,"RKPS 011000Z 01003KT CAVOK 13/09 Q1021 RMK SLP215 8/008 9/002"
"1731","RKPS",2019-11-01 11:00:00,128.0704,35.0885,55.4,48.2,76.66,50,2,0,30.18,1022.2,6.21,NA,NA,NA,NA,NA,NA,NA,NA,NA,NA,NA,NA,NA,NA,NA,NA,NA,"RKPS 011100Z 05002KT CAVOK 13/09 Q1022 RMK SLP222 8/008 9/003"
"1732","RKPS",2019-11-01 12:00:00,128.0704,35.0885,51.8,48.2,87.47,40,3,0,30.18,1022.4,6.21,NA,NA,NA,NA,NA,NA,NA,NA,NA,NA,NA,NA,NA,NA,NA,NA,NA,"RKPS 011200Z 04003KT CAVOK 11/09 Q1022 RMK SLP224 8/008 9/003"
"1733","RKPS",2019-11-01 13:00:00,128.0704,35.0885,51.8,48.2,87.47,20,2,0,30.21,1022.8,6.21,NA,NA,NA,NA,NA,NA,NA,NA,NA,NA,NA,NA,NA,NA,NA,NA,NA,"RKPS 011300Z 02002KT CAVOK 11/09 Q1023 RMK SLP228 8/008 9/003"
"1734","RKPS",2019-11-01 14:00:00,128.0704,35.0885,50,48.2,93.5,30,3,0,30.21,1022.8,5.59,NA,"NSC",NA,NA,NA,NA,NA,NA,NA,NA,NA,NA,NA,NA,NA,NA,49.27,"RKPS 011400Z 03003KT 9000 NSC 10/09 Q1023 RMK SLP228 8/008 9/002"
"1735","RKPS",2019-11-01 15:00:00,128.0704,35.0885,50,48.2,93.5,40,2,0,30.21,1022.8,4.97,NA,"NSC",NA,NA,NA,NA,NA,NA,NA,NA,NA,NA,NA,NA,NA,NA,NA,"RKPS 011500Z 04002KT 8000 NSC 10/09 Q1023 RMK SLP228 8/008 9/001"
"1736","RKPS",2019-11-01 16:00:00,128.0704,35.0885,48.2,46.4,93.45,70,4,0,30.21,1022.9,3.73,NA,"FEW","FEW",NA,NA,4000,20000,NA,NA,NA,NA,NA,NA,NA,NA,NA,46.34,"RKPS 011600Z 07004KT 6000 FEW040 FEW200 09/08 Q1023 RMK SLP229 8/508 9/101"
"1737","RKPS",2019-11-01 17:00:00,128.0704,35.0885,48.2,46.4,93.45,60,2,0,30.21,1023.2,2.98,NA,"FEW","SCT",NA,NA,4000,20000,NA,NA,"BR",NA,NA,NA,NA,NA,NA,NA,"RKPS 011700Z 06002KT 4800 BR FEW040 SCT200 09/08 Q1023 RMK SLP232 8/508 9/201"
"1738","RKPS",2019-11-01 18:00:00,128.0704,35.0885,46.4,46.4,100,50,3,0,30.21,1022.9,2.98,NA,"FEW","FEW",NA,NA,4000,20000,NA,NA,"BR",NA,NA,NA,NA,NA,NA,45.15,"RKPS 011800Z 05003KT 4800 BR FEW040 FEW200 08/08 Q1023 RMK SLP229 8/508 9/101"
"1739","RKPS",2019-11-01 19:00:00,128.0704,35.0885,44.6,44.6,100,60,4,0,30.18,1022.5,2.49,NA,"FEW","FEW",NA,NA,4000,20000,NA,NA,"BR",NA,NA,NA,NA,NA,NA,42.13,"RKPS 011900Z 06004KT 4000 BR FEW040 FEW200 07/07 Q1022 RMK SLP225 8/508 9/101"
"1740","RKPS",2019-11-01 20:00:00,128.0704,35.0885,44.6,44.6,100,40,3,0,30,1022.5,2.49,NA,"FEW","FEW",NA,NA,4000,20000,NA,NA,"BR",NA,NA,NA,NA,NA,NA,43.09,"RKPS 012000Z 04003KT 4000 BR FEW040 FEW200 07/07 Q1016 RMK SLP225 8/508 9/101"
"1741","RKPS",2019-11-01 21:00:00,128.0704,35.0885,44.6,44.6,100,70,2,0,30.18,1022.8,1.99,NA,"FEW","FEW",NA,NA,4000,20000,NA,NA,"BR",NA,NA,NA,NA,NA,NA,NA,"RKPS 012100Z 07002KT 3200 BR FEW040 FEW200 07/07 Q1022 RMK SLP228 8/508 9/101"
"1742","RKPS",2019-11-01 22:00:00,128.0704,35.0885,42.8,42.8,100,60,5,0,30.21,1022.9,1.99,NA,"NSC",NA,NA,NA,NA,NA,NA,NA,"BR",NA,NA,NA,NA,NA,NA,39.22,"RKPS 012200Z 06005KT 3200 BR NSC 06/06 Q1023 RMK SLP229 8/008 9/003"
"1743","RKPS",2019-11-01 23:00:00,128.0704,35.0885,48.2,48.2,100,70,4,0,30.21,1023.2,2.49,NA,"FEW","SCT",NA,NA,4000,20000,NA,NA,"BR",NA,NA,NA,NA,NA,NA,46.34,"RKPS 012300Z 07004KT 4000 BR FEW040 SCT200 09/09 Q1023 RMK SLP232 8/508 9/103"
"1744","QEW",2019-11-01 00:00:00,128.15,36.4,60.8,53.6,77.14,230,5,0,30.17,NA,3.73,11,"FEW",NA,NA,NA,3000,NA,NA,NA,"HZ",NA,NA,NA,NA,NA,NA,NA,"KQEW 010000Z AUTO 23005G11KT 6000 HZ FEW030 16/12 A3017 RMK A02 TSNO"
"1745","QEW",2019-11-01 00:10:00,128.15,36.4,60.8,53.6,77.14,260,4,0,30.17,NA,3.73,12,"FEW",NA,NA,NA,2900,NA,NA,NA,"HZ",NA,NA,NA,NA,NA,NA,NA,"KQEW 010010Z AUTO 26004G12KT 6000 HZ FEW029 16/12 A3017 RMK A02 TSNO"
"1746","QEW",2019-11-01 00:20:00,128.15,36.4,60.8,53.6,77.14,240,3,0,30.17,NA,3.73,14,"FEW",NA,NA,NA,2800,NA,NA,NA,"HZ",NA,NA,NA,NA,NA,NA,NA,"KQEW 010020Z AUTO 24003G14KT 6000 HZ FEW028 16/12 A3017 RMK A02 TSNO"
"1747","QEW",2019-11-01 00:30:00,128.15,36.4,60.8,53.6,77.14,200,3,0,30.17,NA,3.73,11,"SCT",NA,NA,NA,2800,NA,NA,NA,"HZ",NA,NA,NA,NA,NA,NA,NA,"KQEW 010030Z AUTO 20003G11KT 6000 HZ SCT028 16/12 A3017 RMK A02 TSNO"
"1748","QEW",2019-11-01 00:40:00,128.15,36.4,62.6,51.8,67.75,240,4,0,30.17,NA,3.73,NA,"BKN",NA,NA,NA,2800,NA,NA,NA,"HZ",NA,NA,NA,NA,NA,NA,NA,"KQEW 010040Z AUTO 24004KT 6000 HZ BKN028 17/11 A3017 RMK A02 TSNO"
"1749","QEW",2019-11-01 00:50:00,128.15,36.4,62.6,51.8,67.75,240,3,0,30.17,NA,3.73,10,"BKN",NA,NA,NA,2900,NA,NA,NA,"HZ",NA,NA,NA,NA,NA,NA,NA,"KQEW 010050Z AUTO 24003G10KT 6000 HZ BKN029 17/11 A3017 RMK A02 TSNO"
"1750","QEW",2019-11-01 01:00:00,128.15,36.4,62.6,51.8,67.75,250,5,0,30.17,NA,3.73,NA,"BKN",NA,NA,NA,3000,NA,NA,NA,"HZ",NA,NA,NA,NA,NA,NA,NA,"KQEW 010100Z AUTO 25005KT 6000 HZ BKN030 17/11 A3017 RMK A02 TSNO"
"1751","QEW",2019-11-01 01:10:00,128.15,36.4,62.6,50,63.38,250,6,0,30.17,NA,4.97,NA,"BKN",NA,NA,NA,3000,NA,NA,NA,"HZ",NA,NA,NA,NA,NA,NA,NA,"KQEW 010110Z AUTO 25006KT 8000 HZ BKN030 17/10 A3017 RMK A02 TSNO"
"1752","QEW",2019-11-01 01:20:00,128.15,36.4,64.4,50,59.5,230,4,0,30.16,NA,3.73,NA,"BKN",NA,NA,NA,3100,NA,NA,NA,"HZ",NA,NA,NA,NA,NA,NA,NA,"KQEW 010120Z AUTO 23004KT 6000 HZ BKN031 18/10 A3016 RMK A02 TSNO"
"1753","QEW",2019-11-01 01:30:00,128.15,36.4,64.4,51.8,63.6,240,6,0,30.16,NA,4.97,NA,"BKN",NA,NA,NA,3200,NA,NA,NA,"HZ",NA,NA,NA,NA,NA,NA,NA,"KQEW 010130Z AUTO 24006KT 8000 HZ BKN032 18/11 A3016 RMK A02 TSNO"
"1754","QEW",2019-11-01 01:40:00,128.15,36.4,64.4,50,59.5,260,4,0,30.16,NA,4.97,NA,"BKN",NA,NA,NA,3200,NA,NA,NA,"HZ",NA,NA,NA,NA,NA,NA,NA,"KQEW 010140Z AUTO 26004KT 8000 HZ BKN032 18/10 A3016 RMK A02 TSNO"
"1755","QEW",2019-11-01 01:50:00,128.15,36.4,64.4,50,59.5,260,4,0,30.16,NA,4.97,NA,"SCT",NA,NA,NA,3200,NA,NA,NA,"HZ",NA,NA,NA,NA,NA,NA,NA,"KQEW 010150Z AUTO 26004KT 8000 HZ SCT032 18/10 A3016 RMK A02 TSNO"
"1756","QEW",2019-11-01 02:00:00,128.15,36.4,64.4,50,59.5,260,3,0,30.16,NA,5.59,NA,"FEW",NA,NA,NA,3200,NA,NA,NA,"HZ",NA,NA,NA,NA,NA,NA,NA,"KQEW 010200Z AUTO 26003KT 9000 HZ FEW032 18/10 A3016 RMK A02 TSNO"
"1757","QEW",2019-11-01 02:10:00,128.15,36.4,64.4,50,59.5,250,3,0,30.16,NA,6.21,NA,"FEW",NA,NA,NA,8000,NA,NA,NA,NA,NA,NA,NA,NA,NA,NA,NA,"KQEW 010210Z AUTO 25003KT 9999 FEW080 18/10 A3016 RMK A02 TSNO"
"1758","QEW",2019-11-01 02:20:00,128.15,36.4,66.2,50,55.88,280,3,0,30.15,NA,6.21,NA,"CLR",NA,NA,NA,NA,NA,NA,NA,NA,NA,NA,NA,NA,NA,NA,NA,"KQEW 010220Z AUTO 28003KT 9999 CLR 19/10 A3015 RMK A02 TSNO"
"1759","QEW",2019-11-01 02:30:00,128.15,36.4,66.2,50,55.88,300,2,0,30.15,NA,6.21,NA,"CLR",NA,NA,NA,NA,NA,NA,NA,NA,NA,NA,NA,NA,NA,NA,NA,"KQEW 010230Z AUTO 30002KT 9999 CLR 19/10 A3015 RMK A02 TSNO"
"1760","QEW",2019-11-01 02:40:00,128.15,36.4,66.2,48.2,52.25,250,4,0,30.15,NA,6.21,10,"CLR",NA,NA,NA,NA,NA,NA,NA,NA,NA,NA,NA,NA,NA,NA,NA,"KQEW 010240Z AUTO 25004G10KT 9999 CLR 19/09 A3015 RMK A02 TSNO"
"1761","QEW",2019-11-01 02:50:00,128.15,36.4,66.2,48.2,52.25,260,3,0,30.15,NA,6.21,NA,"CLR",NA,NA,NA,NA,NA,NA,NA,NA,NA,NA,NA,NA,NA,NA,NA,"KQEW 010250Z AUTO 26003KT 9999 CLR 19/09 A3015 RMK A02 TSNO"
"1762","QEW",2019-11-01 03:00:00,128.15,36.4,68,48.2,49.1,240,4,0,30.14,NA,6.21,NA,"CLR",NA,NA,NA,NA,NA,NA,NA,NA,NA,NA,NA,NA,NA,NA,NA,"KQEW 010300Z AUTO 24004KT 9999 CLR 20/09 A3014 RMK A02 TSNO"
"1763","QEW",2019-11-01 03:20:00,128.15,36.4,68,48.2,49.1,240,3,0,30.14,NA,6.21,NA,"CLR",NA,NA,NA,NA,NA,NA,NA,NA,NA,NA,NA,NA,NA,NA,NA,"KQEW 010320Z AUTO 24003KT 9999 CLR 20/09 A3014 RMK A02 TSNO"
"1764","QEW",2019-11-01 03:30:00,128.15,36.4,69.8,48.2,46.16,200,2,0,30.13,NA,6.21,NA,"CLR",NA,NA,NA,NA,NA,NA,NA,NA,NA,NA,NA,NA,NA,NA,NA,"KQEW 010330Z AUTO 20002KT 9999 CLR 21/09 A3013 RMK A02 TSNO"
"1765","QEW",2019-11-01 03:40:00,128.15,36.4,69.8,50,49.37,250,2,0,30.13,NA,6.21,NA,"CLR",NA,NA,NA,NA,NA,NA,NA,NA,NA,NA,NA,NA,NA,NA,NA,"KQEW 010340Z AUTO 25002KT 9999 CLR 21/10 A3013 RMK A02 TSNO"
"1766","QEW",2019-11-01 03:50:00,128.15,36.4,69.8,46.4,43.13,140,3,0,30.12,NA,6.21,NA,"FEW",NA,NA,NA,4600,NA,NA,NA,NA,NA,NA,NA,NA,NA,NA,NA,"KQEW 010350Z AUTO 14003KT 9999 FEW046 21/08 A3012 RMK A02 TSNO"
"1767","QEW",2019-11-01 04:00:00,128.15,36.4,69.8,48.2,46.16,270,2,0,30.12,NA,6.21,NA,"FEW",NA,NA,NA,4600,NA,NA,NA,NA,NA,NA,NA,NA,NA,NA,NA,"KQEW 010400Z AUTO 27002KT 9999 FEW046 21/09 A3012 RMK A02 TSNO"
"1768","QEW",2019-11-01 04:10:00,128.15,36.4,69.8,48.2,46.16,300,2,0,30.12,NA,6.21,NA,"FEW",NA,NA,NA,4600,NA,NA,NA,NA,NA,NA,NA,NA,NA,NA,NA,"KQEW 010410Z AUTO 30002KT 9999 FEW046 21/09 A3012 RMK A02 TSNO"
"1769","QEW",2019-11-01 04:20:00,128.15,36.4,71.6,46.4,40.57,190,1,0,30.11,NA,6.21,NA,"CLR",NA,NA,NA,NA,NA,NA,NA,NA,NA,NA,NA,NA,NA,NA,NA,"KQEW 010420Z AUTO 19001KT 9999 CLR 22/08 A3011 RMK A02 TSNO"
"1770","QEW",2019-11-01 04:30:00,128.15,36.4,71.6,46.4,40.57,250,4,0,30.11,NA,6.21,NA,"CLR",NA,NA,NA,NA,NA,NA,NA,NA,NA,NA,NA,NA,NA,NA,NA,"KQEW 010430Z AUTO 25004KT 9999 CLR 22/08 A3011 RMK A02 TSNO"
"1771","QEW",2019-11-01 04:40:00,128.15,36.4,71.6,46.4,40.57,240,3,0,30.11,NA,6.21,NA,"CLR",NA,NA,NA,NA,NA,NA,NA,NA,NA,NA,NA,NA,NA,NA,NA,"KQEW 010440Z AUTO 24003KT 9999 CLR 22/08 A3011 RMK A02 TSNO"
"1772","QEW",2019-11-01 04:50:00,128.15,36.4,71.6,46.4,40.57,230,2,0,30.11,NA,6.21,NA,"CLR",NA,NA,NA,NA,NA,NA,NA,NA,NA,NA,NA,NA,NA,NA,NA,"KQEW 010450Z AUTO 23002KT 9999 CLR 22/08 A3011 RMK A02 TSNO"
"1773","QEW",2019-11-01 05:00:00,128.15,36.4,71.6,44.6,37.89,230,3,0,30.11,NA,6.21,NA,"CLR",NA,NA,NA,NA,NA,NA,NA,NA,NA,NA,NA,NA,NA,NA,NA,"KQEW 010500Z AUTO 23003KT 9999 CLR 22/07 A3011 RMK A02 TSNO"
"1774","QEW",2019-11-01 05:10:00,128.15,36.4,71.6,44.6,37.89,220,2,0,30.11,NA,6.21,NA,"CLR",NA,NA,NA,NA,NA,NA,NA,NA,NA,NA,NA,NA,NA,NA,NA,"KQEW 010510Z AUTO 22002KT 9999 CLR 22/07 A3011 RMK A02 TSNO"
"1775","QEW",2019-11-01 05:20:00,128.15,36.4,71.6,46.4,40.57,280,2,0,30.11,NA,6.21,NA,"CLR",NA,NA,NA,NA,NA,NA,NA,NA,NA,NA,NA,NA,NA,NA,NA,"KQEW 010520Z AUTO 28002KT 9999 CLR 22/08 A3011 RMK A02 TSNO"
"1776","QEW",2019-11-01 05:30:00,128.15,36.4,71.6,46.4,40.57,250,3,0,30.11,NA,6.21,NA,"CLR",NA,NA,NA,NA,NA,NA,NA,NA,NA,NA,NA,NA,NA,NA,NA,"KQEW 010530Z AUTO 25003KT 9999 CLR 22/08 A3011 RMK A02 TSNO"
"1777","QEW",2019-11-01 05:40:00,128.15,36.4,71.6,46.4,40.57,250,1,0,30.11,NA,6.21,NA,"CLR",NA,NA,NA,NA,NA,NA,NA,NA,NA,NA,NA,NA,NA,NA,NA,"KQEW 010540Z AUTO 25001KT 9999 CLR 22/08 A3011 RMK A02 TSNO"
"1778","QEW",2019-11-01 05:50:00,128.15,36.4,71.6,44.6,37.89,270,2,0,30.11,NA,6.21,NA,"CLR",NA,NA,NA,NA,NA,NA,NA,NA,NA,NA,NA,NA,NA,NA,NA,"KQEW 010550Z AUTO 27002KT 9999 CLR 22/07 A3011 RMK A02 TSNO"
"1779","QEW",2019-11-01 06:00:00,128.15,36.4,71.6,44.6,37.89,220,3,0,30.11,NA,6.21,NA,"CLR",NA,NA,NA,NA,NA,NA,NA,NA,NA,NA,NA,NA,NA,NA,NA,"KQEW 010600Z AUTO 22003KT 9999 CLR 22/07 A3011 RMK A02 TSNO"
"1780","QEW",2019-11-01 06:10:00,128.15,36.4,71.6,44.6,37.89,250,4,0,30.11,NA,6.21,NA,"CLR",NA,NA,NA,NA,NA,NA,NA,NA,NA,NA,NA,NA,NA,NA,NA,"KQEW 010610Z AUTO 25004KT 9999 CLR 22/07 A3011 RMK A02 TSNO"
"1781","QEW",2019-11-01 06:20:00,128.15,36.4,71.6,44.6,37.89,240,2,0,30.11,NA,6.21,NA,"CLR",NA,NA,NA,NA,NA,NA,NA,NA,NA,NA,NA,NA,NA,NA,NA,"KQEW 010620Z AUTO 24002KT 9999 CLR 22/07 A3011 RMK A02 TSNO"
"1782","QEW",2019-11-01 06:30:00,128.15,36.4,71.6,42.8,35.37,250,4,0,30.11,NA,6.21,NA,"CLR",NA,NA,NA,NA,NA,NA,NA,NA,NA,NA,NA,NA,NA,NA,NA,"KQEW 010630Z AUTO 25004KT 9999 CLR 22/06 A3011 RMK A02 TSNO"
"1783","QEW",2019-11-01 06:40:00,128.15,36.4,69.8,44.6,40.29,260,2,0,30.11,NA,6.21,NA,"CLR",NA,NA,NA,NA,NA,NA,NA,NA,NA,NA,NA,NA,NA,NA,NA,"KQEW 010640Z AUTO 26002KT 9999 CLR 21/07 A3011 RMK A02 TSNO"
"1784","QEW",2019-11-01 06:50:00,128.15,36.4,69.8,42.8,37.61,250,3,0,30.12,NA,6.21,NA,"CLR",NA,NA,NA,NA,NA,NA,NA,NA,NA,NA,NA,NA,NA,NA,NA,"KQEW 010650Z AUTO 25003KT 9999 CLR 21/06 A3012 RMK A02 TSNO"
"1785","QEW",2019-11-01 07:00:00,128.15,36.4,69.8,42.8,37.61,280,2,0,30.11,NA,6.21,NA,"CLR",NA,NA,NA,NA,NA,NA,NA,NA,NA,NA,NA,NA,NA,NA,NA,"KQEW 010700Z AUTO 28002KT 9999 CLR 21/06 A3011 RMK A02 TSNO"
"1786","QEW",2019-11-01 07:10:00,128.15,36.4,69.8,42.8,37.61,250,3,0,30.11,NA,6.21,NA,"CLR",NA,NA,NA,NA,NA,NA,NA,NA,NA,NA,NA,NA,NA,NA,NA,"KQEW 010710Z AUTO 25003KT 9999 CLR 21/06 A3011 RMK A02 TSNO"
"1787","QEW",2019-11-01 07:20:00,128.15,36.4,69.8,42.8,37.61,250,3,0,30.11,NA,6.21,NA,"CLR",NA,NA,NA,NA,NA,NA,NA,NA,NA,NA,NA,NA,NA,NA,NA,"KQEW 010720Z AUTO 25003KT 9999 CLR 21/06 A3011 RMK A02 TSNO"
"1788","QEW",2019-11-01 07:30:00,128.15,36.4,68,42.8,40,250,4,0,30.11,NA,6.21,NA,"CLR",NA,NA,NA,NA,NA,NA,NA,NA,NA,NA,NA,NA,NA,NA,NA,"KQEW 010730Z AUTO 25004KT 9999 CLR 20/06 A3011 RMK A02 TSNO"
"1789","QEW",2019-11-01 07:40:00,128.15,36.4,68,42.8,40,250,3,0,30.11,NA,6.21,NA,"CLR",NA,NA,NA,NA,NA,NA,NA,NA,NA,NA,NA,NA,NA,NA,NA,"KQEW 010740Z AUTO 25003KT 9999 CLR 20/06 A3011 RMK A02 TSNO"
"1790","QEW",2019-11-01 07:50:00,128.15,36.4,68,42.8,40,250,2,0,30.11,NA,6.21,NA,"CLR",NA,NA,NA,NA,NA,NA,NA,NA,NA,NA,NA,NA,NA,NA,NA,"KQEW 010750Z AUTO 25002KT 9999 CLR 20/06 A3011 RMK A02 TSNO"
"1791","QEW",2019-11-01 08:00:00,128.15,36.4,68,41,37.32,260,4,0,30.12,NA,6.21,NA,"CLR",NA,NA,NA,NA,NA,NA,NA,NA,NA,NA,NA,NA,NA,NA,NA,"KQEW 010800Z AUTO 26004KT 9999 CLR 20/05 A3012 RMK A02 TSNO"
"1792","QEW",2019-11-01 08:10:00,128.15,36.4,66.2,41,39.72,260,3,0,30.12,NA,6.21,NA,"CLR",NA,NA,NA,NA,NA,NA,NA,NA,NA,NA,NA,NA,NA,NA,NA,"KQEW 010810Z AUTO 26003KT 9999 CLR 19/05 A3012 RMK A02 TSNO"
"1793","QEW",2019-11-01 08:20:00,128.15,36.4,66.2,41,39.72,260,2,0,30.12,NA,6.21,NA,"CLR",NA,NA,NA,NA,NA,NA,NA,NA,NA,NA,NA,NA,NA,NA,NA,"KQEW 010820Z AUTO 26002KT 9999 CLR 19/05 A3012 RMK A02 TSNO"
"1794","QEW",2019-11-01 08:30:00,128.15,36.4,66.2,42.8,42.57,160,4,0,30.13,NA,6.21,NA,"CLR",NA,NA,NA,NA,NA,NA,NA,NA,NA,NA,NA,NA,NA,NA,NA,"KQEW 010830Z AUTO 16004KT 9999 CLR 19/06 A3013 RMK A02 TSNO"
"1795","QEW",2019-11-01 08:40:00,128.15,36.4,64.4,42.8,45.32,220,2,0,30.13,NA,6.21,NA,"CLR",NA,NA,NA,NA,NA,NA,NA,NA,NA,NA,NA,NA,NA,NA,NA,"KQEW 010840Z AUTO 22002KT 9999 CLR 18/06 A3013 RMK A02 TSNO"
"1796","QEW",2019-11-01 08:50:00,128.15,36.4,64.4,44.6,48.55,160,5,0,30.14,NA,6.21,NA,"CLR",NA,NA,NA,NA,NA,NA,NA,NA,NA,NA,NA,NA,NA,NA,NA,"KQEW 010850Z AUTO 16005KT 9999 CLR 18/07 A3014 RMK A02 TSNO"
"1797","QEW",2019-11-01 09:00:00,128.15,36.4,62.6,44.6,51.72,160,4,0,30.14,NA,6.21,NA,"CLR",NA,NA,NA,NA,NA,NA,NA,NA,NA,NA,NA,NA,NA,NA,NA,"KQEW 010900Z AUTO 16004KT 9999 CLR 17/07 A3014 RMK A02 TSNO"
"1798","QEW",2019-11-01 09:10:00,128.15,36.4,62.6,44.6,51.72,150,5,0,30.14,NA,6.21,NA,"CLR",NA,NA,NA,NA,NA,NA,NA,NA,NA,NA,NA,NA,NA,NA,NA,"KQEW 010910Z AUTO 15005KT 9999 CLR 17/07 A3014 RMK A02 TSNO"
"1799","QEW",2019-11-01 09:20:00,128.15,36.4,60.8,44.6,55.12,150,3,0,30.15,NA,6.21,NA,"CLR",NA,NA,NA,NA,NA,NA,NA,NA,NA,NA,NA,NA,NA,NA,NA,"KQEW 010920Z AUTO 15003KT 9999 CLR 16/07 A3015 RMK A02 TSNO"
"1800","QEW",2019-11-01 09:30:00,128.15,36.4,62.6,42.8,48.28,180,3,0,30.15,NA,6.21,NA,"CLR",NA,NA,NA,NA,NA,NA,NA,NA,NA,NA,NA,NA,NA,NA,NA,"KQEW 010930Z AUTO 18003KT 9999 CLR 17/06 A3015 RMK A02 TSNO"
"1801","QEW",2019-11-01 09:40:00,128.15,36.4,62.6,42.8,48.28,180,3,0,30.15,NA,6.21,NA,"CLR",NA,NA,NA,NA,NA,NA,NA,NA,NA,NA,NA,NA,NA,NA,NA,"KQEW 010940Z AUTO 18003KT 9999 CLR 17/06 A3015 RMK A02 TSNO"
"1802","QEW",2019-11-01 09:50:00,128.15,36.4,62.6,42.8,48.28,150,1,0,30.15,NA,6.21,NA,"CLR",NA,NA,NA,NA,NA,NA,NA,NA,NA,NA,NA,NA,NA,NA,NA,"KQEW 010950Z AUTO 15001KT 9999 CLR 17/06 A3015 RMK A02 TSNO"
"1803","QEW",2019-11-01 10:00:00,128.15,36.4,60.8,44.6,55.12,10,2,0,30.16,NA,6.21,NA,"CLR",NA,NA,NA,NA,NA,NA,NA,NA,NA,NA,NA,NA,NA,NA,NA,"KQEW 011000Z AUTO 01002KT 9999 CLR 16/07 A3016 RMK A02 TSNO"
"1804","QEW",2019-11-01 10:10:00,128.15,36.4,59,44.6,58.77,270,1,0,30.16,NA,6.21,NA,"CLR",NA,NA,NA,NA,NA,NA,NA,NA,NA,NA,NA,NA,NA,NA,NA,"KQEW 011010Z AUTO 27001KT 9999 CLR 15/07 A3016 RMK A02 TSNO"
"1805","QEW",2019-11-01 10:20:00,128.15,36.4,59,44.6,58.77,150,1,0,30.16,NA,6.21,NA,"CLR",NA,NA,NA,NA,NA,NA,NA,NA,NA,NA,NA,NA,NA,NA,NA,"KQEW 011020Z AUTO 15001KT 9999 CLR 15/07 A3016 RMK A02 TSNO"
"1806","QEW",2019-11-01 10:30:00,128.15,36.4,57.2,44.6,62.69,280,2,0,30.16,NA,6.21,NA,"CLR",NA,NA,NA,NA,NA,NA,NA,NA,NA,NA,NA,NA,NA,NA,NA,"KQEW 011030Z AUTO 28002KT 9999 CLR 14/07 A3016 RMK A02 TSNO"
"1807","QEW",2019-11-01 10:40:00,128.15,36.4,57.2,44.6,62.69,280,2,0,30.16,NA,6.21,NA,"CLR",NA,NA,NA,NA,NA,NA,NA,NA,NA,NA,NA,NA,NA,NA,NA,"KQEW 011040Z AUTO 28002KT 9999 CLR 14/07 A3016 RMK A02 TSNO"
"1808","QEW",2019-11-01 10:50:00,128.15,36.4,57.2,44.6,62.69,270,2,0,30.16,NA,6.21,NA,"CLR",NA,NA,NA,NA,NA,NA,NA,NA,NA,NA,NA,NA,NA,NA,NA,"KQEW 011050Z AUTO 27002KT 9999 CLR 14/07 A3016 RMK A02 TSNO"
"1809","QEW",2019-11-01 11:00:00,128.15,36.4,55.4,44.6,66.91,170,1,0,30.17,NA,6.21,NA,"CLR",NA,NA,NA,NA,NA,NA,NA,NA,NA,NA,NA,NA,NA,NA,NA,"KQEW 011100Z AUTO 17001KT 9999 CLR 13/07 A3017 RMK A02 TSNO"
"1810","QEW",2019-11-01 11:10:00,128.15,36.4,55.4,44.6,66.91,280,1,0,30.16,NA,6.21,NA,"CLR",NA,NA,NA,NA,NA,NA,NA,NA,NA,NA,NA,NA,NA,NA,NA,"KQEW 011110Z AUTO 28001KT 9999 CLR 13/07 A3016 RMK A02 TSNO"
"1811","QEW",2019-11-01 11:20:00,128.15,36.4,55.4,44.6,66.91,290,1,0,30.17,NA,6.21,NA,"CLR",NA,NA,NA,NA,NA,NA,NA,NA,NA,NA,NA,NA,NA,NA,NA,"KQEW 011120Z AUTO 29001KT 9999 CLR 13/07 A3017 RMK A02 TSNO"
"1812","QEW",2019-11-01 11:30:00,128.15,36.4,55.4,46.4,71.64,50,1,0,30.17,NA,6.21,NA,"CLR",NA,NA,NA,NA,NA,NA,NA,NA,NA,NA,NA,NA,NA,NA,NA,"KQEW 011130Z AUTO 05001KT 9999 CLR 13/08 A3017 RMK A02 TSNO"
"1813","QEW",2019-11-01 11:40:00,128.15,36.4,55.4,46.4,71.64,290,1,0,30.17,NA,5.59,NA,"CLR",NA,NA,NA,NA,NA,NA,NA,"HZ",NA,NA,NA,NA,NA,NA,NA,"KQEW 011140Z AUTO 29001KT 9000 HZ CLR 13/08 A3017 RMK A02 TSNO"
"1814","QEW",2019-11-01 11:50:00,128.15,36.4,53.6,46.4,76.5,340,2,0,30.17,NA,4.97,NA,"CLR",NA,NA,NA,NA,NA,NA,NA,"HZ",NA,NA,NA,NA,NA,NA,NA,"KQEW 011150Z AUTO 34002KT 8000 HZ CLR 12/08 A3017 RMK A02 TSNO"
"1815","QEW",2019-11-01 12:00:00,128.15,36.4,53.6,46.4,76.5,30,2,0,30.17,NA,4.97,NA,"CLR",NA,NA,NA,NA,NA,NA,NA,"HZ",NA,NA,NA,NA,NA,NA,NA,"KQEW 011200Z AUTO 03002KT 8000 HZ CLR 12/08 A3017 RMK A02 TSNO"
"1816","QEW",2019-11-01 12:10:00,128.15,36.4,53.6,44.6,71.45,270,2,0,30.18,NA,5.59,NA,"CLR",NA,NA,NA,NA,NA,NA,NA,"HZ",NA,NA,NA,NA,NA,NA,NA,"KQEW 011210Z AUTO 27002KT 9000 HZ CLR 12/07 A3018 RMK A02 TSNO"
"1817","QEW",2019-11-01 12:20:00,128.15,36.4,53.6,46.4,76.5,270,3,0,30.18,NA,6.21,NA,"CLR",NA,NA,NA,NA,NA,NA,NA,NA,NA,NA,NA,NA,NA,NA,NA,"KQEW 011220Z AUTO 27003KT 9999 CLR 12/08 A3018 RMK A02 TSNO"
"1818","QEW",2019-11-01 12:30:00,128.15,36.4,53.6,46.4,76.5,280,2,0,30.18,NA,5.59,NA,"CLR",NA,NA,NA,NA,NA,NA,NA,"HZ",NA,NA,NA,NA,NA,NA,NA,"KQEW 011230Z AUTO 28002KT 9000 HZ CLR 12/08 A3018 RMK A02 TSNO"
"1819","QEW",2019-11-01 12:40:00,128.15,36.4,51.8,44.6,76.34,290,1,0,30.18,NA,5.59,NA,"CLR",NA,NA,NA,NA,NA,NA,NA,"HZ",NA,NA,NA,NA,NA,NA,NA,"KQEW 011240Z AUTO 29001KT 9000 HZ CLR 11/07 A3018 RMK A02 TSNO"
"1820","QEW",2019-11-01 12:50:00,128.15,36.4,51.8,46.4,81.74,170,4,0,30.18,NA,5.59,NA,"CLR",NA,NA,NA,NA,NA,NA,NA,"HZ",NA,NA,NA,NA,NA,NA,NA,"KQEW 011250Z AUTO 17004KT 9000 HZ CLR 11/08 A3018 RMK A02 TSNO"
"1821","QEW",2019-11-01 13:00:00,128.15,36.4,51.8,46.4,81.74,170,2,0,30.19,NA,3.73,NA,"CLR",NA,NA,NA,NA,NA,NA,NA,"HZ",NA,NA,NA,NA,NA,NA,NA,"KQEW 011300Z AUTO 17002KT 6000 HZ CLR 11/08 A3019 RMK A02 TSNO"
"1822","QEW",2019-11-01 13:10:00,128.15,36.4,51.8,46.4,81.74,140,2,0,30.19,NA,4.97,NA,"CLR",NA,NA,NA,NA,NA,NA,NA,"HZ",NA,NA,NA,NA,NA,NA,NA,"KQEW 011310Z AUTO 14002KT 8000 HZ CLR 11/08 A3019 RMK A02 TSNO"
"1823","QEW",2019-11-01 13:20:00,128.15,36.4,51.8,46.4,81.74,130,2,0,30.2,NA,4.97,NA,"SCT",NA,NA,NA,24000,NA,NA,NA,"HZ",NA,NA,NA,NA,NA,NA,NA,"KQEW 011320Z AUTO 13002KT 8000 HZ SCT240 11/08 A3020 RMK A02 TSNO"
"1824","QEW",2019-11-01 13:30:00,128.15,36.4,53.6,46.4,76.5,60,1,0,30.2,NA,4.97,NA,"BKN",NA,NA,NA,24000,NA,NA,NA,"HZ",NA,NA,NA,NA,NA,NA,NA,"KQEW 011330Z AUTO 06001KT 8000 HZ BKN240 12/08 A3020 RMK A02 TSNO"
"1825","QEW",2019-11-01 13:40:00,128.15,36.4,51.8,46.4,81.74,310,1,0,30.2,NA,4.97,NA,"BKN",NA,NA,NA,24000,NA,NA,NA,"HZ",NA,NA,NA,NA,NA,NA,NA,"KQEW 011340Z AUTO 31001KT 8000 HZ BKN240 11/08 A3020 RMK A02 TSNO"
"1826","QEW",2019-11-01 13:50:00,128.15,36.4,51.8,46.4,81.74,280,1,0,30.2,NA,4.97,NA,"SCT",NA,NA,NA,24000,NA,NA,NA,"HZ",NA,NA,NA,NA,NA,NA,NA,"KQEW 011350Z AUTO 28001KT 8000 HZ SCT240 11/08 A3020 RMK A02 TSNO"
"1827","QEW",2019-11-01 14:00:00,128.15,36.4,51.8,46.4,81.74,340,1,0,30.2,NA,3.73,NA,"FEW",NA,NA,NA,24000,NA,NA,NA,"HZ",NA,NA,NA,NA,NA,NA,NA,"KQEW 011400Z AUTO 34001KT 6000 HZ FEW240 11/08 A3020 RMK A02 TSNO"
"1828","QEW",2019-11-01 14:10:00,128.15,36.4,51.8,46.4,81.74,70,1,0,30.2,NA,4.97,NA,"CLR",NA,NA,NA,NA,NA,NA,NA,"HZ",NA,NA,NA,NA,NA,NA,NA,"KQEW 011410Z AUTO 07001KT 8000 HZ CLR 11/08 A3020 RMK A02 TSNO"
"1829","QEW",2019-11-01 14:20:00,128.15,36.4,51.8,46.4,81.74,270,1,0,30.2,NA,4.97,NA,"CLR",NA,NA,NA,NA,NA,NA,NA,"HZ",NA,NA,NA,NA,NA,NA,NA,"KQEW 011420Z AUTO 27001KT 8000 HZ CLR 11/08 A3020 RMK A02 TSNO"
"1830","QEW",2019-11-01 14:30:00,128.15,36.4,50,46.4,87.37,290,1,0,30.2,NA,3.73,NA,"CLR",NA,NA,NA,NA,NA,NA,NA,"HZ",NA,NA,NA,NA,NA,NA,NA,"KQEW 011430Z AUTO 29001KT 6000 HZ CLR 10/08 A3020 RMK A02 TSNO"
"1831","QEW",2019-11-01 14:40:00,128.15,36.4,50,46.4,87.37,0,0,0,30.19,NA,3.73,NA,"CLR",NA,NA,NA,NA,NA,NA,NA,NA,NA,NA,NA,NA,NA,NA,NA,"KQEW 011440Z AUTO 00000KT 6000 // CLR 10/08 A3019 RMK A02 TSNO"
"1832","QEW",2019-11-01 14:50:00,128.15,36.4,50,46.4,87.37,70,1,0,30.19,NA,3.73,NA,"CLR",NA,NA,NA,NA,NA,NA,NA,NA,NA,NA,NA,NA,NA,NA,NA,"KQEW 011450Z AUTO 07001KT 6000 // CLR 10/08 A3019 RMK A02 TSNO"
"1833","QEW",2019-11-01 15:00:00,128.15,36.4,50,46.4,87.37,160,1,0,30.19,NA,3.73,NA,"CLR",NA,NA,NA,NA,NA,NA,NA,NA,NA,NA,NA,NA,NA,NA,NA,"KQEW 011500Z AUTO 16001KT 6000 // CLR 10/08 A3019 RMK A02 TSNO"
"1834","QEW",2019-11-01 15:10:00,128.15,36.4,48.2,46.4,93.45,80,1,0,30.19,NA,3.73,NA,"CLR",NA,NA,NA,NA,NA,NA,NA,NA,NA,NA,NA,NA,NA,NA,NA,"KQEW 011510Z AUTO 08001KT 6000 // CLR 09/08 A3019 RMK A02 TSNO"
"1835","QEW",2019-11-01 15:20:00,128.15,36.4,50,46.4,87.37,160,3,0,30.2,NA,3.73,NA,"CLR",NA,NA,NA,NA,NA,NA,NA,NA,NA,NA,NA,NA,NA,NA,49.27,"KQEW 011520Z AUTO 16003KT 6000 // CLR 10/08 A3020 RMK A02 TSNO"
"1836","QEW",2019-11-01 15:30:00,128.15,36.4,48.2,46.4,93.45,300,1,0,30.2,NA,3.73,NA,"CLR",NA,NA,NA,NA,NA,NA,NA,NA,NA,NA,NA,NA,NA,NA,NA,"KQEW 011530Z AUTO 30001KT 6000 // CLR 09/08 A3020 RMK A02 TSNO"
"1837","QEW",2019-11-01 15:40:00,128.15,36.4,48.2,46.4,93.45,50,1,0,30.2,NA,2.98,NA,"CLR",NA,NA,NA,NA,NA,NA,NA,NA,NA,NA,NA,NA,NA,NA,NA,"KQEW 011540Z AUTO 05001KT 4800 // CLR 09/08 A3020 RMK A02 TSNO"
"1838","QEW",2019-11-01 15:50:00,128.15,36.4,48.2,46.4,93.45,0,0,0,30.2,NA,3.73,NA,"CLR",NA,NA,NA,NA,NA,NA,NA,NA,NA,NA,NA,NA,NA,NA,NA,"KQEW 011550Z AUTO 00000KT 6000 // CLR 09/08 A3020 RMK A02 TSNO"
"1839","QEW",2019-11-01 16:00:00,128.15,36.4,48.2,46.4,93.45,270,2,0,30.2,NA,3.73,NA,"CLR",NA,NA,NA,NA,NA,NA,NA,NA,NA,NA,NA,NA,NA,NA,NA,"KQEW 011600Z AUTO 27002KT 6000 // CLR 09/08 A3020 RMK A02 TSNO"
"1840","QEW",2019-11-01 16:10:00,128.15,36.4,48.2,46.4,93.45,0,0,0,30.2,NA,3.73,NA,"CLR",NA,NA,NA,NA,NA,NA,NA,NA,NA,NA,NA,NA,NA,NA,NA,"KQEW 011610Z AUTO 00000KT 6000 // CLR 09/08 A3020 RMK A02 TSNO"
"1841","QEW",2019-11-01 16:20:00,128.15,36.4,48.2,46.4,93.45,70,1,0,30.2,NA,3.73,NA,"CLR",NA,NA,NA,NA,NA,NA,NA,NA,NA,NA,NA,NA,NA,NA,NA,"KQEW 011620Z AUTO 07001KT 6000 // CLR 09/08 A3020 RMK A02 TSNO"
"1842","QEW",2019-11-01 16:30:00,128.15,36.4,48.2,46.4,93.45,260,1,0,30.2,NA,2.98,NA,"CLR",NA,NA,NA,NA,NA,NA,NA,NA,NA,NA,NA,NA,NA,NA,NA,"KQEW 011630Z AUTO 26001KT 4800 // CLR 09/08 A3020 RMK A02 TSNO"
"1843","QEW",2019-11-01 16:40:00,128.15,36.4,48.2,46.4,93.45,250,1,0,30.2,NA,2.98,NA,"CLR",NA,NA,NA,NA,NA,NA,NA,NA,NA,NA,NA,NA,NA,NA,NA,"KQEW 011640Z AUTO 25001KT 4800 // CLR 09/08 A3020 RMK A02 TSNO"
"1844","QEW",2019-11-01 16:50:00,128.15,36.4,48.2,46.4,93.45,40,1,0,30.2,NA,2.98,NA,"CLR",NA,NA,NA,NA,NA,NA,NA,NA,NA,NA,NA,NA,NA,NA,NA,"KQEW 011650Z AUTO 04001KT 4800 // CLR 09/08 A3020 RMK A02 TSNO"
"1845","QEW",2019-11-01 17:00:00,128.15,36.4,46.4,46.4,100,260,1,0,30.21,NA,2.98,NA,"FEW",NA,NA,NA,4900,NA,NA,NA,NA,NA,NA,NA,NA,NA,NA,NA,"KQEW 011700Z AUTO 26001KT 4800 // FEW049 08/08 A3021 RMK A02 TSNO"
"1846","QEW",2019-11-01 17:10:00,128.15,36.4,46.4,46.4,100,250,1,0,30.2,NA,2.98,NA,"FEW",NA,NA,NA,4900,NA,NA,NA,NA,NA,NA,NA,NA,NA,NA,NA,"KQEW 011710Z AUTO 25001KT 4800 // FEW049 08/08 A3020 RMK A02 TSNO"
"1847","QEW",2019-11-01 17:20:00,128.15,36.4,46.4,46.4,100,240,1,0,30.2,NA,2.49,NA,"FEW",NA,NA,NA,4800,NA,NA,NA,NA,NA,NA,NA,NA,NA,NA,NA,"KQEW 011720Z AUTO 24001KT 4000 // FEW048 08/08 A3020 RMK A02 TSNO"
"1848","QEW",2019-11-01 17:30:00,128.15,36.4,46.4,46.4,100,0,0,0,30.2,NA,2.49,NA,"FEW",NA,NA,NA,4800,NA,NA,NA,NA,NA,NA,NA,NA,NA,NA,NA,"KQEW 011730Z AUTO 00000KT 4000 // FEW048 08/08 A3020 RMK A02 TSNO"
"1849","QEW",2019-11-01 17:40:00,128.15,36.4,46.4,46.4,100,0,0,0,30.19,NA,2.98,NA,"SCT",NA,NA,NA,4700,NA,NA,NA,NA,NA,NA,NA,NA,NA,NA,NA,"KQEW 011740Z AUTO 00000KT 4800 // SCT047 08/08 A3019 RMK A02 TSNO"
"1850","QEW",2019-11-01 17:50:00,128.15,36.4,46.4,46.4,100,80,1,0,30.19,NA,2.98,NA,"SCT",NA,NA,NA,4600,NA,NA,NA,NA,NA,NA,NA,NA,NA,NA,NA,"KQEW 011750Z AUTO 08001KT 4800 // SCT046 08/08 A3019 RMK A02 TSNO"
"1851","QEW",2019-11-01 18:00:00,128.15,36.4,46.4,46.4,100,270,1,0,30.19,NA,2.98,NA,"SCT",NA,NA,NA,4600,NA,NA,NA,NA,NA,NA,NA,NA,NA,NA,NA,"KQEW 011800Z AUTO 27001KT 4800 // SCT046 08/08 A3019 RMK A02 TSNO"
"1852","QEW",2019-11-01 18:10:00,128.15,36.4,46.4,46.4,100,300,1,0,30.19,NA,2.98,NA,"SCT",NA,NA,NA,4500,NA,NA,NA,NA,NA,NA,NA,NA,NA,NA,NA,"KQEW 011810Z AUTO 30001KT 4800 // SCT045 08/08 A3019 RMK A02 TSNO"
"1853","QEW",2019-11-01 18:20:00,128.15,36.4,44.6,46.4,NA,340,1,0,30.19,NA,2.49,NA,"SCT",NA,NA,NA,4500,NA,NA,NA,NA,NA,NA,NA,NA,NA,NA,NA,"KQEW 011820Z AUTO 34001KT 4000 // SCT045 07/08 A3019 RMK A02 TSNO"
"1854","QEW",2019-11-01 18:30:00,128.15,36.4,46.4,46.4,100,80,1,0,30.19,NA,2.98,NA,"SCT",NA,NA,NA,4500,NA,NA,NA,NA,NA,NA,NA,NA,NA,NA,NA,"KQEW 011830Z AUTO 08001KT 4800 // SCT045 08/08 A3019 RMK A02 TSNO"
"1855","QEW",2019-11-01 18:40:00,128.15,36.4,46.4,44.6,93.4,280,1,0,30.19,NA,2.98,NA,"BKN",NA,NA,NA,4500,NA,NA,NA,NA,NA,NA,NA,NA,NA,NA,NA,"KQEW 011840Z AUTO 28001KT 4800 // BKN045 08/07 A3019 RMK A02 TSNO"
"1856","QEW",2019-11-01 18:50:00,128.15,36.4,44.6,46.4,NA,270,1,0,30.19,NA,2.98,NA,"SCT",NA,NA,NA,4500,NA,NA,NA,NA,NA,NA,NA,NA,NA,NA,NA,"KQEW 011850Z AUTO 27001KT 4800 // SCT045 07/08 A3019 RMK A02 TSNO"
"1857","QEW",2019-11-01 19:00:00,128.15,36.4,44.6,46.4,NA,0,0,0,30.19,NA,2.49,NA,"SCT",NA,NA,NA,4500,NA,NA,NA,NA,NA,NA,NA,NA,NA,NA,NA,"KQEW 011900Z AUTO 00000KT 4000 // SCT045 07/08 A3019 RMK A02 TSNO"
"1858","QEW",2019-11-01 19:10:00,128.15,36.4,44.6,44.6,100,0,0,0,30.19,NA,2.49,NA,"SCT",NA,NA,NA,4400,NA,NA,NA,NA,NA,NA,NA,NA,NA,NA,NA,"KQEW 011910Z AUTO 00000KT 4000 // SCT044 07/07 A3019 RMK A02 TSNO"
"1859","QEW",2019-11-01 19:20:00,128.15,36.4,44.6,46.4,NA,0,0,0,30.19,NA,1.99,NA,"SCT",NA,NA,NA,4400,NA,NA,NA,NA,NA,NA,NA,NA,NA,NA,NA,"KQEW 011920Z AUTO 00000KT 3200 // SCT044 07/08 A3019 RMK A02 TSNO"
"1860","QEW",2019-11-01 19:30:00,128.15,36.4,44.6,46.4,NA,10,2,0,30.19,NA,2.49,NA,"FEW",NA,NA,NA,4400,NA,NA,NA,NA,NA,NA,NA,NA,NA,NA,NA,"KQEW 011930Z AUTO 01002KT 4000 // FEW044 07/08 A3019 RMK A02 TSNO"
"1861","QEW",2019-11-01 19:40:00,128.15,36.4,44.6,44.6,100,290,1,0,30.19,NA,2.49,NA,"FEW",NA,NA,NA,4400,NA,NA,NA,NA,NA,NA,NA,NA,NA,NA,NA,"KQEW 011940Z AUTO 29001KT 4000 // FEW044 07/07 A3019 RMK A02 TSNO"
"1862","QEW",2019-11-01 19:50:00,128.15,36.4,44.6,44.6,100,340,1,0,30.19,NA,2.49,NA,"FEW",NA,NA,NA,4300,NA,NA,NA,NA,NA,NA,NA,NA,NA,NA,NA,"KQEW 011950Z AUTO 34001KT 4000 // FEW043 07/07 A3019 RMK A02 TSNO"
"1863","QEW",2019-11-01 20:00:00,128.15,36.4,44.6,44.6,100,70,1,0,30.19,NA,2.49,NA,"SCT",NA,NA,NA,4200,NA,NA,NA,NA,NA,NA,NA,NA,NA,NA,NA,"KQEW 012000Z AUTO 07001KT 4000 // SCT042 07/07 A3019 RMK A02 TSNO"
"1864","QEW",2019-11-01 20:10:00,128.15,36.4,44.6,44.6,100,140,1,0,30.19,NA,2.49,NA,"SCT",NA,NA,NA,4200,NA,NA,NA,NA,NA,NA,NA,NA,NA,NA,NA,"KQEW 012010Z AUTO 14001KT 4000 // SCT042 07/07 A3019 RMK A02 TSNO"
"1865","QEW",2019-11-01 20:20:00,128.15,36.4,44.6,44.6,100,270,1,0,30.19,NA,1.99,NA,"SCT",NA,NA,NA,4100,NA,NA,NA,NA,NA,NA,NA,NA,NA,NA,NA,"KQEW 012020Z AUTO 27001KT 3200 // SCT041 07/07 A3019 RMK A02 TSNO"
"1866","QEW",2019-11-01 20:30:00,128.15,36.4,44.6,44.6,100,310,1,0,30.19,NA,2.49,NA,"BKN",NA,NA,NA,4000,NA,NA,NA,NA,NA,NA,NA,NA,NA,NA,NA,"KQEW 012030Z AUTO 31001KT 4000 // BKN040 07/07 A3019 RMK A02 TSNO"
"1867","QEW",2019-11-01 20:40:00,128.15,36.4,44.6,44.6,100,10,1,0,30.19,NA,2.98,NA,"BKN",NA,NA,NA,4000,NA,NA,NA,NA,NA,NA,NA,NA,NA,NA,NA,"KQEW 012040Z AUTO 01001KT 4800 // BKN040 07/07 A3019 RMK A02 TSNO"
"1868","QEW",2019-11-01 20:50:00,128.15,36.4,44.6,44.6,100,350,1,0,30.19,NA,2.98,NA,"BKN",NA,NA,NA,3900,NA,NA,NA,NA,NA,NA,NA,NA,NA,NA,NA,"KQEW 012050Z AUTO 35001KT 4800 // BKN039 07/07 A3019 RMK A02 TSNO"
"1869","QEW",2019-11-01 21:00:00,128.15,36.4,44.6,44.6,100,330,1,0,30.19,NA,2.98,NA,"OVC",NA,NA,NA,3900,NA,NA,NA,NA,NA,NA,NA,NA,NA,NA,NA,"KQEW 012100Z AUTO 33001KT 4800 // OVC039 07/07 A3019 RMK A02 TSNO"
"1870","QEW",2019-11-01 21:10:00,128.15,36.4,44.6,44.6,100,360,1,0,30.19,NA,2.49,NA,"OVC",NA,NA,NA,3900,NA,NA,NA,NA,NA,NA,NA,NA,NA,NA,NA,"KQEW 012110Z AUTO 36001KT 4000 // OVC039 07/07 A3019 RMK A02 TSNO"
"1871","QEW",2019-11-01 21:20:00,128.15,36.4,42.8,42.8,100,0,0,0,30.19,NA,2.49,NA,"OVC",NA,NA,NA,3800,NA,NA,NA,NA,NA,NA,NA,NA,NA,NA,NA,"KQEW 012120Z AUTO 00000KT 4000 // OVC038 06/06 A3019 RMK A02 TSNO"
"1872","QEW",2019-11-01 21:30:00,128.15,36.4,42.8,44.6,NA,0,0,0,30.19,NA,2.49,NA,"OVC",NA,NA,NA,3800,NA,NA,NA,NA,NA,NA,NA,NA,NA,NA,NA,"KQEW 012130Z AUTO 00000KT 4000 // OVC038 06/07 A3019 RMK A02 TSNO"
"1873","QEW",2019-11-01 21:40:00,128.15,36.4,42.8,44.6,NA,300,1,0,30.19,NA,2.49,NA,"OVC",NA,NA,NA,3800,NA,NA,NA,NA,NA,NA,NA,NA,NA,NA,NA,"KQEW 012140Z AUTO 30001KT 4000 // OVC038 06/07 A3019 RMK A02 TSNO"
"1874","QEW",2019-11-01 21:50:00,128.15,36.4,42.8,44.6,NA,320,1,0,30.19,NA,2.49,NA,"OVC",NA,NA,NA,3800,NA,NA,NA,NA,NA,NA,NA,NA,NA,NA,NA,"KQEW 012150Z AUTO 32001KT 4000 // OVC038 06/07 A3019 RMK A02 TSNO"
"1875","QEW",2019-11-01 22:00:00,128.15,36.4,42.8,44.6,NA,270,1,0,30.19,NA,2.49,NA,"OVC",NA,NA,NA,3700,NA,NA,NA,NA,NA,NA,NA,NA,NA,NA,NA,"KQEW 012200Z AUTO 27001KT 4000 // OVC037 06/07 A3019 RMK A02 TSNO"
"1876","QEW",2019-11-01 22:10:00,128.15,36.4,42.8,44.6,NA,110,1,0,30.19,NA,2.49,NA,"OVC",NA,NA,NA,3700,NA,NA,NA,NA,NA,NA,NA,NA,NA,NA,NA,"KQEW 012210Z AUTO 11001KT 4000 // OVC037 06/07 A3019 RMK A02 TSNO"
"1877","QEW",2019-11-01 22:20:00,128.15,36.4,42.8,44.6,NA,170,1,0,30.19,NA,2.49,NA,"OVC",NA,NA,NA,3600,NA,NA,NA,NA,NA,NA,NA,NA,NA,NA,NA,"KQEW 012220Z AUTO 17001KT 4000 // OVC036 06/07 A3019 RMK A02 TSNO"
"1878","QEW",2019-11-01 22:30:00,128.15,36.4,44.6,44.6,100,250,1,0,30.19,NA,1.99,NA,"BKN",NA,NA,NA,3600,NA,NA,NA,NA,NA,NA,NA,NA,NA,NA,NA,"KQEW 012230Z AUTO 25001KT 3200 // BKN036 07/07 A3019 RMK A02 TSNO"
"1879","QEW",2019-11-01 22:40:00,128.15,36.4,44.6,44.6,100,160,1,0,30.2,NA,1.99,NA,"BKN",NA,NA,NA,3600,NA,NA,NA,NA,NA,NA,NA,NA,NA,NA,NA,"KQEW 012240Z AUTO 16001KT 3200 // BKN036 07/07 A3020 RMK A02 TSNO"
"1880","QEW",2019-11-01 22:50:00,128.15,36.4,44.6,44.6,100,0,0,0,30.2,NA,1.99,NA,"SCT",NA,NA,NA,3600,NA,NA,NA,NA,NA,NA,NA,NA,NA,NA,NA,"KQEW 012250Z AUTO 00000KT 3200 // SCT036 07/07 A3020 RMK A02 TSNO"
"1881","QEW",2019-11-01 23:00:00,128.15,36.4,46.4,44.6,93.4,350,1,0,30.2,NA,1.99,NA,"SCT",NA,NA,NA,3600,NA,NA,NA,NA,NA,NA,NA,NA,NA,NA,NA,"KQEW 012300Z AUTO 35001KT 3200 // SCT036 08/07 A3020 RMK A02 TSNO"
"1882","QEW",2019-11-01 23:10:00,128.15,36.4,46.4,46.4,100,0,0,0,30.2,NA,2.49,NA,"BKN",NA,NA,NA,3600,NA,NA,NA,NA,NA,NA,NA,NA,NA,NA,NA,"KQEW 012310Z AUTO 00000KT 4000 // BKN036 08/08 A3020 RMK A02 TSNO"
"1883","QEW",2019-11-01 23:20:00,128.15,36.4,46.4,44.6,93.4,360,1,0,30.2,NA,2.98,NA,"SCT",NA,NA,NA,3600,NA,NA,NA,NA,NA,NA,NA,NA,NA,NA,NA,"KQEW 012320Z AUTO 36001KT 4800 // SCT036 08/07 A3020 RMK A02 TSNO"
"1884","QEW",2019-11-01 23:30:00,128.15,36.4,48.2,44.6,87.28,0,0,0,30.21,NA,3.73,NA,"SCT",NA,NA,NA,3600,NA,NA,NA,NA,NA,NA,NA,NA,NA,NA,NA,"KQEW 012330Z AUTO 00000KT 6000 // SCT036 09/07 A3021 RMK A02 TSNO"
"1885","QEW",2019-11-01 23:40:00,128.15,36.4,50,44.6,81.61,180,1,0,30.21,NA,3.73,NA,"SCT",NA,NA,NA,3500,NA,NA,NA,"HZ",NA,NA,NA,NA,NA,NA,NA,"KQEW 012340Z AUTO 18001KT 6000 HZ SCT035 10/07 A3021 RMK A02 TSNO"
"1886","RKSM",2019-11-01 00:05:00,127.1139,37.4458,57.2,57.2,100,40,2,0,30.21,NA,1.99,NA,"FEW","FEW",NA,NA,0,1500,NA,NA,"BR",NA,NA,NA,NA,NA,NA,NA,"RKSM 010005Z 04002KT 3200 BR FEW000 FEW015 14/14 A3021 RMK FG FEW000"
"1887","RKSM",2019-11-01 00:32:00,127.1139,37.4458,59,59,100,50,2,0,30.2,NA,2.98,NA,"FEW",NA,NA,NA,1000,NA,NA,NA,"BR",NA,NA,NA,NA,NA,NA,NA,"RKSM 010032Z 05002KT 4800 BR FEW010 15/15 A3020"
"1888","RKSM",2019-11-01 01:00:00,127.1139,37.4458,60.8,50,67.54,50,5,0,30.2,NA,4.97,NA,"FEW",NA,NA,NA,1500,NA,NA,NA,"HZ",NA,NA,NA,NA,NA,NA,NA,"RKSM 010100Z 05005KT 8000 HZ FEW015 16/10 A3020"
"1889","RKSM",2019-11-01 02:00:00,127.1139,37.4458,62.6,44.6,51.72,50,2,0,30.2,NA,6.21,NA,"FEW",NA,NA,NA,1500,NA,NA,NA,NA,NA,NA,NA,NA,NA,NA,NA,"RKSM 010200Z 05002KT 9999 FEW015 17/07 A3020"
"1890","RKSM",2019-11-01 03:00:00,127.1139,37.4458,66.2,41,39.72,360,3,0,30.19,NA,6.21,NA,"FEW",NA,NA,NA,3000,NA,NA,NA,NA,NA,NA,NA,NA,NA,NA,NA,"RKSM 010300Z 36003KT 9999 FEW030 19/05 A3019"
"1891","RKSM",2019-11-01 04:00:00,127.1139,37.4458,68,39.2,34.8,40,5,0,30.17,NA,6.21,NA,"CLR",NA,NA,NA,NA,NA,NA,NA,NA,NA,NA,NA,NA,NA,NA,NA,"RKSM 010400Z 04005KT 9999 SKC 20/04 A3017"
"1892","RKSM",2019-11-01 05:00:00,127.1139,37.4458,68,39.2,34.8,40,1,0,30.16,NA,6.21,NA,"CLR",NA,NA,NA,NA,NA,NA,NA,NA,NA,NA,NA,NA,NA,NA,NA,"RKSM 010500Z 04001KT 9999 SKC 20/04 A3016"
"1893","RKSM",2019-11-01 06:00:00,127.1139,37.4458,68,35.6,30.2,60,3,0,30.15,NA,6.21,NA,"CLR",NA,NA,NA,NA,NA,NA,NA,NA,NA,NA,NA,NA,NA,NA,NA,"RKSM 010600Z 06003KT 9999 SKC 20/02 A3015"
"1894","RKSM",2019-11-01 07:00:00,127.1139,37.4458,69.8,39.2,32.72,0,0,0,30.15,NA,6.21,NA,"FEW",NA,NA,NA,20000,NA,NA,NA,NA,NA,NA,NA,NA,NA,NA,NA,"RKSM 010700Z 00000KT 9999 FEW200 21/04 A3015"
"1895","RKSM",2019-11-01 08:00:00,127.1139,37.4458,64.4,41,42.28,290,2,0,30.16,NA,6.21,NA,"FEW",NA,NA,NA,20000,NA,NA,NA,NA,NA,NA,NA,NA,NA,NA,NA,"RKSM 010800Z 29002KT 9999 FEW200 18/05 A3016"
"1896","RKSM",2019-11-01 09:00:00,127.1139,37.4458,57.2,41,54.6,330,2,0,30.16,NA,6.21,NA,"SCT",NA,NA,NA,20000,NA,NA,NA,NA,NA,NA,NA,NA,NA,NA,NA,"RKSM 010900Z 33002KT 9999 SCT200 14/05 A3016"
"1897","RKSM",2019-11-01 10:00:00,127.1139,37.4458,55.4,42.8,62.46,0,0,0,30.18,NA,6.21,NA,"SCT",NA,NA,NA,20000,NA,NA,NA,NA,NA,NA,NA,NA,NA,NA,NA,"RKSM 011000Z 00000KT 9999 SCT200 13/06 A3018"
"1898","RKSM",2019-11-01 11:00:00,127.1139,37.4458,53.6,42.8,66.7,180,4,0,30.19,NA,6.21,NA,"BKN",NA,NA,NA,20000,NA,NA,NA,NA,NA,NA,NA,NA,NA,NA,NA,"RKSM 011100Z 18004KT 9999 BKN200 12/06 A3019"
"1899","RKSM",2019-11-01 12:00:00,127.1139,37.4458,51.8,42.8,71.26,170,3,0,30.18,NA,6.21,NA,"BKN",NA,NA,NA,20000,NA,NA,NA,NA,NA,NA,NA,NA,NA,NA,NA,"RKSM 011200Z 17003KT 9999 BKN200 11/06 A3018"
"1900","RKSM",2019-11-01 13:00:00,127.1139,37.4458,51.8,41,66.48,210,2,0,30.19,NA,6.21,NA,"BKN",NA,NA,NA,20000,NA,NA,NA,NA,NA,NA,NA,NA,NA,NA,NA,"RKSM 011300Z 21002KT 9999 BKN200 11/05 A3019"
"1901","RKSM",2019-11-01 14:00:00,127.1139,37.4458,50,41,71.07,180,3,0,30.19,NA,6.21,NA,"BKN",NA,NA,NA,20000,NA,NA,NA,NA,NA,NA,NA,NA,NA,NA,49.27,"RKSM 011400Z 18003KT 9999 BKN200 10/05 A3019"
"1902","RKSM",2019-11-01 15:00:00,127.1139,37.4458,46.4,41,81.34,340,2,0,30.19,NA,6.21,NA,"BKN",NA,NA,NA,20000,NA,NA,NA,NA,NA,NA,NA,NA,NA,NA,NA,"RKSM 011500Z 34002KT 9999 BKN200 08/05 A3019"
"1903","RKSM",2019-11-01 16:00:00,127.1139,37.4458,46.4,42.8,87.19,230,1,0,30.19,NA,6.21,NA,"BKN",NA,NA,NA,20000,NA,NA,NA,NA,NA,NA,NA,NA,NA,NA,NA,"RKSM 011600Z 23001KT 9999 BKN200 08/06 A3019"
"1904","RKSM",2019-11-01 17:00:00,127.1139,37.4458,44.6,41,87.09,190,3,0,30.19,NA,6.21,NA,"SCT",NA,NA,NA,20000,NA,NA,NA,NA,NA,NA,NA,NA,NA,NA,43.09,"RKSM 011700Z 19003KT 9999 SCT200 07/05 A3019"
"1905","RKSM",2019-11-01 18:00:00,127.1139,37.4458,46.4,41,81.34,190,1,0,30.18,NA,6.21,NA,"FEW",NA,NA,NA,20000,NA,NA,NA,NA,NA,NA,NA,NA,NA,NA,NA,"RKSM 011800Z 19001KT 9999 FEW200 08/05 A3018"
"1906","RKSM",2019-11-01 19:00:00,127.1139,37.4458,44.6,41,87.09,0,0,0,30.19,NA,6.21,NA,"FEW",NA,NA,NA,20000,NA,NA,NA,NA,NA,NA,NA,NA,NA,NA,NA,"RKSM 011900Z 00000KT 9999 FEW200 07/05 A3019"
"1907","RKSM",2019-11-01 20:00:00,127.1139,37.4458,44.6,42.8,93.35,0,0,0,30.18,NA,6.21,NA,"FEW",NA,NA,NA,20000,NA,NA,NA,NA,NA,NA,NA,NA,NA,NA,NA,"RKSM 012000Z 00000KT 9999 FEW200 07/06 A3018"
"1908","RKSM",2019-11-01 21:00:00,127.1139,37.4458,44.6,41,87.09,0,0,0,30.17,NA,6.21,NA,"FEW",NA,NA,NA,20000,NA,NA,NA,NA,NA,NA,NA,NA,NA,NA,NA,"RKSM 012100Z 00000KT 9999 FEW200 07/05 A3017"
"1909","RKSM",2019-11-01 22:00:00,127.1139,37.4458,42.8,41,93.3,0,0,0,30.18,NA,6.21,NA,"SCT",NA,NA,NA,20000,NA,NA,NA,NA,NA,NA,NA,NA,NA,NA,NA,"RKSM 012200Z 00000KT 9999 SCT200 06/05 A3018"
"1910","RKSM",2019-11-01 23:00:00,127.1139,37.4458,46.4,44.6,93.4,0,0,0,30.2,NA,6.21,NA,"BKN",NA,NA,NA,20000,NA,NA,NA,NA,NA,NA,NA,NA,NA,NA,NA,"RKSM 012300Z 00000KT 9999 BKN200 08/07 A3020"
"1911","RKSS",2019-11-01 00:00:00,126.7906,37.5583,55.4,51.8,87.65,330,5,0,30.21,NA,4.35,NA,"NSC",NA,NA,NA,NA,NA,NA,NA,NA,NA,NA,NA,NA,NA,NA,NA,"RKSS 010000Z 33005KT 7000 NSC 13/11 Q1023 NOSIG RMK ASIAN DUST/HWANGSA/"
"1912","RKSS",2019-11-01 01:00:00,126.7906,37.5583,59,46.4,62.92,350,4,0,30.21,NA,6.21,NA,NA,NA,NA,NA,NA,NA,NA,NA,NA,NA,NA,NA,NA,NA,NA,NA,"RKSS 010100Z 35004KT 310V010 CAVOK 15/08 Q1023 NOSIG"
"1913","RKSS",2019-11-01 02:00:00,126.7906,37.5583,60.8,42.8,51.45,350,5,0,30.21,NA,6.21,NA,NA,NA,NA,NA,NA,NA,NA,NA,NA,NA,NA,NA,NA,NA,NA,NA,"RKSS 010200Z 35005KT 300V040 CAVOK 16/06 Q1023 NOSIG"
"1914","RKSS",2019-11-01 03:00:00,126.7906,37.5583,64.4,30.2,27.55,350,5,0,30.18,NA,6.21,NA,NA,NA,NA,NA,NA,NA,NA,NA,NA,NA,NA,NA,NA,NA,NA,NA,"RKSS 010300Z 35005KT 320V110 CAVOK 18/M01 Q1022 NOSIG"
"1915","RKSS",2019-11-01 04:00:00,126.7906,37.5583,66.2,32,27.83,330,4,0,30.15,NA,6.21,NA,NA,NA,NA,NA,NA,NA,NA,NA,NA,NA,NA,NA,NA,NA,NA,NA,"RKSS 010400Z 33004KT 270V360 CAVOK 19/M00 Q1021 NOSIG"
"1916","RKSS",2019-11-01 05:00:00,126.7906,37.5583,66.2,32,27.83,340,5,0,30.15,NA,6.21,NA,NA,NA,NA,NA,NA,NA,NA,NA,NA,NA,NA,NA,NA,NA,NA,NA,"RKSS 010500Z 34005KT 290V060 CAVOK 19/00 Q1021 NOSIG"
"1917","RKSS",2019-11-01 06:00:00,126.7906,37.5583,68,32,26.15,300,4,0,30.15,NA,6.21,NA,NA,NA,NA,NA,NA,NA,NA,NA,NA,NA,NA,NA,NA,NA,NA,NA,"RKSS 010600Z 30004KT 240V020 CAVOK 20/00 Q1021 NOSIG"
"1918","RKSS",2019-11-01 07:00:00,126.7906,37.5583,68,33.8,28.11,340,2,0,30.15,NA,6.21,NA,NA,NA,NA,NA,NA,NA,NA,NA,NA,NA,NA,NA,NA,NA,NA,NA,"RKSS 010700Z 34002KT CAVOK 20/01 Q1021 NOSIG"
"1919","RKSS",2019-11-01 08:00:00,126.7906,37.5583,64.4,32,29.63,320,4,0,30.15,NA,6.21,NA,NA,NA,NA,NA,NA,NA,NA,NA,NA,NA,NA,NA,NA,NA,NA,NA,"RKSS 010800Z 32004KT 280V340 CAVOK 18/00 Q1021 NOSIG"
"1920","RKSS",2019-11-01 09:00:00,126.7906,37.5583,57.2,37.4,47.44,300,5,0,30.15,NA,6.21,NA,NA,NA,NA,NA,NA,NA,NA,NA,NA,NA,NA,NA,NA,NA,NA,NA,"RKSS 010900Z 30005KT CAVOK 14/03 Q1021 NOSIG"
"1921","RKSS",2019-11-01 10:00:00,126.7906,37.5583,53.6,39.2,58.02,310,2,0,30.15,NA,6.21,NA,NA,NA,NA,NA,NA,NA,NA,NA,NA,NA,NA,NA,NA,NA,NA,NA,"RKSS 011000Z 31002KT CAVOK 12/04 Q1021 NOSIG"
"1922","RKSS",2019-11-01 11:00:00,126.7906,37.5583,53.6,41,62.23,10,1,0,30.18,NA,6.21,NA,NA,NA,NA,NA,NA,NA,NA,NA,NA,NA,NA,NA,NA,NA,NA,NA,"RKSS 011100Z 01001KT CAVOK 12/05 Q1022 NOSIG"
"1923","RKSS",2019-11-01 12:00:00,126.7906,37.5583,48.2,41,76.01,280,2,0,30.15,NA,6.21,NA,NA,NA,NA,NA,NA,NA,NA,NA,NA,NA,NA,NA,NA,NA,NA,NA,"RKSS 011200Z 28002KT CAVOK 09/05 Q1021 NOSIG"
"1924","RKSS",2019-11-01 13:00:00,126.7906,37.5583,46.4,42.8,87.19,340,2,0,30.18,NA,6.21,NA,NA,NA,NA,NA,NA,NA,NA,NA,NA,NA,NA,NA,NA,NA,NA,NA,"RKSS 011300Z 34002KT CAVOK 08/06 Q1022 NOSIG"
"1925","RKSS",2019-11-01 14:00:00,126.7906,37.5583,48.2,41,76.01,360,2,0,30.18,NA,6.21,NA,NA,NA,NA,NA,NA,NA,NA,NA,NA,NA,NA,NA,NA,NA,NA,NA,"RKSS 011400Z 36002KT CAVOK 09/05 Q1022 NOSIG"
"1926","RKSS",2019-11-01 15:00:00,126.7906,37.5583,46.4,42.8,87.19,300,3,0,30.18,NA,6.21,NA,NA,NA,NA,NA,NA,NA,NA,NA,NA,NA,NA,NA,NA,NA,NA,45.15,"RKSS 011500Z 30003KT CAVOK 08/06 Q1022 NOSIG"
"1927","RKSS",2019-11-01 16:00:00,126.7906,37.5583,44.6,41,87.09,310,1,0,30.18,NA,6.21,NA,NA,NA,NA,NA,NA,NA,NA,NA,NA,NA,NA,NA,NA,NA,NA,NA,"RKSS 011600Z 31001KT CAVOK 07/05 Q1022 NOSIG"
"1928","RKSS",2019-11-01 17:00:00,126.7906,37.5583,42.8,41,93.3,290,1,0,30.18,NA,6.21,NA,NA,NA,NA,NA,NA,NA,NA,NA,NA,NA,NA,NA,NA,NA,NA,NA,"RKSS 011700Z 29001KT CAVOK 06/05 Q1022 NOSIG"
"1929","RKSS",2019-11-01 18:00:00,126.7906,37.5583,42.8,39.2,86.99,310,2,0,30.18,NA,6.21,NA,NA,NA,NA,NA,NA,NA,NA,NA,NA,NA,NA,NA,NA,NA,NA,NA,"RKSS 011800Z 31002KT CAVOK 06/04 Q1022 NOSIG"
"1930","RKSS",2019-11-01 19:00:00,126.7906,37.5583,44.6,42.8,93.35,350,2,0,30.15,NA,6.21,NA,NA,NA,NA,NA,NA,NA,NA,NA,NA,NA,NA,NA,NA,NA,NA,NA,"RKSS 011900Z 35002KT CAVOK 07/06 Q1021 NOSIG"
"1931","RKSS",2019-11-01 20:00:00,126.7906,37.5583,42.8,41,93.3,350,2,0,30.15,NA,6.21,NA,NA,NA,NA,NA,NA,NA,NA,NA,NA,NA,NA,NA,NA,NA,NA,NA,"RKSS 012000Z 35002KT CAVOK 06/05 Q1021 NOSIG"
"1932","RKSS",2019-11-01 21:00:00,126.7906,37.5583,42.8,41,93.3,310,3,0,30.15,NA,6.21,NA,NA,NA,NA,NA,NA,NA,NA,NA,NA,NA,NA,NA,NA,NA,NA,41.03,"RKSS 012100Z 31003KT CAVOK 06/05 Q1021 NOSIG"
"1933","RKSS",2019-11-01 22:00:00,126.7906,37.5583,42.8,42.8,100,300,2,0,30.15,NA,6.21,NA,NA,NA,NA,NA,NA,NA,NA,NA,NA,NA,NA,NA,NA,NA,NA,NA,"RKSS 012200Z 30002KT CAVOK 06/06 Q1021 NOSIG"
"1934","RKSS",2019-11-01 23:00:00,126.7906,37.5583,46.4,44.6,93.4,330,3,0,30.18,NA,6.21,NA,NA,NA,NA,NA,NA,NA,NA,NA,NA,NA,NA,NA,NA,NA,NA,45.15,"RKSS 012300Z 33003KT CAVOK 08/07 Q1022 NOSIG"
"1935","QEI",2019-11-01 00:00:00,128.0667,37.95,51.8,50,93.55,300,2,0,30.19,NA,1.74,NA,"OVC",NA,NA,NA,500,NA,NA,NA,NA,NA,NA,NA,NA,NA,NA,NA,"KQEI 010000Z AUTO 30002KT 2800 // OVC005 11/10 A3019 RMK A02 TSNO"
"1936","QEI",2019-11-01 00:10:00,128.0667,37.95,51.8,50,93.55,280,2,0,30.19,NA,1.99,NA,"OVC",NA,NA,NA,500,NA,NA,NA,NA,NA,NA,NA,NA,NA,NA,NA,"KQEI 010010Z AUTO 28002KT 3200 // OVC005 11/10 A3019 RMK A02 TSNO"
"1937","QEI",2019-11-01 00:20:00,128.0667,37.95,51.8,50,93.55,280,1,0,30.19,NA,1.49,NA,"OVC",NA,NA,NA,500,NA,NA,NA,NA,NA,NA,NA,NA,NA,NA,NA,"KQEI 010020Z AUTO 28001KT 2400 // OVC005 11/10 A3019 RMK A02 TSNO"
"1938","QEI",2019-11-01 00:30:00,128.0667,37.95,53.6,51.8,93.6,190,1,0,30.19,NA,1.74,NA,"BKN","OVC",NA,NA,500,1800,NA,NA,NA,NA,NA,NA,NA,NA,NA,NA,"KQEI 010030Z AUTO 19001KT 2800 // BKN005 OVC018 12/11 A3019 RMK A02 TSNO"
"1939","QEI",2019-11-01 00:40:00,128.0667,37.95,55.4,50,81.99,270,1,0,30.19,NA,1.99,NA,"SCT","OVC",NA,NA,500,2100,NA,NA,NA,NA,NA,NA,NA,NA,NA,NA,"KQEI 010040Z AUTO 27001KT 3200 // SCT005 OVC021 13/10 A3019 RMK A02 TSNO"
"1940","QEI",2019-11-01 00:50:00,128.0667,37.95,55.4,50,81.99,0,0,0,30.19,NA,1.99,NA,"FEW","OVC",NA,NA,500,2200,NA,NA,"HZ",NA,NA,NA,NA,NA,NA,NA,"KQEI 010050Z AUTO 00000KT 3200 HZ FEW005 OVC022 13/10 A3019 RMK A02 TSNO"
"1941","QEI",2019-11-01 01:10:00,128.0667,37.95,55.4,50,81.99,130,2,0,30.19,NA,2.49,NA,"OVC",NA,NA,NA,2400,NA,NA,NA,"HZ",NA,NA,NA,NA,NA,NA,NA,"KQEI 010110Z AUTO 13002KT 4000 HZ OVC024 13/10 A3019 RMK A02 TSNO"
"1942","QEI",2019-11-01 01:20:00,128.0667,37.95,57.2,50,76.82,210,1,0,30.18,NA,2.98,NA,"OVC",NA,NA,NA,2500,NA,NA,NA,"HZ",NA,NA,NA,NA,NA,NA,NA,"KQEI 010120Z AUTO 21001KT 4800 HZ OVC025 14/10 A3018 RMK A02 TSNO"
"1943","QEI",2019-11-01 01:30:00,128.0667,37.95,59,50,72.01,160,1,0,30.18,NA,2.98,NA,"OVC",NA,NA,NA,2500,NA,NA,NA,"HZ",NA,NA,NA,NA,NA,NA,NA,"KQEI 010130Z AUTO 16001KT 4800 HZ OVC025 15/10 A3018 RMK A02 TSNO"
"1944","QEI",2019-11-01 01:40:00,128.0667,37.95,59,48.2,67.33,320,2,0,30.18,NA,3.73,NA,"OVC",NA,NA,NA,2600,NA,NA,NA,"HZ",NA,NA,NA,NA,NA,NA,NA,"KQEI 010140Z AUTO 32002KT 6000 HZ OVC026 15/09 A3018 RMK A02 TSNO"
"1945","QEI",2019-11-01 01:50:00,128.0667,37.95,60.8,48.2,63.15,260,1,0,30.18,NA,3.73,NA,"BKN",NA,NA,NA,2700,NA,NA,NA,"HZ",NA,NA,NA,NA,NA,NA,NA,"KQEI 010150Z AUTO 26001KT 6000 HZ BKN027 16/09 A3018 RMK A02 TSNO"
"1946","QEI",2019-11-01 02:00:00,128.0667,37.95,60.8,46.4,59.01,290,2,0,30.18,NA,3.73,NA,"BKN",NA,NA,NA,2800,NA,NA,NA,"HZ",NA,NA,NA,NA,NA,NA,NA,"KQEI 010200Z AUTO 29002KT 6000 HZ BKN028 16/08 A3018 RMK A02 TSNO"
"1947","QEI",2019-11-01 02:10:00,128.0667,37.95,60.8,44.6,55.12,320,2,0,30.18,NA,5.59,NA,"BKN",NA,NA,NA,3100,NA,NA,NA,"HZ",NA,NA,NA,NA,NA,NA,NA,"KQEI 010210Z AUTO 32002KT 9000 HZ BKN031 16/07 A3018 RMK A02 TSNO"
"1948","QEI",2019-11-01 02:20:00,128.0667,37.95,62.6,42.8,48.28,320,2,0,30.18,NA,5.59,NA,"SCT",NA,NA,NA,3200,NA,NA,NA,"HZ",NA,NA,NA,NA,NA,NA,NA,"KQEI 010220Z AUTO 32002KT 9000 HZ SCT032 17/06 A3018 RMK A02 TSNO"
"1949","QEI",2019-11-01 02:30:00,128.0667,37.95,62.6,44.6,51.72,240,2,0,30.18,NA,5.59,NA,"SCT",NA,NA,NA,3200,NA,NA,NA,"HZ",NA,NA,NA,NA,NA,NA,NA,"KQEI 010230Z AUTO 24002KT 9000 HZ SCT032 17/07 A3018 RMK A02 TSNO"
"1950","QEI",2019-11-01 02:40:00,128.0667,37.95,64.4,44.6,48.55,270,2,0,30.17,NA,6.21,NA,"BKN",NA,NA,NA,3400,NA,NA,NA,NA,NA,NA,NA,NA,NA,NA,NA,"KQEI 010240Z AUTO 27002KT 9999 BKN034 18/07 A3017 RMK A02 TSNO"
"1951","QEI",2019-11-01 02:50:00,128.0667,37.95,62.6,44.6,51.72,290,3,0,30.17,NA,5.59,NA,"BKN",NA,NA,NA,3400,NA,NA,NA,"HZ",NA,NA,NA,NA,NA,NA,NA,"KQEI 010250Z AUTO 29003KT 9000 HZ BKN034 17/07 A3017 RMK A02 TSNO"
"1952","QEI",2019-11-01 03:00:00,128.0667,37.95,62.6,44.6,51.72,320,5,0,30.16,NA,5.59,NA,"BKN",NA,NA,NA,3400,NA,NA,NA,"HZ",NA,NA,NA,NA,NA,NA,NA,"KQEI 010300Z AUTO 32005KT 9000 HZ BKN034 17/07 A3016 RMK A02 TSNO"
"1953","QEI",2019-11-01 03:10:00,128.0667,37.95,62.6,44.6,51.72,350,2,0,30.16,NA,6.21,NA,"SCT",NA,NA,NA,3400,NA,NA,NA,NA,NA,NA,NA,NA,NA,NA,NA,"KQEI 010310Z AUTO 35002KT 9999 SCT034 17/07 A3016 RMK A02 TSNO"
"1954","QEI",2019-11-01 03:20:00,128.0667,37.95,64.4,44.6,48.55,280,3,0,30.15,NA,6.21,NA,"FEW",NA,NA,NA,3400,NA,NA,NA,NA,NA,NA,NA,NA,NA,NA,NA,"KQEI 010320Z AUTO 28003KT 9999 FEW034 18/07 A3015 RMK A02 TSNO"
"1955","QEI",2019-11-01 03:40:00,128.0667,37.95,64.4,44.6,48.55,240,1,0,30.14,NA,6.21,NA,"FEW",NA,NA,NA,3800,NA,NA,NA,NA,NA,NA,NA,NA,NA,NA,NA,"KQEI 010340Z AUTO 24001KT 9999 FEW038 18/07 A3014 RMK A02 TSNO"
"1956","QEI",2019-11-01 03:50:00,128.0667,37.95,66.2,44.6,45.6,210,2,0,30.14,NA,6.21,NA,"FEW",NA,NA,NA,3500,NA,NA,NA,NA,NA,NA,NA,NA,NA,NA,NA,"KQEI 010350Z AUTO 21002KT 9999 FEW035 19/07 A3014 RMK A02 TSNO"
"1957","QEI",2019-11-01 04:00:00,128.0667,37.95,66.2,44.6,45.6,330,5,0,30.14,NA,6.21,NA,"FEW",NA,NA,NA,3500,NA,NA,NA,NA,NA,NA,NA,NA,NA,NA,NA,"KQEI 010400Z AUTO 33005KT 9999 FEW035 19/07 A3014 RMK A02 TSNO"
"1958","QEI",2019-11-01 04:10:00,128.0667,37.95,66.2,44.6,45.6,300,5,0,30.13,NA,6.21,NA,"FEW",NA,NA,NA,3600,NA,NA,NA,NA,NA,NA,NA,NA,NA,NA,NA,"KQEI 010410Z AUTO 30005KT 9999 FEW036 19/07 A3013 RMK A02 TSNO"
"1959","QEI",2019-11-01 04:20:00,128.0667,37.95,66.2,44.6,45.6,10,3,0,30.13,NA,6.21,NA,"FEW",NA,NA,NA,3800,NA,NA,NA,NA,NA,NA,NA,NA,NA,NA,NA,"KQEI 010420Z AUTO 01003KT 9999 FEW038 19/07 A3013 RMK A02 TSNO"
"1960","QEI",2019-11-01 04:30:00,128.0667,37.95,66.2,42.8,42.57,330,2,0,30.12,NA,6.21,NA,"CLR",NA,NA,NA,NA,NA,NA,NA,NA,NA,NA,NA,NA,NA,NA,NA,"KQEI 010430Z AUTO 33002KT 9999 CLR 19/06 A3012 RMK A02 TSNO"
"1961","QEI",2019-11-01 04:40:00,128.0667,37.95,68,42.8,40,160,1,0,30.12,NA,6.21,NA,"CLR",NA,NA,NA,NA,NA,NA,NA,NA,NA,NA,NA,NA,NA,NA,NA,"KQEI 010440Z AUTO 16001KT 9999 CLR 20/06 A3012 RMK A02 TSNO"
"1962","QEI",2019-11-01 04:50:00,128.0667,37.95,68,42.8,40,220,2,0,30.12,NA,6.21,NA,"CLR",NA,NA,NA,NA,NA,NA,NA,NA,NA,NA,NA,NA,NA,NA,NA,"KQEI 010450Z AUTO 22002KT 9999 CLR 20/06 A3012 RMK A02 TSNO"
"1963","QEI",2019-11-01 05:00:00,128.0667,37.95,68,42.8,40,320,2,0,30.12,NA,6.21,NA,"CLR",NA,NA,NA,NA,NA,NA,NA,NA,NA,NA,NA,NA,NA,NA,NA,"KQEI 010500Z AUTO 32002KT 9999 CLR 20/06 A3012 RMK A02 TSNO"
"1964","QEI",2019-11-01 05:10:00,128.0667,37.95,68,42.8,40,310,4,0,30.12,NA,6.21,NA,"FEW",NA,NA,NA,4200,NA,NA,NA,NA,NA,NA,NA,NA,NA,NA,NA,"KQEI 010510Z AUTO 31004KT 9999 FEW042 20/06 A3012 RMK A02 TSNO"
"1965","QEI",2019-11-01 05:20:00,128.0667,37.95,68,41,37.32,340,2,0,30.12,NA,6.21,NA,"CLR",NA,NA,NA,NA,NA,NA,NA,NA,NA,NA,NA,NA,NA,NA,NA,"KQEI 010520Z AUTO 34002KT 9999 CLR 20/05 A3012 RMK A02 TSNO"
"1966","QEI",2019-11-01 05:30:00,128.0667,37.95,69.8,41,35.09,110,1,0,30.11,NA,6.21,NA,"CLR",NA,NA,NA,NA,NA,NA,NA,NA,NA,NA,NA,NA,NA,NA,NA,"KQEI 010530Z AUTO 11001KT 9999 CLR 21/05 A3011 RMK A02 TSNO"
"1967","QEI",2019-11-01 05:40:00,128.0667,37.95,71.6,41,33,200,1,0,30.11,NA,6.21,NA,"CLR",NA,NA,NA,NA,NA,NA,NA,NA,NA,NA,NA,NA,NA,NA,NA,"KQEI 010540Z AUTO 20001KT 9999 CLR 22/05 A3011 RMK A02 TSNO"
"1968","QEI",2019-11-01 05:50:00,128.0667,37.95,69.8,41,35.09,220,2,0,30.11,NA,6.21,NA,"CLR",NA,NA,NA,NA,NA,NA,NA,NA,NA,NA,NA,NA,NA,NA,NA,"KQEI 010550Z AUTO 22002KT 9999 CLR 21/05 A3011 RMK A02 TSNO"
"1969","QEI",2019-11-01 06:00:00,128.0667,37.95,69.8,39.2,32.72,350,3,0,30.11,NA,6.21,NA,"CLR",NA,NA,NA,NA,NA,NA,NA,NA,NA,NA,NA,NA,NA,NA,NA,"KQEI 010600Z AUTO 35003KT 9999 CLR 21/04 A3011 RMK A02 TSNO"
"1970","QEI",2019-11-01 06:10:00,128.0667,37.95,69.8,39.2,32.72,320,3,0,30.11,NA,6.21,NA,"CLR",NA,NA,NA,NA,NA,NA,NA,NA,NA,NA,NA,NA,NA,NA,NA,"KQEI 010610Z AUTO 32003KT 9999 CLR 21/04 A3011 RMK A02 TSNO"
"1971","QEI",2019-11-01 06:20:00,128.0667,37.95,69.8,39.2,32.72,280,1,0,30.12,NA,6.21,NA,"CLR",NA,NA,NA,NA,NA,NA,NA,NA,NA,NA,NA,NA,NA,NA,NA,"KQEI 010620Z AUTO 28001KT 9999 CLR 21/04 A3012 RMK A02 TSNO"
"1972","QEI",2019-11-01 06:30:00,128.0667,37.95,69.8,39.2,32.72,280,4,0,30.12,NA,6.21,NA,"CLR",NA,NA,NA,NA,NA,NA,NA,NA,NA,NA,NA,NA,NA,NA,NA,"KQEI 010630Z AUTO 28004KT 9999 CLR 21/04 A3012 RMK A02 TSNO"
"1973","QEI",2019-11-01 06:40:00,128.0667,37.95,69.8,39.2,32.72,280,4,0,30.12,NA,6.21,NA,"CLR",NA,NA,NA,NA,NA,NA,NA,NA,NA,NA,NA,NA,NA,NA,NA,"KQEI 010640Z AUTO 28004KT 9999 CLR 21/04 A3012 RMK A02 TSNO"
"1974","QEI",2019-11-01 06:50:00,128.0667,37.95,69.8,41,35.09,300,4,0,30.12,NA,6.21,NA,"CLR",NA,NA,NA,NA,NA,NA,NA,NA,NA,NA,NA,NA,NA,NA,NA,"KQEI 010650Z AUTO 30004KT 9999 CLR 21/05 A3012 RMK A02 TSNO"
"1975","QEI",2019-11-01 07:00:00,128.0667,37.95,68,41,37.32,330,2,0,30.12,NA,6.21,NA,"CLR",NA,NA,NA,NA,NA,NA,NA,NA,NA,NA,NA,NA,NA,NA,NA,"KQEI 010700Z AUTO 33002KT 9999 CLR 20/05 A3012 RMK A02 TSNO"
"1976","QEI",2019-11-01 07:10:00,128.0667,37.95,68,44.6,42.85,240,1,0,30.12,NA,6.21,NA,"CLR",NA,NA,NA,NA,NA,NA,NA,NA,NA,NA,NA,NA,NA,NA,NA,"KQEI 010710Z AUTO 24001KT 9999 CLR 20/07 A3012 RMK A02 TSNO"
"1977","QEI",2019-11-01 07:20:00,128.0667,37.95,68,46.4,45.88,310,2,0,30.12,NA,6.21,NA,"CLR",NA,NA,NA,NA,NA,NA,NA,NA,NA,NA,NA,NA,NA,NA,NA,"KQEI 010720Z AUTO 31002KT 9999 CLR 20/08 A3012 RMK A02 TSNO"
"1978","QEI",2019-11-01 07:30:00,128.0667,37.95,68,46.4,45.88,270,1,0,30.13,NA,6.21,NA,"CLR",NA,NA,NA,NA,NA,NA,NA,NA,NA,NA,NA,NA,NA,NA,NA,"KQEI 010730Z AUTO 27001KT 9999 CLR 20/08 A3013 RMK A02 TSNO"
"1979","QEI",2019-11-01 07:40:00,128.0667,37.95,64.4,48.2,55.63,150,2,0,30.13,NA,6.21,NA,"CLR",NA,NA,NA,NA,NA,NA,NA,NA,NA,NA,NA,NA,NA,NA,NA,"KQEI 010740Z AUTO 15002KT 9999 CLR 18/09 A3013 RMK A02 TSNO"
"1980","QEI",2019-11-01 07:50:00,128.0667,37.95,62.6,48.2,59.26,140,2,0,30.13,NA,6.21,NA,"CLR",NA,NA,NA,NA,NA,NA,NA,NA,NA,NA,NA,NA,NA,NA,NA,"KQEI 010750Z AUTO 14002KT 9999 CLR 17/09 A3013 RMK A02 TSNO"
"1981","QEI",2019-11-01 08:00:00,128.0667,37.95,60.8,48.2,63.15,140,3,0,30.13,NA,6.21,NA,"CLR",NA,NA,NA,NA,NA,NA,NA,NA,NA,NA,NA,NA,NA,NA,NA,"KQEI 010800Z AUTO 14003KT 9999 CLR 16/09 A3013 RMK A02 TSNO"
"1982","QEI",2019-11-01 08:10:00,128.0667,37.95,60.8,48.2,63.15,130,2,0,30.13,NA,6.21,NA,"CLR",NA,NA,NA,NA,NA,NA,NA,NA,NA,NA,NA,NA,NA,NA,NA,"KQEI 010810Z AUTO 13002KT 9999 CLR 16/09 A3013 RMK A02 TSNO"
"1983","QEI",2019-11-01 08:20:00,128.0667,37.95,59,48.2,67.33,150,2,0,30.13,NA,6.21,NA,"CLR",NA,NA,NA,NA,NA,NA,NA,NA,NA,NA,NA,NA,NA,NA,NA,"KQEI 010820Z AUTO 15002KT 9999 CLR 15/09 A3013 RMK A02 TSNO"
"1984","QEI",2019-11-01 08:30:00,128.0667,37.95,59,48.2,67.33,150,2,0,30.14,NA,6.21,NA,"CLR",NA,NA,NA,NA,NA,NA,NA,NA,NA,NA,NA,NA,NA,NA,NA,"KQEI 010830Z AUTO 15002KT 9999 CLR 15/09 A3014 RMK A02 TSNO"
"1985","QEI",2019-11-01 08:40:00,128.0667,37.95,57.2,48.2,71.83,140,2,0,30.14,NA,6.21,NA,"CLR",NA,NA,NA,NA,NA,NA,NA,NA,NA,NA,NA,NA,NA,NA,NA,"KQEI 010840Z AUTO 14002KT 9999 CLR 14/09 A3014 RMK A02 TSNO"
"1986","QEI",2019-11-01 08:50:00,128.0667,37.95,57.2,46.4,67.12,140,3,0,30.14,NA,6.21,NA,"CLR",NA,NA,NA,NA,NA,NA,NA,NA,NA,NA,NA,NA,NA,NA,NA,"KQEI 010850Z AUTO 14003KT 9999 CLR 14/08 A3014 RMK A02 TSNO"
"1987","QEI",2019-11-01 09:00:00,128.0667,37.95,55.4,46.4,71.64,130,2,0,30.15,NA,6.21,NA,"CLR",NA,NA,NA,NA,NA,NA,NA,NA,NA,NA,NA,NA,NA,NA,NA,"KQEI 010900Z AUTO 13002KT 9999 CLR 13/08 A3015 RMK A02 TSNO"
"1988","QEI",2019-11-01 09:10:00,128.0667,37.95,55.4,46.4,71.64,150,2,0,30.16,NA,6.21,NA,"CLR",NA,NA,NA,NA,NA,NA,NA,NA,NA,NA,NA,NA,NA,NA,NA,"KQEI 010910Z AUTO 15002KT 9999 CLR 13/08 A3016 RMK A02 TSNO"
"1989","QEI",2019-11-01 09:20:00,128.0667,37.95,55.4,46.4,71.64,140,2,0,30.16,NA,6.21,NA,"CLR",NA,NA,NA,NA,NA,NA,NA,NA,NA,NA,NA,NA,NA,NA,NA,"KQEI 010920Z AUTO 14002KT 9999 CLR 13/08 A3016 RMK A02 TSNO"
"1990","QEI",2019-11-01 09:30:00,128.0667,37.95,55.4,46.4,71.64,140,2,0,30.16,NA,6.21,NA,"FEW",NA,NA,NA,4500,NA,NA,NA,NA,NA,NA,NA,NA,NA,NA,NA,"KQEI 010930Z AUTO 14002KT 9999 FEW045 13/08 A3016 RMK A02 TSNO"
"1991","QEI",2019-11-01 09:40:00,128.0667,37.95,53.6,46.4,76.5,130,2,0,30.16,NA,6.21,NA,"FEW",NA,NA,NA,4500,NA,NA,NA,NA,NA,NA,NA,NA,NA,NA,NA,"KQEI 010940Z AUTO 13002KT 9999 FEW045 12/08 A3016 RMK A02 TSNO"
"1992","QEI",2019-11-01 09:50:00,128.0667,37.95,53.6,46.4,76.5,150,1,0,30.17,NA,6.21,NA,"FEW",NA,NA,NA,4500,NA,NA,NA,NA,NA,NA,NA,NA,NA,NA,NA,"KQEI 010950Z AUTO 15001KT 9999 FEW045 12/08 A3017 RMK A02 TSNO"
"1993","QEI",2019-11-01 10:00:00,128.0667,37.95,53.6,46.4,76.5,220,1,0,30.17,NA,6.21,NA,"FEW",NA,NA,NA,4500,NA,NA,NA,NA,NA,NA,NA,NA,NA,NA,NA,"KQEI 011000Z AUTO 22001KT 9999 FEW045 12/08 A3017 RMK A02 TSNO"
"1994","QEI",2019-11-01 10:10:00,128.0667,37.95,53.6,46.4,76.5,230,1,0,30.18,NA,6.21,NA,"FEW",NA,NA,NA,4400,NA,NA,NA,NA,NA,NA,NA,NA,NA,NA,NA,"KQEI 011010Z AUTO 23001KT 9999 FEW044 12/08 A3018 RMK A02 TSNO"
"1995","QEI",2019-11-01 10:20:00,128.0667,37.95,51.8,46.4,81.74,120,1,0,30.18,NA,6.21,NA,"SCT",NA,NA,NA,4400,NA,NA,NA,NA,NA,NA,NA,NA,NA,NA,NA,"KQEI 011020Z AUTO 12001KT 9999 SCT044 11/08 A3018 RMK A02 TSNO"
"1996","QEI",2019-11-01 10:30:00,128.0667,37.95,51.8,46.4,81.74,140,1,0,30.18,NA,6.21,NA,"BKN",NA,NA,NA,4400,NA,NA,NA,NA,NA,NA,NA,NA,NA,NA,NA,"KQEI 011030Z AUTO 14001KT 9999 BKN044 11/08 A3018 RMK A02 TSNO"
"1997","QEI",2019-11-01 10:40:00,128.0667,37.95,51.8,46.4,81.74,150,1,0,30.18,NA,6.21,NA,"BKN",NA,NA,NA,4400,NA,NA,NA,NA,NA,NA,NA,NA,NA,NA,NA,"KQEI 011040Z AUTO 15001KT 9999 BKN044 11/08 A3018 RMK A02 TSNO"
"1998","QEI",2019-11-01 10:50:00,128.0667,37.95,51.8,46.4,81.74,130,1,0,30.18,NA,6.21,NA,"SCT",NA,NA,NA,4400,NA,NA,NA,NA,NA,NA,NA,NA,NA,NA,NA,"KQEI 011050Z AUTO 13001KT 9999 SCT044 11/08 A3018 RMK A02 TSNO"
"1999","QEI",2019-11-01 11:00:00,128.0667,37.95,50,46.4,87.37,150,1,0,30.18,NA,6.21,NA,"FEW",NA,NA,NA,4400,NA,NA,NA,NA,NA,NA,NA,NA,NA,NA,NA,"KQEI 011100Z AUTO 15001KT 9999 FEW044 10/08 A3018 RMK A02 TSNO"
"2000","QEI",2019-11-01 11:10:00,128.0667,37.95,50,46.4,87.37,140,2,0,30.18,NA,6.21,NA,"FEW",NA,NA,NA,4400,NA,NA,NA,NA,NA,NA,NA,NA,NA,NA,NA,"KQEI 011110Z AUTO 14002KT 9999 FEW044 10/08 A3018 RMK A02 TSNO"
"2001","QEI",2019-11-01 11:20:00,128.0667,37.95,50,46.4,87.37,150,1,0,30.18,NA,6.21,NA,"FEW",NA,NA,NA,4400,NA,NA,NA,NA,NA,NA,NA,NA,NA,NA,NA,"KQEI 011120Z AUTO 15001KT 9999 FEW044 10/08 A3018 RMK A02 TSNO"
"2002","QEI",2019-11-01 11:30:00,128.0667,37.95,50,46.4,87.37,140,1,0,30.18,NA,6.21,NA,"FEW",NA,NA,NA,4500,NA,NA,NA,NA,NA,NA,NA,NA,NA,NA,NA,"KQEI 011130Z AUTO 14001KT 9999 FEW045 10/08 A3018 RMK A02 TSNO"
"2003","QEI",2019-11-01 11:40:00,128.0667,37.95,50,46.4,87.37,140,1,0,30.18,NA,6.21,NA,"FEW",NA,NA,NA,4600,NA,NA,NA,NA,NA,NA,NA,NA,NA,NA,NA,"KQEI 011140Z AUTO 14001KT 9999 FEW046 10/08 A3018 RMK A02 TSNO"
"2004","QEI",2019-11-01 11:50:00,128.0667,37.95,50,46.4,87.37,0,0,0,30.18,NA,5.59,NA,"FEW",NA,NA,NA,4600,NA,NA,NA,NA,NA,NA,NA,NA,NA,NA,NA,"KQEI 011150Z AUTO 00000KT 9000 // FEW046 10/08 A3018 RMK A02 TSNO"
"2005","QEI",2019-11-01 12:00:00,128.0667,37.95,50,46.4,87.37,140,1,0,30.19,NA,5.59,NA,"FEW",NA,NA,NA,4600,NA,NA,NA,NA,NA,NA,NA,NA,NA,NA,NA,"KQEI 011200Z AUTO 14001KT 9000 // FEW046 10/08 A3019 RMK A02 TSNO"
"2006","QEI",2019-11-01 12:10:00,128.0667,37.95,48.2,46.4,93.45,150,1,0,30.19,NA,5.59,NA,"CLR",NA,NA,NA,NA,NA,NA,NA,NA,NA,NA,NA,NA,NA,NA,NA,"KQEI 011210Z AUTO 15001KT 9000 // CLR 09/08 A3019 RMK A02 TSNO"
"2007","QEI",2019-11-01 12:20:00,128.0667,37.95,48.2,46.4,93.45,280,1,0,30.19,NA,4.97,NA,"CLR",NA,NA,NA,NA,NA,NA,NA,NA,NA,NA,NA,NA,NA,NA,NA,"KQEI 011220Z AUTO 28001KT 8000 // CLR 09/08 A3019 RMK A02 TSNO"
"2008","QEI",2019-11-01 12:30:00,128.0667,37.95,48.2,46.4,93.45,130,2,0,30.19,NA,4.97,NA,"CLR",NA,NA,NA,NA,NA,NA,NA,NA,NA,NA,NA,NA,NA,NA,NA,"KQEI 011230Z AUTO 13002KT 8000 // CLR 09/08 A3019 RMK A02 TSNO"
"2009","QEI",2019-11-01 12:40:00,128.0667,37.95,48.2,44.6,87.28,140,1,0,30.19,NA,2.98,NA,"CLR",NA,NA,NA,NA,NA,NA,NA,NA,NA,NA,NA,NA,NA,NA,NA,"KQEI 011240Z AUTO 14001KT 4800 // CLR 09/07 A3019 RMK A02 TSNO"
"2010","QEI",2019-11-01 12:50:00,128.0667,37.95,48.2,44.6,87.28,0,0,0,30.19,NA,6.21,NA,"CLR",NA,NA,NA,NA,NA,NA,NA,NA,NA,NA,NA,NA,NA,NA,NA,"KQEI 011250Z AUTO 00000KT 9999 CLR 09/07 A3019 RMK A02 TSNO"
"2011","QEI",2019-11-01 13:00:00,128.0667,37.95,48.2,46.4,93.45,80,1,0,30.19,NA,4.97,NA,"CLR",NA,NA,NA,NA,NA,NA,NA,NA,NA,NA,NA,NA,NA,NA,NA,"KQEI 011300Z AUTO 08001KT 8000 // CLR 09/08 A3019 RMK A02 TSNO"
"2012","QEI",2019-11-01 13:10:00,128.0667,37.95,48.2,44.6,87.28,160,1,0,30.2,NA,5.59,NA,"CLR",NA,NA,NA,NA,NA,NA,NA,NA,NA,NA,NA,NA,NA,NA,NA,"KQEI 011310Z AUTO 16001KT 9000 // CLR 09/07 A3020 RMK A02 TSNO"
"2013","QEI",2019-11-01 13:20:00,128.0667,37.95,46.4,44.6,93.4,140,1,0,30.19,NA,5.59,NA,"CLR",NA,NA,NA,NA,NA,NA,NA,NA,NA,NA,NA,NA,NA,NA,NA,"KQEI 011320Z AUTO 14001KT 9000 // CLR 08/07 A3019 RMK A02 TSNO"
"2014","QEI",2019-11-01 13:30:00,128.0667,37.95,46.4,44.6,93.4,160,1,0,30.2,NA,4.97,NA,"CLR",NA,NA,NA,NA,NA,NA,NA,NA,NA,NA,NA,NA,NA,NA,NA,"KQEI 011330Z AUTO 16001KT 8000 // CLR 08/07 A3020 RMK A02 TSNO"
"2015","QEI",2019-11-01 13:40:00,128.0667,37.95,46.4,44.6,93.4,150,1,0,30.2,NA,4.97,NA,"CLR",NA,NA,NA,NA,NA,NA,NA,NA,NA,NA,NA,NA,NA,NA,NA,"KQEI 011340Z AUTO 15001KT 8000 // CLR 08/07 A3020 RMK A02 TSNO"
"2016","QEI",2019-11-01 13:50:00,128.0667,37.95,46.4,44.6,93.4,0,0,0,30.2,NA,5.59,NA,"CLR",NA,NA,NA,NA,NA,NA,NA,NA,NA,NA,NA,NA,NA,NA,NA,"KQEI 011350Z AUTO 00000KT 9000 // CLR 08/07 A3020 RMK A02 TSNO"
"2017","QEI",2019-11-01 14:00:00,128.0667,37.95,46.4,44.6,93.4,0,0,0,30.2,NA,5.59,NA,"CLR",NA,NA,NA,NA,NA,NA,NA,NA,NA,NA,NA,NA,NA,NA,NA,"KQEI 011400Z AUTO 00000KT 9000 // CLR 08/07 A3020 RMK A02 TSNO"
"2018","QEI",2019-11-01 14:10:00,128.0667,37.95,46.4,44.6,93.4,120,1,0,30.2,NA,3.73,NA,"FEW",NA,NA,NA,4400,NA,NA,NA,NA,NA,NA,NA,NA,NA,NA,NA,"KQEI 011410Z AUTO 12001KT 6000 // FEW044 08/07 A3020 RMK A02 TSNO"
"2019","QEI",2019-11-01 14:20:00,128.0667,37.95,46.4,44.6,93.4,280,1,0,30.2,NA,3.73,NA,"FEW",NA,NA,NA,4400,NA,NA,NA,NA,NA,NA,NA,NA,NA,NA,NA,"KQEI 011420Z AUTO 28001KT 6000 // FEW044 08/07 A3020 RMK A02 TSNO"
"2020","QEI",2019-11-01 14:30:00,128.0667,37.95,46.4,44.6,93.4,150,1,0,30.2,NA,4.97,NA,"FEW",NA,NA,NA,4300,NA,NA,NA,NA,NA,NA,NA,NA,NA,NA,NA,"KQEI 011430Z AUTO 15001KT 8000 // FEW043 08/07 A3020 RMK A02 TSNO"
"2021","QEI",2019-11-01 14:40:00,128.0667,37.95,44.6,44.6,100,140,1,0,30.2,NA,3.73,NA,"FEW",NA,NA,NA,4200,NA,NA,NA,NA,NA,NA,NA,NA,NA,NA,NA,"KQEI 011440Z AUTO 14001KT 6000 // FEW042 07/07 A3020 RMK A02 TSNO"
"2022","QEI",2019-11-01 14:50:00,128.0667,37.95,44.6,44.6,100,0,0,0,30.2,NA,3.73,NA,"SCT",NA,NA,NA,4200,NA,NA,NA,NA,NA,NA,NA,NA,NA,NA,NA,"KQEI 011450Z AUTO 00000KT 6000 // SCT042 07/07 A3020 RMK A02 TSNO"
"2023","QEI",2019-11-01 15:00:00,128.0667,37.95,44.6,42.8,93.35,130,1,0,30.2,NA,3.73,NA,"BKN",NA,NA,NA,4200,NA,NA,NA,NA,NA,NA,NA,NA,NA,NA,NA,"KQEI 011500Z AUTO 13001KT 6000 // BKN042 07/06 A3020 RMK A02 TSNO"
"2024","QEI",2019-11-01 15:10:00,128.0667,37.95,44.6,42.8,93.35,120,1,0,30.2,NA,3.73,NA,"BKN",NA,NA,NA,4200,NA,NA,NA,NA,NA,NA,NA,NA,NA,NA,NA,"KQEI 011510Z AUTO 12001KT 6000 // BKN042 07/06 A3020 RMK A02 TSNO"
"2025","QEI",2019-11-01 15:20:00,128.0667,37.95,44.6,42.8,93.35,0,0,0,30.2,NA,4.97,NA,"BKN",NA,NA,NA,4200,NA,NA,NA,NA,NA,NA,NA,NA,NA,NA,NA,"KQEI 011520Z AUTO 00000KT 8000 // BKN042 07/06 A3020 RMK A02 TSNO"
"2026","QEI",2019-11-01 15:30:00,128.0667,37.95,44.6,42.8,93.35,120,1,0,30.2,NA,3.73,NA,"BKN",NA,NA,NA,4200,NA,NA,NA,NA,NA,NA,NA,NA,NA,NA,NA,"KQEI 011530Z AUTO 12001KT 6000 // BKN042 07/06 A3020 RMK A02 TSNO"
"2027","QEI",2019-11-01 15:40:00,128.0667,37.95,44.6,42.8,93.35,330,1,0,30.2,NA,3.73,NA,"SCT",NA,NA,NA,4200,NA,NA,NA,NA,NA,NA,NA,NA,NA,NA,NA,"KQEI 011540Z AUTO 33001KT 6000 // SCT042 07/06 A3020 RMK A02 TSNO"
"2028","QEI",2019-11-01 15:50:00,128.0667,37.95,44.6,42.8,93.35,130,2,0,30.2,NA,3.73,NA,"SCT",NA,NA,NA,3900,NA,NA,NA,NA,NA,NA,NA,NA,NA,NA,NA,"KQEI 011550Z AUTO 13002KT 6000 // SCT039 07/06 A3020 RMK A02 TSNO"
"2029","QEI",2019-11-01 16:00:00,128.0667,37.95,44.6,42.8,93.35,290,1,0,30.2,NA,3.73,NA,"FEW",NA,NA,NA,3900,NA,NA,NA,NA,NA,NA,NA,NA,NA,NA,NA,"KQEI 011600Z AUTO 29001KT 6000 // FEW039 07/06 A3020 RMK A02 TSNO"
"2030","QEI",2019-11-01 16:10:00,128.0667,37.95,42.8,42.8,100,140,1,0,30.2,NA,4.97,NA,"FEW",NA,NA,NA,3800,NA,NA,NA,NA,NA,NA,NA,NA,NA,NA,NA,"KQEI 011610Z AUTO 14001KT 8000 // FEW038 06/06 A3020 RMK A02 TSNO"
"2031","QEI",2019-11-01 16:20:00,128.0667,37.95,42.8,42.8,100,120,1,0,30.2,NA,2.98,NA,"FEW",NA,NA,NA,4000,NA,NA,NA,NA,NA,NA,NA,NA,NA,NA,NA,"KQEI 011620Z AUTO 12001KT 4800 // FEW040 06/06 A3020 RMK A02 TSNO"
"2032","QEI",2019-11-01 16:30:00,128.0667,37.95,42.8,42.8,100,0,0,0,30.2,NA,3.73,NA,"FEW",NA,NA,NA,4000,NA,NA,NA,NA,NA,NA,NA,NA,NA,NA,NA,"KQEI 011630Z AUTO 00000KT 6000 // FEW040 06/06 A3020 RMK A02 TSNO"
"2033","QEI",2019-11-01 16:40:00,128.0667,37.95,42.8,42.8,100,110,1,0,30.2,NA,3.73,NA,"FEW",NA,NA,NA,3900,NA,NA,NA,NA,NA,NA,NA,NA,NA,NA,NA,"KQEI 011640Z AUTO 11001KT 6000 // FEW039 06/06 A3020 RMK A02 TSNO"
"2034","QEI",2019-11-01 16:50:00,128.0667,37.95,42.8,42.8,100,120,1,0,30.2,NA,3.73,NA,"SCT",NA,NA,NA,3800,NA,NA,NA,NA,NA,NA,NA,NA,NA,NA,NA,"KQEI 011650Z AUTO 12001KT 6000 // SCT038 06/06 A3020 RMK A02 TSNO"
"2035","QEI",2019-11-01 17:00:00,128.0667,37.95,42.8,42.8,100,130,1,0,30.2,NA,3.73,NA,"BKN",NA,NA,NA,3800,NA,NA,NA,NA,NA,NA,NA,NA,NA,NA,NA,"KQEI 011700Z AUTO 13001KT 6000 // BKN038 06/06 A3020 RMK A02 TSNO"
"2036","QEI",2019-11-01 17:20:00,128.0667,37.95,42.8,41,93.3,320,1,0,30.2,NA,3.73,NA,"SCT",NA,NA,NA,3900,NA,NA,NA,NA,NA,NA,NA,NA,NA,NA,NA,"KQEI 011720Z AUTO 32001KT 6000 // SCT039 06/05 A3020 RMK A02 TSNO"
"2037","QEI",2019-11-01 17:30:00,128.0667,37.95,42.8,41,93.3,130,1,0,30.2,NA,3.73,NA,"SCT",NA,NA,NA,3900,NA,NA,NA,NA,NA,NA,NA,NA,NA,NA,NA,"KQEI 011730Z AUTO 13001KT 6000 // SCT039 06/05 A3020 RMK A02 TSNO"
"2038","QEI",2019-11-01 17:40:00,128.0667,37.95,42.8,41,93.3,0,0,0,30.2,NA,3.73,NA,"BKN",NA,NA,NA,3800,NA,NA,NA,NA,NA,NA,NA,NA,NA,NA,NA,"KQEI 011740Z AUTO 00000KT 6000 // BKN038 06/05 A3020 RMK A02 TSNO"
"2039","QEI",2019-11-01 17:50:00,128.0667,37.95,42.8,41,93.3,0,0,0,30.2,NA,5.59,NA,"BKN",NA,NA,NA,3700,NA,NA,NA,NA,NA,NA,NA,NA,NA,NA,NA,"KQEI 011750Z AUTO 00000KT 9000 // BKN037 06/05 A3020 RMK A02 TSNO"
"2040","QEI",2019-11-01 18:00:00,128.0667,37.95,42.8,41,93.3,120,1,0,30.2,NA,3.73,NA,"BKN",NA,NA,NA,3600,NA,NA,NA,NA,NA,NA,NA,NA,NA,NA,NA,"KQEI 011800Z AUTO 12001KT 6000 // BKN036 06/05 A3020 RMK A02 TSNO"
"2041","QEI",2019-11-01 18:10:00,128.0667,37.95,41,41,100,0,0,0,30.19,NA,3.73,NA,"BKN",NA,NA,NA,3600,NA,NA,NA,NA,NA,NA,NA,NA,NA,NA,NA,"KQEI 011810Z AUTO 00000KT 6000 // BKN036 05/05 A3019 RMK A02 TSNO"
"2042","QEI",2019-11-01 18:20:00,128.0667,37.95,41,41,100,150,1,0,30.19,NA,3.73,NA,"BKN",NA,NA,NA,3600,NA,NA,NA,NA,NA,NA,NA,NA,NA,NA,NA,"KQEI 011820Z AUTO 15001KT 6000 // BKN036 05/05 A3019 RMK A02 TSNO"
"2043","QEI",2019-11-01 18:30:00,128.0667,37.95,41,41,100,130,1,0,30.19,NA,2.98,NA,"BKN",NA,NA,NA,3500,NA,NA,NA,NA,NA,NA,NA,NA,NA,NA,NA,"KQEI 011830Z AUTO 13001KT 4800 // BKN035 05/05 A3019 RMK A02 TSNO"
"2044","QEI",2019-11-01 18:40:00,128.0667,37.95,41,41,100,0,0,0,30.19,NA,3.73,NA,"BKN",NA,NA,NA,3500,NA,NA,NA,NA,NA,NA,NA,NA,NA,NA,NA,"KQEI 011840Z AUTO 00000KT 6000 // BKN035 05/05 A3019 RMK A02 TSNO"
"2045","QEI",2019-11-01 18:50:00,128.0667,37.95,41,41,100,0,0,0,30.2,NA,3.73,NA,"BKN",NA,NA,NA,3500,NA,NA,NA,NA,NA,NA,NA,NA,NA,NA,NA,"KQEI 011850Z AUTO 00000KT 6000 // BKN035 05/05 A3020 RMK A02 TSNO"
"2046","QEI",2019-11-01 19:00:00,128.0667,37.95,41,39.2,93.24,130,1,0,30.2,NA,3.73,NA,"BKN",NA,NA,NA,3500,NA,NA,NA,NA,NA,NA,NA,NA,NA,NA,NA,"KQEI 011900Z AUTO 13001KT 6000 // BKN035 05/04 A3020 RMK A02 TSNO"
"2047","QEI",2019-11-01 19:10:00,128.0667,37.95,41,41,100,0,0,0,30.2,NA,2.98,NA,"FEW","OVC",NA,NA,700,3400,NA,NA,NA,NA,NA,NA,NA,NA,NA,NA,"KQEI 011910Z AUTO 00000KT 4800 // FEW007 OVC034 05/05 A3020 RMK A02 TSNO"
"2048","QEI",2019-11-01 19:20:00,128.0667,37.95,41,41,100,140,1,0,30.2,NA,2.49,NA,"FEW","BKN",NA,NA,500,3400,NA,NA,NA,NA,NA,NA,NA,NA,NA,NA,"KQEI 011920Z AUTO 14001KT 4000 // FEW005 BKN034 05/05 A3020 RMK A02 TSNO"
"2049","QEI",2019-11-01 19:30:00,128.0667,37.95,41,41,100,140,1,0,30.2,NA,3.73,NA,"BKN","BKN",NA,NA,500,3400,NA,NA,NA,NA,NA,NA,NA,NA,NA,NA,"KQEI 011930Z AUTO 14001KT 6000 // BKN005 BKN034 05/05 A3020 RMK A02 TSNO"
"2050","QEI",2019-11-01 19:40:00,128.0667,37.95,41,41,100,0,0,0,30.2,NA,3.73,NA,"BKN","BKN",NA,NA,400,3400,NA,NA,NA,NA,NA,NA,NA,NA,NA,NA,"KQEI 011940Z AUTO 00000KT 6000 // BKN004 BKN034 05/05 A3020 RMK A02 TSNO"
"2051","QEI",2019-11-01 19:50:00,128.0667,37.95,41,41,100,0,0,0,30.2,NA,3.73,NA,"OVC",NA,NA,NA,400,NA,NA,NA,NA,NA,NA,NA,NA,NA,NA,NA,"KQEI 011950Z AUTO 00000KT 6000 // OVC004 05/05 A3020 RMK A02 TSNO"
"2052","QEI",2019-11-01 20:00:00,128.0667,37.95,41,41,100,140,1,0,30.2,NA,2.98,NA,"OVC",NA,NA,NA,400,NA,NA,NA,NA,NA,NA,NA,NA,NA,NA,NA,"KQEI 012000Z AUTO 14001KT 4800 // OVC004 05/05 A3020 RMK A02 TSNO"
"2053","QEI",2019-11-01 20:10:00,128.0667,37.95,41,41,100,360,1,0,30.2,NA,3.73,NA,"OVC",NA,NA,NA,400,NA,NA,NA,NA,NA,NA,NA,NA,NA,NA,NA,"KQEI 012010Z AUTO 36001KT 6000 // OVC004 05/05 A3020 RMK A02 TSNO"
"2054","QEI",2019-11-01 20:20:00,128.0667,37.95,41,41,100,360,1,0,30.2,NA,3.73,NA,"OVC",NA,NA,NA,400,NA,NA,NA,NA,NA,NA,NA,NA,NA,NA,NA,"KQEI 012020Z AUTO 36001KT 6000 // OVC004 05/05 A3020 RMK A02 TSNO"
"2055","QEI",2019-11-01 20:30:00,128.0667,37.95,42.8,41,93.3,320,1,0,30.2,NA,3.73,NA,"OVC",NA,NA,NA,400,NA,NA,NA,NA,NA,NA,NA,NA,NA,NA,NA,"KQEI 012030Z AUTO 32001KT 6000 // OVC004 06/05 A3020 RMK A02 TSNO"
"2056","QEI",2019-11-01 20:40:00,128.0667,37.95,42.8,41,93.3,190,1,0,30.19,NA,3.73,NA,"OVC",NA,NA,NA,400,NA,NA,NA,NA,NA,NA,NA,NA,NA,NA,NA,"KQEI 012040Z AUTO 19001KT 6000 // OVC004 06/05 A3019 RMK A02 TSNO"
"2057","QEI",2019-11-01 20:50:00,128.0667,37.95,42.8,41,93.3,0,0,0,30.19,NA,3.73,NA,"OVC",NA,NA,NA,300,NA,NA,NA,NA,NA,NA,NA,NA,NA,NA,NA,"KQEI 012050Z AUTO 00000KT 6000 // OVC003 06/05 A3019 RMK A02 TSNO"
"2058","QEI",2019-11-01 21:00:00,128.0667,37.95,42.8,41,93.3,0,0,0,30.19,NA,3.73,NA,"OVC",NA,NA,NA,300,NA,NA,NA,NA,NA,NA,NA,NA,NA,NA,NA,"KQEI 012100Z AUTO 00000KT 6000 // OVC003 06/05 A3019 RMK A02 TSNO"
"2059","QEI",2019-11-01 21:10:00,128.0667,37.95,42.8,42.8,100,170,1,0,30.19,NA,2.98,NA,"OVC",NA,NA,NA,300,NA,NA,NA,NA,NA,NA,NA,NA,NA,NA,NA,"KQEI 012110Z AUTO 17001KT 4800 // OVC003 06/06 A3019 RMK A02 TSNO"
"2060","QEI",2019-11-01 21:20:00,128.0667,37.95,42.8,42.8,100,120,2,0,30.19,NA,2.49,NA,"OVC",NA,NA,NA,300,NA,NA,NA,NA,NA,NA,NA,NA,NA,NA,NA,"KQEI 012120Z AUTO 12002KT 4000 // OVC003 06/06 A3019 RMK A02 TSNO"
"2061","QEI",2019-11-01 21:30:00,128.0667,37.95,42.8,42.8,100,150,1,0,30.19,NA,2.49,NA,"OVC",NA,NA,NA,200,NA,NA,NA,NA,NA,NA,NA,NA,NA,NA,NA,"KQEI 012130Z AUTO 15001KT 4000 // OVC002 06/06 A3019 RMK A02 TSNO"
"2062","QEI",2019-11-01 21:40:00,128.0667,37.95,42.8,42.8,100,110,2,0,30.2,NA,1.99,NA,"OVC",NA,NA,NA,200,NA,NA,NA,NA,NA,NA,NA,NA,NA,NA,NA,"KQEI 012140Z AUTO 11002KT 3200 // OVC002 06/06 A3020 RMK A02 TSNO"
"2063","QEI",2019-11-01 21:50:00,128.0667,37.95,42.8,42.8,100,110,2,0,30.2,NA,1.49,NA,"OVC",NA,NA,NA,200,NA,NA,NA,NA,NA,NA,NA,NA,NA,NA,NA,"KQEI 012150Z AUTO 11002KT 2400 // OVC002 06/06 A3020 RMK A02 TSNO"
"2064","QEI",2019-11-01 22:00:00,128.0667,37.95,42.8,41,93.3,130,2,0,30.2,NA,1.24,NA,"OVC",NA,NA,NA,200,NA,NA,NA,NA,NA,NA,NA,NA,NA,NA,NA,"KQEI 012200Z AUTO 13002KT 2000 // OVC002 06/05 A3020 RMK A02 TSNO"
"2065","QEI",2019-11-01 22:10:00,128.0667,37.95,42.8,41,93.3,130,2,0,30.2,NA,1.49,NA,"OVC",NA,NA,NA,200,NA,NA,NA,NA,NA,NA,NA,NA,NA,NA,NA,"KQEI 012210Z AUTO 13002KT 2400 // OVC002 06/05 A3020 RMK A02 TSNO"
"2066","QEI",2019-11-01 22:20:00,128.0667,37.95,42.8,41,93.3,130,2,0,30.2,NA,0.75,NA,"OVC",NA,NA,NA,200,NA,NA,NA,NA,NA,NA,NA,NA,NA,NA,NA,"KQEI 012220Z AUTO 13002KT 1200 // OVC002 06/05 A3020 RMK A02 TSNO"
"2067","QEI",2019-11-01 22:30:00,128.0667,37.95,41,41,100,120,3,0,30.2,NA,0.99,NA,"OVC",NA,NA,NA,200,NA,NA,NA,NA,NA,NA,NA,NA,NA,NA,38.98,"KQEI 012230Z AUTO 12003KT 1600 // OVC002 05/05 A3020 RMK A02 TSNO"
"2068","QEI",2019-11-01 22:40:00,128.0667,37.95,42.8,41,93.3,110,3,0,30.2,NA,0.75,NA,"OVC",NA,NA,NA,200,NA,NA,NA,NA,NA,NA,NA,NA,NA,NA,41.03,"KQEI 012240Z AUTO 11003KT 1200 // OVC002 06/05 A3020 RMK A02 TSNO"
"2069","QEI",2019-11-01 22:50:00,128.0667,37.95,42.8,42.8,100,120,2,0,30.2,NA,0.75,NA,"CLR",NA,NA,NA,NA,NA,NA,NA,NA,NA,NA,NA,NA,NA,NA,NA,"KQEI 012250Z AUTO 12002KT 1200 // CLR 06/06 A3020 RMK A02 TSNO"
"2070","QEI",2019-11-01 23:00:00,128.0667,37.95,42.8,42.8,100,150,1,0,30.2,NA,1.49,NA,"OVC",NA,NA,NA,200,NA,NA,NA,NA,NA,NA,NA,NA,NA,NA,NA,"KQEI 012300Z AUTO 15001KT 2400 // OVC002 06/06 A3020 RMK A02 TSNO"
"2071","QEI",2019-11-01 23:10:00,128.0667,37.95,42.8,42.8,100,110,1,0,30.21,NA,1.74,NA,"OVC",NA,NA,NA,200,NA,NA,NA,NA,NA,NA,NA,NA,NA,NA,NA,"KQEI 012310Z AUTO 11001KT 2800 // OVC002 06/06 A3021 RMK A02 TSNO"
"2072","QEI",2019-11-01 23:20:00,128.0667,37.95,42.8,42.8,100,140,1,0,30.21,NA,1.49,NA,"OVC",NA,NA,NA,200,NA,NA,NA,NA,NA,NA,NA,NA,NA,NA,NA,"KQEI 012320Z AUTO 14001KT 2400 // OVC002 06/06 A3021 RMK A02 TSNO"
"2073","QEI",2019-11-01 23:30:00,128.0667,37.95,42.8,42.8,100,10,1,0,30.22,NA,1.24,NA,"OVC",NA,NA,NA,200,NA,NA,NA,NA,NA,NA,NA,NA,NA,NA,NA,"KQEI 012330Z AUTO 01001KT 2000 // OVC002 06/06 A3022 RMK A02 TSNO"
"2074","QEI",2019-11-01 23:40:00,128.0667,37.95,42.8,42.8,100,310,1,0,30.22,NA,0.75,NA,"OVC",NA,NA,NA,200,NA,NA,NA,NA,NA,NA,NA,NA,NA,NA,NA,"KQEI 012340Z AUTO 31001KT 1200 // OVC002 06/06 A3022 RMK A02 TSNO"
"2075","RKTE",2019-11-01 01:17:00,127.5001,36.5682,60.8,55.4,82.37,350,2,0,30.17,NA,2.24,NA,"FEW","SCT","BKN",NA,0,1000,2000,NA,"BR",NA,NA,NA,NA,NA,NA,NA,"RKTE 010117Z 35002KT 3600 BR FEW000 SCT010 BKN020 16/13 A3017 RMK CIG020 FG FEW000"
"2076","RKSW",2019-11-01 00:06:00,127.0071,37.2394,57.2,57.2,100,160,3,0,30.23,NA,1.99,NA,"FEW",NA,NA,NA,1000,NA,NA,NA,"BR",NA,NA,NA,NA,NA,NA,NA,"RKSW 010006Z 16003KT 3200 BR FEW010 14/14 A3023"
"2077","RKSW",2019-11-01 00:34:00,127.0071,37.2394,59,53.6,82.25,330,3,0,30.23,NA,2.98,NA,"FEW",NA,NA,NA,1000,NA,NA,NA,"BR",NA,NA,NA,NA,NA,NA,NA,"RKSW 010034Z 33003KT 4800 BR FEW010 15/12 A3023"
"2078","RKTN",2019-11-01 00:00:00,128.6589,35.8941,53.6,48.2,81.87,330,4,0,30.18,NA,4.97,NA,"FEW",NA,NA,NA,4000,NA,NA,NA,NA,NA,NA,NA,NA,NA,NA,NA,"RKTN 010000Z 33004KT 8000 FEW040 12/09 Q1022"
"2079","RKTN",2019-11-01 01:00:00,128.6589,35.8941,60.8,50,67.54,320,4,0,30.18,NA,4.97,NA,"NSC",NA,NA,NA,NA,NA,NA,NA,NA,NA,NA,NA,NA,NA,NA,NA,"RKTN 010100Z 32004KT 8000 NSC 16/10 Q1022"
"2080","RKTN",2019-11-01 02:00:00,128.6589,35.8941,66.2,50,55.88,290,6,0,30.18,NA,5.59,NA,"NSC",NA,NA,NA,NA,NA,NA,NA,NA,NA,NA,NA,NA,NA,NA,NA,"RKTN 010200Z 29006KT 9000 NSC 19/10 Q1022"
"2081","RKTN",2019-11-01 03:00:00,128.6589,35.8941,68,48.2,49.1,250,6,0,30.15,NA,6.21,NA,NA,NA,NA,NA,NA,NA,NA,NA,NA,NA,NA,NA,NA,NA,NA,NA,"RKTN 010300Z 25006KT CAVOK 20/09 Q1021"
"2082","RKTN",2019-11-01 04:00:00,128.6589,35.8941,69.8,46.4,43.13,270,6,0,30.12,NA,6.21,NA,NA,NA,NA,NA,NA,NA,NA,NA,NA,NA,NA,NA,NA,NA,NA,NA,"RKTN 010400Z 27006KT CAVOK 21/08 Q1020"
"2083","RKTN",2019-11-01 05:00:00,128.6589,35.8941,71.6,44.6,37.89,270,6,0,30.09,NA,6.21,NA,NA,NA,NA,NA,NA,NA,NA,NA,NA,NA,NA,NA,NA,NA,NA,NA,"RKTN 010500Z 27006KT CAVOK 22/07 Q1019"
"2084","RKTN",2019-11-01 06:00:00,128.6589,35.8941,73.4,39.2,28.96,250,5,0,30.09,NA,6.21,NA,NA,NA,NA,NA,NA,NA,NA,NA,NA,NA,NA,NA,NA,NA,NA,NA,"RKTN 010600Z 25005KT CAVOK 23/04 Q1019"
"2085","RKTN",2019-11-01 07:00:00,128.6589,35.8941,73.4,41,31.05,230,3,0,30.09,NA,6.21,NA,NA,NA,NA,NA,NA,NA,NA,NA,NA,NA,NA,NA,NA,NA,NA,NA,"RKTN 010700Z 23003KT CAVOK 23/05 Q1019"
"2086","RKTN",2019-11-01 08:00:00,128.6589,35.8941,69.8,44.6,40.29,130,5,0,30.12,NA,6.21,NA,NA,NA,NA,NA,NA,NA,NA,NA,NA,NA,NA,NA,NA,NA,NA,NA,"RKTN 010800Z 13005KT CAVOK 21/07 Q1020"
"2087","RKTN",2019-11-01 08:01:00,128.6589,35.8941,69.8,46.4,43.13,140,2,0,30.12,NA,6.21,NA,NA,NA,NA,NA,NA,NA,NA,NA,NA,NA,NA,NA,NA,NA,NA,NA,"RKTN 010801Z 14002KT CAVOK 21/08 Q1020"
"2088","RKTN",2019-11-01 08:12:00,128.6589,35.8941,NA,NA,NA,NA,NA,0,NA,NA,NA,NA,NA,NA,NA,NA,NA,NA,NA,NA,NA,NA,NA,NA,NA,NA,NA,NA,"RKTN 010812Z 01SPECI"
"2089","RKTN",2019-11-01 09:00:00,128.6589,35.8941,66.2,46.4,48.83,80,3,0,30.12,NA,6.21,NA,NA,NA,NA,NA,NA,NA,NA,NA,NA,NA,NA,NA,NA,NA,NA,NA,"RKTN 010900Z 08003KT CAVOK 19/08 Q1020"
"2090","RKTN",2019-11-01 10:00:00,128.6589,35.8941,64.4,48.2,55.63,130,6,0,30.15,NA,6.21,NA,NA,NA,NA,NA,NA,NA,NA,NA,NA,NA,NA,NA,NA,NA,NA,NA,"RKTN 011000Z 13006KT CAVOK 18/09 Q1021"
"2091","RKTN",2019-11-01 11:00:00,128.6589,35.8941,62.6,46.4,55.37,120,5,0,30.18,NA,6.21,NA,NA,NA,NA,NA,NA,NA,NA,NA,NA,NA,NA,NA,NA,NA,NA,NA,"RKTN 011100Z 12005KT CAVOK 17/08 Q1022"
"2092","RKTN",2019-11-01 12:00:00,128.6589,35.8941,60.8,48.2,63.15,150,5,0,30.18,NA,6.21,NA,NA,NA,NA,NA,NA,NA,NA,NA,NA,NA,NA,NA,NA,NA,NA,NA,"RKTN 011200Z 15005KT CAVOK 16/09 Q1022"
"2093","RKTN",2019-11-01 13:00:00,128.6589,35.8941,59,48.2,67.33,160,3,0,30.18,NA,6.21,NA,NA,NA,NA,NA,NA,NA,NA,NA,NA,NA,NA,NA,NA,NA,NA,NA,"RKTN 011300Z 16003KT CAVOK 15/09 Q1022"
"2094","RKTN",2019-11-01 14:00:00,128.6589,35.8941,55.4,48.2,76.66,80,4,0,30.21,NA,6.21,NA,NA,NA,NA,NA,NA,NA,NA,NA,NA,NA,NA,NA,NA,NA,NA,NA,"RKTN 011400Z 08004KT CAVOK 13/09 Q1023"
"2095","RKTN",2019-11-01 15:00:00,128.6589,35.8941,53.6,48.2,81.87,120,2,0,30.18,NA,6.21,NA,NA,NA,NA,NA,NA,NA,NA,NA,NA,NA,NA,NA,NA,NA,NA,NA,"RKTN 011500Z 12002KT CAVOK 12/09 Q1022"
"2096","RKTN",2019-11-01 16:00:00,128.6589,35.8941,51.8,46.4,81.74,150,1,0,30.21,NA,4.97,NA,"NSC",NA,NA,NA,NA,NA,NA,NA,NA,NA,NA,NA,NA,NA,NA,NA,"RKTN 011600Z 15001KT 8000 NSC 11/08 Q1023"
"2097","RKTN",2019-11-01 17:00:00,128.6589,35.8941,51.8,46.4,81.74,130,1,0,30.21,NA,4.97,NA,"NSC",NA,NA,NA,NA,NA,NA,NA,NA,NA,NA,NA,NA,NA,NA,NA,"RKTN 011700Z 13001KT 8000 NSC 11/08 Q1023"
"2098","RKTN",2019-11-01 18:00:00,128.6589,35.8941,51.8,48.2,87.47,110,1,0,30.18,NA,4.97,NA,"NSC",NA,NA,NA,NA,NA,NA,NA,NA,NA,NA,NA,NA,NA,NA,NA,"RKTN 011800Z 11001KT 8000 NSC 11/09 Q1022"
"2099","RKTN",2019-11-01 19:00:00,128.6589,35.8941,50,46.4,87.37,350,1,0,30.18,NA,4.97,NA,"NSC",NA,NA,NA,NA,NA,NA,NA,NA,NA,NA,NA,NA,NA,NA,NA,"RKTN 011900Z 35001KT 8000 NSC 10/08 Q1022"
"2100","RKTN",2019-11-01 20:00:00,128.6589,35.8941,46.4,44.6,93.4,130,1,0,30.18,NA,3.73,NA,"NSC",NA,NA,NA,NA,NA,NA,NA,NA,NA,NA,NA,NA,NA,NA,NA,"RKTN 012000Z 13001KT 6000 NSC 08/07 Q1022"
"2101","RKTN",2019-11-01 21:00:00,128.6589,35.8941,46.4,44.6,93.4,120,2,0,30.18,NA,3.73,NA,"NSC",NA,NA,NA,NA,NA,NA,NA,NA,NA,NA,NA,NA,NA,NA,NA,"RKTN 012100Z 12002KT 6000 NSC 08/07 Q1022"
"2102","RKTN",2019-11-01 22:00:00,128.6589,35.8941,48.2,44.6,87.28,110,1,0,30.18,NA,4.97,NA,"NSC",NA,NA,NA,NA,NA,NA,NA,NA,NA,NA,NA,NA,NA,NA,NA,"RKTN 012200Z 11001KT 8000 NSC 09/07 Q1022"
"2103","RKTN",2019-11-01 23:00:00,128.6589,35.8941,50,46.4,87.37,100,1,0,30.21,NA,5.59,NA,"NSC",NA,NA,NA,NA,NA,NA,NA,NA,NA,NA,NA,NA,NA,NA,NA,"RKTN 012300Z 10001KT 9000 NSC 10/08 Q1023"
"2104","RKNW",2019-11-01 00:36:00,127.9467,37.3375,53.6,53.6,100,70,4,0,30.21,NA,0.5,NA,"VV ",NA,NA,NA,200,NA,NA,NA,"FG",NA,NA,NA,NA,NA,NA,NA,"RKNW 010036Z 07004KT 0800 R03/P2000 FG VV002 12/12 A3021 RMK CIG002"
"2105","RKNW",2019-11-01 01:14:00,127.9467,37.3375,55.4,55.4,100,20,2,0,30.2,NA,0.75,NA,"BKN",NA,NA,NA,300,NA,NA,NA,"BR",NA,NA,NA,NA,NA,NA,NA,"RKNW 010114Z 02002KT 1200 BR BKN003 13/13 A3020 RMK CIG003"
"2106","RKNW",2019-11-01 01:19:00,127.9467,37.3375,55.4,55.4,100,50,1,0,30.2,NA,0.99,NA,"BKN",NA,NA,NA,300,NA,NA,NA,"BR",NA,NA,NA,NA,NA,NA,NA,"RKNW 010119Z 05001KT 1600 BR BKN003 13/13 A3020 RMK CIG003"
"2107","RKNW",2019-11-01 01:22:00,127.9467,37.3375,57.2,55.4,93.69,50,1,0,30.2,NA,0.99,NA,"SCT","BKN",NA,NA,300,1000,NA,NA,"BR",NA,NA,NA,NA,NA,NA,NA,"RKNW 010122Z 05001KT 1600 BR SCT003 BKN010 14/13 A3020 RMK CIG010"
"2108","RKNW",2019-11-01 01:40:00,127.9467,37.3375,59,57.2,93.74,140,1,0,30.2,NA,1.49,NA,"FEW","SCT",NA,NA,300,1000,NA,NA,"BR",NA,NA,NA,NA,NA,NA,NA,"RKNW 010140Z 14001KT 2400 BR FEW003 SCT010 15/14 A3020"
"2109","RKNW",2019-11-01 01:46:00,127.9467,37.3375,59,57.2,93.74,150,1,0,30.19,NA,1.99,NA,"FEW",NA,NA,NA,1000,NA,NA,NA,"BR",NA,NA,NA,NA,NA,NA,NA,"RKNW 010146Z 15001KT 3200 BR FEW010 15/14 A3019"
"2110","RKNW",2019-11-01 01:54:00,127.9467,37.3375,60.8,53.6,77.14,170,1,0,30.19,NA,2.98,NA,"FEW",NA,NA,NA,3000,NA,NA,NA,"BR",NA,NA,NA,NA,NA,NA,NA,"RKNW 010154Z 17001KT 4800 BR FEW030 16/12 A3019"
"2111","RKNW",2019-11-01 02:42:00,127.9467,37.3375,64.4,46.4,51.98,200,2,0,30.18,NA,4.97,NA,"FEW",NA,NA,NA,3000,NA,NA,NA,"HZ",NA,NA,NA,NA,NA,NA,NA,"RKNW 010242Z 20002KT 8000 HZ FEW030 18/08 A3018"
"2112","RKNW",2019-11-01 08:35:00,127.9467,37.3375,59,50,72.01,230,3,0,30.15,NA,6.21,NA,"CLR",NA,NA,NA,NA,NA,NA,NA,NA,NA,NA,NA,NA,NA,NA,NA,"RKNW 010835Z 23003KT 9999 SKC 15/10 A3015"
"2113","RKNW",2019-11-01 21:32:00,127.9467,37.3375,41,41,100,300,1,0,30.19,NA,0.99,NA,"BKN",NA,NA,NA,200,NA,NA,NA,"BR",NA,NA,NA,NA,NA,NA,NA,"RKNW 012132Z 30001KT 1600 BR BKN002 05/05 A3019 RMK CIG002"
"2114","RKNW",2019-11-01 21:34:00,127.9467,37.3375,41,41,100,280,1,0,30.19,NA,0.99,NA,"BKN",NA,NA,NA,200,NA,NA,NA,"BR",NA,NA,NA,NA,NA,NA,NA,"RKNW 012134Z 28001KT 1600 BR BKN002 05/05 A3019 RMK CIG002"
"2115","RKNW",2019-11-01 21:48:00,127.9467,37.3375,41,41,100,50,1,0,30.19,NA,0.5,NA,"BKN",NA,NA,NA,200,NA,NA,NA,"FG",NA,NA,NA,NA,NA,NA,NA,"RKNW 012148Z 05001KT 0800 R03/P2000 FG BKN002 05/05 A3019 RMK CIG002"
"2116","RKTW",2019-11-01 00:38:00,126.55,36.2,60.8,59,93.79,250,3,0,30.14,NA,0.5,NA,"SCT","BKN",NA,NA,0,700,NA,NA,"FG",NA,NA,NA,NA,NA,NA,NA,"RKTW 010038Z 25003KT 0800 FG SCT000 BKN007 16/15 A3014 RMK CIG007 FG SCT000"
"2117","RKTW",2019-11-01 00:47:00,126.55,36.2,60.8,59,93.79,250,3,0,30.14,NA,0.99,NA,"FEW","BKN",NA,NA,0,700,NA,NA,"BR",NA,NA,NA,NA,NA,NA,NA,"RKTW 010047Z 25003KT 1600 BR FEW000 BKN007 16/15 A3014 RMK CIG007 FG FEW000"
"2118","RKTW",2019-11-01 01:32:00,126.55,36.2,64.4,60.8,88.09,240,3,0,30.15,NA,1.99,NA,"FEW","FEW","SCT",NA,0,500,1500,NA,"BR",NA,NA,NA,NA,NA,NA,NA,"RKTW 010132Z 24003KT 3200 BR FEW000 FEW005 SCT015 18/16 A3015 RMK FG FEW000"
"2119","RKTW",2019-11-01 01:48:00,126.55,36.2,64.4,59,82.62,250,4,0,30.15,NA,2.98,NA,"SCT",NA,NA,NA,500,NA,NA,NA,"BR",NA,NA,NA,NA,NA,NA,NA,"RKTW 010148Z 25004KT 4800 BR SCT005 18/15 A3015"
"2120","QFT",2019-11-01 00:00:00,127.35,37.6,53.6,55.4,NA,100,1,0,30.19,NA,0.25,NA,"OVC",NA,NA,NA,200,NA,NA,NA,"FG",NA,NA,NA,NA,NA,NA,NA,"KQFT 010000Z AUTO 10001KT 0400 FG OVC002 12/13 A3019 RMK A02 TSNO"
"2121","QFT",2019-11-01 00:10:00,127.35,37.6,53.6,55.4,NA,20,1,0,30.19,NA,0.75,NA,"OVC",NA,NA,NA,200,NA,NA,NA,"BR",NA,NA,NA,NA,NA,NA,NA,"KQFT 010010Z AUTO 02001KT 1200 BR OVC002 12/13 A3019 RMK A02 TSNO"
"2122","QFT",2019-11-01 00:20:00,127.35,37.6,53.6,55.4,NA,340,1,0,30.19,NA,1.24,NA,"OVC",NA,NA,NA,200,NA,NA,NA,"BR",NA,NA,NA,NA,NA,NA,NA,"KQFT 010020Z AUTO 34001KT 2000 BR OVC002 12/13 A3019 RMK A02 TSNO"
"2123","QFT",2019-11-01 00:30:00,127.35,37.6,55.4,53.6,93.65,300,1,0,30.19,NA,1.49,NA,"BKN",NA,NA,NA,200,NA,NA,NA,"BR",NA,NA,NA,NA,NA,NA,NA,"KQFT 010030Z AUTO 30001KT 2400 BR BKN002 13/12 A3019 RMK A02 TSNO"
"2124","QFT",2019-11-01 00:40:00,127.35,37.6,55.4,53.6,93.65,310,1,0,30.19,NA,1.99,NA,"BKN",NA,NA,NA,300,NA,NA,NA,"BR",NA,NA,NA,NA,NA,NA,NA,"KQFT 010040Z AUTO 31001KT 3200 BR BKN003 13/12 A3019 RMK A02 TSNO"
"2125","QFT",2019-11-01 00:50:00,127.35,37.6,55.4,53.6,93.65,200,2,0,30.19,NA,1.99,NA,"SCT",NA,NA,NA,300,NA,NA,NA,"BR",NA,NA,NA,NA,NA,NA,NA,"KQFT 010050Z AUTO 20002KT 3200 BR SCT003 13/12 A3019 RMK A02 TSNO"
"2126","QFT",2019-11-01 01:00:00,127.35,37.6,57.2,53.6,87.74,230,2,0,30.18,NA,1.99,NA,"FEW","SCT",NA,NA,400,600,NA,NA,"BR",NA,NA,NA,NA,NA,NA,NA,"KQFT 010100Z AUTO 23002KT 3200 BR FEW004 SCT006 14/12 A3018 RMK A02 TSNO"
"2127","QFT",2019-11-01 01:10:00,127.35,37.6,55.4,53.6,93.65,240,2,0,30.18,NA,2.49,NA,"FEW",NA,NA,NA,400,NA,NA,NA,"BR",NA,NA,NA,NA,NA,NA,NA,"KQFT 010110Z AUTO 24002KT 4000 BR FEW004 13/12 A3018 RMK A02 TSNO"
"2128","QFT",2019-11-01 01:20:00,127.35,37.6,59,53.6,82.25,220,2,0,30.18,NA,2.98,NA,"FEW",NA,NA,NA,400,NA,NA,NA,"HZ",NA,NA,NA,NA,NA,NA,NA,"KQFT 010120Z AUTO 22002KT 4800 HZ FEW004 15/12 A3018 RMK A02 TSNO"
"2129","QFT",2019-11-01 01:30:00,127.35,37.6,60.8,53.6,77.14,180,2,0,30.18,NA,3.73,NA,"CLR",NA,NA,NA,NA,NA,NA,NA,"HZ",NA,NA,NA,NA,NA,NA,NA,"KQFT 010130Z AUTO 18002KT 6000 HZ CLR 16/12 A3018 RMK A02 TSNO"
"2130","QFT",2019-11-01 01:40:00,127.35,37.6,59,51.8,76.98,270,2,0,30.18,NA,3.73,NA,"CLR",NA,NA,NA,NA,NA,NA,NA,"HZ",NA,NA,NA,NA,NA,NA,NA,"KQFT 010140Z AUTO 27002KT 6000 HZ CLR 15/11 A3018 RMK A02 TSNO"
"2131","QFT",2019-11-01 01:50:00,127.35,37.6,60.8,50,67.54,250,2,0,30.18,NA,3.73,NA,"CLR",NA,NA,NA,NA,NA,NA,NA,"HZ",NA,NA,NA,NA,NA,NA,NA,"KQFT 010150Z AUTO 25002KT 6000 HZ CLR 16/10 A3018 RMK A02 TSNO"
"2132","QFT",2019-11-01 02:00:00,127.35,37.6,62.6,46.4,55.37,200,2,0,30.18,NA,5.59,NA,"CLR",NA,NA,NA,NA,NA,NA,NA,"HZ",NA,NA,NA,NA,NA,NA,NA,"KQFT 010200Z AUTO 20002KT 9000 HZ CLR 17/08 A3018 RMK A02 TSNO"
"2133","QFT",2019-11-01 02:10:00,127.35,37.6,62.6,46.4,55.37,250,2,0,30.18,NA,6.21,NA,"CLR",NA,NA,NA,NA,NA,NA,NA,NA,NA,NA,NA,NA,NA,NA,NA,"KQFT 010210Z AUTO 25002KT 9999 CLR 17/08 A3018 RMK A02 TSNO"
"2134","QFT",2019-11-01 02:20:00,127.35,37.6,62.6,44.6,51.72,210,3,0,30.18,NA,6.21,NA,"CLR",NA,NA,NA,NA,NA,NA,NA,NA,NA,NA,NA,NA,NA,NA,NA,"KQFT 010220Z AUTO 21003KT 9999 CLR 17/07 A3018 RMK A02 TSNO"
"2135","QFT",2019-11-01 02:30:00,127.35,37.6,62.6,46.4,55.37,240,2,0,30.18,NA,6.21,NA,"CLR",NA,NA,NA,NA,NA,NA,NA,NA,NA,NA,NA,NA,NA,NA,NA,"KQFT 010230Z AUTO 24002KT 9999 CLR 17/08 A3018 RMK A02 TSNO"
"2136","QFT",2019-11-01 02:40:00,127.35,37.6,62.6,46.4,55.37,260,2,0,30.17,NA,6.21,NA,"CLR",NA,NA,NA,NA,NA,NA,NA,NA,NA,NA,NA,NA,NA,NA,NA,"KQFT 010240Z AUTO 26002KT 9999 CLR 17/08 A3017 RMK A02 TSNO"
"2137","QFT",2019-11-01 02:50:00,127.35,37.6,62.6,46.4,55.37,230,3,0,30.17,NA,6.21,NA,"CLR",NA,NA,NA,NA,NA,NA,NA,NA,NA,NA,NA,NA,NA,NA,NA,"KQFT 010250Z AUTO 23003KT 9999 CLR 17/08 A3017 RMK A02 TSNO"
"2138","QFT",2019-11-01 03:00:00,127.35,37.6,64.4,44.6,48.55,230,3,0,30.17,NA,6.21,NA,"CLR",NA,NA,NA,NA,NA,NA,NA,NA,NA,NA,NA,NA,NA,NA,NA,"KQFT 010300Z AUTO 23003KT 9999 CLR 18/07 A3017 RMK A02 TSNO"
"2139","QFT",2019-11-01 03:10:00,127.35,37.6,64.4,44.6,48.55,230,3,0,30.17,NA,6.21,NA,"CLR",NA,NA,NA,NA,NA,NA,NA,NA,NA,NA,NA,NA,NA,NA,NA,"KQFT 010310Z AUTO 23003KT 9999 CLR 18/07 A3017 RMK A02 TSNO"
"2140","QFT",2019-11-01 03:20:00,127.35,37.6,64.4,44.6,48.55,200,4,0,30.16,NA,6.21,NA,"CLR",NA,NA,NA,NA,NA,NA,NA,NA,NA,NA,NA,NA,NA,NA,NA,"KQFT 010320Z AUTO 20004KT 9999 CLR 18/07 A3016 RMK A02 TSNO"
"2141","QFT",2019-11-01 03:40:00,127.35,37.6,66.2,44.6,45.6,190,3,0,30.15,NA,6.21,NA,"CLR",NA,NA,NA,NA,NA,NA,NA,NA,NA,NA,NA,NA,NA,NA,NA,"KQFT 010340Z AUTO 19003KT 9999 CLR 19/07 A3015 RMK A02 TSNO"
"2142","QFT",2019-11-01 03:50:00,127.35,37.6,66.2,42.8,42.57,230,4,0,30.15,NA,6.21,NA,"CLR",NA,NA,NA,NA,NA,NA,NA,NA,NA,NA,NA,NA,NA,NA,NA,"KQFT 010350Z AUTO 23004KT 9999 CLR 19/06 A3015 RMK A02 TSNO"
"2143","QFT",2019-11-01 04:00:00,127.35,37.6,66.2,42.8,42.57,230,3,0,30.14,NA,6.21,NA,"CLR",NA,NA,NA,NA,NA,NA,NA,NA,NA,NA,NA,NA,NA,NA,NA,"KQFT 010400Z AUTO 23003KT 9999 CLR 19/06 A3014 RMK A02 TSNO"
"2144","QFT",2019-11-01 04:10:00,127.35,37.6,66.2,42.8,42.57,200,4,0,30.14,NA,6.21,NA,"CLR",NA,NA,NA,NA,NA,NA,NA,NA,NA,NA,NA,NA,NA,NA,NA,"KQFT 010410Z AUTO 20004KT 9999 CLR 19/06 A3014 RMK A02 TSNO"
"2145","QFT",2019-11-01 04:20:00,127.35,37.6,68,42.8,40,200,4,0,30.14,NA,6.21,NA,"CLR",NA,NA,NA,NA,NA,NA,NA,NA,NA,NA,NA,NA,NA,NA,NA,"KQFT 010420Z AUTO 20004KT 9999 CLR 20/06 A3014 RMK A02 TSNO"
"2146","QFT",2019-11-01 04:30:00,127.35,37.6,66.2,42.8,42.57,190,4,0,30.13,NA,6.21,NA,"CLR",NA,NA,NA,NA,NA,NA,NA,NA,NA,NA,NA,NA,NA,NA,NA,"KQFT 010430Z AUTO 19004KT 9999 CLR 19/06 A3013 RMK A02 TSNO"
"2147","QFT",2019-11-01 04:40:00,127.35,37.6,68,42.8,40,190,3,0,30.13,NA,6.21,NA,"CLR",NA,NA,NA,NA,NA,NA,NA,NA,NA,NA,NA,NA,NA,NA,NA,"KQFT 010440Z AUTO 19003KT 9999 CLR 20/06 A3013 RMK A02 TSNO"
"2148","QFT",2019-11-01 04:50:00,127.35,37.6,68,42.8,40,180,3,0,30.13,NA,6.21,NA,"CLR",NA,NA,NA,NA,NA,NA,NA,NA,NA,NA,NA,NA,NA,NA,NA,"KQFT 010450Z AUTO 18003KT 9999 CLR 20/06 A3013 RMK A02 TSNO"
"2149","QFT",2019-11-01 05:00:00,127.35,37.6,68,42.8,40,200,3,0,30.13,NA,6.21,NA,"CLR",NA,NA,NA,NA,NA,NA,NA,NA,NA,NA,NA,NA,NA,NA,NA,"KQFT 010500Z AUTO 20003KT 9999 CLR 20/06 A3013 RMK A02 TSNO"
"2150","QFT",2019-11-01 05:10:00,127.35,37.6,68,42.8,40,180,4,0,30.13,NA,6.21,NA,"CLR",NA,NA,NA,NA,NA,NA,NA,NA,NA,NA,NA,NA,NA,NA,NA,"KQFT 010510Z AUTO 18004KT 9999 CLR 20/06 A3013 RMK A02 TSNO"
"2151","QFT",2019-11-01 05:20:00,127.35,37.6,68,42.8,40,190,3,0,30.13,NA,6.21,NA,"CLR",NA,NA,NA,NA,NA,NA,NA,NA,NA,NA,NA,NA,NA,NA,NA,"KQFT 010520Z AUTO 19003KT 9999 CLR 20/06 A3013 RMK A02 TSNO"
"2152","QFT",2019-11-01 05:30:00,127.35,37.6,68,42.8,40,170,4,0,30.13,NA,6.21,NA,"CLR",NA,NA,NA,NA,NA,NA,NA,NA,NA,NA,NA,NA,NA,NA,NA,"KQFT 010530Z AUTO 17004KT 9999 CLR 20/06 A3013 RMK A02 TSNO"
"2153","QFT",2019-11-01 05:40:00,127.35,37.6,68,41,37.32,190,3,0,30.13,NA,6.21,NA,"CLR",NA,NA,NA,NA,NA,NA,NA,NA,NA,NA,NA,NA,NA,NA,NA,"KQFT 010540Z AUTO 19003KT 9999 CLR 20/05 A3013 RMK A02 TSNO"
"2154","QFT",2019-11-01 05:50:00,127.35,37.6,68,42.8,40,200,4,0,30.13,NA,6.21,NA,"CLR",NA,NA,NA,NA,NA,NA,NA,NA,NA,NA,NA,NA,NA,NA,NA,"KQFT 010550Z AUTO 20004KT 9999 CLR 20/06 A3013 RMK A02 TSNO"
"2155","QFT",2019-11-01 06:00:00,127.35,37.6,69.8,41,35.09,180,3,0,30.12,NA,6.21,NA,"CLR",NA,NA,NA,NA,NA,NA,NA,NA,NA,NA,NA,NA,NA,NA,NA,"KQFT 010600Z AUTO 18003KT 9999 CLR 21/05 A3012 RMK A02 TSNO"
"2156","QFT",2019-11-01 06:10:00,127.35,37.6,68,42.8,40,210,3,0,30.13,NA,6.21,NA,"CLR",NA,NA,NA,NA,NA,NA,NA,NA,NA,NA,NA,NA,NA,NA,NA,"KQFT 010610Z AUTO 21003KT 9999 CLR 20/06 A3013 RMK A02 TSNO"
"2157","QFT",2019-11-01 06:20:00,127.35,37.6,68,42.8,40,210,2,0,30.13,NA,6.21,NA,"CLR",NA,NA,NA,NA,NA,NA,NA,NA,NA,NA,NA,NA,NA,NA,NA,"KQFT 010620Z AUTO 21002KT 9999 CLR 20/06 A3013 RMK A02 TSNO"
"2158","QFT",2019-11-01 06:30:00,127.35,37.6,69.8,41,35.09,170,3,0,30.13,NA,6.21,NA,"CLR",NA,NA,NA,NA,NA,NA,NA,NA,NA,NA,NA,NA,NA,NA,NA,"KQFT 010630Z AUTO 17003KT 9999 CLR 21/05 A3013 RMK A02 TSNO"
"2159","QFT",2019-11-01 06:40:00,127.35,37.6,69.8,42.8,37.61,190,2,0,30.13,NA,6.21,NA,"CLR",NA,NA,NA,NA,NA,NA,NA,NA,NA,NA,NA,NA,NA,NA,NA,"KQFT 010640Z AUTO 19002KT 9999 CLR 21/06 A3013 RMK A02 TSNO"
"2160","QFT",2019-11-01 06:50:00,127.35,37.6,68,46.4,45.88,220,2,0,30.13,NA,6.21,NA,"CLR",NA,NA,NA,NA,NA,NA,NA,NA,NA,NA,NA,NA,NA,NA,NA,"KQFT 010650Z AUTO 22002KT 9999 CLR 20/08 A3013 RMK A02 TSNO"
"2161","QFT",2019-11-01 07:00:00,127.35,37.6,68,46.4,45.88,180,2,0,30.13,NA,6.21,NA,"CLR",NA,NA,NA,NA,NA,NA,NA,NA,NA,NA,NA,NA,NA,NA,NA,"KQFT 010700Z AUTO 18002KT 9999 CLR 20/08 A3013 RMK A02 TSNO"
"2162","QFT",2019-11-01 07:10:00,127.35,37.6,68,46.4,45.88,250,1,0,30.13,NA,6.21,NA,"CLR",NA,NA,NA,NA,NA,NA,NA,NA,NA,NA,NA,NA,NA,NA,NA,"KQFT 010710Z AUTO 25001KT 9999 CLR 20/08 A3013 RMK A02 TSNO"
"2163","QFT",2019-11-01 07:20:00,127.35,37.6,66.2,46.4,48.83,230,2,0,30.12,NA,6.21,NA,"CLR",NA,NA,NA,NA,NA,NA,NA,NA,NA,NA,NA,NA,NA,NA,NA,"KQFT 010720Z AUTO 23002KT 9999 CLR 19/08 A3012 RMK A02 TSNO"
"2164","QFT",2019-11-01 07:30:00,127.35,37.6,66.2,48.2,52.25,280,1,0,30.13,NA,6.21,NA,"CLR",NA,NA,NA,NA,NA,NA,NA,NA,NA,NA,NA,NA,NA,NA,NA,"KQFT 010730Z AUTO 28001KT 9999 CLR 19/09 A3013 RMK A02 TSNO"
"2165","QFT",2019-11-01 07:40:00,127.35,37.6,64.4,46.4,51.98,30,1,0,30.13,NA,6.21,NA,"CLR",NA,NA,NA,NA,NA,NA,NA,NA,NA,NA,NA,NA,NA,NA,NA,"KQFT 010740Z AUTO 03001KT 9999 CLR 18/08 A3013 RMK A02 TSNO"
"2166","QFT",2019-11-01 07:50:00,127.35,37.6,64.4,44.6,48.55,30,1,0,30.13,NA,6.21,NA,"CLR",NA,NA,NA,NA,NA,NA,NA,NA,NA,NA,NA,NA,NA,NA,NA,"KQFT 010750Z AUTO 03001KT 9999 CLR 18/07 A3013 RMK A02 TSNO"
"2167","QFT",2019-11-01 08:00:00,127.35,37.6,62.6,46.4,55.37,10,1,0,30.13,NA,6.21,NA,"CLR",NA,NA,NA,NA,NA,NA,NA,NA,NA,NA,NA,NA,NA,NA,NA,"KQFT 010800Z AUTO 01001KT 9999 CLR 17/08 A3013 RMK A02 TSNO"
"2168","QFT",2019-11-01 08:10:00,127.35,37.6,62.6,46.4,55.37,30,1,0,30.14,NA,6.21,NA,"CLR",NA,NA,NA,NA,NA,NA,NA,NA,NA,NA,NA,NA,NA,NA,NA,"KQFT 010810Z AUTO 03001KT 9999 CLR 17/08 A3014 RMK A02 TSNO"
"2169","QFT",2019-11-01 08:20:00,127.35,37.6,60.8,46.4,59.01,0,0,0,30.14,NA,6.21,NA,"CLR",NA,NA,NA,NA,NA,NA,NA,NA,NA,NA,NA,NA,NA,NA,NA,"KQFT 010820Z AUTO 00000KT 9999 CLR 16/08 A3014 RMK A02 TSNO"
"2170","QFT",2019-11-01 08:30:00,127.35,37.6,60.8,48.2,63.15,160,1,0,30.14,NA,6.21,NA,"CLR",NA,NA,NA,NA,NA,NA,NA,NA,NA,NA,NA,NA,NA,NA,NA,"KQFT 010830Z AUTO 16001KT 9999 CLR 16/09 A3014 RMK A02 TSNO"
"2171","QFT",2019-11-01 08:40:00,127.35,37.6,59,48.2,67.33,190,1,0,30.15,NA,6.21,NA,"CLR",NA,NA,NA,NA,NA,NA,NA,NA,NA,NA,NA,NA,NA,NA,NA,"KQFT 010840Z AUTO 19001KT 9999 CLR 15/09 A3015 RMK A02 TSNO"
"2172","QFT",2019-11-01 08:50:00,127.35,37.6,59,46.4,62.92,170,3,0,30.15,NA,6.21,NA,"CLR",NA,NA,NA,NA,NA,NA,NA,NA,NA,NA,NA,NA,NA,NA,NA,"KQFT 010850Z AUTO 17003KT 9999 CLR 15/08 A3015 RMK A02 TSNO"
"2173","QFT",2019-11-01 09:00:00,127.35,37.6,57.2,46.4,67.12,190,2,0,30.16,NA,6.21,NA,"CLR",NA,NA,NA,NA,NA,NA,NA,NA,NA,NA,NA,NA,NA,NA,NA,"KQFT 010900Z AUTO 19002KT 9999 CLR 14/08 A3016 RMK A02 TSNO"
"2174","QFT",2019-11-01 09:10:00,127.35,37.6,57.2,46.4,67.12,120,1,0,30.16,NA,6.21,NA,"CLR",NA,NA,NA,NA,NA,NA,NA,NA,NA,NA,NA,NA,NA,NA,NA,"KQFT 010910Z AUTO 12001KT 9999 CLR 14/08 A3016 RMK A02 TSNO"
"2175","QFT",2019-11-01 09:20:00,127.35,37.6,57.2,46.4,67.12,180,1,0,30.16,NA,6.21,NA,"CLR",NA,NA,NA,NA,NA,NA,NA,NA,NA,NA,NA,NA,NA,NA,NA,"KQFT 010920Z AUTO 18001KT 9999 CLR 14/08 A3016 RMK A02 TSNO"
"2176","QFT",2019-11-01 09:30:00,127.35,37.6,55.4,46.4,71.64,100,1,0,30.16,NA,6.21,NA,"CLR",NA,NA,NA,NA,NA,NA,NA,NA,NA,NA,NA,NA,NA,NA,NA,"KQFT 010930Z AUTO 10001KT 9999 CLR 13/08 A3016 RMK A02 TSNO"
"2177","QFT",2019-11-01 09:40:00,127.35,37.6,55.4,48.2,76.66,60,1,0,30.16,NA,6.21,NA,"CLR",NA,NA,NA,NA,NA,NA,NA,NA,NA,NA,NA,NA,NA,NA,NA,"KQFT 010940Z AUTO 06001KT 9999 CLR 13/09 A3016 RMK A02 TSNO"
"2178","QFT",2019-11-01 09:50:00,127.35,37.6,55.4,46.4,71.64,0,0,0,30.17,NA,6.21,NA,"CLR",NA,NA,NA,NA,NA,NA,NA,NA,NA,NA,NA,NA,NA,NA,NA,"KQFT 010950Z AUTO 00000KT 9999 CLR 13/08 A3017 RMK A02 TSNO"
"2179","QFT",2019-11-01 10:00:00,127.35,37.6,55.4,46.4,71.64,0,0,0,30.16,NA,6.21,NA,"CLR",NA,NA,NA,NA,NA,NA,NA,NA,NA,NA,NA,NA,NA,NA,NA,"KQFT 011000Z AUTO 00000KT 9999 CLR 13/08 A3016 RMK A02 TSNO"
"2180","QFT",2019-11-01 10:10:00,127.35,37.6,53.6,46.4,76.5,0,0,0,30.17,NA,6.21,NA,"CLR",NA,NA,NA,NA,NA,NA,NA,NA,NA,NA,NA,NA,NA,NA,NA,"KQFT 011010Z AUTO 00000KT 9999 CLR 12/08 A3017 RMK A02 TSNO"
"2181","QFT",2019-11-01 10:20:00,127.35,37.6,53.6,46.4,76.5,180,1,0,30.17,NA,6.21,NA,"CLR",NA,NA,NA,NA,NA,NA,NA,NA,NA,NA,NA,NA,NA,NA,NA,"KQFT 011020Z AUTO 18001KT 9999 CLR 12/08 A3017 RMK A02 TSNO"
"2182","QFT",2019-11-01 10:30:00,127.35,37.6,53.6,46.4,76.5,170,1,0,30.17,NA,6.21,NA,"CLR",NA,NA,NA,NA,NA,NA,NA,NA,NA,NA,NA,NA,NA,NA,NA,"KQFT 011030Z AUTO 17001KT 9999 CLR 12/08 A3017 RMK A02 TSNO"
"2183","QFT",2019-11-01 10:40:00,127.35,37.6,53.6,46.4,76.5,90,1,0,30.17,NA,6.21,NA,"CLR",NA,NA,NA,NA,NA,NA,NA,NA,NA,NA,NA,NA,NA,NA,NA,"KQFT 011040Z AUTO 09001KT 9999 CLR 12/08 A3017 RMK A02 TSNO"
"2184","QFT",2019-11-01 10:50:00,127.35,37.6,51.8,46.4,81.74,170,1,0,30.17,NA,6.21,NA,"CLR",NA,NA,NA,NA,NA,NA,NA,NA,NA,NA,NA,NA,NA,NA,NA,"KQFT 011050Z AUTO 17001KT 9999 CLR 11/08 A3017 RMK A02 TSNO"
"2185","QFT",2019-11-01 11:00:00,127.35,37.6,51.8,46.4,81.74,190,1,0,30.17,NA,6.21,NA,"CLR",NA,NA,NA,NA,NA,NA,NA,NA,NA,NA,NA,NA,NA,NA,NA,"KQFT 011100Z AUTO 19001KT 9999 CLR 11/08 A3017 RMK A02 TSNO"
"2186","QFT",2019-11-01 11:10:00,127.35,37.6,51.8,46.4,81.74,180,2,0,30.17,NA,6.21,NA,"CLR",NA,NA,NA,NA,NA,NA,NA,NA,NA,NA,NA,NA,NA,NA,NA,"KQFT 011110Z AUTO 18002KT 9999 CLR 11/08 A3017 RMK A02 TSNO"
"2187","QFT",2019-11-01 11:20:00,127.35,37.6,51.8,46.4,81.74,200,1,0,30.17,NA,6.21,NA,"CLR",NA,NA,NA,NA,NA,NA,NA,NA,NA,NA,NA,NA,NA,NA,NA,"KQFT 011120Z AUTO 20001KT 9999 CLR 11/08 A3017 RMK A02 TSNO"
"2188","QFT",2019-11-01 11:30:00,127.35,37.6,50,46.4,87.37,0,0,0,30.17,NA,6.21,NA,"CLR",NA,NA,NA,NA,NA,NA,NA,NA,NA,NA,NA,NA,NA,NA,NA,"KQFT 011130Z AUTO 00000KT 9999 CLR 10/08 A3017 RMK A02 TSNO"
"2189","QFT",2019-11-01 11:40:00,127.35,37.6,50,46.4,87.37,0,0,0,30.17,NA,6.21,NA,"CLR",NA,NA,NA,NA,NA,NA,NA,NA,NA,NA,NA,NA,NA,NA,NA,"KQFT 011140Z AUTO 00000KT 9999 CLR 10/08 A3017 RMK A02 TSNO"
"2190","QFT",2019-11-01 11:50:00,127.35,37.6,50,46.4,87.37,0,0,0,30.17,NA,6.21,NA,"CLR",NA,NA,NA,NA,NA,NA,NA,NA,NA,NA,NA,NA,NA,NA,NA,"KQFT 011150Z AUTO 00000KT 9999 CLR 10/08 A3017 RMK A02 TSNO"
"2191","QFT",2019-11-01 12:00:00,127.35,37.6,50,46.4,87.37,120,1,0,30.17,NA,6.21,NA,"CLR",NA,NA,NA,NA,NA,NA,NA,NA,NA,NA,NA,NA,NA,NA,NA,"KQFT 011200Z AUTO 12001KT 9999 CLR 10/08 A3017 RMK A02 TSNO"
"2192","QFT",2019-11-01 12:10:00,127.35,37.6,50,46.4,87.37,0,0,0,30.17,NA,6.21,NA,"CLR",NA,NA,NA,NA,NA,NA,NA,NA,NA,NA,NA,NA,NA,NA,NA,"KQFT 011210Z AUTO 00000KT 9999 CLR 10/08 A3017 RMK A02 TSNO"
"2193","QFT",2019-11-01 12:20:00,127.35,37.6,48.2,46.4,93.45,170,1,0,30.17,NA,6.21,NA,"CLR",NA,NA,NA,NA,NA,NA,NA,NA,NA,NA,NA,NA,NA,NA,NA,"KQFT 011220Z AUTO 17001KT 9999 CLR 09/08 A3017 RMK A02 TSNO"
"2194","QFT",2019-11-01 12:30:00,127.35,37.6,48.2,46.4,93.45,160,1,0,30.17,NA,6.21,NA,"CLR",NA,NA,NA,NA,NA,NA,NA,NA,NA,NA,NA,NA,NA,NA,NA,"KQFT 011230Z AUTO 16001KT 9999 CLR 09/08 A3017 RMK A02 TSNO"
"2195","QFT",2019-11-01 12:40:00,127.35,37.6,48.2,46.4,93.45,160,1,0,30.18,NA,5.59,NA,"CLR",NA,NA,NA,NA,NA,NA,NA,NA,NA,NA,NA,NA,NA,NA,NA,"KQFT 011240Z AUTO 16001KT 9000 CLR 09/08 A3018 RMK A02 TSNO"
"2196","QFT",2019-11-01 12:50:00,127.35,37.6,48.2,46.4,93.45,130,1,0,30.18,NA,5.59,NA,"CLR",NA,NA,NA,NA,NA,NA,NA,NA,NA,NA,NA,NA,NA,NA,NA,"KQFT 011250Z AUTO 13001KT 9000 CLR 09/08 A3018 RMK A02 TSNO"
"2197","QFT",2019-11-01 13:00:00,127.35,37.6,48.2,46.4,93.45,180,1,0,30.18,NA,5.59,NA,"CLR",NA,NA,NA,NA,NA,NA,NA,NA,NA,NA,NA,NA,NA,NA,NA,"KQFT 011300Z AUTO 18001KT 9000 CLR 09/08 A3018 RMK A02 TSNO"
"2198","QFT",2019-11-01 13:10:00,127.35,37.6,48.2,46.4,93.45,160,2,0,30.18,NA,5.59,NA,"CLR",NA,NA,NA,NA,NA,NA,NA,NA,NA,NA,NA,NA,NA,NA,NA,"KQFT 011310Z AUTO 16002KT 9000 CLR 09/08 A3018 RMK A02 TSNO"
"2199","QFT",2019-11-01 13:20:00,127.35,37.6,48.2,46.4,93.45,190,1,0,30.19,NA,4.97,NA,"CLR",NA,NA,NA,NA,NA,NA,NA,NA,NA,NA,NA,NA,NA,NA,NA,"KQFT 011320Z AUTO 19001KT 8000 CLR 09/08 A3019 RMK A02 TSNO"
"2200","QFT",2019-11-01 13:30:00,127.35,37.6,48.2,46.4,93.45,190,1,0,30.19,NA,5.59,NA,"CLR",NA,NA,NA,NA,NA,NA,NA,NA,NA,NA,NA,NA,NA,NA,NA,"KQFT 011330Z AUTO 19001KT 9000 CLR 09/08 A3019 RMK A02 TSNO"
"2201","QFT",2019-11-01 13:40:00,127.35,37.6,46.4,46.4,100,190,1,0,30.19,NA,5.59,NA,"CLR",NA,NA,NA,NA,NA,NA,NA,NA,NA,NA,NA,NA,NA,NA,NA,"KQFT 011340Z AUTO 19001KT 9000 CLR 08/08 A3019 RMK A02 TSNO"
"2202","QFT",2019-11-01 13:50:00,127.35,37.6,46.4,46.4,100,140,1,0,30.19,NA,4.97,NA,"CLR",NA,NA,NA,NA,NA,NA,NA,NA,NA,NA,NA,NA,NA,NA,NA,"KQFT 011350Z AUTO 14001KT 8000 CLR 08/08 A3019 RMK A02 TSNO"
"2203","QFT",2019-11-01 14:00:00,127.35,37.6,46.4,46.4,100,0,0,0,30.19,NA,4.97,NA,"CLR",NA,NA,NA,NA,NA,NA,NA,NA,NA,NA,NA,NA,NA,NA,NA,"KQFT 011400Z AUTO 00000KT 8000 CLR 08/08 A3019 RMK A02 TSNO"
"2204","QFT",2019-11-01 14:10:00,127.35,37.6,46.4,46.4,100,0,0,0,30.19,NA,4.97,NA,"CLR",NA,NA,NA,NA,NA,NA,NA,NA,NA,NA,NA,NA,NA,NA,NA,"KQFT 011410Z AUTO 00000KT 8000 CLR 08/08 A3019 RMK A02 TSNO"
"2205","QFT",2019-11-01 14:20:00,127.35,37.6,46.4,46.4,100,150,1,0,30.19,NA,4.97,NA,"CLR",NA,NA,NA,NA,NA,NA,NA,NA,NA,NA,NA,NA,NA,NA,NA,"KQFT 011420Z AUTO 15001KT 8000 CLR 08/08 A3019 RMK A02 TSNO"
"2206","QFT",2019-11-01 14:30:00,127.35,37.6,46.4,44.6,93.4,170,1,0,30.19,NA,4.97,NA,"CLR",NA,NA,NA,NA,NA,NA,NA,NA,NA,NA,NA,NA,NA,NA,NA,"KQFT 011430Z AUTO 17001KT 8000 CLR 08/07 A3019 RMK A02 TSNO"
"2207","QFT",2019-11-01 14:40:00,127.35,37.6,46.4,44.6,93.4,170,1,0,30.19,NA,4.97,NA,"CLR",NA,NA,NA,NA,NA,NA,NA,NA,NA,NA,NA,NA,NA,NA,NA,"KQFT 011440Z AUTO 17001KT 8000 CLR 08/07 A3019 RMK A02 TSNO"
"2208","QFT",2019-11-01 14:50:00,127.35,37.6,46.4,44.6,93.4,200,1,0,30.18,NA,4.97,NA,"CLR",NA,NA,NA,NA,NA,NA,NA,NA,NA,NA,NA,NA,NA,NA,NA,"KQFT 011450Z AUTO 20001KT 8000 CLR 08/07 A3018 RMK A02 TSNO"
"2209","QFT",2019-11-01 15:00:00,127.35,37.6,46.4,44.6,93.4,190,1,0,30.18,NA,3.73,NA,"CLR",NA,NA,NA,NA,NA,NA,NA,NA,NA,NA,NA,NA,NA,NA,NA,"KQFT 011500Z AUTO 19001KT 6000 CLR 08/07 A3018 RMK A02 TSNO"
"2210","QFT",2019-11-01 15:10:00,127.35,37.6,46.4,44.6,93.4,0,0,0,30.19,NA,3.73,NA,"CLR",NA,NA,NA,NA,NA,NA,NA,NA,NA,NA,NA,NA,NA,NA,NA,"KQFT 011510Z AUTO 00000KT 6000 CLR 08/07 A3019 RMK A02 TSNO"
"2211","QFT",2019-11-01 15:20:00,127.35,37.6,44.6,44.6,100,140,1,0,30.19,NA,3.73,NA,"CLR",NA,NA,NA,NA,NA,NA,NA,NA,NA,NA,NA,NA,NA,NA,NA,"KQFT 011520Z AUTO 14001KT 6000 CLR 07/07 A3019 RMK A02 TSNO"
"2212","QFT",2019-11-01 15:30:00,127.35,37.6,46.4,46.4,100,20,2,0,30.19,NA,3.73,NA,"CLR",NA,NA,NA,NA,NA,NA,NA,NA,NA,NA,NA,NA,NA,NA,NA,"KQFT 011530Z AUTO 02002KT 6000 CLR 08/08 A3019 RMK A02 TSNO"
"2213","QFT",2019-11-01 15:40:00,127.35,37.6,46.4,46.4,100,80,1,0,30.18,NA,3.73,NA,"CLR",NA,NA,NA,NA,NA,NA,NA,NA,NA,NA,NA,NA,NA,NA,NA,"KQFT 011540Z AUTO 08001KT 6000 CLR 08/08 A3018 RMK A02 TSNO"
"2214","QFT",2019-11-01 15:50:00,127.35,37.6,46.4,46.4,100,40,1,0,30.19,NA,3.73,NA,"CLR",NA,NA,NA,NA,NA,NA,NA,NA,NA,NA,NA,NA,NA,NA,NA,"KQFT 011550Z AUTO 04001KT 6000 CLR 08/08 A3019 RMK A02 TSNO"
"2215","QFT",2019-11-01 16:00:00,127.35,37.6,44.6,44.6,100,0,0,0,30.19,NA,3.73,NA,"CLR",NA,NA,NA,NA,NA,NA,NA,NA,NA,NA,NA,NA,NA,NA,NA,"KQFT 011600Z AUTO 00000KT 6000 CLR 07/07 A3019 RMK A02 TSNO"
"2216","QFT",2019-11-01 16:10:00,127.35,37.6,44.6,44.6,100,90,1,0,30.19,NA,3.73,NA,"CLR",NA,NA,NA,NA,NA,NA,NA,NA,NA,NA,NA,NA,NA,NA,NA,"KQFT 011610Z AUTO 09001KT 6000 CLR 07/07 A3019 RMK A02 TSNO"
"2217","QFT",2019-11-01 16:20:00,127.35,37.6,44.6,44.6,100,150,1,0,30.18,NA,3.73,NA,"CLR",NA,NA,NA,NA,NA,NA,NA,NA,NA,NA,NA,NA,NA,NA,NA,"KQFT 011620Z AUTO 15001KT 6000 CLR 07/07 A3018 RMK A02 TSNO"
"2218","QFT",2019-11-01 16:30:00,127.35,37.6,44.6,44.6,100,120,1,0,30.18,NA,3.73,NA,"CLR",NA,NA,NA,NA,NA,NA,NA,NA,NA,NA,NA,NA,NA,NA,NA,"KQFT 011630Z AUTO 12001KT 6000 CLR 07/07 A3018 RMK A02 TSNO"
"2219","QFT",2019-11-01 16:40:00,127.35,37.6,44.6,46.4,NA,0,0,0,30.18,NA,3.73,NA,"CLR",NA,NA,NA,NA,NA,NA,NA,NA,NA,NA,NA,NA,NA,NA,NA,"KQFT 011640Z AUTO 00000KT 6000 CLR 07/08 A3018 RMK A02 TSNO"
"2220","QFT",2019-11-01 16:50:00,127.35,37.6,44.6,44.6,100,170,1,0,30.19,NA,3.73,NA,"CLR",NA,NA,NA,NA,NA,NA,NA,NA,NA,NA,NA,NA,NA,NA,NA,"KQFT 011650Z AUTO 17001KT 6000 CLR 07/07 A3019 RMK A02 TSNO"
"2221","QFT",2019-11-01 17:00:00,127.35,37.6,42.8,44.6,NA,170,1,0,30.19,NA,3.73,NA,"CLR",NA,NA,NA,NA,NA,NA,NA,NA,NA,NA,NA,NA,NA,NA,NA,"KQFT 011700Z AUTO 17001KT 6000 CLR 06/07 A3019 RMK A02 TSNO"
"2222","QFT",2019-11-01 17:10:00,127.35,37.6,42.8,42.8,100,160,2,0,30.19,NA,3.73,NA,"CLR",NA,NA,NA,NA,NA,NA,NA,NA,NA,NA,NA,NA,NA,NA,NA,"KQFT 011710Z AUTO 16002KT 6000 CLR 06/06 A3019 RMK A02 TSNO"
"2223","QFT",2019-11-01 17:20:00,127.35,37.6,42.8,42.8,100,200,1,0,30.19,NA,3.73,NA,"CLR",NA,NA,NA,NA,NA,NA,NA,NA,NA,NA,NA,NA,NA,NA,NA,"KQFT 011720Z AUTO 20001KT 6000 CLR 06/06 A3019 RMK A02 TSNO"
"2224","QFT",2019-11-01 17:30:00,127.35,37.6,42.8,44.6,NA,140,1,0,30.19,NA,3.73,NA,"CLR",NA,NA,NA,NA,NA,NA,NA,NA,NA,NA,NA,NA,NA,NA,NA,"KQFT 011730Z AUTO 14001KT 6000 CLR 06/07 A3019 RMK A02 TSNO"
"2225","QFT",2019-11-01 17:40:00,127.35,37.6,42.8,44.6,NA,170,1,0,30.19,NA,3.73,NA,"CLR",NA,NA,NA,NA,NA,NA,NA,NA,NA,NA,NA,NA,NA,NA,NA,"KQFT 011740Z AUTO 17001KT 6000 CLR 06/07 A3019 RMK A02 TSNO"
"2226","QFT",2019-11-01 17:50:00,127.35,37.6,42.8,42.8,100,210,1,0,30.18,NA,3.73,NA,"CLR",NA,NA,NA,NA,NA,NA,NA,NA,NA,NA,NA,NA,NA,NA,NA,"KQFT 011750Z AUTO 21001KT 6000 CLR 06/06 A3018 RMK A02 TSNO"
"2227","QFT",2019-11-01 18:00:00,127.35,37.6,42.8,42.8,100,180,1,0,30.18,NA,3.73,NA,"CLR",NA,NA,NA,NA,NA,NA,NA,NA,NA,NA,NA,NA,NA,NA,NA,"KQFT 011800Z AUTO 18001KT 6000 CLR 06/06 A3018 RMK A02 TSNO"
"2228","QFT",2019-11-01 18:10:00,127.35,37.6,42.8,42.8,100,230,1,0,30.19,NA,3.73,NA,"CLR",NA,NA,NA,NA,NA,NA,NA,NA,NA,NA,NA,NA,NA,NA,NA,"KQFT 011810Z AUTO 23001KT 6000 CLR 06/06 A3019 RMK A02 TSNO"
"2229","QFT",2019-11-01 18:20:00,127.35,37.6,42.8,42.8,100,100,1,0,30.19,NA,3.73,NA,"CLR",NA,NA,NA,NA,NA,NA,NA,NA,NA,NA,NA,NA,NA,NA,NA,"KQFT 011820Z AUTO 10001KT 6000 CLR 06/06 A3019 RMK A02 TSNO"
"2230","QFT",2019-11-01 18:30:00,127.35,37.6,42.8,42.8,100,120,1,0,30.19,NA,3.73,NA,"CLR",NA,NA,NA,NA,NA,NA,NA,NA,NA,NA,NA,NA,NA,NA,NA,"KQFT 011830Z AUTO 12001KT 6000 CLR 06/06 A3019 RMK A02 TSNO"
"2231","QFT",2019-11-01 18:40:00,127.35,37.6,42.8,42.8,100,190,1,0,30.18,NA,3.73,NA,"CLR",NA,NA,NA,NA,NA,NA,NA,NA,NA,NA,NA,NA,NA,NA,NA,"KQFT 011840Z AUTO 19001KT 6000 CLR 06/06 A3018 RMK A02 TSNO"
"2232","QFT",2019-11-01 18:50:00,127.35,37.6,42.8,42.8,100,150,1,0,30.19,NA,3.73,NA,"CLR",NA,NA,NA,NA,NA,NA,NA,NA,NA,NA,NA,NA,NA,NA,NA,"KQFT 011850Z AUTO 15001KT 6000 CLR 06/06 A3019 RMK A02 TSNO"
"2233","QFT",2019-11-01 19:10:00,127.35,37.6,42.8,44.6,NA,40,1,0,30.19,NA,2.98,NA,"CLR",NA,NA,NA,NA,NA,NA,NA,NA,NA,NA,NA,NA,NA,NA,NA,"KQFT 011910Z AUTO 04001KT 4800 CLR 06/07 A3019 RMK A02 TSNO"
"2234","QFT",2019-11-01 19:20:00,127.35,37.6,44.6,44.6,100,30,2,0,30.18,NA,2.98,NA,"FEW",NA,NA,NA,300,NA,NA,NA,NA,NA,NA,NA,NA,NA,NA,NA,"KQFT 011920Z AUTO 03002KT 4800 FEW003 07/07 A3018 RMK A02 TSNO"
"2235","QFT",2019-11-01 19:30:00,127.35,37.6,44.6,46.4,NA,40,3,0,30.19,NA,1.99,NA,"SCT",NA,NA,NA,200,NA,NA,NA,"BR",NA,NA,NA,NA,NA,NA,NA,"KQFT 011930Z AUTO 04003KT 3200 BR SCT002 07/08 A3019 RMK A02 TSNO"
"2236","QFT",2019-11-01 19:40:00,127.35,37.6,44.6,44.6,100,50,1,0,30.18,NA,2.49,NA,"BKN",NA,NA,NA,200,NA,NA,NA,"BR",NA,NA,NA,NA,NA,NA,NA,"KQFT 011940Z AUTO 05001KT 4000 BR BKN002 07/07 A3018 RMK A02 TSNO"
"2237","QFT",2019-11-01 19:50:00,127.35,37.6,42.8,44.6,NA,30,2,0,30.18,NA,2.98,NA,"BKN",NA,NA,NA,200,NA,NA,NA,NA,NA,NA,NA,NA,NA,NA,NA,"KQFT 011950Z AUTO 03002KT 4800 BKN002 06/07 A3018 RMK A02 TSNO"
"2238","QFT",2019-11-01 20:00:00,127.35,37.6,44.6,44.6,100,40,2,0,30.18,NA,1.99,NA,"BKN",NA,NA,NA,200,NA,NA,NA,"BR",NA,NA,NA,NA,NA,NA,NA,"KQFT 012000Z AUTO 04002KT 3200 BR BKN002 07/07 A3018 RMK A02 TSNO"
"2239","QFT",2019-11-01 20:10:00,127.35,37.6,44.6,44.6,100,30,2,0,30.18,NA,1.99,NA,"BKN",NA,NA,NA,200,NA,NA,NA,"BR",NA,NA,NA,NA,NA,NA,NA,"KQFT 012010Z AUTO 03002KT 3200 BR BKN002 07/07 A3018 RMK A02 TSNO"
"2240","QFT",2019-11-01 20:20:00,127.35,37.6,44.6,46.4,NA,40,3,0,30.18,NA,1.74,NA,"OVC",NA,NA,NA,200,NA,NA,NA,"BR",NA,NA,NA,NA,NA,NA,NA,"KQFT 012020Z AUTO 04003KT 2800 BR OVC002 07/08 A3018 RMK A02 TSNO"
"2241","QFT",2019-11-01 20:30:00,127.35,37.6,44.6,46.4,NA,30,3,0,30.17,NA,1.49,NA,"OVC",NA,NA,NA,200,NA,NA,NA,"BR",NA,NA,NA,NA,NA,NA,NA,"KQFT 012030Z AUTO 03003KT 2400 BR OVC002 07/08 A3017 RMK A02 TSNO"
"2242","QFT",2019-11-01 20:40:00,127.35,37.6,44.6,46.4,NA,30,2,0,30.17,NA,1.49,NA,"OVC",NA,NA,NA,200,NA,NA,NA,"BR",NA,NA,NA,NA,NA,NA,NA,"KQFT 012040Z AUTO 03002KT 2400 BR OVC002 07/08 A3017 RMK A02 TSNO"
"2243","QFT",2019-11-01 20:50:00,127.35,37.6,44.6,46.4,NA,30,2,0,30.17,NA,1.74,NA,"OVC",NA,NA,NA,200,NA,NA,NA,"BR",NA,NA,NA,NA,NA,NA,NA,"KQFT 012050Z AUTO 03002KT 2800 BR OVC002 07/08 A3017 RMK A02 TSNO"
"2244","QFT",2019-11-01 21:00:00,127.35,37.6,44.6,46.4,NA,20,2,0,30.17,NA,1.99,NA,"OVC",NA,NA,NA,200,NA,NA,NA,"BR",NA,NA,NA,NA,NA,NA,NA,"KQFT 012100Z AUTO 02002KT 3200 BR OVC002 07/08 A3017 RMK A02 TSNO"
"2245","QFT",2019-11-01 21:10:00,127.35,37.6,44.6,46.4,NA,20,1,0,30.17,NA,1.99,NA,"OVC",NA,NA,NA,300,NA,NA,NA,"BR",NA,NA,NA,NA,NA,NA,NA,"KQFT 012110Z AUTO 02001KT 3200 BR OVC003 07/08 A3017 RMK A02 TSNO"
"2246","QFT",2019-11-01 21:20:00,127.35,37.6,44.6,46.4,NA,20,2,0,30.17,NA,1.99,NA,"OVC",NA,NA,NA,300,NA,NA,NA,"BR",NA,NA,NA,NA,NA,NA,NA,"KQFT 012120Z AUTO 02002KT 3200 BR OVC003 07/08 A3017 RMK A02 TSNO"
"2247","QFT",2019-11-01 21:30:00,127.35,37.6,44.6,46.4,NA,30,3,0,30.17,NA,1.99,NA,"OVC",NA,NA,NA,300,NA,NA,NA,"BR",NA,NA,NA,NA,NA,NA,NA,"KQFT 012130Z AUTO 03003KT 3200 BR OVC003 07/08 A3017 RMK A02 TSNO"
"2248","QFT",2019-11-01 21:40:00,127.35,37.6,44.6,46.4,NA,20,3,0,30.18,NA,1.99,NA,"OVC",NA,NA,NA,300,NA,NA,NA,"BR",NA,NA,NA,NA,NA,NA,NA,"KQFT 012140Z AUTO 02003KT 3200 BR OVC003 07/08 A3018 RMK A02 TSNO"
"2249","QFT",2019-11-01 21:50:00,127.35,37.6,44.6,46.4,NA,360,2,0,30.18,NA,1.99,NA,"OVC",NA,NA,NA,300,NA,NA,NA,"BR",NA,NA,NA,NA,NA,NA,NA,"KQFT 012150Z AUTO 36002KT 3200 BR OVC003 07/08 A3018 RMK A02 TSNO"
"2250","QFT",2019-11-01 22:00:00,127.35,37.6,44.6,46.4,NA,30,2,0,30.18,NA,1.99,NA,"OVC",NA,NA,NA,300,NA,NA,NA,"BR",NA,NA,NA,NA,NA,NA,NA,"KQFT 012200Z AUTO 03002KT 3200 BR OVC003 07/08 A3018 RMK A02 TSNO"
"2251","QFT",2019-11-01 22:10:00,127.35,37.6,44.6,46.4,NA,20,2,0,30.18,NA,1.99,NA,"OVC",NA,NA,NA,300,NA,NA,NA,"BR",NA,NA,NA,NA,NA,NA,NA,"KQFT 012210Z AUTO 02002KT 3200 BR OVC003 07/08 A3018 RMK A02 TSNO"
"2252","QFT",2019-11-01 22:20:00,127.35,37.6,44.6,46.4,NA,30,2,0,30.18,NA,2.49,NA,"OVC",NA,NA,NA,300,NA,NA,NA,"BR",NA,NA,NA,NA,NA,NA,NA,"KQFT 012220Z AUTO 03002KT 4000 BR OVC003 07/08 A3018 RMK A02 TSNO"
"2253","QFT",2019-11-01 22:30:00,127.35,37.6,44.6,46.4,NA,20,3,0,30.18,NA,2.49,NA,"BKN",NA,NA,NA,300,NA,NA,NA,"BR",NA,NA,NA,NA,NA,NA,NA,"KQFT 012230Z AUTO 02003KT 4000 BR BKN003 07/08 A3018 RMK A02 TSNO"
"2254","QFT",2019-11-01 22:40:00,127.35,37.6,44.6,46.4,NA,10,2,0,30.19,NA,2.49,NA,"BKN",NA,NA,NA,300,NA,NA,NA,"BR",NA,NA,NA,NA,NA,NA,NA,"KQFT 012240Z AUTO 01002KT 4000 BR BKN003 07/08 A3019 RMK A02 TSNO"
"2255","QFT",2019-11-01 22:50:00,127.35,37.6,44.6,46.4,NA,30,2,0,30.19,NA,2.49,NA,"BKN",NA,NA,NA,300,NA,NA,NA,"BR",NA,NA,NA,NA,NA,NA,NA,"KQFT 012250Z AUTO 03002KT 4000 BR BKN003 07/08 A3019 RMK A02 TSNO"
"2256","QFT",2019-11-01 23:00:00,127.35,37.6,44.6,46.4,NA,10,2,0,30.2,NA,2.49,NA,"BKN",NA,NA,NA,300,NA,NA,NA,"BR",NA,NA,NA,NA,NA,NA,NA,"KQFT 012300Z AUTO 01002KT 4000 BR BKN003 07/08 A3020 RMK A02 TSNO"
"2257","QFT",2019-11-01 23:10:00,127.35,37.6,44.6,46.4,NA,30,2,0,30.2,NA,2.49,NA,"BKN",NA,NA,NA,300,NA,NA,NA,"BR",NA,NA,NA,NA,NA,NA,NA,"KQFT 012310Z AUTO 03002KT 4000 BR BKN003 07/08 A3020 RMK A02 TSNO"
"2258","QFT",2019-11-01 23:20:00,127.35,37.6,46.4,46.4,100,10,2,0,30.2,NA,2.49,NA,"BKN",NA,NA,NA,300,NA,NA,NA,"BR",NA,NA,NA,NA,NA,NA,NA,"KQFT 012320Z AUTO 01002KT 4000 BR BKN003 08/08 A3020 RMK A02 TSNO"
"2259","QFT",2019-11-01 23:30:00,127.35,37.6,46.4,46.4,100,20,3,0,30.2,NA,2.49,NA,"BKN",NA,NA,NA,300,NA,NA,NA,"BR",NA,NA,NA,NA,NA,NA,45.15,"KQFT 012330Z AUTO 02003KT 4000 BR BKN003 08/08 A3020 RMK A02 TSNO"
"2260","QFT",2019-11-01 23:40:00,127.35,37.6,46.4,46.4,100,40,4,0,30.2,NA,2.98,NA,"BKN",NA,NA,NA,300,NA,NA,NA,"BR",NA,NA,NA,NA,NA,NA,44.24,"KQFT 012340Z AUTO 04004KT 4800 BR BKN003 08/08 A3020 RMK A02 TSNO"
"2261","RKNY",2019-11-01 00:00:00,128.6692,38.0613,62.6,44.6,51.72,270,5,0,30.15,NA,4.97,NA,"NSC",NA,NA,NA,NA,NA,NA,NA,NA,NA,NA,NA,NA,NA,NA,NA,"RKNY 010000Z 27005KT 240V310 8000 NSC 17/07 Q1021 NOSIG"
"2262","RKNY",2019-11-01 01:00:00,128.6692,38.0613,64.4,42.8,45.32,350,7,0,30.15,NA,4.97,NA,"NSC",NA,NA,NA,NA,NA,NA,NA,NA,NA,NA,NA,NA,NA,NA,NA,"RKNY 010100Z 35007KT 8000 NSC 18/06 Q1021 NOSIG"
"2263","RKNY",2019-11-01 02:00:00,128.6692,38.0613,66.2,42.8,42.57,360,6,0,30.15,NA,4.97,NA,"NSC",NA,NA,NA,NA,NA,NA,NA,NA,NA,NA,NA,NA,NA,NA,NA,"RKNY 010200Z 36006KT 330V040 8000 NSC 19/06 Q1021 NOSIG"
"2264","RKNY",2019-11-01 03:00:00,128.6692,38.0613,64.4,42.8,45.32,10,7,0,30.15,NA,4.97,NA,"NSC",NA,NA,NA,NA,NA,NA,NA,NA,NA,NA,NA,NA,NA,NA,NA,"RKNY 010300Z 01007KT 8000 NSC 18/06 Q1021 NOSIG"
"2265","RKNY",2019-11-01 04:00:00,128.6692,38.0613,66.2,44.6,45.6,40,5,0,30.15,NA,4.97,NA,"NSC",NA,NA,NA,NA,NA,NA,NA,NA,NA,NA,NA,NA,NA,NA,NA,"RKNY 010400Z 04005KT 350V080 8000 NSC 19/07 Q1021 NOSIG"
"2266","RKNY",2019-11-01 05:00:00,128.6692,38.0613,66.2,44.6,45.6,50,6,0,30.12,NA,6.21,NA,NA,NA,NA,NA,NA,NA,NA,NA,NA,NA,NA,NA,NA,NA,NA,NA,"RKNY 010500Z 05006KT CAVOK 19/07 Q1020 NOSIG"
"2267","RKNY",2019-11-01 06:00:00,128.6692,38.0613,64.4,46.4,51.98,70,4,0,30.12,NA,6.21,NA,NA,NA,NA,NA,NA,NA,NA,NA,NA,NA,NA,NA,NA,NA,NA,NA,"RKNY 010600Z 07004KT 040V100 CAVOK 18/08 Q1020 NOSIG"
"2268","RKNY",2019-11-01 07:00:00,128.6692,38.0613,64.4,48.2,55.63,100,3,0,30.12,NA,6.21,NA,NA,NA,NA,NA,NA,NA,NA,NA,NA,NA,NA,NA,NA,NA,NA,NA,"RKNY 010700Z 10003KT 080V140 CAVOK 18/09 Q1020 NOSIG"
"2269","RKNY",2019-11-01 08:00:00,128.6692,38.0613,62.6,50,63.38,150,3,0,30.15,NA,6.21,NA,"FEW",NA,NA,NA,4000,NA,NA,NA,NA,NA,NA,NA,NA,NA,NA,NA,"RKNY 010800Z 15003KT 100V170 9999 FEW040 17/10 Q1021 NOSIG"
"2270","RKNY",2019-11-01 09:00:00,128.6692,38.0613,59,51.8,76.98,190,4,0,30.15,NA,6.21,NA,"FEW",NA,NA,NA,4000,NA,NA,NA,NA,NA,NA,NA,NA,NA,NA,NA,"RKNY 010900Z 19004KT 9999 FEW040 15/11 Q1021 NOSIG"
"2271","RKNY",2019-11-01 10:00:00,128.6692,38.0613,57.2,51.8,82.12,230,4,0,30.15,NA,6.21,NA,"FEW",NA,NA,NA,4000,NA,NA,NA,NA,NA,NA,NA,NA,NA,NA,NA,"RKNY 011000Z 23004KT 9999 FEW040 14/11 Q1021 NOSIG"
"2272","RKNY",2019-11-01 11:00:00,128.6692,38.0613,55.4,50,81.99,240,5,0,30.15,NA,6.21,NA,"FEW",NA,NA,NA,4000,NA,NA,NA,NA,NA,NA,NA,NA,NA,NA,NA,"RKNY 011100Z 24005KT 9999 FEW040 13/10 Q1021 NOSIG"
"2273","RKNY",2019-11-01 12:00:00,128.6692,38.0613,55.4,48.2,76.66,240,5,0,30.15,NA,6.21,NA,"NCD",NA,NA,NA,NA,NA,NA,NA,NA,NA,NA,NA,NA,NA,NA,NA,"RKNY 011200Z AUTO 24005KT 9999 NCD 13/09 Q1021"
"2274","RKNY",2019-11-01 13:00:00,128.6692,38.0613,55.4,48.2,76.66,240,5,0,30.15,NA,6.21,NA,"NCD",NA,NA,NA,NA,NA,NA,NA,NA,NA,NA,NA,NA,NA,NA,NA,"RKNY 011300Z AUTO 24005KT 9999 NCD 13/09 Q1021"
"2275","RKNY",2019-11-01 14:00:00,128.6692,38.0613,53.6,48.2,81.87,240,6,0,30.15,NA,6.21,NA,"NCD",NA,NA,NA,NA,NA,NA,NA,NA,NA,NA,NA,NA,NA,NA,NA,"RKNY 011400Z AUTO 24006KT 9999 NCD 12/09 Q1021"
"2276","RKNY",2019-11-01 15:00:00,128.6692,38.0613,53.6,48.2,81.87,230,3,0,30.15,NA,6.21,NA,"NCD",NA,NA,NA,NA,NA,NA,NA,NA,NA,NA,NA,NA,NA,NA,NA,"RKNY 011500Z AUTO 23003KT 9999 NCD 12/09 Q1021"
"2277","RKNY",2019-11-01 16:00:00,128.6692,38.0613,53.6,48.2,81.87,230,4,0,30.15,NA,6.21,NA,"NCD",NA,NA,NA,NA,NA,NA,NA,NA,NA,NA,NA,NA,NA,NA,NA,"RKNY 011600Z AUTO 23004KT 9999 NCD 12/09 Q1021"
"2278","RKNY",2019-11-01 17:00:00,128.6692,38.0613,51.8,48.2,87.47,230,5,0,30.15,NA,6.21,NA,"NCD",NA,NA,NA,NA,NA,NA,NA,NA,NA,NA,NA,NA,NA,NA,NA,"RKNY 011700Z AUTO 23005KT 9999 NCD 11/09 Q1021"
"2279","RKNY",2019-11-01 18:00:00,128.6692,38.0613,53.6,46.4,76.5,240,4,0,30.12,NA,5.59,NA,"NCD",NA,NA,NA,NA,NA,NA,NA,NA,NA,NA,NA,NA,NA,NA,NA,"RKNY 011800Z AUTO 24004KT 9000 NCD 12/08 Q1020"
"2280","RKNY",2019-11-01 19:00:00,128.6692,38.0613,53.6,46.4,76.5,190,2,0,30.12,NA,5.59,NA,"NCD",NA,NA,NA,NA,NA,NA,NA,NA,NA,NA,NA,NA,NA,NA,NA,"RKNY 011900Z AUTO 19002KT 9000 NCD 12/08 Q1020"
"2281","RKNY",2019-11-01 20:00:00,128.6692,38.0613,53.6,46.4,76.5,260,5,0,30.12,NA,5.59,NA,"NCD",NA,NA,NA,NA,NA,NA,NA,NA,NA,NA,NA,NA,NA,NA,NA,"RKNY 012000Z AUTO 26005KT 9000 NCD 12/08 Q1020"
"2282","RKNY",2019-11-01 21:00:00,128.6692,38.0613,53.6,44.6,71.45,220,4,0,30.12,NA,5.59,NA,"NCD",NA,NA,NA,NA,NA,NA,NA,NA,NA,NA,NA,NA,NA,NA,NA,"RKNY 012100Z AUTO 22004KT 200V290 9000 NCD 12/07 Q1020"
"2283","RKNY",2019-11-01 22:00:00,128.6692,38.0613,51.8,44.6,76.34,250,3,0,30.12,NA,5.59,NA,"NCD",NA,NA,NA,NA,NA,NA,NA,NA,NA,NA,NA,NA,NA,NA,NA,"RKNY 012200Z AUTO 25003KT 220V300 9000 NCD 11/07 Q1020"
"2284","RKNY",2019-11-01 23:00:00,128.6692,38.0613,55.4,46.4,71.64,230,3,0,30.12,NA,6.21,NA,NA,NA,NA,NA,NA,NA,NA,NA,NA,NA,NA,NA,NA,NA,NA,NA,"RKNY 012300Z 23003KT CAVOK 13/08 Q1020 NOSIG"
"2285","RKSU",2019-11-01 01:46:00,127.6329,37.4369,55.4,55.4,100,200,1,0,30.23,NA,1.99,NA,"FEW","BKN",NA,NA,0,400,NA,NA,"BR",NA,NA,NA,NA,NA,NA,NA,"RKSU 010146Z 20001KT 3200 BR FEW000 BKN004 13/13 A3023 RMK CIG004"
"2286","RKSU",2019-11-01 02:11:00,127.6329,37.4369,59,57.2,93.74,200,1,0,30.23,NA,2.98,NA,"SCT",NA,NA,NA,400,NA,NA,NA,"BR",NA,NA,NA,NA,NA,NA,NA,"RKSU 010211Z 20001KT 4800 BR SCT004 15/14 A3023"
"2287","RJSK",2019-11-01 00:00:00,140.2167,39.6167,60.8,53.6,77.14,300,12,0,29.85,NA,6.21,NA,"FEW","SCT","BKN",NA,1000,2000,5000,NA,NA,NA,NA,NA,NA,NA,NA,NA,"RJSK 010000Z 30012KT 9999 FEW010 SCT020 BKN050 16/12 Q1011"
"2288","RJSK",2019-11-01 01:00:00,140.2167,39.6167,60.8,51.8,72.2,290,14,0,29.88,NA,6.21,NA,"FEW","SCT","BKN",NA,1000,2000,5000,NA,NA,NA,NA,NA,NA,NA,NA,NA,"RJSK 010100Z 29014KT 9999 FEW010 SCT020 BKN050 16/11 Q1012"
"2289","RJSK",2019-11-01 02:00:00,140.2167,39.6167,60.8,46.4,59.01,300,17,0,29.88,NA,6.21,NA,"FEW","BKN",NA,NA,2500,7000,NA,NA,NA,NA,NA,NA,NA,NA,NA,NA,"RJSK 010200Z 30017KT 9999 FEW025 BKN070 16/08 Q1012"
"2290","RJSK",2019-11-01 03:00:00,140.2167,39.6167,60.8,42.8,51.45,280,17,0,29.91,NA,6.21,NA,"FEW","BKN",NA,NA,3000,4000,NA,NA,NA,NA,NA,NA,NA,NA,NA,NA,"RJSK 010300Z 28017KT 9999 FEW030 BKN040 16/06 Q1013"
"2291","RJSK",2019-11-01 04:00:00,140.2167,39.6167,60.8,44.6,55.12,280,21,0,29.88,NA,6.21,NA,"FEW","BKN",NA,NA,3000,4000,NA,NA,NA,NA,NA,NA,NA,NA,NA,NA,"RJSK 010400Z 28021KT 9999 FEW030 BKN040 16/07 Q1012"
"2292","RJSK",2019-11-01 05:00:00,140.2167,39.6167,59,39.2,47.72,280,20,0,29.91,NA,6.21,NA,"FEW","BKN",NA,NA,3000,4000,NA,NA,NA,NA,NA,NA,NA,NA,NA,NA,"RJSK 010500Z 28020KT 9999 FEW030 BKN040 15/04 Q1013"
"2293","RJSK",2019-11-01 06:00:00,140.2167,39.6167,57.2,37.4,47.44,290,19,0,29.94,NA,6.21,NA,"FEW","SCT",NA,NA,3000,5000,NA,NA,NA,NA,NA,NA,NA,NA,NA,NA,"RJSK 010600Z 29019KT 9999 FEW030 SCT050 14/03 Q1014"
"2294","RJSK",2019-11-01 07:00:00,140.2167,39.6167,55.4,37.4,50.64,300,16,0,29.97,NA,6.21,26,"FEW","SCT",NA,NA,3000,4000,NA,NA,NA,NA,NA,NA,NA,NA,NA,NA,"RJSK 010700Z 30016G26KT 9999 FEW030 SCT040 13/03 Q1015"
"2295","RJSK",2019-11-01 08:00:00,140.2167,39.6167,53.6,35.6,50.36,290,14,0,30,NA,6.21,NA,"FEW","SCT",NA,NA,3000,5000,NA,NA,NA,NA,NA,NA,NA,NA,NA,NA,"RJSK 010800Z 29014KT 9999 FEW030 SCT050 12/02 Q1016"
"2296","RJSK",2019-11-01 09:00:00,140.2167,39.6167,53.6,37.4,54.07,290,13,0,30.03,NA,6.21,NA,"FEW","SCT","BKN",NA,4000,5000,7000,NA,NA,NA,NA,NA,NA,NA,NA,NA,"RJSK 010900Z 29013KT 9999 FEW040 SCT050 BKN070 12/03 Q1017"
"2297","RJSK",2019-11-01 10:00:00,140.2167,39.6167,53.6,37.4,54.07,310,9,0,30.03,NA,6.21,NA,"FEW","SCT","BKN",NA,4000,5000,7000,NA,NA,NA,NA,NA,NA,NA,NA,NA,"RJSK 011000Z 31009KT 9999 FEW040 SCT050 BKN070 12/03 Q1017"
"2298","RJSK",2019-11-01 11:00:00,140.2167,39.6167,51.8,39.2,61.99,320,7,0,30.06,NA,6.21,NA,"FEW","SCT",NA,NA,4000,6000,NA,NA,NA,NA,NA,NA,NA,NA,NA,NA,"RJSK 011100Z 32007KT 9999 FEW040 SCT060 11/04 Q1018"
"2299","RJSK",2019-11-01 12:00:00,140.2167,39.6167,50,39.2,66.27,350,5,0,30.06,NA,6.21,NA,"FEW","BKN",NA,NA,4000,5000,NA,NA,NA,NA,NA,NA,NA,NA,NA,47.77,"RJSK 011200Z 35005KT 9999 FEW040 BKN050 10/04 Q1018"
"2300","RJSK",2019-11-01 21:40:00,140.2167,39.6167,44.6,42.8,93.35,150,2,0,30.12,NA,6.21,NA,"FEW","BKN",NA,NA,3500,5000,NA,NA,NA,NA,NA,NA,NA,NA,NA,NA,"RJSK 012140Z 15002KT 9999 FEW035 BKN050 07/06 Q1020 RMK 1CU035 7CU050 A3014"
"2301","RJSK",2019-11-01 22:00:00,140.2167,39.6167,46.4,42.8,87.19,150,3,0,30.15,NA,6.21,NA,"FEW","BKN",NA,NA,3500,5000,NA,NA,NA,NA,NA,NA,NA,NA,NA,45.15,"RJSK 012200Z 15003KT 9999 FEW035 BKN050 08/06 Q1021"
"2302","RJSK",2019-11-01 23:00:00,140.2167,39.6167,46.4,42.8,87.19,NA,2,0,30.15,NA,6.21,NA,"FEW","BKN",NA,NA,3500,5000,NA,NA,NA,NA,NA,NA,NA,NA,NA,NA,"RJSK 012300Z VRB02KT 9999 FEW035 BKN050 08/06 Q1021"
"2303","RJKA",2019-11-01 00:00:00,129.7125,28.4308,71.6,60.8,68.75,10,11,0,30.09,NA,6.21,NA,"FEW","SCT",NA,NA,2500,3000,NA,NA,NA,NA,NA,NA,NA,NA,NA,NA,"RJKA 010000Z 01011KT 9999 FEW025 SCT030 22/16 Q1019"
"2304","RJKA",2019-11-01 01:00:00,129.7125,28.4308,75.2,60.8,60.9,360,11,0,30.09,NA,6.21,NA,"FEW","BKN",NA,NA,2500,3000,NA,NA,NA,NA,NA,NA,NA,NA,NA,NA,"RJKA 010100Z 36011KT 9999 FEW025 BKN030 24/16 Q1019"
"2305","RJKA",2019-11-01 02:00:00,129.7125,28.4308,77,62.6,61.13,10,11,0,30.06,NA,6.21,NA,"FEW",NA,NA,NA,3000,NA,NA,NA,NA,NA,NA,NA,NA,NA,NA,NA,"RJKA 010200Z 01011KT 340V040 9999 FEW030 25/17 Q1018"
"2306","RJKA",2019-11-01 03:00:00,129.7125,28.4308,77,62.6,61.13,20,12,0,30.06,NA,6.21,NA,"FEW",NA,NA,NA,3000,NA,NA,NA,NA,NA,NA,NA,NA,NA,NA,NA,"RJKA 010300Z 02012KT 9999 FEW030 25/17 Q1018"
"2307","RJKA",2019-11-01 04:00:00,129.7125,28.4308,77,62.6,61.13,10,11,0,30.03,NA,6.21,NA,"FEW",NA,NA,NA,3000,NA,NA,NA,NA,NA,NA,NA,NA,NA,NA,NA,"RJKA 010400Z 01011KT 340V050 9999 FEW030 25/17 Q1017"
"2308","RJKA",2019-11-01 05:00:00,129.7125,28.4308,77,64.4,65.12,20,14,0,30,NA,6.21,NA,"FEW",NA,NA,NA,3000,NA,NA,NA,NA,NA,NA,NA,NA,NA,NA,NA,"RJKA 010500Z 02014KT 9999 FEW030 25/18 Q1016"
"2309","RJKA",2019-11-01 06:00:00,129.7125,28.4308,77,60.8,57.36,20,13,0,30,NA,6.21,NA,"FEW",NA,NA,NA,3000,NA,NA,NA,NA,NA,NA,NA,NA,NA,NA,NA,"RJKA 010600Z 02013KT 9999 FEW030 25/16 Q1016"
"2310","RJKA",2019-11-01 07:00:00,129.7125,28.4308,75.2,60.8,60.9,20,11,0,30,NA,6.21,NA,"FEW",NA,NA,NA,3000,NA,NA,NA,NA,NA,NA,NA,NA,NA,NA,NA,"RJKA 010700Z 02011KT 9999 FEW030 24/16 Q1016"
"2311","RJKA",2019-11-01 08:00:00,129.7125,28.4308,71.6,59,64.48,10,10,0,30,NA,6.21,NA,"FEW",NA,NA,NA,3000,NA,NA,NA,NA,NA,NA,NA,NA,NA,NA,NA,"RJKA 010800Z 01010KT 9999 FEW030 22/15 Q1016"
"2312","RJKA",2019-11-01 09:00:00,129.7125,28.4308,71.6,60.8,68.75,30,9,0,30.03,NA,6.21,NA,"FEW",NA,NA,NA,3000,NA,NA,NA,NA,NA,NA,NA,NA,NA,NA,NA,"RJKA 010900Z 03009KT 9999 FEW030 22/16 Q1017"
"2313","RJKA",2019-11-01 10:00:00,129.7125,28.4308,71.6,60.8,68.75,30,11,0,30.03,NA,6.21,NA,"FEW",NA,NA,NA,3000,NA,NA,NA,NA,NA,NA,NA,NA,NA,NA,NA,"RJKA 011000Z 03011KT 9999 FEW030 22/16 Q1017"
"2314","RJKA",2019-11-01 21:30:00,129.7125,28.4308,73.4,60.8,64.69,80,11,0,30,NA,6.21,NA,"FEW","SCT",NA,NA,3500,4000,NA,NA,NA,NA,NA,NA,NA,NA,NA,NA,"RJKA 012130Z 08011KT 9999 FEW035 SCT040 23/16 Q1016"
"2315","RJKA",2019-11-01 22:00:00,129.7125,28.4308,75.2,60.8,60.9,80,8,0,30,NA,6.21,NA,"FEW","BKN",NA,NA,3500,4000,NA,NA,NA,NA,NA,NA,NA,NA,NA,NA,"RJKA 012200Z 08008KT 9999 FEW035 BKN040 24/16 Q1016"
"2316","RJKA",2019-11-01 23:00:00,129.7125,28.4308,75.2,62.6,64.91,70,9,0,30.03,NA,6.21,NA,"FEW",NA,NA,NA,3500,NA,NA,NA,NA,NA,NA,NA,NA,NA,NA,NA,"RJKA 012300Z 07009KT 9999 FEW035 24/17 Q1017"
"2317","RJSA",2019-11-01 00:00:00,140.6886,40.7333,55.4,42.8,62.46,250,11,0,29.83,NA,6.21,NA,"FEW","SCT","BKN",NA,1500,3500,NA,NA,NA,NA,NA,NA,NA,NA,NA,NA,"RJSA 010000Z 25011KT 9999 FEW015 SCT035 BKN/// 13/06 Q1010"
"2318","RJSA",2019-11-01 01:00:00,140.6886,40.7333,55.4,39.2,54.34,280,12,0,29.83,NA,6.21,22,"FEW","SCT","BKN",NA,1500,4000,NA,NA,NA,NA,NA,NA,NA,NA,NA,NA,"RJSA 010100Z 28012G22KT 230V320 9999 FEW015 SCT040 BKN/// 13/04 Q1010"
"2319","RJSA",2019-11-01 02:00:00,140.6886,40.7333,55.4,37.4,50.64,280,13,0,29.85,NA,6.21,NA,"FEW","SCT","BKN",NA,2000,4000,NA,NA,NA,NA,NA,NA,NA,NA,NA,NA,"RJSA 010200Z 28013KT 240V320 9999 FEW020 SCT040 BKN/// 13/03 Q1011"
"2320","RJSA",2019-11-01 02:34:00,140.6886,40.7333,55.4,37.4,50.64,270,16,0,29.85,NA,6.21,26,"FEW","SCT","BKN",NA,2000,4000,NA,NA,NA,NA,NA,NA,NA,NA,NA,NA,"RJSA 010234Z 27016G26KT 9999 FEW020 SCT040 BKN/// 13/03 Q1011 RMK 1CU020 4CU040 A2987"
"2321","RJSA",2019-11-01 03:00:00,140.6886,40.7333,57.2,37.4,47.44,260,14,0,29.85,NA,6.21,24,"FEW","SCT","BKN",NA,2000,5000,NA,NA,NA,NA,NA,NA,NA,NA,NA,NA,"RJSA 010300Z 26014G24KT 240V310 9999 FEW020 SCT050 BKN/// 14/03 Q1011"
"2322","RJSA",2019-11-01 04:00:00,140.6886,40.7333,51.8,41,66.48,260,13,0,29.85,NA,6.21,NA,"FEW","SCT","BKN",NA,2000,5000,8000,NA,"VCSH",NA,NA,NA,NA,NA,NA,NA,"RJSA 010400Z 26013KT 230V290 9999 VCSH FEW020 SCT050 BKN080 11/05 Q1011"
"2323","RJSA",2019-11-01 04:07:00,140.6886,40.7333,50,41,71.07,270,16,0,29.85,NA,6.21,NA,"FEW","SCT","BKN",NA,2000,3000,5000,NA,"SHRA",NA,NA,NA,NA,NA,NA,43.88,"RJSA 010407Z 27016KT 250V310 9999 SHRA FEW020 SCT030 BKN050 10/05 Q1011 RMK 1CU020 3CU030 5CU050 A2986"
"2324","RJSA",2019-11-01 04:10:00,140.6886,40.7333,50,41,71.07,270,17,0,29.85,NA,6.21,27,"FEW","SCT","BKN",NA,2000,3000,5000,NA,"SHRA",NA,NA,NA,NA,NA,NA,43.66,"RJSA 010410Z 27017G27KT 240V310 9999 R24/1500VP1800N SHRA FEW020 SCT030 BKN050 10/05 Q1011 RMK 1CU020 3CU030 5CU050 A2986"
"2325","RJSA",2019-11-01 04:17:00,140.6886,40.7333,48.2,41,76.01,250,18,0,29.85,NA,6.21,NA,"FEW","SCT","BKN",NA,2000,3000,5000,NA,"-SHRA",NA,NA,NA,NA,NA,NA,41.07,"RJSA 010417Z 25018KT 9999 R24/P1800N -SHRA FEW020 SCT030 BKN050 09/05 Q1011 RMK 1CU020 3CU030 5CU050 A2987"
"2326","RJSA",2019-11-01 04:19:00,140.6886,40.7333,48.2,42.8,81.47,250,17,0,29.85,NA,6.21,27,"FEW","SCT","BKN",NA,2000,3000,5000,NA,"-SHRA",NA,NA,NA,NA,NA,NA,41.3,"RJSA 010419Z 25017G27KT 9999 R24/P1800N -SHRA FEW020 SCT030 BKN050 09/06 Q1011 RMK 1CU020 3CU030 5CU050 A2987"
"2327","RJSA",2019-11-01 05:00:00,140.6886,40.7333,51.8,35.6,53.81,270,18,0,29.85,NA,6.21,29,"FEW","SCT","BKN",NA,2000,4000,5000,NA,NA,NA,NA,NA,NA,NA,NA,NA,"RJSA 010500Z 27018G29KT 9999 FEW020 SCT040 BKN050 11/02 Q1011"
"2328","RJSA",2019-11-01 06:00:00,140.6886,40.7333,50,33.8,53.54,270,15,0,29.88,NA,6.21,26,"FEW","SCT","BKN",NA,2000,5000,7000,NA,NA,NA,NA,NA,NA,NA,NA,44.12,"RJSA 010600Z 27015G26KT 240V300 9999 FEW020 SCT050 BKN070 10/01 Q1012"
"2329","RJSA",2019-11-01 07:00:00,140.6886,40.7333,48.2,33.8,57.26,260,14,0,29.91,NA,6.21,25,"FEW","SCT","BKN",NA,2000,5000,7000,NA,NA,NA,NA,NA,NA,NA,NA,42.04,"RJSA 010700Z 26014G25KT 9999 FEW020 SCT050 BKN070 09/01 Q1013"
"2330","RJSA",2019-11-01 08:00:00,140.6886,40.7333,46.4,35.6,65.83,250,10,0,29.94,NA,6.21,NA,"FEW","BKN","BKN",NA,2000,4500,7000,NA,NA,NA,NA,NA,NA,NA,NA,41.03,"RJSA 010800Z 25010KT 9999 FEW020 BKN045 BKN070 08/02 Q1014"
"2331","RJSA",2019-11-01 09:00:00,140.6886,40.7333,46.4,35.6,65.83,230,10,0,30,NA,6.21,NA,"FEW","BKN","BKN",NA,2000,4500,7000,NA,NA,NA,NA,NA,NA,NA,NA,41.03,"RJSA 010900Z 23010KT 9999 FEW020 BKN045 BKN070 08/02 Q1016"
"2332","RJSA",2019-11-01 10:00:00,140.6886,40.7333,46.4,33.8,61.28,240,11,0,30,NA,6.21,NA,"FEW","BKN","BKN",NA,2000,4000,7000,NA,NA,NA,NA,NA,NA,NA,NA,40.66,"RJSA 011000Z 24011KT 9999 FEW020 BKN040 BKN070 08/01 Q1016"
"2333","RJSA",2019-11-01 11:00:00,140.6886,40.7333,46.4,37.4,70.68,250,10,0,30,NA,6.21,NA,"FEW","SCT","BKN",NA,1500,3000,5000,NA,NA,NA,NA,NA,NA,NA,NA,41.03,"RJSA 011100Z 25010KT 9999 FEW015 SCT030 BKN050 08/03 Q1016"
"2334","RJSA",2019-11-01 12:00:00,140.6886,40.7333,44.6,37.4,75.68,250,8,0,30.03,NA,6.21,NA,"FEW","SCT","BKN",NA,1500,3500,5000,NA,NA,NA,NA,NA,NA,NA,NA,39.63,"RJSA 011200Z 25008KT 9999 FEW015 SCT035 BKN050 07/03 Q1017"
"2335","RJSA",2019-11-01 21:40:00,140.6886,40.7333,46.4,33.8,61.28,230,9,0,30.09,NA,6.21,NA,"FEW","BKN",NA,NA,2000,5000,NA,NA,NA,NA,NA,NA,NA,NA,NA,41.42,"RJSA 012140Z 23009KT 9999 FEW020 BKN050 08/01 Q1019 RMK 1CU020 6CU050 A3010"
"2336","RJSA",2019-11-01 22:00:00,140.6886,40.7333,44.6,35.6,70.48,230,10,0,30.09,NA,6.21,NA,"FEW","SCT",NA,NA,2000,5000,NA,NA,NA,NA,NA,NA,NA,NA,NA,38.77,"RJSA 012200Z 23010KT 9999 FEW020 SCT050 07/02 Q1019"
"2337","RJSA",2019-11-01 23:00:00,140.6886,40.7333,50,35.6,57.52,240,12,0,30.09,NA,6.21,NA,"FEW","BKN",NA,NA,2500,4500,NA,NA,NA,NA,NA,NA,NA,NA,NA,44.91,"RJSA 012300Z 24012KT 9999 FEW025 BKN045 10/02 Q1019"
"2338","RJEC",2019-11-01 00:00:00,142.4475,43.6708,50,37.4,61.76,260,12,0,29.71,NA,6.21,NA,"FEW","SCT","BKN",NA,1000,4000,8000,NA,"VCSH",NA,NA,NA,NA,NA,NA,44.91,"RJEC 010000Z 26012KT 230V300 9999 VCSH FEW010 SCT040 BKN080 10/03 Q1006"
"2339","RJEC",2019-11-01 01:00:00,142.4475,43.6708,51.8,33.8,50.08,260,14,0,29.68,NA,6.21,NA,"FEW","SCT",NA,NA,1000,4000,NA,NA,"VCSH",NA,NA,NA,NA,NA,NA,NA,"RJEC 010100Z 26014KT 230V290 9999 VCSH FEW010 SCT040 11/01 Q1005"
"2340","RJEC",2019-11-01 01:17:00,142.4475,43.6708,44.6,37.4,75.68,310,13,0,29.68,NA,6.21,23,"FEW","FEW","SCT",NA,1000,2500,4000,NA,"-SHGS",NA,NA,NA,NA,NA,NA,37.71,"RJEC 010117Z 31013G23KT 9999 -SHGS FEW010 FEW025CB SCT040 07/03 Q1005 RMK 1ST010 1CB025 4CU040 A2969 CB OHD MOV S SMALL HAIL"
"2341","RJEC",2019-11-01 01:22:00,142.4475,43.6708,46.4,39.2,75.84,310,10,0,29.68,NA,6.21,NA,"FEW","FEW","SCT",NA,1000,2500,4000,NA,"-SHRA",NA,NA,NA,NA,NA,NA,41.03,"RJEC 010122Z 31010KT 9999 -SHRA FEW010 FEW025CB SCT040 08/04 Q1005 RMK 1ST010 1CB025 4CU040 A2969 CB 10KM S MOV S"
"2342","RJEC",2019-11-01 02:00:00,142.4475,43.6708,50,35.6,57.52,250,13,0,29.68,NA,6.21,23,"FEW","SCT",NA,NA,1000,4000,NA,NA,"VCSH",NA,NA,NA,NA,NA,NA,44.63,"RJEC 010200Z 25013G23KT 210V280 9999 VCSH FEW010 SCT040 10/02 Q1005"
"2343","RJEC",2019-11-01 03:00:00,142.4475,43.6708,51.8,33.8,50.08,260,14,0,29.65,NA,6.21,NA,"FEW","SCT",NA,NA,800,4000,NA,NA,"VCSH",NA,NA,NA,NA,NA,NA,NA,"RJEC 010300Z 26014KT 230V310 9999 VCSH FEW008 SCT040 11/01 Q1004"
"2344","RJEC",2019-11-01 04:00:00,142.4475,43.6708,46.4,37.4,70.68,240,10,0,29.68,NA,6.21,NA,"FEW","SCT","BKN",NA,1000,2500,4000,NA,"-SHRA",NA,NA,NA,NA,NA,NA,41.03,"RJEC 010400Z 24010KT 9999 -SHRA FEW010 SCT025 BKN040 08/03 Q1005"
"2345","RJEC",2019-11-01 05:00:00,142.4475,43.6708,44.6,39.2,81.2,240,7,0,29.71,NA,6.21,NA,"FEW","SCT",NA,NA,1000,3000,NA,NA,"-SHRA",NA,NA,NA,NA,NA,NA,40.14,"RJEC 010500Z 24007KT 210V290 9999 -SHRA FEW010 SCT030 07/04 Q1006"
"2346","RJEC",2019-11-01 06:00:00,142.4475,43.6708,44.6,37.4,75.68,220,5,0,29.74,NA,6.21,NA,"FEW","SCT",NA,NA,1000,2500,NA,NA,NA,NA,NA,NA,NA,NA,NA,41.36,"RJEC 010600Z 22005KT 150V280 9999 FEW010 SCT025 07/03 Q1007"
"2347","RJEC",2019-11-01 07:00:00,142.4475,43.6708,44.6,35.6,70.48,200,8,0,29.74,NA,6.21,NA,"FEW","SCT","BKN",NA,1500,3500,6000,NA,"VCSH",NA,NA,NA,NA,NA,NA,39.63,"RJEC 010700Z 20008KT 170V240 9999 VCSH FEW015 SCT035 BKN060 07/02 Q1007"
"2348","RJEC",2019-11-01 08:00:00,142.4475,43.6708,42.8,35.6,75.5,210,4,0,29.8,NA,6.21,NA,"FEW","SCT","BKN",NA,1500,3000,4500,NA,"-SHRA",NA,NA,NA,NA,NA,NA,40.03,"RJEC 010800Z 21004KT 170V260 9999 -SHRA FEW015 SCT030 BKN045 06/02 Q1009"
"2349","RJEC",2019-11-01 09:00:00,142.4475,43.6708,42.8,37.4,81.07,270,4,0,29.83,NA,6.21,NA,"FEW","SCT","BKN",NA,1000,2000,2500,NA,"-SHRA",NA,NA,NA,NA,NA,NA,40.03,"RJEC 010900Z 27004KT 240V310 9999 -SHRA FEW010 SCT020 BKN025 06/03 Q1010"
"2350","RJEC",2019-11-01 10:00:00,142.4475,43.6708,41,37.4,86.89,200,4,0,29.85,NA,6.21,NA,"FEW","SCT","BKN",NA,1000,2000,2500,NA,"-SHRA",NA,NA,NA,NA,NA,NA,37.93,"RJEC 011000Z 20004KT 150V260 9999 -SHRA FEW010 SCT020 BKN025 05/03 Q1011"
"2351","RJEC",2019-11-01 11:00:00,142.4475,43.6708,41,39.2,93.24,170,4,0,29.85,NA,6.21,NA,"FEW","BKN","BKN",NA,1500,2500,3000,NA,"-SHRA",NA,NA,NA,NA,NA,NA,37.93,"RJEC 011100Z 17004KT 9999 -SHRA FEW015 BKN025 BKN030 05/04 Q1011"
"2352","RJEC",2019-11-01 21:40:00,142.4475,43.6708,42.8,37.4,81.07,200,7,0,29.94,NA,6.21,NA,"FEW","SCT","BKN",NA,1000,2500,6000,NA,"-SHRA",NA,NA,NA,NA,NA,NA,37.94,"RJEC 012140Z 20007KT 9999 -SHRA FEW010 SCT025 BKN060 06/03 Q1014 RMK 1ST010 4CU025 6CU060 A2995"
"2353","RJEC",2019-11-01 22:00:00,142.4475,43.6708,41,37.4,86.89,210,9,0,29.94,NA,6.21,NA,"FEW","SCT","BKN",NA,1000,2500,6000,NA,"-SHRA",NA,NA,NA,NA,NA,NA,34.7,"RJEC 012200Z 21009KT 9999 -SHRA FEW010 SCT025 BKN060 05/03 Q1014"
"2354","RJEC",2019-11-01 23:00:00,142.4475,43.6708,42.8,39.2,86.99,170,7,0,29.94,NA,6.21,NA,"FEW","SCT","BKN",NA,1500,3000,6000,NA,NA,NA,NA,NA,NA,NA,NA,37.94,"RJEC 012300Z 17007KT 9999 FEW015 SCT030 BKN060 06/04 Q1014"
"2355","RJCA",2019-11-01 03:10:00,142.365,43.7944,48.2,33.8,57.26,250,17,0,29.71,NA,6.21,28,"FEW","SCT","BKN",NA,800,2000,3000,NA,"-SHRA",NA,NA,NA,NA,NA,NA,41.3,"RJCA 010310Z 25017G28KT 9999 -SHRA FEW008 SCT020 BKN030 09/01 Q1006 RMK 1ST008 4CU020 7CU030 A2970"
"2356","RJCA",2019-11-01 07:38:00,142.365,43.7944,44.6,33.8,65.61,270,11,0,29.8,NA,6.21,23,"FEW","SCT","BKN",NA,1000,2500,3000,NA,NA,NA,NA,NA,NA,NA,NA,38.39,"RJCA 010738Z 27011G23KT 9999 FEW010 SCT025 BKN030 07/01 Q1009 RMK 1ST010 3CU025 7CU030 A2979"
"2357","RJCC",2019-11-01 00:00:00,141.6926,42.7742,55.4,35.6,47.16,300,8,0,29.74,NA,6.21,NA,"FEW",NA,NA,NA,3000,NA,NA,NA,NA,NA,NA,NA,NA,NA,NA,NA,"RJCC 010000Z 30008KT 280V340 9999 FEW030 13/02 Q1007"
"2358","RJCC",2019-11-01 00:30:00,141.6926,42.7742,55.4,33.8,43.9,310,11,0,29.74,NA,6.21,21,"FEW","BKN",NA,NA,3000,6000,NA,NA,NA,NA,NA,NA,NA,NA,NA,NA,"RJCC 010030Z 31011G21KT 280V350 9999 FEW030 BKN060 13/01 Q1007 RMK 1CU030 5CU060 A2975"
"2359","RJCC",2019-11-01 01:00:00,141.6926,42.7742,53.6,32,43.61,310,16,0,29.74,NA,6.21,NA,"FEW","BKN",NA,NA,3000,6000,NA,NA,NA,NA,NA,NA,NA,NA,NA,NA,"RJCC 010100Z 31016KT 9999 FEW030 BKN060 12/M00 Q1007"
"2360","RJCC",2019-11-01 01:30:00,141.6926,42.7742,55.4,32,40.84,310,13,0,29.74,NA,6.21,NA,"FEW","BKN",NA,NA,4000,6000,NA,NA,NA,NA,NA,NA,NA,NA,NA,NA,"RJCC 010130Z 31013KT 9999 FEW040 BKN060 13/M00 Q1007 RMK 1CU040 5CU060 A2974"
"2361","RJCC",2019-11-01 01:46:00,141.6926,42.7742,55.4,30.2,37.97,270,15,0,29.74,NA,6.21,25,"FEW","SCT",NA,NA,4000,6000,NA,NA,NA,NA,NA,NA,NA,NA,NA,NA,"RJCC 010146Z 27015G25KT 9999 FEW040 SCT060 13/M01 Q1007 RMK 1CU040 3CU060 A2974"
"2362","RJCC",2019-11-01 02:00:00,141.6926,42.7742,57.2,30.2,35.57,280,17,0,29.74,NA,6.21,NA,"FEW","SCT",NA,NA,4000,6000,NA,NA,NA,NA,NA,NA,NA,NA,NA,NA,"RJCC 010200Z 28017KT 9999 FEW040 SCT060 14/M01 Q1007"
"2363","RJCC",2019-11-01 02:30:00,141.6926,42.7742,57.2,32,38.26,290,15,0,29.74,NA,6.21,NA,"FEW","SCT",NA,NA,4000,6000,NA,NA,NA,NA,NA,NA,NA,NA,NA,NA,"RJCC 010230Z 29015KT 9999 FEW040 SCT060 14/00 Q1007"
"2364","RJCC",2019-11-01 03:00:00,141.6926,42.7742,57.2,32,38.26,290,16,0,29.74,NA,6.21,NA,"FEW","BKN",NA,NA,4000,6000,NA,NA,NA,NA,NA,NA,NA,NA,NA,NA,"RJCC 010300Z 29016KT 9999 FEW040 BKN060 14/M00 Q1007 RMK 1CU040 5CU060 A2974"
"2365","RJCC",2019-11-01 03:28:00,141.6926,42.7742,55.4,33.8,43.9,290,16,0,29.74,NA,6.21,29,"FEW","BKN",NA,NA,3000,6000,NA,NA,NA,NA,NA,NA,NA,NA,NA,NA,"RJCC 010328Z 29016G29KT 9999 FEW030 BKN060 13/01 Q1007 RMK 1CU030 6CU060 A2974"
"2366","RJCC",2019-11-01 03:30:00,141.6926,42.7742,53.6,32,43.61,290,17,0,29.74,NA,6.21,29,"FEW","BKN",NA,NA,3000,6000,NA,NA,NA,NA,NA,NA,NA,NA,NA,NA,"RJCC 010330Z 29017G29KT 9999 FEW030 BKN060 12/00 Q1007"
"2367","RJCC",2019-11-01 04:00:00,141.6926,42.7742,53.6,33.8,46.88,290,18,0,29.74,NA,6.21,NA,"FEW","SCT","BKN",NA,3000,6000,8000,NA,NA,NA,NA,NA,NA,NA,NA,NA,"RJCC 010400Z 29018KT 9999 FEW030 SCT060 BKN080 12/01 Q1007"
"2368","RJCC",2019-11-01 04:01:00,141.6926,42.7742,53.6,33.8,46.88,290,19,0,29.74,NA,6.21,29,"FEW","SCT","BKN",NA,3000,6000,8000,NA,NA,NA,NA,NA,NA,NA,NA,NA,"RJCC 010401Z 29019G29KT 9999 FEW030 SCT060 BKN080 12/01 Q1007 RMK 1CU030 3CU060 5AC080 A2975"
"2369","RJCC",2019-11-01 04:30:00,141.6926,42.7742,53.6,32,43.61,270,17,0,29.74,NA,6.21,NA,"FEW","BKN",NA,NA,3000,6000,NA,NA,NA,NA,NA,NA,NA,NA,NA,NA,"RJCC 010430Z 27017KT 9999 FEW030 BKN060 12/M00 Q1007"
"2370","RJCC",2019-11-01 04:36:00,141.6926,42.7742,53.6,32,43.61,280,17,0,29.74,NA,6.21,27,"FEW","BKN",NA,NA,3000,6000,NA,NA,"-SHRA",NA,NA,NA,NA,NA,NA,NA,"RJCC 010436Z 28017G27KT 9999 -SHRA FEW030 BKN060 12/00 Q1007 RMK 1CU030 6CU060 A2976"
"2371","RJCC",2019-11-01 05:00:00,141.6926,42.7742,51.8,33.8,50.08,300,11,0,29.77,NA,6.21,NA,"FEW","SCT","BKN",NA,2000,6000,8000,NA,"VCSH",NA,NA,NA,NA,NA,NA,NA,"RJCC 010500Z 30011KT 9999 VCSH FEW020 SCT060 BKN080 11/01 Q1008"
"2372","RJCC",2019-11-01 05:30:00,141.6926,42.7742,51.8,33.8,50.08,300,11,0,29.77,NA,6.21,NA,"FEW","BKN",NA,NA,2000,8000,NA,NA,NA,NA,NA,NA,NA,NA,NA,NA,"RJCC 010530Z 30011KT 250V330 9999 FEW020 BKN080 11/01 Q1008 RMK 1CU020 5AC080 A2979"
"2373","RJCC",2019-11-01 06:00:00,141.6926,42.7742,51.8,33.8,50.08,280,8,0,29.8,NA,6.21,NA,"FEW","SCT","BKN",NA,3000,6000,8000,NA,NA,NA,NA,NA,NA,NA,NA,NA,"RJCC 010600Z 28008KT 240V040 9999 FEW030 SCT060 BKN080 11/01 Q1009"
"2374","RJCC",2019-11-01 06:30:00,141.6926,42.7742,51.8,33.8,50.08,300,13,0,29.8,NA,6.21,NA,"FEW","SCT","BKN",NA,3000,6000,8000,NA,NA,NA,NA,NA,NA,NA,NA,NA,"RJCC 010630Z 30013KT 9999 FEW030 SCT060 BKN080 11/01 Q1009 RMK 1CU030 3CU060 5AC080 A2982"
"2375","RJCC",2019-11-01 07:00:00,141.6926,42.7742,50,33.8,53.54,270,11,0,29.83,NA,6.21,NA,"FEW","BKN",NA,NA,3000,8000,NA,NA,NA,NA,NA,NA,NA,NA,NA,45.21,"RJCC 010700Z 27011KT 9999 FEW030 BKN080 10/01 Q1010"
"2376","RJCC",2019-11-01 07:30:00,141.6926,42.7742,50,33.8,53.54,290,10,0,29.83,NA,6.21,NA,"FEW","SCT","BKN",NA,2500,6000,8000,NA,NA,NA,NA,NA,NA,NA,NA,45.54,"RJCC 010730Z 29010KT 250V010 9999 FEW025 SCT060 BKN080 10/01 Q1010"
"2377","RJCC",2019-11-01 08:00:00,141.6926,42.7742,48.2,33.8,57.26,290,7,0,29.85,NA,6.21,NA,"FEW","SCT","BKN",NA,2500,6000,8000,NA,NA,NA,NA,NA,NA,NA,NA,44.53,"RJCC 010800Z 29007KT 9999 FEW025 SCT060 BKN080 09/01 Q1011"
"2378","RJCC",2019-11-01 08:30:00,141.6926,42.7742,48.2,33.8,57.26,280,9,0,29.85,NA,6.21,NA,"FEW","BKN",NA,NA,2500,7000,NA,NA,NA,NA,NA,NA,NA,NA,NA,43.66,"RJCC 010830Z 28009KT 9999 FEW025 BKN070 09/01 Q1011 RMK 1CU025 5AC070 A2986"
"2379","RJCC",2019-11-01 09:00:00,141.6926,42.7742,48.2,33.8,57.26,300,7,0,29.88,NA,6.21,NA,"FEW","BKN",NA,NA,2500,7000,NA,NA,NA,NA,NA,NA,NA,NA,NA,44.53,"RJCC 010900Z 30007KT 280V360 9999 FEW025 BKN070 09/01 Q1012"
"2380","RJCC",2019-11-01 09:30:00,141.6926,42.7742,48.2,35.6,61.52,NA,1,0,29.88,NA,6.21,NA,"FEW","BKN",NA,NA,2500,7000,NA,NA,NA,NA,NA,NA,NA,NA,NA,NA,"RJCC 010930Z VRB01KT 9999 FEW025 BKN070 09/02 Q1012"
"2381","RJCC",2019-11-01 10:00:00,141.6926,42.7742,46.4,33.8,61.28,210,6,0,29.88,NA,6.21,NA,"FEW","BKN",NA,NA,2500,7000,NA,NA,NA,NA,NA,NA,NA,NA,NA,42.87,"RJCC 011000Z 21006KT 170V250 9999 FEW025 BKN070 08/01 Q1012"
"2382","RJCC",2019-11-01 10:30:00,141.6926,42.7742,46.4,33.8,61.28,250,6,0,29.91,NA,6.21,NA,"FEW","BKN",NA,NA,2500,7000,NA,NA,NA,NA,NA,NA,NA,NA,NA,42.87,"RJCC 011030Z 25006KT 190V280 9999 FEW025 BKN070 08/01 Q1013 RMK 1CU025 6AC070 A2991"
"2383","RJCC",2019-11-01 11:00:00,141.6926,42.7742,44.6,35.6,70.48,270,7,0,29.91,NA,6.21,NA,"FEW",NA,NA,NA,2500,NA,NA,NA,NA,NA,NA,NA,NA,NA,NA,40.14,"RJCC 011100Z 27007KT 240V300 9999 FEW025 07/02 Q1013"
"2384","RJCC",2019-11-01 11:30:00,141.6926,42.7742,44.6,35.6,70.48,70,3,0,29.91,NA,6.21,NA,"FEW","SCT",NA,NA,2500,7000,NA,NA,NA,NA,NA,NA,NA,NA,NA,43.09,"RJCC 011130Z 07003KT 9999 FEW025 SCT070 07/02 Q1013 RMK 1CU025 4AC070 A2994"
"2385","RJCC",2019-11-01 12:00:00,141.6926,42.7742,41,35.6,80.93,NA,1,0,29.94,NA,6.21,NA,"FEW","BKN",NA,NA,2500,7000,NA,NA,NA,NA,NA,NA,NA,NA,NA,NA,"RJCC 011200Z VRB01KT 9999 FEW025 BKN070 05/02 Q1014"
"2386","RJCC",2019-11-01 12:30:00,141.6926,42.7742,42.8,37.4,81.07,170,3,0,29.94,NA,6.21,NA,"FEW","BKN",NA,NA,2500,7000,NA,NA,NA,NA,NA,NA,NA,NA,NA,41.03,"RJCC 011230Z 17003KT 140V210 9999 FEW025 BKN070 06/03 Q1014 RMK 1CU025 6AC070 A2996"
"2387","RJCC",2019-11-01 13:00:00,141.6926,42.7742,42.8,35.6,75.5,240,6,0,29.94,NA,6.21,NA,"FEW","SCT",NA,NA,2500,7000,NA,NA,NA,NA,NA,NA,NA,NA,NA,38.54,"RJCC 011300Z 24006KT 9999 FEW025 SCT070 06/02 Q1014"
"2388","RJCC",2019-11-01 13:30:00,141.6926,42.7742,39.2,35.6,86.79,NA,2,0,29.94,NA,6.21,NA,"FEW","SCT",NA,NA,2500,7000,NA,NA,NA,NA,NA,NA,NA,NA,NA,NA,"RJCC 011330Z VRB02KT 9999 FEW025 SCT070 04/02 Q1014"
"2389","RJCC",2019-11-01 14:00:00,141.6926,42.7742,39.2,35.6,86.79,180,4,0,29.97,NA,6.21,NA,"FEW","BKN",NA,NA,2500,7000,NA,NA,NA,NA,NA,NA,NA,NA,NA,35.83,"RJCC 011400Z 18004KT 9999 FEW025 BKN070 04/02 Q1015"
"2390","RJCC",2019-11-01 14:30:00,141.6926,42.7742,41,37.4,86.89,200,3,0,29.97,NA,6.21,NA,"FEW","SCT","BKN",NA,2500,5000,7000,NA,NA,NA,NA,NA,NA,NA,NA,38.98,"RJCC 011430Z 20003KT 9999 FEW025 SCT050 BKN070 05/03 Q1015 RMK 1CU025 3CU050 7AC070 A2998"
"2391","RJCC",2019-11-01 15:00:00,141.6926,42.7742,41,37.4,86.89,120,3,0,29.97,NA,6.21,NA,"FEW","SCT","BKN",NA,2500,5000,7000,NA,NA,NA,NA,NA,NA,NA,NA,38.98,"RJCC 011500Z 12003KT 9999 FEW025 SCT050 BKN070 05/03 Q1015"
"2392","RJCC",2019-11-01 15:30:00,141.6926,42.7742,39.2,37.4,93.19,NA,2,0,29.97,NA,6.21,NA,"FEW","SCT",NA,NA,2500,7000,NA,NA,NA,NA,NA,NA,NA,NA,NA,NA,"RJCC 011530Z VRB02KT 9999 FEW025 SCT070 04/03 Q1015 RMK 1CU025 3AC070 A2997"
"2393","RJCC",2019-11-01 16:00:00,141.6926,42.7742,42.8,39.2,86.99,NA,2,0,29.97,NA,6.21,NA,"FEW","BKN",NA,NA,2500,5000,NA,NA,NA,NA,NA,NA,NA,NA,NA,NA,"RJCC 011600Z VRB02KT 9999 FEW025 BKN050 06/04 Q1015"
"2394","RJCC",2019-11-01 16:30:00,141.6926,42.7742,42.8,39.2,86.99,NA,1,0,29.97,NA,6.21,NA,"FEW","BKN",NA,NA,2500,5000,NA,NA,NA,NA,NA,NA,NA,NA,NA,NA,"RJCC 011630Z VRB01KT 9999 FEW025 BKN050 06/04 Q1015"
"2395","RJCC",2019-11-01 17:00:00,141.6926,42.7742,44.6,37.4,75.68,220,5,0,29.97,NA,6.21,NA,"FEW","BKN",NA,NA,2500,6000,NA,NA,NA,NA,NA,NA,NA,NA,NA,41.36,"RJCC 011700Z 22005KT 9999 FEW025 BKN060 07/03 Q1015"
"2396","RJCC",2019-11-01 17:30:00,141.6926,42.7742,42.8,37.4,81.07,100,3,0,29.97,NA,6.21,NA,"FEW","BKN",NA,NA,2500,6000,NA,NA,NA,NA,NA,NA,NA,NA,NA,41.03,"RJCC 011730Z 10003KT 070V160 9999 FEW025 BKN060 06/03 Q1015"
"2397","RJCC",2019-11-01 18:00:00,141.6926,42.7742,42.8,37.4,81.07,210,3,0,29.97,NA,6.21,NA,"FEW","BKN",NA,NA,2500,6000,NA,NA,NA,NA,NA,NA,NA,NA,NA,41.03,"RJCC 011800Z 21003KT 9999 FEW025 BKN060 06/03 Q1015"
"2398","RJCC",2019-11-01 18:30:00,141.6926,42.7742,44.6,35.6,70.48,220,6,0,29.97,NA,6.21,NA,"FEW","BKN",NA,NA,2500,6000,NA,NA,NA,NA,NA,NA,NA,NA,NA,40.71,"RJCC 011830Z 22006KT 9999 FEW025 BKN060 07/02 Q1015"
"2399","RJCC",2019-11-01 19:00:00,141.6926,42.7742,44.6,35.6,70.48,230,5,0,29.97,NA,6.21,NA,"FEW","BKN",NA,NA,2500,6000,NA,NA,NA,NA,NA,NA,NA,NA,NA,41.36,"RJCC 011900Z 23005KT 9999 FEW025 BKN060 07/02 Q1015"
"2400","RJCC",2019-11-01 19:30:00,141.6926,42.7742,44.6,35.6,70.48,230,8,0,29.97,NA,6.21,NA,"FEW","BKN",NA,NA,2500,6000,NA,NA,NA,NA,NA,NA,NA,NA,NA,39.63,"RJCC 011930Z 23008KT 9999 FEW025 BKN060 07/02 Q1015 RMK 1CU025 5CU060 A3000"
"2401","RJCC",2019-11-01 20:00:00,141.6926,42.7742,44.6,37.4,75.68,220,6,0,29.97,NA,6.21,NA,"FEW","SCT",NA,NA,2500,6000,NA,NA,NA,NA,NA,NA,NA,NA,NA,40.71,"RJCC 012000Z 22006KT 9999 FEW025 SCT060 07/03 Q1015"
"2402","RJCC",2019-11-01 20:30:00,141.6926,42.7742,44.6,37.4,75.68,230,4,0,29.97,NA,6.21,NA,"FEW","BKN",NA,NA,2500,6000,NA,NA,NA,NA,NA,NA,NA,NA,NA,42.13,"RJCC 012030Z 23004KT 9999 FEW025 BKN060 07/03 Q1015"
"2403","RJCC",2019-11-01 21:00:00,141.6926,42.7742,44.6,37.4,75.68,230,3,0,29.97,NA,6.21,NA,"FEW","BKN",NA,NA,2500,6000,NA,NA,NA,NA,NA,NA,NA,NA,NA,43.09,"RJCC 012100Z 23003KT 9999 FEW025 BKN060 07/03 Q1015"
"2404","RJCC",2019-11-01 21:30:00,141.6926,42.7742,46.4,37.4,70.68,240,8,0,30,NA,6.21,NA,"FEW","BKN",NA,NA,2500,6000,NA,NA,NA,NA,NA,NA,NA,NA,NA,41.85,"RJCC 012130Z 24008KT 9999 FEW025 BKN060 08/03 Q1016"
"2405","RJCC",2019-11-01 22:00:00,141.6926,42.7742,48.2,37.4,66.05,220,7,0,30,NA,6.21,NA,"FEW","BKN",NA,NA,2500,6000,NA,NA,NA,NA,NA,NA,NA,NA,NA,44.53,"RJCC 012200Z 22007KT 9999 FEW025 BKN060 09/03 Q1016"
"2406","RJCC",2019-11-01 22:30:00,141.6926,42.7742,48.2,37.4,66.05,230,8,0,30,NA,6.21,NA,"FEW","BKN",NA,NA,2500,6000,NA,NA,NA,NA,NA,NA,NA,NA,NA,44.07,"RJCC 012230Z 23008KT 9999 FEW025 BKN060 09/03 Q1016"
"2407","RJCC",2019-11-01 23:00:00,141.6926,42.7742,50,35.6,57.52,220,7,0,30,NA,6.21,NA,"FEW","SCT",NA,NA,2500,6000,NA,NA,NA,NA,NA,NA,NA,NA,NA,46.72,"RJCC 012300Z 22007KT 180V250 9999 FEW025 SCT060 10/02 Q1016"
"2408","RJCC",2019-11-01 23:30:00,141.6926,42.7742,51.8,35.6,53.81,240,13,0,30,NA,6.21,NA,"FEW","SCT",NA,NA,2500,6000,NA,NA,NA,NA,NA,NA,NA,NA,NA,NA,"RJCC 012330Z 24013KT 9999 FEW025 SCT060 11/02 Q1016"
"2409","RJTF",2019-11-01 00:00:00,139.5281,35.6717,64.4,53.6,67.95,NA,2,0,29.97,NA,6.21,NA,"FEW",NA,NA,NA,2000,NA,NA,NA,NA,NA,NA,NA,NA,NA,NA,NA,"RJTF 010000Z VRB02KT 9999 FEW020 18/12 Q1015"
"2410","RJTF",2019-11-01 01:00:00,139.5281,35.6717,66.2,53.6,63.82,NA,1,0,29.97,NA,6.21,NA,"FEW",NA,NA,NA,3000,NA,NA,NA,NA,NA,NA,NA,NA,NA,NA,NA,"RJTF 010100Z VRB01KT 9999 FEW030 19/12 Q1015"
"2411","RJTF",2019-11-01 02:00:00,139.5281,35.6717,69.8,55.4,60.21,NA,2,0,29.94,NA,6.21,NA,NA,NA,NA,NA,NA,NA,NA,NA,NA,NA,NA,NA,NA,NA,NA,NA,"RJTF 010200Z VRB02KT CAVOK 21/13 Q1014"
"2412","RJTF",2019-11-01 03:00:00,139.5281,35.6717,71.6,51.8,49.64,NA,1,0,29.91,NA,6.21,NA,NA,NA,NA,NA,NA,NA,NA,NA,NA,NA,NA,NA,NA,NA,NA,NA,"RJTF 010300Z VRB01KT CAVOK 22/11 Q1013"
"2413","RJTF",2019-11-01 04:00:00,139.5281,35.6717,75.2,44.6,33.57,NA,3,0,29.88,NA,6.21,NA,NA,NA,NA,NA,NA,NA,NA,NA,NA,NA,NA,NA,NA,NA,NA,NA,"RJTF 010400Z VRB03KT CAVOK 24/07 Q1012"
"2414","RJTF",2019-11-01 05:00:00,139.5281,35.6717,75.2,41,29.23,40,5,0,29.88,NA,6.21,NA,NA,NA,NA,NA,NA,NA,NA,NA,NA,NA,NA,NA,NA,NA,NA,NA,"RJTF 010500Z 04005KT 010V080 CAVOK 24/05 Q1012"
"2415","RJTF",2019-11-01 06:00:00,139.5281,35.6717,75.2,42.8,31.34,NA,1,0,29.88,NA,6.21,NA,NA,NA,NA,NA,NA,NA,NA,NA,NA,NA,NA,NA,NA,NA,NA,NA,"RJTF 010600Z VRB01KT CAVOK 24/06 Q1012"
"2416","RJTF",2019-11-01 07:00:00,139.5281,35.6717,73.4,44.6,35.66,350,1,0,29.88,NA,6.21,NA,NA,NA,NA,NA,NA,NA,NA,NA,NA,NA,NA,NA,NA,NA,NA,NA,"RJTF 010700Z 35001KT CAVOK 23/07 Q1012"
"2417","RJTF",2019-11-01 23:30:00,139.5281,35.6717,59,42.8,54.86,360,7,0,30.18,NA,6.21,NA,"FEW","SCT",NA,NA,3000,6000,NA,NA,NA,NA,NA,NA,NA,NA,NA,NA,"RJTF 012330Z 36007KT 9999 FEW030 SCT060 15/06 Q1022"
"2418","RJFE",2019-11-01 00:00:00,128.8328,32.6664,66.2,55.4,68.15,350,8,0,30.15,NA,5.59,NA,"FEW","BKN",NA,NA,2500,NA,NA,NA,NA,NA,NA,NA,NA,NA,NA,NA,"RJFE 010000Z 35008KT 310V030 9000 FEW025 BKN/// 19/13 Q1021"
"2419","RJFE",2019-11-01 01:00:00,128.8328,32.6664,69.8,55.4,60.21,350,10,0,30.15,NA,6.21,NA,"FEW","SCT",NA,NA,2500,NA,NA,NA,NA,NA,NA,NA,NA,NA,NA,NA,"RJFE 010100Z 35010KT 310V030 9999 FEW025 SCT/// 21/13 Q1021"
"2420","RJFE",2019-11-01 02:00:00,128.8328,32.6664,71.6,55.4,56.63,10,13,0,30.15,NA,6.21,NA,"FEW",NA,NA,NA,3000,NA,NA,NA,NA,NA,NA,NA,NA,NA,NA,NA,"RJFE 010200Z 01013KT 330V030 9999 FEW030 22/13 Q1021"
"2421","RJFE",2019-11-01 03:00:00,128.8328,32.6664,71.6,55.4,56.63,340,9,0,30.12,NA,6.21,NA,"FEW",NA,NA,NA,3000,NA,NA,NA,NA,NA,NA,NA,NA,NA,NA,NA,"RJFE 010300Z 34009KT 300V020 9999 FEW030 22/13 Q1020"
"2422","RJFE",2019-11-01 04:00:00,128.8328,32.6664,73.4,55.4,53.29,360,10,0,30.09,NA,6.21,NA,NA,NA,NA,NA,NA,NA,NA,NA,NA,NA,NA,NA,NA,NA,NA,NA,"RJFE 010400Z 36010KT CAVOK 23/13 Q1019"
"2423","RJFE",2019-11-01 05:00:00,128.8328,32.6664,73.4,55.4,53.29,360,11,0,30.09,NA,6.21,NA,NA,NA,NA,NA,NA,NA,NA,NA,NA,NA,NA,NA,NA,NA,NA,NA,"RJFE 010500Z 36011KT 330V040 CAVOK 23/13 Q1019"
"2424","RJFE",2019-11-01 06:00:00,128.8328,32.6664,71.6,55.4,56.63,10,13,0,30.06,NA,6.21,NA,NA,NA,NA,NA,NA,NA,NA,NA,NA,NA,NA,NA,NA,NA,NA,NA,"RJFE 010600Z 01013KT CAVOK 22/13 Q1018"
"2425","RJFE",2019-11-01 07:00:00,128.8328,32.6664,69.8,53.6,56.38,360,13,0,30.09,NA,6.21,NA,NA,NA,NA,NA,NA,NA,NA,NA,NA,NA,NA,NA,NA,NA,NA,NA,"RJFE 010700Z 36013KT CAVOK 21/12 Q1019"
"2426","RJFE",2019-11-01 08:00:00,128.8328,32.6664,68,53.6,59.97,360,10,0,30.09,NA,6.21,NA,NA,NA,NA,NA,NA,NA,NA,NA,NA,NA,NA,NA,NA,NA,NA,NA,"RJFE 010800Z 36010KT CAVOK 20/12 Q1019"
"2427","RJFE",2019-11-01 09:00:00,128.8328,32.6664,62.6,53.6,72.38,360,7,0,30.09,NA,6.21,NA,NA,NA,NA,NA,NA,NA,NA,NA,NA,NA,NA,NA,NA,NA,NA,NA,"RJFE 010900Z 36007KT CAVOK 17/12 Q1019"
"2428","RJFE",2019-11-01 10:00:00,128.8328,32.6664,62.6,53.6,72.38,10,6,0,30.09,NA,6.21,NA,NA,NA,NA,NA,NA,NA,NA,NA,NA,NA,NA,NA,NA,NA,NA,NA,"RJFE 011000Z 01006KT CAVOK 17/12 Q1019"
"2429","RJFE",2019-11-01 23:00:00,128.8328,32.6664,60.8,57.2,87.92,30,4,0,30.12,NA,6.21,NA,NA,NA,NA,NA,NA,NA,NA,NA,NA,NA,NA,NA,NA,NA,NA,NA,"RJFE 012300Z 03004KT CAVOK 16/14 Q1020"
"2430","RJFF",2019-11-01 00:00:00,130.4517,33.5844,62.6,53.6,72.38,170,5,0,30.15,NA,6.21,NA,"FEW",NA,NA,NA,3000,NA,NA,NA,NA,NA,NA,NA,NA,NA,NA,NA,"RJFF 010000Z 17005KT 140V210 9999 FEW030 17/12 Q1021 BECMG FM0100 29008KT"
"2431","RJFF",2019-11-01 00:30:00,130.4517,33.5844,64.4,55.4,72.56,170,6,0,30.15,NA,6.21,NA,"FEW",NA,NA,NA,3000,NA,NA,NA,NA,NA,NA,NA,NA,NA,NA,NA,"RJFF 010030Z 17006KT 150V220 9999 FEW030 18/13 Q1021 BECMG FM0100 33009KT RMK 1CU030 A3016"
"2432","RJFF",2019-11-01 01:00:00,130.4517,33.5844,66.2,53.6,63.82,NA,4,0,30.15,NA,6.21,NA,"FEW",NA,NA,NA,3000,NA,NA,NA,NA,NA,NA,NA,NA,NA,NA,NA,"RJFF 010100Z VRB04KT 9999 FEW030 19/12 Q1021 BECMG TL0200 33009KT"
"2433","RJFF",2019-11-01 01:30:00,130.4517,33.5844,68,55.4,64.04,NA,2,0,30.15,NA,6.21,NA,"FEW",NA,NA,NA,3000,NA,NA,NA,NA,NA,NA,NA,NA,NA,NA,NA,"RJFF 010130Z VRB02KT 9999 FEW030 20/13 Q1021 BECMG TL0200 33009KT RMK 1CU030 A3015"
"2434","RJFF",2019-11-01 02:00:00,130.4517,33.5844,69.8,57.2,64.26,NA,3,0,30.15,NA,6.21,NA,"FEW",NA,NA,NA,3000,NA,NA,NA,NA,NA,NA,NA,NA,NA,NA,NA,"RJFF 010200Z VRB03KT 9999 FEW030 21/14 Q1021 BECMG TL0230 33009KT"
"2435","RJFF",2019-11-01 02:30:00,130.4517,33.5844,69.8,55.4,60.21,310,5,0,30.12,NA,6.21,NA,"FEW",NA,NA,NA,3500,NA,NA,NA,NA,NA,NA,NA,NA,NA,NA,NA,"RJFF 010230Z 31005KT 250V050 9999 FEW035 21/13 Q1020 NOSIG"
"2436","RJFF",2019-11-01 03:00:00,130.4517,33.5844,69.8,55.4,60.21,300,6,0,30.12,NA,6.21,NA,"FEW",NA,NA,NA,3500,NA,NA,NA,NA,NA,NA,NA,NA,NA,NA,NA,"RJFF 010300Z 30006KT 260V010 9999 FEW035 21/13 Q1020 NOSIG"
"2437","RJFF",2019-11-01 03:30:00,130.4517,33.5844,69.8,55.4,60.21,320,6,0,30.09,NA,6.21,NA,"FEW",NA,NA,NA,3500,NA,NA,NA,NA,NA,NA,NA,NA,NA,NA,NA,"RJFF 010330Z 32006KT 270V350 9999 FEW035 21/13 Q1019 NOSIG"
"2438","RJFF",2019-11-01 04:00:00,130.4517,33.5844,71.6,55.4,56.63,320,8,0,30.09,NA,6.21,NA,"FEW",NA,NA,NA,3500,NA,NA,NA,NA,NA,NA,NA,NA,NA,NA,NA,"RJFF 010400Z 32008KT 290V360 9999 FEW035 22/13 Q1019 NOSIG"
"2439","RJFF",2019-11-01 04:30:00,130.4517,33.5844,71.6,55.4,56.63,300,8,0,30.06,NA,6.21,NA,"FEW",NA,NA,NA,3500,NA,NA,NA,NA,NA,NA,NA,NA,NA,NA,NA,"RJFF 010430Z 30008KT 9999 FEW035 22/13 Q1018 NOSIG"
"2440","RJFF",2019-11-01 05:00:00,130.4517,33.5844,71.6,55.4,56.63,300,10,0,30.06,NA,6.21,NA,"FEW",NA,NA,NA,3500,NA,NA,NA,NA,NA,NA,NA,NA,NA,NA,NA,"RJFF 010500Z 30010KT 9999 FEW035 22/13 Q1018 NOSIG"
"2441","RJFF",2019-11-01 05:30:00,130.4517,33.5844,71.6,55.4,56.63,330,12,0,30.06,NA,6.21,NA,"FEW",NA,NA,NA,3500,NA,NA,NA,NA,NA,NA,NA,NA,NA,NA,NA,"RJFF 010530Z 33012KT 9999 FEW035 22/13 Q1018 NOSIG RMK 1CU035 A3008"
"2442","RJFF",2019-11-01 06:00:00,130.4517,33.5844,71.6,53.6,53.03,330,11,0,30.06,NA,6.21,NA,"FEW",NA,NA,NA,3500,NA,NA,NA,NA,NA,NA,NA,NA,NA,NA,NA,"RJFF 010600Z 33011KT 290V360 9999 FEW035 22/12 Q1018 NOSIG RMK 1CU035 A3008"
"2443","RJFF",2019-11-01 06:30:00,130.4517,33.5844,71.6,55.4,56.63,320,9,0,30.06,NA,6.21,NA,"FEW",NA,NA,NA,3500,NA,NA,NA,NA,NA,NA,NA,NA,NA,NA,NA,"RJFF 010630Z 32009KT 9999 FEW035 22/13 Q1018 NOSIG RMK 1CU035 A3008"
"2444","RJFF",2019-11-01 07:00:00,130.4517,33.5844,69.8,53.6,56.38,320,8,0,30.09,NA,6.21,NA,"FEW",NA,NA,NA,3500,NA,NA,NA,NA,NA,NA,NA,NA,NA,NA,NA,"RJFF 010700Z 32008KT 290V050 9999 FEW035 21/12 Q1019 NOSIG"
"2445","RJFF",2019-11-01 07:30:00,130.4517,33.5844,69.8,53.6,56.38,320,8,0,30.09,NA,6.21,NA,"FEW",NA,NA,NA,3500,NA,NA,NA,NA,NA,NA,NA,NA,NA,NA,NA,"RJFF 010730Z 32008KT 9999 FEW035 21/12 Q1019 NOSIG"
"2446","RJFF",2019-11-01 08:00:00,130.4517,33.5844,69.8,53.6,56.38,320,8,0,30.09,NA,6.21,NA,"FEW",NA,NA,NA,3500,NA,NA,NA,NA,NA,NA,NA,NA,NA,NA,NA,"RJFF 010800Z 32008KT 270V010 9999 FEW035 21/12 Q1019 NOSIG"
"2447","RJFF",2019-11-01 08:30:00,130.4517,33.5844,68,53.6,59.97,350,7,0,30.09,NA,6.21,NA,"FEW",NA,NA,NA,3500,NA,NA,NA,NA,NA,NA,NA,NA,NA,NA,NA,"RJFF 010830Z 35007KT 9999 FEW035 20/12 Q1019 NOSIG RMK 1CU035 A3010"
"2448","RJFF",2019-11-01 09:00:00,130.4517,33.5844,68,53.6,59.97,360,8,0,30.09,NA,6.21,NA,"FEW",NA,NA,NA,3500,NA,NA,NA,NA,NA,NA,NA,NA,NA,NA,NA,"RJFF 010900Z 36008KT 9999 FEW035 20/12 Q1019 NOSIG"
"2449","RJFF",2019-11-01 09:30:00,130.4517,33.5844,66.2,55.4,68.15,30,4,0,30.12,NA,6.21,NA,"FEW",NA,NA,NA,3500,NA,NA,NA,NA,NA,NA,NA,NA,NA,NA,NA,"RJFF 010930Z 03004KT 330V070 9999 FEW035 19/13 Q1020 NOSIG"
"2450","RJFF",2019-11-01 10:00:00,130.4517,33.5844,64.4,53.6,67.95,50,3,0,30.12,NA,6.21,NA,"FEW",NA,NA,NA,3500,NA,NA,NA,NA,NA,NA,NA,NA,NA,NA,NA,"RJFF 011000Z 05003KT 350V070 9999 FEW035 18/12 Q1020 NOSIG"
"2451","RJFF",2019-11-01 10:30:00,130.4517,33.5844,62.6,53.6,72.38,40,4,0,30.12,NA,6.21,NA,"FEW",NA,NA,NA,3500,NA,NA,NA,NA,NA,NA,NA,NA,NA,NA,NA,"RJFF 011030Z 04004KT 360V070 9999 FEW035 17/12 Q1020 NOSIG RMK 1CU035 A3013"
"2452","RJFF",2019-11-01 11:00:00,130.4517,33.5844,60.8,55.4,82.37,20,4,0,30.12,NA,6.21,NA,"FEW","SCT",NA,NA,3500,NA,NA,NA,NA,NA,NA,NA,NA,NA,NA,NA,"RJFF 011100Z 02004KT 350V050 9999 FEW035 SCT/// 16/13 Q1020 NOSIG"
"2453","RJFF",2019-11-01 11:30:00,130.4517,33.5844,62.6,53.6,72.38,40,3,0,30.12,NA,6.21,NA,"FEW","SCT",NA,NA,3500,NA,NA,NA,NA,NA,NA,NA,NA,NA,NA,NA,"RJFF 011130Z 04003KT 360V060 9999 FEW035 SCT/// 17/12 Q1020 NOSIG RMK 1CU035 A3014"
"2454","RJFF",2019-11-01 12:00:00,130.4517,33.5844,60.8,53.6,77.14,40,4,0,30.12,NA,6.21,NA,"FEW",NA,NA,NA,3500,NA,NA,NA,NA,NA,NA,NA,NA,NA,NA,NA,"RJFF 011200Z 04004KT 010V100 9999 FEW035 16/12 Q1020 NOSIG"
"2455","RJFF",2019-11-01 12:30:00,130.4517,33.5844,60.8,53.6,77.14,30,4,0,30.12,NA,6.21,NA,"FEW",NA,NA,NA,3500,NA,NA,NA,NA,NA,NA,NA,NA,NA,NA,NA,"RJFF 011230Z 03004KT 350V050 9999 FEW035 16/12 Q1020 NOSIG RMK 1CU035 A3015"
"2456","RJFF",2019-11-01 13:00:00,130.4517,33.5844,59,55.4,87.83,NA,2,0,30.12,NA,6.21,NA,"FEW",NA,NA,NA,3500,NA,NA,NA,NA,NA,NA,NA,NA,NA,NA,NA,"RJFF 011300Z VRB02KT 9999 FEW035 15/13 Q1020 NOSIG"
"2457","RJFF",2019-11-01 13:30:00,130.4517,33.5844,59,55.4,87.83,NA,1,0,30.12,NA,6.21,NA,"FEW",NA,NA,NA,3500,NA,NA,NA,NA,NA,NA,NA,NA,NA,NA,NA,"RJFF 011330Z VRB01KT 9999 FEW035 15/13 Q1020 NOSIG"
"2458","RJFF",2019-11-01 14:00:00,130.4517,33.5844,57.2,53.6,87.74,140,3,0,30.12,NA,6.21,NA,"SCT",NA,NA,NA,3600,NA,NA,NA,NA,NA,NA,NA,NA,NA,NA,NA,"RJFF 011400Z AUTO 14003KT 9999 SCT036 14/12 Q1020 NOSIG"
"2459","RJFF",2019-11-01 14:30:00,130.4517,33.5844,57.2,53.6,87.74,NA,2,0,30.12,NA,6.21,NA,"FEW",NA,NA,NA,3800,NA,NA,NA,NA,NA,NA,NA,NA,NA,NA,NA,"RJFF 011430Z AUTO VRB02KT 9999 FEW038 14/12 Q1020 NOSIG RMK A3013"
"2460","RJFF",2019-11-01 15:00:00,130.4517,33.5844,57.2,53.6,87.74,NA,1,0,30.12,NA,6.21,NA,"FEW",NA,NA,NA,3500,NA,NA,NA,NA,NA,NA,NA,NA,NA,NA,NA,"RJFF 011500Z AUTO VRB01KT 9999 FEW035 14/12 Q1020 NOSIG"
"2461","RJFF",2019-11-01 15:30:00,130.4517,33.5844,57.2,53.6,87.74,NA,2,0,30.12,NA,6.21,NA,"NCD",NA,NA,NA,NA,NA,NA,NA,NA,NA,NA,NA,NA,NA,NA,NA,"RJFF 011530Z AUTO VRB02KT 9999 NCD 14/12 Q1020 NOSIG RMK A3012"
"2462","RJFF",2019-11-01 16:00:00,130.4517,33.5844,57.2,53.6,87.74,NA,2,0,30.09,NA,6.21,NA,"NCD",NA,NA,NA,NA,NA,NA,NA,NA,NA,NA,NA,NA,NA,NA,NA,"RJFF 011600Z AUTO VRB02KT 9999 NCD 14/12 Q1019 NOSIG"
"2463","RJFF",2019-11-01 16:30:00,130.4517,33.5844,55.4,53.6,93.65,120,2,0,30.12,NA,6.21,NA,"NCD",NA,NA,NA,NA,NA,NA,NA,NA,NA,NA,NA,NA,NA,NA,NA,"RJFF 011630Z AUTO 12002KT 9999 NCD 13/12 Q1020 NOSIG"
"2464","RJFF",2019-11-01 17:00:00,130.4517,33.5844,55.4,53.6,93.65,NA,2,0,30.09,NA,6.21,NA,"NCD",NA,NA,NA,NA,NA,NA,NA,NA,NA,NA,NA,NA,NA,NA,NA,"RJFF 011700Z AUTO VRB02KT 9999 NCD 13/12 Q1019 NOSIG"
"2465","RJFF",2019-11-01 17:30:00,130.4517,33.5844,55.4,51.8,87.65,NA,1,0,30.09,NA,6.21,NA,"NCD",NA,NA,NA,NA,NA,NA,NA,NA,NA,NA,NA,NA,NA,NA,NA,"RJFF 011730Z AUTO VRB01KT 9999 NCD 13/11 Q1019 NOSIG"
"2466","RJFF",2019-11-01 18:00:00,130.4517,33.5844,53.6,51.8,93.6,NA,2,0,30.09,NA,6.21,NA,"NCD",NA,NA,NA,NA,NA,NA,NA,NA,NA,NA,NA,NA,NA,NA,NA,"RJFF 011800Z AUTO VRB02KT 9999 NCD 12/11 Q1019 NOSIG"
"2467","RJFF",2019-11-01 18:30:00,130.4517,33.5844,55.4,51.8,87.65,NA,1,0,30.09,NA,6.21,NA,"NCD",NA,NA,NA,NA,NA,NA,NA,NA,NA,NA,NA,NA,NA,NA,NA,"RJFF 011830Z AUTO VRB01KT 9999 NCD 13/11 Q1019 NOSIG"
"2468","RJFF",2019-11-01 19:00:00,130.4517,33.5844,53.6,51.8,93.6,120,2,0,30.09,NA,6.21,NA,"NCD",NA,NA,NA,NA,NA,NA,NA,NA,NA,NA,NA,NA,NA,NA,NA,"RJFF 011900Z AUTO 12002KT 9999 NCD 12/11 Q1019 NOSIG"
"2469","RJFF",2019-11-01 19:30:00,130.4517,33.5844,53.6,53.6,100,130,2,0,30.09,NA,5.59,NA,"NCD",NA,NA,NA,NA,NA,NA,NA,NA,NA,NA,NA,NA,NA,NA,NA,"RJFF 011930Z AUTO 13002KT 9000 NCD 12/12 Q1019 NOSIG RMK A3011"
"2470","RJFF",2019-11-01 20:00:00,130.4517,33.5844,55.4,53.6,93.65,90,3,0,30.09,NA,6.21,NA,"NCD",NA,NA,NA,NA,NA,NA,NA,NA,NA,NA,NA,NA,NA,NA,NA,"RJFF 012000Z AUTO 09003KT 060V120 9999 NCD 13/12 Q1019 NOSIG RMK A3011"
"2471","RJFF",2019-11-01 20:30:00,130.4517,33.5844,53.6,50,87.56,NA,1,0,30.09,NA,6.21,NA,"NCD",NA,NA,NA,NA,NA,NA,NA,NA,NA,NA,NA,NA,NA,NA,NA,"RJFF 012030Z AUTO VRB01KT 9999 NCD 12/10 Q1019 NOSIG"
"2472","RJFF",2019-11-01 21:00:00,130.4517,33.5844,53.6,51.8,93.6,NA,1,0,30.09,NA,6.21,NA,"FEW",NA,NA,NA,4000,NA,NA,NA,NA,NA,NA,NA,NA,NA,NA,NA,"RJFF 012100Z VRB01KT 9999 FEW040 12/11 Q1019 NOSIG"
"2473","RJFF",2019-11-01 21:30:00,130.4517,33.5844,53.6,50,87.56,140,4,0,30.12,NA,5.59,NA,"FEW","BKN",NA,NA,4000,NA,NA,NA,NA,NA,NA,NA,NA,NA,NA,NA,"RJFF 012130Z 14004KT 9000 FEW040 BKN/// 12/10 Q1020 NOSIG"
"2474","RJFF",2019-11-01 22:00:00,130.4517,33.5844,53.6,51.8,93.6,NA,2,0,30.09,NA,6.21,NA,"FEW","BKN",NA,NA,3500,NA,NA,NA,NA,NA,NA,NA,NA,NA,NA,NA,"RJFF 012200Z VRB02KT 9999 FEW035 BKN/// 12/11 Q1019 NOSIG"
"2475","RJFF",2019-11-01 22:30:00,130.4517,33.5844,55.4,53.6,93.65,NA,2,0,30.12,NA,6.21,NA,"FEW","BKN",NA,NA,3500,NA,NA,NA,NA,NA,NA,NA,NA,NA,NA,NA,"RJFF 012230Z VRB02KT 9999 FEW035 BKN/// 13/12 Q1020 NOSIG"
"2476","RJFF",2019-11-01 23:00:00,130.4517,33.5844,57.2,53.6,87.74,160,4,0,30.12,NA,6.21,NA,"FEW","BKN",NA,NA,2500,NA,NA,NA,NA,NA,NA,NA,NA,NA,NA,NA,"RJFF 012300Z 16004KT 130V200 9999 FEW025 BKN/// 14/12 Q1020 NOSIG"
"2477","RJFF",2019-11-01 23:30:00,130.4517,33.5844,60.8,55.4,82.37,170,3,0,30.12,NA,6.21,NA,"FEW","SCT",NA,NA,2500,NA,NA,NA,NA,NA,NA,NA,NA,NA,NA,NA,"RJFF 012330Z 17003KT 120V210 9999 FEW025 SCT/// 16/13 Q1020 NOSIG"
"2478","RJSF",2019-11-01 00:00:00,140.4281,37.2275,60.8,46.4,59.01,300,6,0,29.97,NA,6.21,NA,"FEW",NA,NA,NA,500,NA,NA,NA,NA,NA,NA,NA,NA,NA,NA,NA,"RJSF 010000Z 30006KT 260V340 9999 FEW005 16/08 Q1015"
"2479","RJSF",2019-11-01 01:00:00,140.4281,37.2275,64.4,46.4,51.98,280,6,0,29.94,NA,6.21,NA,"FEW",NA,NA,NA,3500,NA,NA,NA,NA,NA,NA,NA,NA,NA,NA,NA,"RJSF 010100Z 28006KT 220V320 9999 FEW035 18/08 Q1014"
"2480","RJSF",2019-11-01 02:00:00,140.4281,37.2275,66.2,44.6,45.6,200,5,0,29.94,NA,6.21,NA,"FEW",NA,NA,NA,3500,NA,NA,NA,NA,NA,NA,NA,NA,NA,NA,NA,"RJSF 010200Z 20005KT 160V270 9999 FEW035 19/07 Q1014"
"2481","RJSF",2019-11-01 03:00:00,140.4281,37.2275,68,42.8,40,230,7,0,29.91,NA,6.21,NA,"FEW","SCT","BKN",NA,4000,5000,7000,NA,NA,NA,NA,NA,NA,NA,NA,NA,"RJSF 010300Z 23007KT 150V290 9999 FEW040 SCT050 BKN070 20/06 Q1013"
"2482","RJSF",2019-11-01 03:16:00,140.4281,37.2275,69.8,44.6,40.29,290,11,0,29.91,NA,6.21,21,"FEW","SCT","BKN",NA,4000,5000,7000,NA,NA,NA,NA,NA,NA,NA,NA,NA,"RJSF 010316Z 29011G21KT 240V330 9999 FEW040 SCT050 BKN070 21/07 Q1013 RMK 1CU040 3CU050 5AC070 A2992"
"2483","RJSF",2019-11-01 04:00:00,140.4281,37.2275,64.4,46.4,51.98,340,12,0,29.91,NA,6.21,NA,"FEW","BKN","BKN",NA,4000,5000,7000,NA,NA,NA,NA,NA,NA,NA,NA,NA,"RJSF 010400Z 34012KT 9999 FEW040 BKN050 BKN070 18/08 Q1013"
"2484","RJSF",2019-11-01 05:00:00,140.4281,37.2275,62.6,50,63.38,340,13,0,29.94,NA,6.21,NA,"FEW","BKN","BKN",NA,4000,5000,7000,NA,NA,NA,NA,NA,NA,NA,NA,NA,"RJSF 010500Z 34013KT 9999 FEW040 BKN050 BKN070 17/10 Q1014"
"2485","RJSF",2019-11-01 06:00:00,140.4281,37.2275,60.8,50,67.54,340,11,0,29.94,NA,6.21,NA,"FEW","BKN","BKN",NA,3500,4500,5000,NA,NA,NA,NA,NA,NA,NA,NA,NA,"RJSF 010600Z 34011KT 9999 FEW035 BKN045 BKN050 16/10 Q1014"
"2486","RJSF",2019-11-01 07:00:00,140.4281,37.2275,57.2,48.2,71.83,330,8,0,29.97,NA,6.21,NA,"FEW","BKN","BKN",NA,3500,4500,5000,NA,NA,NA,NA,NA,NA,NA,NA,NA,"RJSF 010700Z 33008KT 270V360 9999 FEW035 BKN045 BKN050 14/09 Q1015"
"2487","RJSF",2019-11-01 08:00:00,140.4281,37.2275,55.4,44.6,66.91,330,10,0,29.97,NA,6.21,NA,"FEW","SCT",NA,NA,3500,5000,NA,NA,NA,NA,NA,NA,NA,NA,NA,NA,"RJSF 010800Z 33010KT 9999 FEW035 SCT050 13/07 Q1015"
"2488","RJSF",2019-11-01 09:00:00,140.4281,37.2275,53.6,41,62.23,330,8,0,30.03,NA,6.21,NA,"FEW","SCT",NA,NA,3500,4000,NA,NA,NA,NA,NA,NA,NA,NA,NA,NA,"RJSF 010900Z 33008KT 300V360 9999 FEW035 SCT040 12/05 Q1017"
"2489","RJSF",2019-11-01 10:00:00,140.4281,37.2275,53.6,39.2,58.02,320,12,0,30.03,NA,6.21,NA,"FEW",NA,NA,NA,4000,NA,NA,NA,NA,NA,NA,NA,NA,NA,NA,NA,"RJSF 011000Z 32012KT 9999 FEW040 12/04 Q1017"
"2490","RJSF",2019-11-01 11:00:00,140.4281,37.2275,51.8,37.4,57.77,350,10,0,30.06,NA,6.21,NA,"FEW",NA,NA,NA,4000,NA,NA,NA,NA,NA,NA,NA,NA,NA,NA,NA,"RJSF 011100Z 35010KT 9999 FEW040 11/03 Q1018"
"2491","RJSF",2019-11-01 21:40:00,140.4281,37.2275,44.6,37.4,75.68,10,9,0,30.15,NA,6.21,NA,"FEW",NA,NA,NA,4000,NA,NA,NA,NA,NA,NA,NA,NA,NA,NA,39.18,"RJSF 012140Z 01009KT 9999 FEW040 07/03 Q1021 RMK 1SC040 A3017"
"2492","RJSF",2019-11-01 22:00:00,140.4281,37.2275,46.4,37.4,70.68,360,7,0,30.15,NA,6.21,NA,"FEW",NA,NA,NA,4000,NA,NA,NA,NA,NA,NA,NA,NA,NA,NA,42.33,"RJSF 012200Z 36007KT 9999 FEW040 08/03 Q1021"
"2493","RJSF",2019-11-01 23:00:00,140.4281,37.2275,51.8,37.4,57.77,350,8,0,30.18,NA,6.21,NA,"FEW",NA,NA,NA,4000,NA,NA,NA,NA,NA,NA,NA,NA,NA,NA,NA,"RJSF 012300Z 35008KT 9999 FEW040 11/03 Q1022"
"2494","ROTM",2019-11-01 00:56:00,127.7565,26.2743,78.1,64.9,63.9,10,10,0,30.08,1017.1,10,NA,"FEW","SCT",NA,NA,2600,4000,NA,NA,NA,NA,NA,NA,NA,NA,NA,NA,"ROTM 010056Z 01010KT 10SM FEW026 SCT040 26/18 A3008 RMK AO2 SLP171 T02560183 $"
"2495","ROTM",2019-11-01 01:56:00,127.7565,26.2743,80.1,66,62.17,40,11,0,30.07,1016.8,10,NA,"FEW","SCT",NA,NA,2600,4000,NA,NA,NA,NA,NA,NA,NA,NA,NA,82.17,"ROTM 010156Z 04011KT 10SM FEW026 SCT040 27/19 A3007 RMK AO2 SLP168 T02670189 $"
"2496","ROTM",2019-11-01 02:56:00,127.7565,26.2743,79,66,64.45,40,10,0,30.05,1016.1,10,NA,"SCT","SCT",NA,NA,2500,5000,NA,NA,NA,NA,NA,NA,NA,NA,NA,NA,"ROTM 010256Z 04010KT 10SM SCT025 SCT050 26/19 A3005 RMK AO2 SLP161 T02610189 58010 $"
"2497","ROTM",2019-11-01 03:56:00,127.7565,26.2743,81,66,60.37,30,9,0,30.03,1015.4,10,NA,"FEW",NA,NA,NA,2800,NA,NA,NA,NA,NA,NA,NA,NA,NA,NA,83.11,"ROTM 010356Z 03009KT 10SM FEW028 27/19 A3003 RMK AO2 SLP154 T02720189 $"
"2498","ROTM",2019-11-01 04:56:00,127.7565,26.2743,81,66,60.37,20,11,0,30.01,1014.7,10,NA,"SCT",NA,NA,NA,3000,NA,NA,NA,NA,NA,NA,NA,NA,NA,NA,83.11,"ROTM 010456Z 02011KT 10SM SCT030 27/19 A3001 RMK AO2 SLP147 T02720189 $"
"2499","ROTM",2019-11-01 05:56:00,127.7565,26.2743,78.1,64.9,63.9,50,10,0,30.01,1015,10,NA,"SCT","BKN","BKN",NA,2900,5500,8000,NA,NA,NA,NA,NA,NA,NA,NA,NA,"ROTM 010556Z 05010KT 10SM SCT029 BKN055 BKN080 26/18 A3001 RMK AO2 SLP150 T02560183 10272 20244 55013 $"
"2500","ROTM",2019-11-01 06:03:00,127.7565,26.2743,79,66,64.45,30,7,0,30.01,NA,10,NA,"OVC",NA,NA,NA,2900,NA,NA,NA,NA,NA,NA,NA,NA,NA,NA,NA,"ROTM 010603Z 03007KT 10SM OVC029 26/19 A3001 RMK AO2 T02610189 $"
"2501","ROTM",2019-11-01 06:11:00,127.7565,26.2743,79,66,64.45,40,9,0,30.01,NA,10,NA,"SCT","BKN","BKN",NA,2900,5500,8500,NA,NA,NA,NA,NA,NA,NA,NA,NA,"ROTM 010611Z 04009KT 10SM SCT029 BKN055 BKN085 26/19 A3001 RMK AO2 T02610189 $"
"2502","ROTM",2019-11-01 07:56:00,127.7565,26.2743,75.9,64.9,68.73,10,9,0,30.01,1014.8,10,NA,"FEW","BKN",NA,NA,2800,5500,NA,NA,NA,NA,NA,NA,NA,NA,NA,NA,"ROTM 010756Z 01009KT 10SM FEW028 BKN055 24/18 A3001 RMK AO2 SLP148 T02440183 $"
"2503","ROTM",2019-11-01 09:56:00,127.7565,26.2743,73,64,73.4,40,10,0,30.03,1015.5,10,NA,"FEW","FEW",NA,NA,2900,3500,NA,NA,NA,NA,NA,NA,NA,NA,NA,NA,"ROTM 010956Z 04010KT 10SM FEW029 FEW035 23/18 A3003 RMK AO2 SLP155 T02280178 $"
"2504","ROTM",2019-11-01 10:56:00,127.7565,26.2743,73,64,73.4,40,9,0,30.05,1016,10,NA,"FEW","SCT",NA,NA,3100,6000,NA,NA,NA,NA,NA,NA,NA,NA,NA,NA,"ROTM 011056Z 04009KT 10SM FEW031 SCT060 23/18 A3005 RMK AO2 SLP160 T02280178 $"
"2505","ROTM",2019-11-01 11:56:00,127.7565,26.2743,73,64,73.4,40,7,0,30.05,1016,6.21,NA,"SCT",NA,NA,NA,3500,NA,NA,NA,NA,NA,NA,NA,NA,NA,NA,NA,"ROTM 011156Z 04007KT 9999 SCT035 23/18 A3005 RMK SLP160 T02280178 10256 20228 52010"
"2506","ROTM",2019-11-01 12:56:00,127.7565,26.2743,71.1,64,78.28,50,6,0,30.05,1016.1,10,NA,"BKN",NA,NA,NA,3500,NA,NA,NA,NA,NA,NA,NA,NA,NA,NA,NA,"ROTM 011256Z 05006KT 10SM BKN035 22/18 A3005 RMK AO2 SLP161 T02170178 $"
"2507","ROTM",2019-11-01 13:56:00,127.7565,26.2743,71.1,64.9,80.78,50,5,0,30.03,1015.5,10,NA,"CLR",NA,NA,NA,NA,NA,NA,NA,NA,NA,NA,NA,NA,NA,NA,NA,"ROTM 011356Z 05005KT 10SM CLR 22/18 A3003 RMK AO2 SLP155 T02170183 $"
"2508","ROTM",2019-11-01 14:56:00,127.7565,26.2743,70,64.9,83.86,50,6,0,30.03,1015.4,10,NA,"FEW","FEW",NA,NA,3500,6000,NA,NA,NA,NA,NA,NA,NA,NA,NA,NA,"ROTM 011456Z 05006KT 10SM FEW035 FEW060 21/18 A3003 RMK AO2 SLP154 T02110183 402720211 58007 $"
"2509","ROTM",2019-11-01 15:56:00,127.7565,26.2743,70,63,78.46,40,8,0,30.02,1015,10,NA,"FEW","FEW",NA,NA,3500,6000,NA,NA,NA,NA,NA,NA,NA,NA,NA,NA,"ROTM 011556Z 04008KT 10SM FEW035 FEW060 21/17 A3002 RMK AO2 SLP150 T02110172 $"
"2510","ROTM",2019-11-01 16:56:00,127.7565,26.2743,70,63,78.46,40,7,0,30.01,1014.6,10,NA,"FEW",NA,NA,NA,6000,NA,NA,NA,NA,NA,NA,NA,NA,NA,NA,NA,"ROTM 011656Z 04007KT 10SM FEW060 21/17 A3001 RMK AO2 SLP146 T02110172 $"
"2511","ROTM",2019-11-01 17:56:00,127.7565,26.2743,69.1,63,80.92,50,5,0,29.99,1014.2,10,NA,"FEW",NA,NA,NA,6000,NA,NA,NA,NA,NA,NA,NA,NA,NA,NA,NA,"ROTM 011756Z 05005KT 10SM FEW060 21/17 A2999 RMK AO2 SLP142 T02060172 10228 20206 58011 $"
"2512","ROTM",2019-11-01 18:56:00,127.7565,26.2743,69.1,64,83.81,40,4,0,29.99,1014.2,10,NA,"FEW","FEW",NA,NA,1500,6000,NA,NA,NA,NA,NA,NA,NA,NA,NA,NA,"ROTM 011856Z 04004KT 10SM FEW015 FEW060 21/18 A2999 RMK AO2 SLP142 T02060178 $"
"2513","ROTM",2019-11-01 19:56:00,127.7565,26.2743,70,63,78.46,60,7,0,29.99,1014,10,NA,"FEW",NA,NA,NA,2000,NA,NA,NA,NA,NA,NA,NA,NA,NA,NA,NA,"ROTM 011956Z 06007KT 10SM FEW020 21/17 A2999 RMK AO2 SLP140 T02110172 $"
"2514","ROTM",2019-11-01 20:56:00,127.7565,26.2743,70,63,78.46,50,6,0,30,1014.4,10,NA,"CLR",NA,NA,NA,NA,NA,NA,NA,NA,NA,NA,NA,NA,NA,NA,NA,"ROTM 012056Z 05006KT 10SM CLR 21/17 A3000 RMK AO2 SLP144 T02110172 53002 $"
"2515","ROTM",2019-11-01 21:56:00,127.7565,26.2743,70,63,78.46,60,6,0,30.01,1014.8,10,NA,"FEW",NA,NA,NA,4600,NA,NA,NA,NA,NA,NA,NA,NA,NA,NA,NA,"ROTM 012156Z 06006KT 10SM FEW046 21/17 A3001 RMK AO2 SLP148 T02110172 $"
"2516","ROTM",2019-11-01 22:56:00,127.7565,26.2743,73.9,64.9,73.49,50,5,0,30.02,1015.3,10,NA,"FEW",NA,NA,NA,4800,NA,NA,NA,NA,NA,NA,NA,NA,NA,NA,NA,"ROTM 012256Z 05005KT 10SM FEW048 23/18 A3002 RMK AO2 SLP153 T02330183 $"
"2517","ROTM",2019-11-01 23:56:00,127.7565,26.2743,77,66,68.85,60,8,0,30.03,1015.4,10,NA,"FEW",NA,NA,NA,4500,NA,NA,NA,NA,NA,NA,NA,NA,NA,NA,NA,"ROTM 012356Z 06008KT 10SM FEW045 25/19 A3003 RMK AO2 SLP154 T02500189 10250 20206 51009 $"
"2518","RJSH",2019-11-01 06:13:00,141.4672,40.5519,55.4,37.4,50.64,300,15,0,29.88,NA,6.21,26,"FEW","BKN",NA,NA,2000,3000,NA,NA,NA,NA,NA,NA,NA,NA,NA,NA,"RJSH 010613Z 30015G26KT 250V330 9999 FEW020 BKN030 13/03 Q1012 RMK 1CU020 5CU030 A2988"
"2519","RJCH",2019-11-01 00:00:00,140.8219,41.77,55.4,33.8,43.9,290,20,0,29.8,NA,6.21,NA,"FEW",NA,NA,NA,3000,NA,NA,NA,NA,NA,NA,NA,NA,NA,NA,NA,"RJCH 010000Z 29020KT 9999 FEW030 13/01 Q1009"
"2520","RJCH",2019-11-01 00:25:00,140.8219,41.77,57.2,33.8,41.13,290,18,0,29.8,NA,6.21,28,"FEW",NA,NA,NA,3000,NA,NA,NA,NA,NA,NA,NA,NA,NA,NA,NA,"RJCH 010025Z 29018G28KT 9999 FEW030 14/01 Q1009 RMK 2CU030 A2980"
"2521","RJCH",2019-11-01 01:00:00,140.8219,41.77,55.4,32,40.84,290,17,0,29.8,NA,6.21,NA,"FEW","SCT",NA,NA,3000,4000,NA,NA,NA,NA,NA,NA,NA,NA,NA,NA,"RJCH 010100Z 29017KT 9999 FEW030 SCT040 13/00 Q1009"
"2522","RJCH",2019-11-01 01:30:00,140.8219,41.77,57.2,35.6,44.19,290,17,0,29.8,NA,6.21,27,"FEW","BKN",NA,NA,3000,5000,NA,NA,NA,NA,NA,NA,NA,NA,NA,NA,"RJCH 010130Z 29017G27KT 9999 FEW030 BKN050 14/02 Q1009 RMK 1CU030 5CU050 A2981"
"2523","RJCH",2019-11-01 02:00:00,140.8219,41.77,55.4,33.8,43.9,290,18,0,29.8,NA,6.21,NA,"FEW","BKN",NA,NA,4000,5000,NA,NA,NA,NA,NA,NA,NA,NA,NA,NA,"RJCH 010200Z 29018KT 9999 FEW040 BKN050 13/01 Q1009"
"2524","RJCH",2019-11-01 02:01:00,140.8219,41.77,55.4,32,40.84,290,17,0,29.8,NA,6.21,29,"FEW","BKN",NA,NA,4000,5000,NA,NA,NA,NA,NA,NA,NA,NA,NA,NA,"RJCH 010201Z 29017G29KT 9999 FEW040 BKN050 13/00 Q1009 RMK 1CU040 5CU050 A2981"
"2525","RJCH",2019-11-01 03:00:00,140.8219,41.77,57.2,33.8,41.13,290,18,0,29.8,NA,6.21,NA,"FEW","SCT",NA,NA,4000,5000,NA,NA,NA,NA,NA,NA,NA,NA,NA,NA,"RJCH 010300Z 29018KT 9999 FEW040 SCT050 14/01 Q1009"
"2526","RJCH",2019-11-01 03:09:00,140.8219,41.77,55.4,32,40.84,290,19,0,29.8,NA,6.21,29,"FEW","SCT",NA,NA,3000,5000,NA,NA,NA,NA,NA,NA,NA,NA,NA,NA,"RJCH 010309Z 29019G29KT 9999 FEW030 SCT050 13/00 Q1009 RMK 1CU030 4CU050 A2982"
"2527","RJCH",2019-11-01 04:00:00,140.8219,41.77,53.6,30.2,40.54,300,22,0,29.83,NA,6.21,NA,"FEW","BKN",NA,NA,4000,6000,NA,NA,NA,NA,NA,NA,NA,NA,NA,NA,"RJCH 010400Z 30022KT 9999 FEW040 BKN060 12/M01 Q1010"
"2528","RJCH",2019-11-01 04:05:00,140.8219,41.77,53.6,32,43.61,290,20,0,29.83,NA,6.21,30,"FEW","BKN",NA,NA,4000,6000,NA,NA,NA,NA,NA,NA,NA,NA,NA,NA,"RJCH 010405Z 29020G30KT 9999 FEW040 BKN060 12/M00 Q1010 RMK 1CU040 5CU060 A2983"
"2529","RJCH",2019-11-01 05:00:00,140.8219,41.77,53.6,33.8,46.88,280,17,0,29.83,NA,6.21,NA,"FEW","SCT","BKN",NA,3000,5000,6000,NA,NA,NA,NA,NA,NA,NA,NA,NA,"RJCH 010500Z 28017KT 9999 FEW030 SCT050 BKN060 12/01 Q1010"
"2530","RJCH",2019-11-01 05:14:00,140.8219,41.77,53.6,33.8,46.88,280,17,0,29.83,NA,6.21,29,"FEW","SCT","BKN",NA,3000,5000,6000,NA,NA,NA,NA,NA,NA,NA,NA,NA,"RJCH 010514Z 28017G29KT 9999 FEW030 SCT050 BKN060 12/01 Q1010 RMK 1CU030 3CU050 5CU060 A2984"
"2531","RJCH",2019-11-01 06:00:00,140.8219,41.77,50,35.6,57.52,290,15,0,29.85,NA,6.21,NA,"FEW","BKN",NA,NA,3000,4000,NA,NA,"-SHRA",NA,NA,NA,NA,NA,NA,44.12,"RJCH 010600Z 29015KT 260V320 9999 -SHRA FEW030 BKN040 10/02 Q1011"
"2532","RJCH",2019-11-01 06:01:00,140.8219,41.77,50,35.6,57.52,290,16,0,29.85,NA,6.21,26,"FEW","BKN",NA,NA,3000,4000,NA,NA,"-SHRA",NA,NA,NA,NA,NA,NA,43.88,"RJCH 010601Z 29016G26KT 260V320 9999 -SHRA FEW030 BKN040 10/02 Q1011 RMK 1CU030 5CU040 A2987"
"2533","RJCH",2019-11-01 07:00:00,140.8219,41.77,51.8,32,46.59,290,17,0,29.88,NA,6.21,NA,"FEW","BKN",NA,NA,3000,5000,NA,NA,NA,NA,NA,NA,NA,NA,NA,NA,"RJCH 010700Z 29017KT 9999 FEW030 BKN050 11/00 Q1012"
"2534","RJCH",2019-11-01 07:37:00,140.8219,41.77,50,33.8,53.54,290,17,0,29.88,NA,6.21,27,"FEW","SCT","BKN",NA,2500,4000,6000,NA,NA,NA,NA,NA,NA,NA,NA,43.66,"RJCH 010737Z 29017G27KT 9999 FEW025 SCT040 BKN060 10/01 Q1012 RMK 1CU025 3CU040 5CU060 A2990"
"2535","RJCH",2019-11-01 08:00:00,140.8219,41.77,50,33.8,53.54,290,15,0,29.88,NA,6.21,NA,"FEW","SCT","BKN",NA,2500,4000,6000,NA,NA,NA,NA,NA,NA,NA,NA,44.12,"RJCH 010800Z 29015KT 9999 FEW025 SCT040 BKN060 10/01 Q1012"
"2536","RJCH",2019-11-01 09:00:00,140.8219,41.77,50,35.6,57.52,280,15,0,29.91,NA,6.21,NA,"FEW","SCT",NA,NA,3000,5000,NA,NA,NA,NA,NA,NA,NA,NA,NA,44.12,"RJCH 010900Z 28015KT 9999 FEW030 SCT050 10/02 Q1013"
"2537","RJCH",2019-11-01 10:00:00,140.8219,41.77,50,35.6,57.52,270,13,0,29.94,NA,6.21,NA,"FEW","SCT",NA,NA,2500,4000,NA,NA,NA,NA,NA,NA,NA,NA,NA,44.63,"RJCH 011000Z 27013KT 9999 FEW025 SCT040 10/02 Q1014"
"2538","RJCH",2019-11-01 11:00:00,140.8219,41.77,50,37.4,61.76,280,10,0,29.97,NA,6.21,NA,"FEW","SCT","BKN",NA,2000,4000,6000,NA,NA,NA,NA,NA,NA,NA,NA,45.54,"RJCH 011100Z 28010KT 9999 FEW020 SCT040 BKN060 10/03 Q1015"
"2539","RJCH",2019-11-01 21:10:00,140.8219,41.77,50,35.6,57.52,270,11,0,30.03,NA,6.21,NA,"FEW","SCT","BKN",NA,2500,4000,6000,NA,NA,NA,NA,NA,NA,NA,NA,45.21,"RJCH 012110Z 27011KT 9999 FEW025 SCT040 BKN060 10/02 Q1017 RMK 1CU025 3CU040 5CU060 A3005"
"2540","RJCH",2019-11-01 22:00:00,140.8219,41.77,50,37.4,61.76,270,11,0,30.06,NA,6.21,NA,"FEW","BKN",NA,NA,2500,5000,NA,NA,NA,NA,NA,NA,NA,NA,NA,45.21,"RJCH 012200Z 27011KT 9999 FEW025 BKN050 10/03 Q1018"
"2541","RJCH",2019-11-01 23:00:00,140.8219,41.77,51.8,37.4,57.77,280,9,0,30.06,NA,6.21,NA,"FEW","SCT",NA,NA,2500,4000,NA,NA,NA,NA,NA,NA,NA,NA,NA,NA,"RJCH 012300Z 28009KT 9999 FEW025 SCT040 11/03 Q1018"
"2542","RJSI",2019-11-01 00:00:00,141.1353,39.4286,53.6,53.6,100,160,5,0,29.85,NA,6.21,NA,"FEW","SCT","BKN",NA,200,3000,4000,NA,"-SHRA",NA,NA,NA,NA,NA,NA,NA,"RJSI 010000Z 16005KT 9999 -SHRA FEW002 SCT030 BKN040 12/12 Q1011"
"2543","RJSI",2019-11-01 01:00:00,141.1353,39.4286,59,55.4,87.83,200,6,0,29.83,NA,6.21,NA,"FEW","SCT","BKN",NA,400,3000,4000,NA,"-SHRA",NA,NA,NA,NA,NA,NA,NA,"RJSI 010100Z 20006KT 9999 -SHRA FEW004 SCT030 BKN040 15/13 Q1010"
"2544","RJSI",2019-11-01 02:00:00,141.1353,39.4286,64.4,46.4,51.98,290,7,0,29.85,NA,6.21,NA,"FEW","SCT",NA,NA,2000,4000,NA,NA,NA,NA,NA,NA,NA,NA,NA,NA,"RJSI 010200Z 29007KT 230V350 9999 FEW020 SCT040 18/08 Q1011"
"2545","RJSI",2019-11-01 03:00:00,141.1353,39.4286,64.4,44.6,48.55,270,7,0,29.85,NA,6.21,NA,"FEW","SCT",NA,NA,3000,5000,NA,NA,NA,NA,NA,NA,NA,NA,NA,NA,"RJSI 010300Z 27007KT 200V350 9999 FEW030 SCT050 18/07 Q1011"
"2546","RJSI",2019-11-01 04:00:00,141.1353,39.4286,64.4,39.2,39.43,NA,6,0,29.83,NA,6.21,NA,"FEW","SCT",NA,NA,3000,5000,NA,NA,NA,NA,NA,NA,NA,NA,NA,NA,"RJSI 010400Z VRB06KT 9999 FEW030 SCT050 18/04 Q1010"
"2547","RJSI",2019-11-01 05:00:00,141.1353,39.4286,62.6,42.8,48.28,250,11,0,29.83,NA,6.21,22,"FEW","SCT",NA,NA,3000,5000,NA,NA,NA,NA,NA,NA,NA,NA,NA,NA,"RJSI 010500Z 25011G22KT 190V320 9999 FEW030 SCT050 17/06 Q1010"
"2548","RJSI",2019-11-01 06:00:00,141.1353,39.4286,59,41,51.18,280,10,0,29.88,NA,6.21,20,"FEW","SCT",NA,NA,3000,5000,NA,NA,NA,NA,NA,NA,NA,NA,NA,NA,"RJSI 010600Z 28010G20KT 220V340 9999 FEW030 SCT050 15/05 Q1012"
"2549","RJSI",2019-11-01 07:00:00,141.1353,39.4286,55.4,37.4,50.64,300,14,0,29.91,NA,6.21,25,"FEW","SCT",NA,NA,3000,5000,NA,NA,NA,NA,NA,NA,NA,NA,NA,NA,"RJSI 010700Z 30014G25KT 250V330 9999 FEW030 SCT050 13/03 Q1013"
"2550","RJSI",2019-11-01 08:00:00,141.1353,39.4286,53.6,37.4,54.07,290,9,0,29.94,NA,6.21,23,"FEW","SCT",NA,NA,3000,5000,NA,NA,NA,NA,NA,NA,NA,NA,NA,NA,"RJSI 010800Z 29009G23KT 250V340 9999 FEW030 SCT050 12/03 Q1014"
"2551","RJSI",2019-11-01 09:00:00,141.1353,39.4286,51.8,37.4,57.77,290,9,0,29.97,NA,6.21,NA,"FEW","SCT",NA,NA,3000,5000,NA,NA,NA,NA,NA,NA,NA,NA,NA,NA,"RJSI 010900Z 29009KT 250V330 9999 FEW030 SCT050 11/03 Q1015"
"2552","RJSI",2019-11-01 10:00:00,141.1353,39.4286,51.8,37.4,57.77,290,11,0,29.97,NA,6.21,NA,"FEW","SCT",NA,NA,3000,5000,NA,NA,NA,NA,NA,NA,NA,NA,NA,NA,"RJSI 011000Z 29011KT 250V330 9999 FEW030 SCT050 11/03 Q1015"
"2553","RJSI",2019-11-01 22:40:00,141.1353,39.4286,42.8,39.2,86.99,NA,1,0,30.12,NA,6.21,NA,"FEW","SCT",NA,NA,3000,5000,NA,NA,NA,NA,NA,NA,NA,NA,NA,NA,"RJSI 012240Z VRB01KT 9999 FEW030 SCT050 06/04 Q1020 RMK 1CU030 4CU050 A3015"
"2554","RJSI",2019-11-01 23:00:00,141.1353,39.4286,44.6,39.2,81.2,NA,2,0,30.12,NA,6.21,NA,"FEW","SCT",NA,NA,3000,5000,NA,NA,NA,NA,NA,NA,NA,NA,NA,NA,"RJSI 012300Z VRB02KT 9999 FEW030 SCT050 07/04 Q1020"
"2555","RJAH",2019-11-01 00:00:00,140.4147,36.1817,57.2,55.4,93.69,250,4,0,29.94,NA,1.55,NA,"FEW",NA,NA,NA,200,NA,NA,NA,"BR",NA,NA,NA,NA,NA,NA,NA,"RJAH 010000Z 25004KT 210V280 2500 BR FEW002 14/13 Q1014"
"2556","RJAH",2019-11-01 00:11:00,140.4147,36.1817,59,57.2,93.74,240,5,0,29.94,NA,3.73,NA,"FEW",NA,NA,NA,3000,NA,NA,NA,NA,NA,NA,NA,NA,NA,NA,NA,"RJAH 010011Z 24005KT 210V270 6000 FEW030 15/14 Q1014 RMK 1CU030 A2997"
"2557","RJAH",2019-11-01 00:33:00,140.4147,36.1817,60.8,60.8,100,250,3,0,29.94,NA,4.97,NA,"FEW",NA,NA,NA,3000,NA,NA,NA,NA,NA,NA,NA,NA,NA,NA,NA,"RJAH 010033Z 25003KT 210V290 8000 FEW030 16/16 Q1014 RMK 1CU030 A2996"
"2558","RJAH",2019-11-01 01:00:00,140.4147,36.1817,64.4,59,82.62,NA,2,0,29.94,NA,6.21,NA,"FEW",NA,NA,NA,3000,NA,NA,NA,NA,NA,NA,NA,NA,NA,NA,NA,"RJAH 010100Z VRB02KT 9999 FEW030 18/15 Q1014"
"2559","RJAH",2019-11-01 02:00:00,140.4147,36.1817,68,53.6,59.97,270,6,0,29.91,NA,6.21,NA,"FEW",NA,NA,NA,3000,NA,NA,NA,NA,NA,NA,NA,NA,NA,NA,NA,"RJAH 010200Z 27006KT 230V310 9999 FEW030 20/12 Q1013"
"2560","RJAH",2019-11-01 03:00:00,140.4147,36.1817,71.6,51.8,49.64,240,6,0,29.88,NA,6.21,NA,"FEW",NA,NA,NA,3000,NA,NA,NA,NA,NA,NA,NA,NA,NA,NA,NA,"RJAH 010300Z 24006KT 170V320 9999 FEW030 22/11 Q1012"
"2561","RJAH",2019-11-01 04:00:00,140.4147,36.1817,71.6,46.4,40.57,250,7,0,29.88,NA,6.21,NA,"FEW",NA,NA,NA,3000,NA,NA,NA,NA,NA,NA,NA,NA,NA,NA,NA,"RJAH 010400Z 25007KT 210V300 9999 FEW030 22/08 Q1012"
"2562","RJAH",2019-11-01 05:00:00,140.4147,36.1817,71.6,48.2,43.42,230,5,0,29.85,NA,6.21,NA,"FEW",NA,NA,NA,3000,NA,NA,NA,NA,NA,NA,NA,NA,NA,NA,NA,"RJAH 010500Z 23005KT 200V280 9999 FEW030 22/09 Q1011"
"2563","RJAH",2019-11-01 06:00:00,140.4147,36.1817,71.6,48.2,43.42,220,3,0,29.85,NA,6.21,NA,"FEW",NA,NA,NA,3000,NA,NA,NA,NA,NA,NA,NA,NA,NA,NA,NA,"RJAH 010600Z 22003KT 180V270 9999 FEW030 22/09 Q1011"
"2564","RJAH",2019-11-01 07:00:00,140.4147,36.1817,69.8,48.2,46.16,190,3,0,29.88,NA,6.21,NA,"FEW",NA,NA,NA,3000,NA,NA,NA,NA,NA,NA,NA,NA,NA,NA,NA,"RJAH 010700Z 19003KT 9999 FEW030 21/09 Q1012"
"2565","RJAH",2019-11-01 08:00:00,140.4147,36.1817,66.2,50,55.88,0,0,0,29.88,NA,6.21,NA,"FEW",NA,NA,NA,3000,NA,NA,NA,NA,NA,NA,NA,NA,NA,NA,NA,"RJAH 010800Z 00000KT 9999 FEW030 19/10 Q1012"
"2566","RJAH",2019-11-01 09:00:00,140.4147,36.1817,59,51.8,76.98,NA,2,0,29.91,NA,6.21,NA,"FEW",NA,NA,NA,3000,NA,NA,NA,NA,NA,NA,NA,NA,NA,NA,NA,"RJAH 010900Z VRB02KT 9999 FEW030 15/11 Q1013"
"2567","RJAH",2019-11-01 10:00:00,140.4147,36.1817,60.8,55.4,82.37,120,4,0,29.94,NA,6.21,NA,"FEW",NA,NA,NA,3000,NA,NA,NA,NA,NA,NA,NA,NA,NA,NA,NA,"RJAH 011000Z 12004KT 080V140 9999 FEW030 16/13 Q1014"
"2568","RJAH",2019-11-01 11:00:00,140.4147,36.1817,59,55.4,87.83,NA,1,0,29.97,NA,6.21,NA,"FEW",NA,NA,NA,3000,NA,NA,NA,NA,NA,NA,NA,NA,NA,NA,NA,"RJAH 011100Z VRB01KT 9999 FEW030 15/13 Q1015"
"2569","RJAH",2019-11-01 12:00:00,140.4147,36.1817,57.2,51.8,82.12,30,6,0,30,NA,6.21,NA,"FEW",NA,NA,NA,3000,NA,NA,NA,NA,NA,NA,NA,NA,NA,NA,NA,"RJAH 011200Z 03006KT 9999 FEW030 14/11 Q1016"
"2570","RJAH",2019-11-01 13:00:00,140.4147,36.1817,57.2,44.6,62.69,360,6,0,30,NA,6.21,NA,"FEW",NA,NA,NA,3000,NA,NA,NA,NA,NA,NA,NA,NA,NA,NA,NA,"RJAH 011300Z 36006KT 9999 FEW030 14/07 Q1016"
"2571","RJAH",2019-11-01 14:00:00,140.4147,36.1817,51.8,46.4,81.74,20,6,0,30.03,NA,6.21,NA,"FEW",NA,NA,NA,3000,NA,NA,NA,NA,NA,NA,NA,NA,NA,NA,NA,"RJAH 011400Z 02006KT 9999 FEW030 11/08 Q1017"
"2572","RJAH",2019-11-01 15:00:00,140.4147,36.1817,50,41,71.07,30,5,0,30.03,NA,6.21,NA,"FEW",NA,NA,NA,4000,NA,NA,NA,NA,NA,NA,NA,NA,NA,NA,47.77,"RJAH 011500Z 03005KT 9999 FEW040 10/05 Q1017"
"2573","RJAH",2019-11-01 16:00:00,140.4147,36.1817,50,39.2,66.27,10,5,0,30.06,NA,6.21,NA,"FEW",NA,NA,NA,4000,NA,NA,NA,NA,NA,NA,NA,NA,NA,NA,47.77,"RJAH 011600Z 01005KT 9999 FEW040 10/04 Q1018"
"2574","RJAH",2019-11-01 17:00:00,140.4147,36.1817,48.2,39.2,70.88,10,4,0,30.06,NA,6.21,NA,"FEW",NA,NA,NA,3000,NA,NA,NA,NA,NA,NA,NA,NA,NA,NA,46.34,"RJAH 011700Z 01004KT 340V040 9999 FEW030 09/04 Q1018"
"2575","RJAH",2019-11-01 18:00:00,140.4147,36.1817,46.4,39.2,75.84,360,4,0,30.09,NA,6.21,NA,"FEW",NA,NA,NA,3000,NA,NA,NA,NA,NA,NA,NA,NA,NA,NA,44.24,"RJAH 011800Z 36004KT 9999 FEW030 08/04 Q1019"
"2576","RJAH",2019-11-01 19:00:00,140.4147,36.1817,46.4,39.2,75.84,NA,1,0,30.09,NA,6.21,NA,"FEW",NA,NA,NA,3000,NA,NA,NA,NA,NA,NA,NA,NA,NA,NA,NA,"RJAH 011900Z VRB01KT 9999 FEW030 08/04 Q1019"
"2577","RJAH",2019-11-01 20:00:00,140.4147,36.1817,46.4,41,81.34,360,3,0,30.09,NA,6.21,NA,"FEW",NA,NA,NA,3000,NA,NA,NA,NA,NA,NA,NA,NA,NA,NA,45.15,"RJAH 012000Z 36003KT 9999 FEW030 08/05 Q1019"
"2578","RJAH",2019-11-01 21:00:00,140.4147,36.1817,44.6,39.2,81.2,350,3,0,30.12,NA,6.21,NA,"FEW",NA,NA,NA,4000,NA,NA,NA,NA,NA,NA,NA,NA,NA,NA,43.09,"RJAH 012100Z 35003KT 9999 FEW040 07/04 Q1020"
"2579","RJAH",2019-11-01 22:00:00,140.4147,36.1817,46.4,39.2,75.84,20,2,0,30.15,NA,6.21,NA,"FEW",NA,NA,NA,4000,NA,NA,NA,NA,NA,NA,NA,NA,NA,NA,NA,"RJAH 012200Z 02002KT 9999 FEW040 08/04 Q1021"
"2580","RJAH",2019-11-01 23:00:00,140.4147,36.1817,53.6,41,62.23,10,5,0,30.15,NA,6.21,NA,"FEW",NA,NA,NA,4000,NA,NA,NA,NA,NA,NA,NA,NA,NA,NA,NA,"RJAH 012300Z 01005KT 9999 FEW040 12/05 Q1021"
"2581","ROIG",2019-11-01 00:00:00,124.1633,24.3367,78.8,73.4,83.55,40,15,0,30.03,NA,6.21,NA,"FEW","SCT",NA,NA,1900,NA,NA,NA,NA,NA,NA,NA,NA,NA,NA,NA,"ROIG 010000Z 04015KT 9999 FEW019 SCT/// 26/23 Q1017"
"2582","ROIG",2019-11-01 01:00:00,124.1633,24.3367,78.8,71.6,78.62,50,16,0,30.03,NA,6.21,NA,"FEW","BKN","BKN",NA,1900,2400,NA,NA,NA,NA,NA,NA,NA,NA,NA,NA,"ROIG 010100Z 05016KT 9999 FEW019 BKN024 BKN/// 26/22 Q1017"
"2583","ROIG",2019-11-01 02:00:00,124.1633,24.3367,78.8,71.6,78.62,40,16,0,30.03,NA,6.21,NA,"SCT","BKN",NA,NA,2100,3000,NA,NA,NA,NA,NA,NA,NA,NA,NA,NA,"ROIG 010200Z 04016KT 9999 SCT021 BKN030 26/22 Q1017"
"2584","ROIG",2019-11-01 03:00:00,124.1633,24.3367,80.6,71.6,74.11,40,15,0,30,NA,6.21,NA,"FEW","SCT","BKN",NA,2000,2800,3800,NA,NA,NA,NA,NA,NA,NA,NA,84.57,"ROIG 010300Z 04015KT 9999 FEW020 SCT028 BKN038 27/22 Q1016"
"2585","ROIG",2019-11-01 04:00:00,124.1633,24.3367,80.6,71.6,74.11,30,16,0,29.97,NA,6.21,NA,"SCT","BKN",NA,NA,2000,4000,NA,NA,NA,NA,NA,NA,NA,NA,NA,84.57,"ROIG 010400Z 03016KT 9999 SCT020 BKN040 27/22 Q1015"
"2586","ROIG",2019-11-01 05:00:00,124.1633,24.3367,80.6,73.4,78.76,40,18,0,29.97,NA,6.21,NA,"SCT",NA,NA,NA,1800,NA,NA,NA,NA,NA,NA,NA,NA,NA,NA,85.32,"ROIG 010500Z 04018KT 9999 SCT018 27/23 Q1015"
"2587","ROIG",2019-11-01 06:00:00,124.1633,24.3367,80.6,69.8,69.71,40,19,0,29.94,NA,6.21,NA,"SCT",NA,NA,NA,1900,NA,NA,NA,NA,NA,NA,NA,NA,NA,NA,83.9,"ROIG 010600Z 04019KT 9999 SCT019 27/21 Q1014"
"2588","ROIG",2019-11-01 07:00:00,124.1633,24.3367,78.8,69.8,73.95,40,18,0,29.94,NA,6.21,NA,"FEW","BKN",NA,NA,2300,3000,NA,NA,NA,NA,NA,NA,NA,NA,NA,NA,"ROIG 010700Z 04018KT 9999 FEW023 BKN030 26/21 Q1014"
"2589","ROIG",2019-11-01 08:00:00,124.1633,24.3367,77,69.8,78.48,40,17,0,29.94,NA,6.21,NA,"SCT","BKN",NA,NA,2300,3500,NA,NA,NA,NA,NA,NA,NA,NA,NA,NA,"ROIG 010800Z 04017KT 9999 SCT023 BKN035 25/21 Q1014"
"2590","ROIG",2019-11-01 09:00:00,124.1633,24.3367,77,68,73.78,40,18,0,29.97,NA,6.21,NA,"BKN",NA,NA,NA,2400,NA,NA,NA,NA,NA,NA,NA,NA,NA,NA,NA,"ROIG 010900Z 04018KT 9999 BKN024 25/20 Q1015"
"2591","ROIG",2019-11-01 10:00:00,124.1633,24.3367,75.2,69.8,83.32,40,15,0,29.97,NA,6.21,NA,"SCT",NA,NA,NA,2100,NA,NA,NA,NA,NA,NA,NA,NA,NA,NA,NA,"ROIG 011000Z 04015KT 9999 SCT021 24/21 Q1015"
"2592","ROIG",2019-11-01 11:00:00,124.1633,24.3367,75.2,68,78.34,50,17,0,29.97,NA,6.21,NA,"SCT",NA,NA,NA,2200,NA,NA,NA,NA,NA,NA,NA,NA,NA,NA,NA,"ROIG 011100Z 05017KT 9999 SCT022 24/20 Q1015"
"2593","ROIG",2019-11-01 21:00:00,124.1633,24.3367,73.4,69.8,88.51,30,12,0,29.94,NA,6.21,NA,"FEW",NA,NA,NA,2000,NA,NA,NA,NA,NA,NA,NA,NA,NA,NA,NA,"ROIG 012100Z 03012KT 9999 FEW020 23/21 Q1014"
"2594","ROIG",2019-11-01 22:00:00,124.1633,24.3367,75.2,69.8,83.32,30,10,0,29.94,NA,6.21,NA,"BKN","BKN",NA,NA,2100,4000,NA,NA,NA,NA,NA,NA,NA,NA,NA,NA,"ROIG 012200Z 03010KT 9999 BKN021 BKN040 24/21 Q1014"
"2595","ROIG",2019-11-01 23:00:00,124.1633,24.3367,75.2,69.8,83.32,30,11,0,29.97,NA,6.21,NA,"FEW","BKN",NA,NA,2100,4000,NA,NA,NA,NA,NA,NA,NA,NA,NA,NA,"ROIG 012300Z 03011KT 9999 FEW021 BKN040 24/21 Q1015"
"2596","RJOI",2019-11-01 00:55:00,132.2357,34.1439,64,53.1,67.66,60,3,0,30.14,1020.7,6.21,NA,"FEW","FEW",NA,NA,3000,10000,NA,NA,NA,NA,NA,NA,NA,NA,NA,NA,"RJOI 010055Z 06003KT 9999 FEW030 FEW100 18/12 A3014 RMK SLP207 T01780117"
"2597","RJOI",2019-11-01 01:55:00,132.2357,34.1439,66,52,60.6,60,4,0,30.13,1020.3,6.21,NA,"FEW","FEW",NA,NA,3000,10000,NA,NA,NA,NA,NA,NA,NA,NA,NA,NA,"RJOI 010155Z 06004KT 9999 FEW030 FEW100 19/11 A3013 RMK SLP203 T01890111"
"2598","RJOI",2019-11-01 02:55:00,132.2357,34.1439,68,53.1,58.88,70,7,0,30.11,1019.7,6.21,NA,"FEW","FEW",NA,NA,3000,10000,NA,NA,NA,NA,NA,NA,NA,NA,NA,NA,"RJOI 010255Z 07007KT 9999 FEW030 FEW100 20/12 A3011 RMK SLP197 T02000117 58014"
"2599","RJOI",2019-11-01 03:55:00,132.2357,34.1439,69.1,55,60.78,70,5,0,30.08,1018.7,6.21,NA,"FEW","FEW",NA,NA,3000,10000,NA,NA,NA,NA,NA,NA,NA,NA,NA,NA,"RJOI 010355Z 07005KT 9999 FEW030 FEW100 21/13 A3008 RMK SLP187 T02060128"
"2600","RJOI",2019-11-01 04:55:00,132.2357,34.1439,70,55,58.94,150,5,0,30.07,1018.3,6.21,NA,"FEW","FEW",NA,NA,3000,10000,NA,NA,NA,NA,NA,NA,NA,NA,NA,NA,"RJOI 010455Z 15005KT 9999 FEW030 FEW100 21/13 A3007 RMK SLP183 T02110128"
"2601","RJOI",2019-11-01 05:55:00,132.2357,34.1439,69.1,57,65.35,170,5,0,30.07,1018.2,6.21,NA,"FEW","FEW",NA,NA,3000,10000,NA,NA,NA,NA,NA,NA,NA,NA,NA,NA,"RJOI 010555Z 17005KT 9999 FEW030 FEW100 21/14 A3007 RMK SLP182 T02060139 10211 20167 56017"
"2602","RJOI",2019-11-01 06:55:00,132.2357,34.1439,69.1,57.9,67.5,180,4,0,30.07,1018.3,6.21,NA,"FEW",NA,NA,NA,3000,NA,NA,NA,NA,NA,NA,NA,NA,NA,NA,NA,"RJOI 010655Z 18004KT 9999 FEW030 21/14 A3007 RMK SLP183 T02060144"
"2603","RJOI",2019-11-01 07:55:00,132.2357,34.1439,68,57.9,70.1,0,0,0,30.08,1018.5,6.21,NA,"FEW",NA,NA,NA,3000,NA,NA,NA,NA,NA,NA,NA,NA,NA,NA,NA,"RJOI 010755Z 00000KT 9999 FEW030 20/14 A3008 RMK SLP185 T02000144"
"2604","RJOI",2019-11-01 08:55:00,132.2357,34.1439,66,57.9,75.12,260,3,0,30.09,1018.9,6.21,NA,"FEW",NA,NA,NA,3000,NA,NA,NA,NA,NA,NA,NA,NA,NA,NA,NA,"RJOI 010855Z 26003KT 9999 FEW030 19/14 A3009 RMK SLP189 T01890144 53010"
"2605","RJOI",2019-11-01 09:55:00,132.2357,34.1439,64.9,57,75.56,300,5,0,30.12,1019.8,6.21,NA,"FEW",NA,NA,NA,2500,NA,NA,NA,NA,NA,NA,NA,NA,NA,NA,NA,"RJOI 010955Z 30005KT 9999 FEW025 18/14 A3012 RMK SLP198 T01830139"
"2606","RJOI",2019-11-01 10:55:00,132.2357,34.1439,64,54,69.92,320,6,0,30.13,1020.2,6.21,NA,"FEW",NA,NA,NA,2500,NA,NA,NA,NA,NA,NA,NA,NA,NA,NA,NA,"RJOI 011055Z 32006KT 9999 FEW025 18/12 A3013 RMK SLP202 T01780122"
"2607","RJOI",2019-11-01 11:55:00,132.2357,34.1439,61,54,77.72,310,3,0,30.14,1020.5,6.21,NA,"FEW","FEW",NA,NA,2500,4500,NA,NA,NA,NA,NA,NA,NA,NA,NA,NA,"RJOI 011155Z 31003KT 9999 FEW025 FEW045 16/12 A3014 RMK SLP205 T01610122 10211 20161 51014"
"2608","RJOI",2019-11-01 12:55:00,132.2357,34.1439,61,53.1,75.2,290,5,0,30.16,1021.2,6.21,NA,"FEW","FEW",NA,NA,2500,4500,NA,NA,NA,NA,NA,NA,NA,NA,NA,NA,"RJOI 011255Z 29005KT 9999 FEW025 FEW045 16/12 A3016 RMK SLP212 T01610117"
"2609","RJOI",2019-11-01 13:55:00,132.2357,34.1439,59,53.1,80.75,300,6,0,30.15,1020.9,6.21,NA,"FEW","FEW",NA,NA,2500,4500,NA,NA,NA,NA,NA,NA,NA,NA,NA,NA,"RJOI 011355Z 30006KT 9999 FEW025 FEW045 15/12 A3015 RMK SLP209 T01500117"
"2610","RJOI",2019-11-01 14:55:00,132.2357,34.1439,57.9,52,80.67,290,7,0,30.14,1020.6,6.21,NA,"FEW",NA,NA,NA,2500,NA,NA,NA,NA,NA,NA,NA,NA,NA,NA,NA,"RJOI 011455Z 29007KT 9999 FEW025 14/11 A3014 RMK SLP206 T01440111 402110117 50003"
"2611","RJOI",2019-11-01 15:55:00,132.2357,34.1439,57.9,51.1,78.03,290,6,0,30.14,1020.6,6.21,NA,"FEW",NA,NA,NA,2500,NA,NA,NA,NA,NA,NA,NA,NA,NA,NA,NA,"RJOI 011555Z 29006KT 9999 FEW025 14/11 A3014 RMK SLP206 T01440106"
"2612","RJOI",2019-11-01 16:55:00,132.2357,34.1439,57,51.1,80.6,300,6,0,30.14,1020.6,6.21,NA,"FEW",NA,NA,NA,2500,NA,NA,NA,NA,NA,NA,NA,NA,NA,NA,NA,"RJOI 011655Z 30006KT 9999 FEW025 14/11 A3014 RMK SLP206 T01390106"
"2613","RJOI",2019-11-01 17:55:00,132.2357,34.1439,55.9,51.1,83.88,300,6,0,30.14,1020.5,6.21,NA,"FEW",NA,NA,NA,2500,NA,NA,NA,NA,NA,NA,NA,NA,NA,NA,NA,"RJOI 011755Z 30006KT 9999 FEW025 13/11 A3014 RMK SLP205 T01330106 10172 20133 54000"
"2614","RJOI",2019-11-01 18:55:00,132.2357,34.1439,55.9,50,80.52,310,6,0,30.14,1020.6,6.21,NA,"FEW",NA,NA,NA,2500,NA,NA,NA,NA,NA,NA,NA,NA,NA,NA,NA,"RJOI 011855Z 31006KT 9999 FEW025 13/10 A3014 RMK SLP206 T01330100"
"2615","RJOI",2019-11-01 19:55:00,132.2357,34.1439,55.9,50,80.52,320,5,0,30.14,1020.6,6.21,NA,"FEW",NA,NA,NA,2500,NA,NA,NA,NA,NA,NA,NA,NA,NA,NA,NA,"RJOI 011955Z 32005KT 9999 FEW025 13/10 A3014 RMK SLP206 T01330100"
"2616","RJOI",2019-11-01 20:55:00,132.2357,34.1439,55.9,50,80.52,320,5,0,30.16,1021.1,6.21,NA,"FEW","FEW",NA,NA,2500,25000,NA,NA,NA,NA,NA,NA,NA,NA,NA,NA,"RJOI 012055Z 32005KT 9999 FEW025 FEW250 13/10 A3016 RMK SLP211 T01330100 53003"
"2617","RJOI",2019-11-01 21:55:00,132.2357,34.1439,55,48.9,79.85,310,5,0,30.16,1021.3,6.21,NA,"FEW","FEW",NA,NA,2500,25000,NA,NA,NA,NA,NA,NA,NA,NA,NA,NA,"RJOI 012155Z 31005KT 9999 FEW025 FEW250 13/09 A3016 RMK SLP213 T01280094"
"2618","RJOI",2019-11-01 22:55:00,132.2357,34.1439,60.1,50,69.24,350,6,0,30.17,1021.7,6.21,NA,"FEW","SCT",NA,NA,2000,24000,NA,NA,NA,NA,NA,NA,NA,NA,NA,NA,"RJOI 012255Z 35006KT 9999 FEW020 SCT240 16/10 A3017 RMK SLP217 T01560100"
"2619","RJOI",2019-11-01 23:55:00,132.2357,34.1439,63,50,62.49,30,11,0,30.18,1022,6.21,NA,"FEW","SCT",NA,NA,2000,24000,NA,NA,NA,NA,NA,NA,NA,NA,NA,NA,"RJOI 012355Z 03011KT 9999 FEW020 SCT240 17/10 A3018 RMK SLP220 T01720100 10172 20128 52010"
"2620","RJOW",2019-11-01 00:00:00,131.7903,34.6764,60.8,53.6,77.14,160,6,0,30.12,NA,6.21,NA,"FEW",NA,NA,NA,3000,NA,NA,NA,NA,NA,NA,NA,NA,NA,NA,NA,"RJOW 010000Z 16006KT 9999 FEW030 16/12 Q1020"
"2621","RJOW",2019-11-01 01:00:00,131.7903,34.6764,66.2,55.4,68.15,140,3,0,30.12,NA,6.21,NA,"FEW",NA,NA,NA,3000,NA,NA,NA,NA,NA,NA,NA,NA,NA,NA,NA,"RJOW 010100Z 14003KT 110V180 9999 FEW030 19/13 Q1020"
"2622","RJOW",2019-11-01 02:00:00,131.7903,34.6764,69.8,53.6,56.38,310,6,0,30.12,NA,6.21,NA,"FEW",NA,NA,NA,3000,NA,NA,NA,NA,NA,NA,NA,NA,NA,NA,NA,"RJOW 010200Z 31006KT 9999 FEW030 21/12 Q1020"
"2623","RJOW",2019-11-01 03:00:00,131.7903,34.6764,69.8,55.4,60.21,300,7,0,30.09,NA,6.21,NA,"FEW","SCT",NA,NA,3000,4000,NA,NA,NA,NA,NA,NA,NA,NA,NA,NA,"RJOW 010300Z 30007KT 270V340 9999 FEW030 SCT040 21/13 Q1019"
"2624","RJOW",2019-11-01 04:00:00,131.7903,34.6764,69.8,55.4,60.21,310,5,0,30.09,NA,6.21,NA,"FEW",NA,NA,NA,3500,NA,NA,NA,NA,NA,NA,NA,NA,NA,NA,NA,"RJOW 010400Z 31005KT 270V010 9999 FEW035 21/13 Q1019"
"2625","RJOW",2019-11-01 05:00:00,131.7903,34.6764,68,57.2,68.35,350,4,0,30.09,NA,6.21,NA,"FEW","SCT",NA,NA,2500,3500,NA,NA,NA,NA,NA,NA,NA,NA,NA,NA,"RJOW 010500Z 35004KT 290V070 9999 FEW025 SCT035 20/14 Q1019"
"2626","RJOW",2019-11-01 06:00:00,131.7903,34.6764,68,55.4,64.04,340,3,0,30.09,NA,6.21,NA,"FEW",NA,NA,NA,3000,NA,NA,NA,NA,NA,NA,NA,NA,NA,NA,NA,"RJOW 010600Z 34003KT 270V070 9999 FEW030 20/13 Q1019"
"2627","RJOW",2019-11-01 07:00:00,131.7903,34.6764,68,55.4,64.04,330,3,0,30.09,NA,6.21,NA,"FEW",NA,NA,NA,3000,NA,NA,NA,NA,NA,NA,NA,NA,NA,NA,NA,"RJOW 010700Z 33003KT 280V030 9999 FEW030 20/13 Q1019"
"2628","RJOW",2019-11-01 08:00:00,131.7903,34.6764,66.2,55.4,68.15,NA,2,0,30.09,NA,6.21,NA,"FEW",NA,NA,NA,3000,NA,NA,NA,NA,NA,NA,NA,NA,NA,NA,NA,"RJOW 010800Z VRB02KT 9999 FEW030 19/13 Q1019"
"2629","RJOW",2019-11-01 09:00:00,131.7903,34.6764,60.8,57.2,87.92,120,2,0,30.12,NA,4.97,NA,"FEW",NA,NA,NA,3000,NA,NA,NA,NA,NA,NA,NA,NA,NA,NA,NA,"RJOW 010900Z 12002KT 8000 FEW030 16/14 Q1020"
"2630","RJOW",2019-11-01 10:00:00,131.7903,34.6764,59,55.4,87.83,NA,2,0,30.12,NA,4.97,NA,"FEW",NA,NA,NA,3000,NA,NA,NA,NA,NA,NA,NA,NA,NA,NA,NA,"RJOW 011000Z VRB02KT 8000 FEW030 15/13 Q1020"
"2631","RJOW",2019-11-01 23:00:00,131.7903,34.6764,51.8,48.2,87.47,140,4,0,30.15,NA,6.21,NA,NA,NA,NA,NA,NA,NA,NA,NA,NA,NA,NA,NA,NA,NA,NA,NA,"RJOW 012300Z 14004KT CAVOK 11/09 Q1021"
"2632","RJAW",2019-11-01 00:00:00,141.3227,24.784,82.4,75.2,78.9,80,12,0,29.94,NA,6.21,NA,"BKN","SCT",NA,NA,1000,23000,NA,NA,NA,NA,NA,NA,NA,NA,NA,89.48,"RJAW 010000Z 08012KT 9999 BKN010 SCT230 28/24 Q1014 RMK 5CU010 A2997"
"2633","RJAW",2019-11-01 00:51:00,141.3227,24.784,82.4,75.2,78.9,80,11,0,29.94,NA,6.21,NA,"SCT","SCT",NA,NA,1000,23000,NA,NA,NA,NA,NA,NA,NA,NA,NA,89.48,"RJAW 010051Z 08011KT 9999 SCT010 SCT230 28/24 Q1014 RMK 4CU010 A2996"
"2634","RJAW",2019-11-01 01:00:00,141.3227,24.784,82.4,75.2,78.9,80,11,0,29.94,NA,6.21,NA,"SCT","SCT",NA,NA,1000,23000,NA,NA,NA,NA,NA,NA,NA,NA,NA,89.48,"RJAW 010100Z 08011KT 050V110 9999 SCT010 SCT230 28/24 Q1014 RMK 4CU010 A2996"
"2635","RJAW",2019-11-01 02:00:00,141.3227,24.784,86,75.2,70.27,90,12,0,29.91,NA,6.21,NA,"SCT",NA,NA,NA,1000,NA,NA,NA,NA,NA,NA,NA,NA,NA,NA,95.19,"RJAW 010200Z 09012KT 050V110 9999 SCT010 30/24 Q1013 RMK 4CU010 A2994"
"2636","RJAW",2019-11-01 03:00:00,141.3227,24.784,84.2,75.2,74.44,100,12,0,29.91,NA,6.21,NA,"SCT",NA,NA,NA,1000,NA,NA,NA,NA,NA,NA,NA,NA,NA,NA,92.45,"RJAW 010300Z 10012KT 9999 SCT010 29/24 Q1013 RMK 4CU010 A2992"
"2637","RJAW",2019-11-01 04:00:00,141.3227,24.784,86,73.4,66.15,80,12,0,29.88,NA,6.21,NA,"FEW",NA,NA,NA,1000,NA,NA,NA,NA,NA,NA,NA,NA,NA,NA,93.45,"RJAW 010400Z 08012KT 050V110 9999 FEW010 30/23 Q1012 RMK 1CU010 A2989"
"2638","RJAW",2019-11-01 05:00:00,141.3227,24.784,84.2,73.4,70.08,80,11,0,29.85,NA,6.21,NA,"FEW",NA,NA,NA,1000,NA,NA,NA,NA,NA,NA,NA,NA,NA,NA,90.94,"RJAW 010500Z 08011KT 9999 FEW010 29/23 Q1011 RMK 2CU010 A2988"
"2639","RJAW",2019-11-01 06:00:00,141.3227,24.784,84.2,73.4,70.08,80,12,0,29.85,NA,6.21,NA,"FEW","SCT",NA,NA,1000,23000,NA,NA,NA,NA,NA,NA,NA,NA,NA,90.94,"RJAW 010600Z 08012KT 9999 FEW010 SCT230 29/23 Q1011 RMK 1CU010 A2987"
"2640","RJAW",2019-11-01 07:00:00,141.3227,24.784,82.4,73.4,74.28,80,11,0,29.85,NA,6.21,NA,"FEW","SCT",NA,NA,1000,23000,NA,NA,NA,NA,NA,NA,NA,NA,NA,88.26,"RJAW 010700Z 08011KT 9999 FEW010 SCT230 28/23 Q1011 RMK 1CU010 A2988"
"2641","RJAW",2019-11-01 08:00:00,141.3227,24.784,80.6,73.4,78.76,70,11,0,29.88,NA,6.21,NA,"FEW","SCT",NA,NA,1000,23000,NA,NA,NA,NA,NA,NA,NA,NA,NA,85.32,"RJAW 010800Z 07011KT 9999 FEW010 SCT230 27/23 Q1012 RMK 1CU010 A2990"
"2642","RJAW",2019-11-01 09:00:00,141.3227,24.784,80.6,75.2,83.66,70,10,0,29.88,NA,6.21,NA,"FEW","SCT",NA,NA,1000,23000,NA,NA,NA,NA,NA,NA,NA,NA,NA,86.17,"RJAW 010900Z 07010KT 9999 FEW010 SCT230 27/24 Q1012 RMK 1CU010 A2990"
"2643","RJAW",2019-11-01 12:00:00,141.3227,24.784,80.6,73.4,78.76,80,12,0,29.91,NA,6.21,NA,"SCT","BKN",NA,NA,1000,23000,NA,NA,NA,NA,NA,NA,NA,NA,NA,85.32,"RJAW 011200Z 08012KT 9999 SCT010 BKN230 27/23 Q1013 RMK 3CU010 A2993"
"2644","RJAW",2019-11-01 15:00:00,141.3227,24.784,78.8,73.4,83.55,90,10,0,29.88,NA,6.21,NA,"SCT","BKN",NA,NA,1000,23000,NA,NA,NA,NA,NA,NA,NA,NA,NA,NA,"RJAW 011500Z 09010KT 9999 SCT010 BKN230 26/23 Q1012 RMK 3CU010 A2991"
"2645","RJAW",2019-11-01 18:00:00,141.3227,24.784,78.8,73.4,83.55,90,11,0,29.88,NA,6.21,NA,"FEW","BKN",NA,NA,1000,23000,NA,NA,NA,NA,NA,NA,NA,NA,NA,NA,"RJAW 011800Z 09011KT 9999 FEW010 BKN230 26/23 Q1012 RMK 2CU010 A2990"
"2646","RJAW",2019-11-01 20:00:00,141.3227,24.784,77,71.6,83.44,100,11,0,29.88,NA,6.21,NA,"FEW","SCT",NA,NA,1000,23000,NA,NA,NA,NA,NA,NA,NA,NA,NA,NA,"RJAW 012000Z 10011KT 9999 FEW010 SCT230 25/22 Q1012 RMK 2CU010 A2989"
"2647","RJAW",2019-11-01 21:00:00,141.3227,24.784,78.8,75.2,88.75,70,11,0,29.88,NA,6.21,NA,"SCT","SCT",NA,NA,1000,12000,NA,NA,NA,NA,NA,NA,NA,NA,NA,NA,"RJAW 012100Z 07011KT 9999 SCT010 SCT120 26/24 Q1012 RMK 4CU010 3AC120 A2991"
"2648","RJAW",2019-11-01 21:21:00,141.3227,24.784,78.8,73.4,83.55,60,17,0,29.91,NA,6.21,NA,"BKN",NA,NA,NA,1000,NA,NA,NA,NA,NA,NA,NA,NA,NA,NA,NA,"RJAW 012121Z 06017KT 9999 BKN010 26/23 Q1013 RMK 5CU010 A2992"
"2649","RJAW",2019-11-01 22:00:00,141.3227,24.784,78.8,73.4,83.55,70,16,0,29.91,NA,6.21,NA,"BKN","BKN",NA,NA,1000,12000,NA,NA,NA,NA,NA,NA,NA,NA,NA,NA,"RJAW 012200Z 07016KT 9999 BKN010 BKN120 26/23 Q1013 RMK 5CU010 5AC120 A2993"
"2650","RJAW",2019-11-01 22:54:00,141.3227,24.784,80.6,73.4,78.76,70,16,0,29.91,NA,6.21,NA,"SCT","BKN",NA,NA,1000,12000,NA,NA,NA,NA,NA,NA,NA,NA,NA,85.32,"RJAW 012254Z 07016KT 9999 SCT010 BKN120 27/23 Q1013 RMK 4CU010 6AC120 A2993"
"2651","RJAW",2019-11-01 23:00:00,141.3227,24.784,80.6,73.4,78.76,70,17,0,29.91,NA,6.21,NA,"SCT","BKN",NA,NA,1000,12000,NA,NA,NA,NA,NA,NA,NA,NA,NA,85.32,"RJAW 012300Z 07017KT 9999 SCT010 BKN120 27/23 Q1013 RMK 4CU010 6AC120 A2993"
"2652","RJOC",2019-11-01 00:00:00,132.89,35.4136,66.2,55.4,68.15,230,8,0,30.12,NA,6.21,NA,"FEW","SCT",NA,NA,2500,3000,NA,NA,NA,NA,NA,NA,NA,NA,NA,NA,"RJOC 010000Z 23008KT 9999 FEW025 SCT030 19/13 Q1020"
"2653","RJOC",2019-11-01 01:00:00,132.89,35.4136,68,55.4,64.04,240,8,0,30.09,NA,6.21,NA,"FEW","SCT",NA,NA,2500,3000,NA,NA,NA,NA,NA,NA,NA,NA,NA,NA,"RJOC 010100Z 24008KT 9999 FEW025 SCT030 20/13 Q1019"
"2654","RJOC",2019-11-01 02:00:00,132.89,35.4136,69.8,51.8,52.77,300,9,0,30.09,NA,6.21,NA,"FEW",NA,NA,NA,3000,NA,NA,NA,NA,NA,NA,NA,NA,NA,NA,NA,"RJOC 010200Z 30009KT 9999 FEW030 21/11 Q1019"
"2655","RJOC",2019-11-01 03:00:00,132.89,35.4136,69.8,50,49.37,320,7,0,30.09,NA,6.21,NA,"FEW",NA,NA,NA,3000,NA,NA,NA,NA,NA,NA,NA,NA,NA,NA,NA,"RJOC 010300Z 32007KT 300V010 9999 FEW030 21/10 Q1019"
"2656","RJOC",2019-11-01 04:00:00,132.89,35.4136,69.8,51.8,52.77,330,6,0,30.06,NA,6.21,NA,"FEW","SCT",NA,NA,3000,4000,NA,NA,NA,NA,NA,NA,NA,NA,NA,NA,"RJOC 010400Z 33006KT 9999 FEW030 SCT040 21/11 Q1018"
"2657","RJOC",2019-11-01 05:00:00,132.89,35.4136,71.6,53.6,53.03,360,9,0,30.06,NA,6.21,NA,"FEW","SCT",NA,NA,3000,3500,NA,NA,NA,NA,NA,NA,NA,NA,NA,NA,"RJOC 010500Z 36009KT 9999 FEW030 SCT035 22/12 Q1018"
"2658","RJOC",2019-11-01 06:00:00,132.89,35.4136,68,53.6,59.97,360,10,0,30.06,NA,6.21,NA,"FEW","SCT",NA,NA,3000,3500,NA,NA,NA,NA,NA,NA,NA,NA,NA,NA,"RJOC 010600Z 36010KT 9999 FEW030 SCT035 20/12 Q1018"
"2659","RJOC",2019-11-01 07:00:00,132.89,35.4136,68,53.6,59.97,20,7,0,30.09,NA,6.21,NA,"FEW",NA,NA,NA,3000,NA,NA,NA,NA,NA,NA,NA,NA,NA,NA,NA,"RJOC 010700Z 02007KT 9999 FEW030 20/12 Q1019"
"2660","RJOC",2019-11-01 08:00:00,132.89,35.4136,66.2,53.6,63.82,360,5,0,30.09,NA,6.21,NA,"FEW",NA,NA,NA,2500,NA,NA,NA,NA,NA,NA,NA,NA,NA,NA,NA,"RJOC 010800Z 36005KT 9999 FEW025 19/12 Q1019"
"2661","RJOC",2019-11-01 09:00:00,132.89,35.4136,62.6,55.4,77.29,70,8,0,30.12,NA,6.21,NA,"FEW",NA,NA,NA,2000,NA,NA,NA,NA,NA,NA,NA,NA,NA,NA,NA,"RJOC 010900Z 07008KT 9999 FEW020 17/13 Q1020"
"2662","RJOC",2019-11-01 10:00:00,132.89,35.4136,64.4,55.4,72.56,50,9,0,30.12,NA,6.21,NA,"FEW","BKN",NA,NA,2000,3500,NA,NA,NA,NA,NA,NA,NA,NA,NA,NA,"RJOC 011000Z 05009KT 9999 FEW020 BKN035 18/13 Q1020"
"2663","RJOC",2019-11-01 11:00:00,132.89,35.4136,60.8,53.6,77.14,60,6,0,30.15,NA,6.21,NA,"FEW","SCT","BKN",NA,2000,3500,5000,NA,NA,NA,NA,NA,NA,NA,NA,NA,"RJOC 011100Z 06006KT 9999 FEW020 SCT035 BKN050 16/12 Q1021"
"2664","RJOC",2019-11-01 21:10:00,132.89,35.4136,51.8,46.4,81.74,170,9,0,30.15,NA,6.21,NA,"FEW",NA,NA,NA,3000,NA,NA,NA,NA,NA,NA,NA,NA,NA,NA,NA,"RJOC 012110Z 17009KT 9999 FEW030 11/08 Q1021 RMK 1CU030 A3018"
"2665","RJOC",2019-11-01 21:30:00,132.89,35.4136,50,46.4,87.37,160,8,0,30.15,NA,6.21,NA,"FEW",NA,NA,NA,200,NA,NA,NA,NA,NA,NA,NA,NA,NA,NA,46.29,"RJOC 012130Z 16008KT 9999 FEW002 10/08 Q1021"
"2666","RJOC",2019-11-01 22:00:00,132.89,35.4136,50,46.4,87.37,160,8,0,30.18,NA,6.21,NA,"FEW",NA,NA,NA,3000,NA,NA,NA,NA,NA,NA,NA,NA,NA,NA,46.29,"RJOC 012200Z 16008KT 9999 FEW030 10/08 Q1022"
"2667","RJOC",2019-11-01 23:00:00,132.89,35.4136,53.6,48.2,81.87,NA,2,0,30.18,NA,6.21,NA,"FEW",NA,NA,NA,4000,NA,NA,NA,NA,NA,NA,NA,NA,NA,NA,NA,"RJOC 012300Z VRB02KT 9999 FEW040 12/09 Q1022"
"2668","RODN",2019-11-01 00:56:00,127.7676,26.3556,79.7,65.5,61.9,30,10,0,30.07,1018.9,10,NA,"CLR",NA,NA,NA,NA,NA,NA,NA,NA,NA,NA,NA,NA,NA,NA,NA,"RODN 010056Z AUTO 03010KT 10SM CLR 27/19 A3007 RMK AO2 SLP189 T02650186 $"
"2669","RODN",2019-11-01 01:16:00,127.7676,26.3556,80.6,66.2,61.58,30,10,0,30.07,1018.9,10,NA,"BKN",NA,NA,NA,2800,NA,NA,NA,NA,NA,NA,NA,NA,NA,NA,82.75,"RODN 010116Z AUTO 03010KT 10SM BKN028 27/19 A3007 RMK AO2 BKN V SCT SLP189 $"
"2670","RODN",2019-11-01 01:56:00,127.7676,26.3556,79.3,66,63.82,20,14,0,30.07,1018.9,10,NA,"OVC",NA,NA,NA,2800,NA,NA,NA,NA,NA,NA,NA,NA,NA,NA,NA,"RODN 010156Z AUTO 02014KT 10SM OVC028 26/19 A3007 RMK AO2 SLP189 T02630189 $"
"2671","RODN",2019-11-01 02:16:00,127.7676,26.3556,80.6,66.2,61.58,20,13,0,30.06,1018.5,10,NA,"SCT",NA,NA,NA,2900,NA,NA,NA,NA,NA,NA,NA,NA,NA,NA,82.75,"RODN 010216Z AUTO 02013KT 10SM SCT029 27/19 A3006 RMK AO2 SLP185 $"
"2672","RODN",2019-11-01 02:46:00,127.7676,26.3556,82.4,66.2,58.08,20,11,0,30.06,1018.5,10,NA,"BKN","BKN",NA,NA,2900,4600,NA,NA,NA,NA,NA,NA,NA,NA,NA,84.63,"RODN 010246Z AUTO 02011KT 10SM BKN029 BKN046 28/19 A3006 RMK AO2 SLP185 $"
"2673","RODN",2019-11-01 02:56:00,127.7676,26.3556,80.1,65.3,60.67,30,12,0,30.05,1018.2,10,NA,"OVC",NA,NA,NA,2900,NA,NA,NA,NA,NA,NA,NA,NA,NA,NA,82.01,"RODN 010256Z AUTO 03012KT 10SM OVC029 27/19 A3005 RMK AO2 OVC V BKN SLP182 T02670185 58010 $"
"2674","RODN",2019-11-01 03:06:00,127.7676,26.3556,80.6,66.2,61.58,30,14,0,30.04,1017.8,10,NA,"OVC",NA,NA,NA,3100,NA,NA,NA,NA,NA,NA,NA,NA,NA,NA,82.75,"RODN 010306Z AUTO 03014KT 10SM OVC031 27/19 A3004 RMK AO2 SLP178 $"
"2675","RODN",2019-11-01 03:56:00,127.7676,26.3556,82,65.7,57.83,20,14,0,30.02,1017.1,10,NA,"FEW",NA,NA,NA,3400,NA,NA,NA,NA,NA,NA,NA,NA,NA,NA,84.04,"RODN 010356Z AUTO 02014KT 10SM FEW034 28/19 A3002 RMK AO2 SLP171 T02780187 $"
"2676","RODN",2019-11-01 04:56:00,127.7676,26.3556,82.9,66,56.75,10,10,0,30,1016.5,10,NA,"FEW",NA,NA,NA,3000,NA,NA,NA,NA,NA,NA,NA,NA,NA,NA,85.07,"RODN 010456Z AUTO 01010KT 10SM FEW030 28/19 A3000 RMK AO2 SLP165 T02830189 $"
"2677","RODN",2019-11-01 05:56:00,127.7676,26.3556,81.1,65.5,59.13,30,11,0,30.01,1016.8,10,NA,"BKN",NA,NA,NA,3000,NA,NA,NA,NA,NA,NA,NA,NA,NA,NA,83.06,"RODN 010556Z AUTO 03011KT 10SM BKN030 27/19 A3001 RMK AO2 SLP168 T02730186 10284 20251 55014 $"
"2678","RODN",2019-11-01 06:56:00,127.7676,26.3556,80.8,65.1,58.89,30,12,0,30,1016.5,10,NA,"SCT",NA,NA,NA,3000,NA,NA,NA,NA,NA,NA,NA,NA,NA,NA,82.65,"RODN 010656Z AUTO 03012KT 10SM SCT030 27/18 A3000 RMK AO2 SLP165 T02710184 $"
"2679","RODN",2019-11-01 07:16:00,127.7676,26.3556,78.8,64.4,61.36,20,11,0,30,1016.5,10,NA,"BKN",NA,NA,NA,2900,NA,NA,NA,NA,NA,NA,NA,NA,NA,NA,NA,"RODN 010716Z AUTO 02011KT 10SM BKN029 26/18 A3000 RMK AO2 SLP165 $"
"2680","RODN",2019-11-01 07:36:00,127.7676,26.3556,78.8,64.4,61.36,20,12,0,30,1016.5,10,NA,"SCT",NA,NA,NA,2900,NA,NA,NA,NA,NA,NA,NA,NA,NA,NA,NA,"RODN 010736Z AUTO 02012KT 10SM SCT029 26/18 A3000 RMK AO2 SLP165 $"
"2681","RODN",2019-11-01 07:56:00,127.7676,26.3556,77.2,64.9,65.83,30,11,0,30.01,1016.8,10,NA,"BKN",NA,NA,NA,2800,NA,NA,NA,NA,NA,NA,NA,NA,NA,NA,NA,"RODN 010756Z AUTO 03011KT 10SM BKN028 25/18 A3001 RMK AO2 BKN V SCT SLP168 T02510183 $"
"2682","RODN",2019-11-01 08:36:00,127.7676,26.3556,75.2,64.4,69.14,30,12,0,30.01,1016.8,10,NA,"SCT",NA,NA,NA,2800,NA,NA,NA,NA,NA,NA,NA,NA,NA,NA,NA,"RODN 010836Z AUTO 03012KT 10SM SCT028 24/18 A3001 RMK AO2 SLP168 $"
"2683","RODN",2019-11-01 08:56:00,127.7676,26.3556,74.3,64.2,70.76,20,11,0,30.01,1016.8,10,NA,"CLR",NA,NA,NA,NA,NA,NA,NA,NA,NA,NA,NA,NA,NA,NA,NA,"RODN 010856Z AUTO 02011KT 10SM CLR 24/18 A3001 RMK AO2 SLP168 T02350179 53002 $"
"2684","RODN",2019-11-01 09:56:00,127.7676,26.3556,71.6,64,76.96,50,7,0,30.02,1017.2,10,NA,"CLR",NA,NA,NA,NA,NA,NA,NA,NA,NA,NA,NA,NA,NA,NA,NA,"RODN 010956Z AUTO 05007KT 10SM CLR 22/18 A3002 RMK AO2 SLP172 T02200178 $"
"2685","RODN",2019-11-01 10:56:00,127.7676,26.3556,68.7,63.3,82.9,40,6,0,30.04,1017.9,10,NA,"SCT",NA,NA,NA,3400,NA,NA,NA,NA,NA,NA,NA,NA,NA,NA,NA,"RODN 011056Z AUTO 04006KT 10SM SCT034 20/17 A3004 RMK AO2 SLP179 T02040174 $"
"2686","RODN",2019-11-01 11:56:00,127.7676,26.3556,68.9,63.5,82.92,40,6,0,30.04,1017.8,10,NA,"FEW",NA,NA,NA,3400,NA,NA,NA,NA,NA,NA,NA,NA,NA,NA,NA,"RODN 011156Z AUTO 04006KT 10SM FEW034 21/18 A3004 RMK AO2 SLP178 T02050175 10275 20203 51009 $"
"2687","RODN",2019-11-01 12:56:00,127.7676,26.3556,66.4,62.4,86.95,30,6,0,30.04,1017.8,10,NA,"CLR",NA,NA,NA,NA,NA,NA,NA,NA,NA,NA,NA,NA,NA,NA,NA,"RODN 011256Z AUTO 03006KT 10SM CLR 19/17 A3004 RMK AO2 SLP178 T01910169 $"
"2688","RODN",2019-11-01 13:56:00,127.7676,26.3556,66,62.4,88.17,40,6,0,30.03,1017.5,10,NA,"CLR",NA,NA,NA,NA,NA,NA,NA,NA,NA,NA,NA,NA,NA,NA,NA,"RODN 011356Z AUTO 04006KT 10SM CLR 19/17 A3003 RMK AO2 SLP175 T01890169 $"
"2689","RODN",2019-11-01 14:56:00,127.7676,26.3556,66.6,62.8,87.58,50,8,0,30.02,1017.2,10,NA,"CLR",NA,NA,NA,NA,NA,NA,NA,NA,NA,NA,NA,NA,NA,NA,NA,"RODN 011456Z AUTO 05008KT 10SM CLR 19/17 A3002 RMK AO2 SLP172 T01920171 402840189 58006 $"
"2690","RODN",2019-11-01 15:56:00,127.7676,26.3556,67.5,63.1,85.79,50,8,0,30.01,1016.8,10,NA,"CLR",NA,NA,NA,NA,NA,NA,NA,NA,NA,NA,NA,NA,NA,NA,NA,"RODN 011556Z AUTO 05008KT 10SM CLR 20/17 A3001 RMK AO2 SLP168 T01970173 $"
"2691","RODN",2019-11-01 16:56:00,127.7676,26.3556,66.2,61.9,86.02,40,6,0,30,1016.5,10,NA,"CLR",NA,NA,NA,NA,NA,NA,NA,NA,NA,NA,NA,NA,NA,NA,NA,"RODN 011656Z AUTO 04006KT 10SM CLR 19/17 A3000 RMK AO2 SLP165 T01900166 $"
"2692","RODN",2019-11-01 17:56:00,127.7676,26.3556,63.9,60.6,89.01,50,7,0,29.98,1015.8,10,NA,"CLR",NA,NA,NA,NA,NA,NA,NA,NA,NA,NA,NA,NA,NA,NA,NA,"RODN 011756Z AUTO 05007KT 10SM CLR 18/16 A2998 RMK AO2 SLP158 T01770159 10204 20177 57012 $"
"2693","RODN",2019-11-01 18:56:00,127.7676,26.3556,64.9,61.9,90,50,6,0,29.98,1015.8,10,NA,"CLR",NA,NA,NA,NA,NA,NA,NA,NA,NA,NA,NA,NA,NA,NA,NA,"RODN 011856Z AUTO 05006KT 10SM CLR 18/17 A2998 RMK AO2 SLP158 T01830166 $"
"2694","RODN",2019-11-01 19:56:00,127.7676,26.3556,63.7,60.6,89.64,50,6,0,29.98,1015.8,10,NA,"CLR",NA,NA,NA,NA,NA,NA,NA,NA,NA,NA,NA,NA,NA,NA,NA,"RODN 011956Z AUTO 05006KT 10SM CLR 18/16 A2998 RMK AO2 SLP158 T01760159 $"
"2695","RODN",2019-11-01 20:56:00,127.7676,26.3556,64.8,62.1,90.96,30,6,0,29.99,1016.2,10,NA,"CLR",NA,NA,NA,NA,NA,NA,NA,NA,NA,NA,NA,NA,NA,NA,NA,"RODN 012056Z AUTO 03006KT 10SM CLR 18/17 A2999 RMK AO2 SLP162 T01820167 53002 $"
"2696","RODN",2019-11-01 21:56:00,127.7676,26.3556,65.1,62.1,90.01,40,8,0,30,1016.5,10,NA,"CLR",NA,NA,NA,NA,NA,NA,NA,NA,NA,NA,NA,NA,NA,NA,NA,"RODN 012156Z AUTO 04008KT 10SM CLR 18/17 A3000 RMK AO2 SLP165 T01840167 $"
"2697","RODN",2019-11-01 22:56:00,127.7676,26.3556,71.2,67.1,86.89,40,7,0,30.02,1017.2,9,NA,"SCT",NA,NA,NA,4700,NA,NA,NA,NA,NA,NA,NA,NA,NA,NA,NA,"RODN 012256Z AUTO 04007KT 9SM SCT047 22/20 A3002 RMK AO2 SLP172 T02180195 $"
"2698","RODN",2019-11-01 23:56:00,127.7676,26.3556,77.7,66.7,68.93,60,11,0,30.02,1017.2,10,NA,"CLR",NA,NA,NA,NA,NA,NA,NA,NA,NA,NA,NA,NA,NA,NA,NA,"RODN 012356Z AUTO 06011KT 10SM CLR 25/19 A3002 RMK AO2 SLP172 T02540193 10254 20176 52010 $"
"2699","RJFK",2019-11-01 00:00:00,130.7194,31.8033,53.6,53.6,100,10,5,0,30.12,NA,6.21,NA,"FEW","BKN",NA,NA,1500,NA,NA,NA,NA,NA,NA,NA,NA,NA,NA,NA,"RJFK 010000Z 01005KT 9999 FEW015 BKN/// 12/12 Q1020"
"2700","RJFK",2019-11-01 01:00:00,130.7194,31.8033,60.8,55.4,82.37,20,4,0,30.12,NA,6.21,NA,"FEW","BKN",NA,NA,3000,NA,NA,NA,NA,NA,NA,NA,NA,NA,NA,NA,"RJFK 010100Z 02004KT 330V070 9999 FEW030 BKN/// 16/13 Q1020"
"2701","RJFK",2019-11-01 02:00:00,130.7194,31.8033,64.4,51.8,63.6,10,6,0,30.12,NA,6.21,NA,"NSC",NA,NA,NA,NA,NA,NA,NA,"VCVA",NA,NA,NA,NA,NA,NA,NA,"RJFK 010200Z 01006KT 340V050 9999 VCVA NSC 18/11 Q1020"
"2702","RJFK",2019-11-01 03:00:00,130.7194,31.8033,69.8,46.4,43.13,40,5,0,30.09,NA,6.21,NA,NA,NA,NA,NA,NA,NA,NA,NA,NA,NA,NA,NA,NA,NA,NA,NA,"RJFK 010300Z 04005KT 360V090 CAVOK 21/08 Q1019 RMK A3010 VOLCANIC ASH CLOUD S"
"2703","RJFK",2019-11-01 04:00:00,130.7194,31.8033,71.6,48.2,43.42,NA,2,0,30.06,NA,6.21,NA,NA,NA,NA,NA,NA,NA,NA,NA,NA,NA,NA,NA,NA,NA,NA,NA,"RJFK 010400Z VRB02KT CAVOK 22/09 Q1018"
"2704","RJFK",2019-11-01 05:00:00,130.7194,31.8033,71.6,46.4,40.57,120,3,0,30.03,NA,6.21,NA,"FEW",NA,NA,NA,2000,NA,NA,NA,NA,NA,NA,NA,NA,NA,NA,NA,"RJFK 010500Z 12003KT 070V180 9999 FEW020 22/08 Q1017"
"2705","RJFK",2019-11-01 06:00:00,130.7194,31.8033,73.4,46.4,38.18,180,4,0,30.03,NA,6.21,NA,"FEW",NA,NA,NA,2000,NA,NA,NA,NA,NA,NA,NA,NA,NA,NA,NA,"RJFK 010600Z 18004KT 140V240 9999 FEW020 23/08 Q1017"
"2706","RJFK",2019-11-01 07:00:00,130.7194,31.8033,73.4,46.4,38.18,220,4,0,30.03,NA,6.21,NA,"FEW",NA,NA,NA,2000,NA,NA,NA,NA,NA,NA,NA,NA,NA,NA,NA,"RJFK 010700Z 22004KT 190V300 9999 FEW020 23/08 Q1017"
"2707","RJFK",2019-11-01 08:00:00,130.7194,31.8033,68,53.6,59.97,150,3,0,30.06,NA,6.21,NA,"FEW",NA,NA,NA,2000,NA,NA,NA,NA,NA,NA,NA,NA,NA,NA,NA,"RJFK 010800Z 15003KT 9999 FEW020 20/12 Q1018"
"2708","RJFK",2019-11-01 09:00:00,130.7194,31.8033,64.4,50,59.5,170,3,0,30.06,NA,6.21,NA,"FEW",NA,NA,NA,2000,NA,NA,NA,NA,NA,NA,NA,NA,NA,NA,NA,"RJFK 010900Z 17003KT 9999 FEW020 18/10 Q1018"
"2709","RJFK",2019-11-01 10:00:00,130.7194,31.8033,59,48.2,67.33,140,1,0,30.09,NA,6.21,NA,"FEW",NA,NA,NA,2000,NA,NA,NA,NA,NA,NA,NA,NA,NA,NA,NA,"RJFK 011000Z 14001KT 9999 FEW020 15/09 Q1019"
"2710","RJFK",2019-11-01 11:00:00,130.7194,31.8033,55.4,51.8,87.65,20,2,0,30.09,NA,6.21,NA,"FEW",NA,NA,NA,2000,NA,NA,NA,NA,NA,NA,NA,NA,NA,NA,NA,"RJFK 011100Z 02002KT 9999 FEW020 13/11 Q1019"
"2711","RJFK",2019-11-01 12:00:00,130.7194,31.8033,53.6,51.8,93.6,30,4,0,30.09,NA,6.21,NA,"FEW",NA,NA,NA,2000,NA,NA,NA,NA,NA,NA,NA,NA,NA,NA,NA,"RJFK 011200Z 03004KT 9999 FEW020 12/11 Q1019"
"2712","RJFK",2019-11-01 21:00:00,130.7194,31.8033,50,50,100,10,7,0,30.09,NA,6.21,NA,"FEW","BKN",NA,NA,2000,NA,NA,NA,NA,NA,NA,NA,NA,NA,NA,46.72,"RJFK 012100Z 01007KT 9999 FEW020 BKN/// 10/10 Q1019"
"2713","RJFK",2019-11-01 22:00:00,130.7194,31.8033,50,50,100,20,6,0,30.09,NA,6.21,NA,"FEW","BKN",NA,NA,4000,NA,NA,NA,NA,NA,NA,NA,NA,NA,NA,47.21,"RJFK 012200Z 02006KT 9999 FEW040 BKN/// 10/10 Q1019"
"2714","RJFK",2019-11-01 23:00:00,130.7194,31.8033,55.4,53.6,93.65,350,4,0,30.12,NA,6.21,NA,"FEW","BKN",NA,NA,4000,NA,NA,NA,"VCVA",NA,NA,NA,NA,NA,NA,NA,"RJFK 012300Z 35004KT 9999 VCVA FEW040 BKN/// 13/12 Q1020"
"2715","RJDK",2019-11-01 00:00:00,129.1925,33.0136,66.2,57.2,72.74,340,9,0,30.15,NA,6.21,NA,"FEW",NA,NA,NA,1900,NA,NA,NA,NA,NA,NA,NA,NA,NA,NA,NA,"RJDK 010000Z AUTO 34009KT 9999 FEW019 19/14 Q1021"
"2716","RJDK",2019-11-01 01:00:00,129.1925,33.0136,68,57.2,68.35,340,8,0,30.15,NA,6.21,NA,"NCD",NA,NA,NA,NA,NA,NA,NA,NA,NA,NA,NA,NA,NA,NA,NA,"RJDK 010100Z AUTO 34008KT 310V040 9999 NCD 20/14 Q1021"
"2717","RJDK",2019-11-01 02:00:00,129.1925,33.0136,69.8,57.2,64.26,10,6,0,30.15,NA,6.21,NA,"FEW",NA,NA,NA,2300,NA,NA,NA,NA,NA,NA,NA,NA,NA,NA,NA,"RJDK 010200Z AUTO 01006KT 290V090 9999 FEW023 21/14 Q1021"
"2718","RJDK",2019-11-01 03:00:00,129.1925,33.0136,71.6,57.2,60.44,10,7,0,30.12,NA,6.21,NA,"NCD",NA,NA,NA,NA,NA,NA,NA,NA,NA,NA,NA,NA,NA,NA,NA,"RJDK 010300Z AUTO 01007KT 320V070 9999 NCD 22/14 Q1020"
"2719","RJDK",2019-11-01 04:00:00,129.1925,33.0136,71.6,55.4,56.63,360,8,0,30.09,NA,6.21,NA,"NCD",NA,NA,NA,NA,NA,NA,NA,NA,NA,NA,NA,NA,NA,NA,NA,"RJDK 010400Z AUTO 36008KT 310V080 9999 NCD 22/13 Q1019"
"2720","RJDK",2019-11-01 05:00:00,129.1925,33.0136,71.6,57.2,60.44,360,8,0,30.09,NA,6.21,NA,"NCD",NA,NA,NA,NA,NA,NA,NA,NA,NA,NA,NA,NA,NA,NA,NA,"RJDK 010500Z AUTO 36008KT 310V040 9999 NCD 22/14 Q1019"
"2721","RJDK",2019-11-01 06:00:00,129.1925,33.0136,71.6,57.2,60.44,350,9,0,30.09,NA,6.21,NA,"NCD",NA,NA,NA,NA,NA,NA,NA,NA,NA,NA,NA,NA,NA,NA,NA,"RJDK 010600Z AUTO 35009KT 300V070 9999 NCD 22/14 Q1019"
"2722","RJDK",2019-11-01 07:00:00,129.1925,33.0136,68,57.2,68.35,350,10,0,30.09,NA,6.21,NA,"NCD",NA,NA,NA,NA,NA,NA,NA,NA,NA,NA,NA,NA,NA,NA,NA,"RJDK 010700Z AUTO 35010KT 310V030 9999 NCD 20/14 Q1019"
"2723","RJDK",2019-11-01 08:00:00,129.1925,33.0136,68,53.6,59.97,360,10,0,30.09,NA,6.21,NA,"NCD",NA,NA,NA,NA,NA,NA,NA,NA,NA,NA,NA,NA,NA,NA,NA,"RJDK 010800Z AUTO 36010KT 330V060 9999 NCD 20/12 Q1019"
"2724","RJDK",2019-11-01 09:00:00,129.1925,33.0136,68,53.6,59.97,40,4,0,30.09,NA,6.21,NA,"NCD",NA,NA,NA,NA,NA,NA,NA,NA,NA,NA,NA,NA,NA,NA,NA,"RJDK 010900Z AUTO 04004KT 300V120 9999 NCD 20/12 Q1019"
"2725","RJDK",2019-11-01 10:00:00,129.1925,33.0136,68,55.4,64.04,50,7,0,30.09,NA,6.21,NA,"NCD",NA,NA,NA,NA,NA,NA,NA,NA,NA,NA,NA,NA,NA,NA,NA,"RJDK 011000Z AUTO 05007KT 360V180 9999 NCD 20/13 Q1019"
"2726","RJDK",2019-11-01 11:00:00,129.1925,33.0136,66.2,55.4,68.15,70,7,0,30.12,NA,6.21,NA,"NCD",NA,NA,NA,NA,NA,NA,NA,NA,NA,NA,NA,NA,NA,NA,NA,"RJDK 011100Z AUTO 07007KT 360V130 9999 NCD 19/13 Q1020"
"2727","RJDK",2019-11-01 12:00:00,129.1925,33.0136,66.2,55.4,68.15,70,8,0,30.12,NA,6.21,NA,"NCD",NA,NA,NA,NA,NA,NA,NA,NA,NA,NA,NA,NA,NA,NA,NA,"RJDK 011200Z AUTO 07008KT 350V140 9999 NCD 19/13 Q1020"
"2728","RJDK",2019-11-01 13:00:00,129.1925,33.0136,66.2,55.4,68.15,NA,8,0,30.12,NA,6.21,NA,"NCD",NA,NA,NA,NA,NA,NA,NA,NA,NA,NA,NA,NA,NA,NA,NA,"RJDK 011300Z AUTO VRB08KT 9999 NCD 19/13 Q1020"
"2729","RJDK",2019-11-01 14:00:00,129.1925,33.0136,66.2,55.4,68.15,80,8,0,30.12,NA,6.21,NA,"NCD",NA,NA,NA,NA,NA,NA,NA,NA,NA,NA,NA,NA,NA,NA,NA,"RJDK 011400Z AUTO 08008KT 020V140 9999 NCD 19/13 Q1020"
"2730","RJDK",2019-11-01 15:00:00,129.1925,33.0136,66.2,57.2,72.74,70,9,0,30.09,NA,6.21,NA,"NCD",NA,NA,NA,NA,NA,NA,NA,NA,NA,NA,NA,NA,NA,NA,NA,"RJDK 011500Z AUTO 07009KT 350V150 9999 NCD 19/14 Q1019"
"2731","RJDK",2019-11-01 16:00:00,129.1925,33.0136,66.2,57.2,72.74,60,8,0,30.09,NA,6.21,NA,"NCD",NA,NA,NA,NA,NA,NA,NA,NA,NA,NA,NA,NA,NA,NA,NA,"RJDK 011600Z AUTO 06008KT 340V150 9999 NCD 19/14 Q1019"
"2732","RJDK",2019-11-01 17:00:00,129.1925,33.0136,66.2,57.2,72.74,NA,8,0,30.09,NA,6.21,NA,"NCD",NA,NA,NA,NA,NA,NA,NA,NA,NA,NA,NA,NA,NA,NA,NA,"RJDK 011700Z AUTO VRB08KT 9999 NCD 19/14 Q1019"
"2733","RJDK",2019-11-01 18:00:00,129.1925,33.0136,66.2,57.2,72.74,70,7,0,30.09,NA,6.21,NA,"NCD",NA,NA,NA,NA,NA,NA,NA,NA,NA,NA,NA,NA,NA,NA,NA,"RJDK 011800Z AUTO 07007KT 010V130 9999 NCD 19/14 Q1019"
"2734","RJDK",2019-11-01 19:00:00,129.1925,33.0136,66.2,57.2,72.74,80,7,0,30.09,NA,6.21,NA,"NCD",NA,NA,NA,NA,NA,NA,NA,NA,NA,NA,NA,NA,NA,NA,NA,"RJDK 011900Z AUTO 08007KT 010V140 9999 NCD 19/14 Q1019"
"2735","RJDK",2019-11-01 20:00:00,129.1925,33.0136,66.2,57.2,72.74,80,9,0,30.09,NA,6.21,NA,"NCD",NA,NA,NA,NA,NA,NA,NA,NA,NA,NA,NA,NA,NA,NA,NA,"RJDK 012000Z AUTO 08009KT 360V150 9999 NCD 19/14 Q1019"
"2736","RJDK",2019-11-01 21:00:00,129.1925,33.0136,64.4,55.4,72.56,80,9,0,30.09,NA,6.21,NA,"NSC",NA,NA,NA,NA,NA,NA,NA,NA,NA,NA,NA,NA,NA,NA,NA,"RJDK 012100Z AUTO 08009KT 030V130 9999 NSC 18/13 Q1019"
"2737","RJDK",2019-11-01 22:00:00,129.1925,33.0136,64.4,55.4,72.56,NA,6,0,30.09,NA,6.21,NA,"NCD",NA,NA,NA,NA,NA,NA,NA,NA,NA,NA,NA,NA,NA,NA,NA,"RJDK 012200Z AUTO VRB06KT 9999 NCD 18/13 Q1019"
"2738","RJDK",2019-11-01 23:00:00,129.1925,33.0136,66.2,55.4,68.15,80,5,0,30.09,NA,6.21,NA,"NCD",NA,NA,NA,NA,NA,NA,NA,NA,NA,NA,NA,NA,NA,NA,NA,"RJDK 012300Z AUTO 08005KT 350V130 9999 NCD 19/13 Q1019"
"2739","RJFY",2019-11-01 15:40:00,130.8381,31.3681,51.8,50,93.55,80,2,0,30.09,NA,6.21,NA,"FEW",NA,NA,NA,3000,NA,NA,NA,NA,NA,NA,NA,NA,NA,NA,NA,"RJFY 011540Z 08002KT 9999 FEW030 11/10 Q1019 RMK 1CU030 A3011"
"2740","RJBB",2019-11-01 00:00:00,135.2328,34.4342,66.2,60.8,82.74,30,6,0,30.12,NA,6.21,NA,"FEW",NA,NA,NA,2000,NA,NA,NA,NA,NA,NA,NA,NA,NA,NA,NA,"RJBB 010000Z 03006KT 9999 FEW020 19/16 Q1020 NOSIG"
"2741","RJBB",2019-11-01 00:30:00,135.2328,34.4342,66.2,59,77.6,20,4,0,30.12,NA,6.21,NA,"FEW",NA,NA,NA,2000,NA,NA,NA,NA,NA,NA,NA,NA,NA,NA,NA,"RJBB 010030Z 02004KT 340V050 9999 FEW020 19/15 Q1020 BECMG 30005KT"
"2742","RJBB",2019-11-01 01:00:00,135.2328,34.4342,66.2,60.8,82.74,NA,2,0,30.09,NA,6.21,NA,"FEW","SCT",NA,NA,2000,2500,NA,NA,NA,NA,NA,NA,NA,NA,NA,NA,"RJBB 010100Z VRB02KT 9999 FEW020 SCT025 19/16 Q1019 BECMG 28005KT"
"2743","RJBB",2019-11-01 01:30:00,135.2328,34.4342,68,57.2,68.35,NA,2,0,30.09,NA,6.21,NA,"FEW",NA,NA,NA,2000,NA,NA,NA,NA,NA,NA,NA,NA,NA,NA,NA,"RJBB 010130Z VRB02KT 9999 FEW020 20/14 Q1019 BECMG 28005KT"
"2744","RJBB",2019-11-01 02:00:00,135.2328,34.4342,68,57.2,68.35,NA,1,0,30.09,NA,6.21,NA,"FEW",NA,NA,NA,2000,NA,NA,NA,NA,NA,NA,NA,NA,NA,NA,NA,"RJBB 010200Z VRB01KT 9999 FEW020 20/14 Q1019 NOSIG"
"2745","RJBB",2019-11-01 02:30:00,135.2328,34.4342,68,59,72.92,NA,2,0,30.09,NA,6.21,NA,"FEW",NA,NA,NA,2500,NA,NA,NA,NA,NA,NA,NA,NA,NA,NA,NA,"RJBB 010230Z VRB02KT 9999 FEW025 20/15 Q1019 NOSIG"
"2746","RJBB",2019-11-01 03:00:00,135.2328,34.4342,68,59,72.92,300,3,0,30.06,NA,6.21,NA,"FEW",NA,NA,NA,2500,NA,NA,NA,NA,NA,NA,NA,NA,NA,NA,NA,"RJBB 010300Z 30003KT 260V330 9999 FEW025 20/15 Q1018 NOSIG"
"2747","RJBB",2019-11-01 03:30:00,135.2328,34.4342,68,59,72.92,290,3,0,30.06,NA,6.21,NA,"FEW",NA,NA,NA,2500,NA,NA,NA,NA,NA,NA,NA,NA,NA,NA,NA,"RJBB 010330Z 29003KT 9999 FEW025 20/15 Q1018 NOSIG"
"2748","RJBB",2019-11-01 04:00:00,135.2328,34.4342,68,57.2,68.35,NA,3,0,30.06,NA,6.21,NA,"FEW",NA,NA,NA,2500,NA,NA,NA,NA,NA,NA,NA,NA,NA,NA,NA,"RJBB 010400Z VRB03KT 9999 FEW025 20/14 Q1018 NOSIG"
"2749","RJBB",2019-11-01 04:30:00,135.2328,34.4342,69.8,57.2,64.26,290,4,0,30.03,NA,6.21,NA,"FEW",NA,NA,NA,2500,NA,NA,NA,NA,NA,NA,NA,NA,NA,NA,NA,"RJBB 010430Z 29004KT 9999 FEW025 21/14 Q1017 NOSIG"
"2750","RJBB",2019-11-01 05:00:00,135.2328,34.4342,69.8,55.4,60.21,290,5,0,30.03,NA,6.21,NA,"FEW",NA,NA,NA,2500,NA,NA,NA,NA,NA,NA,NA,NA,NA,NA,NA,"RJBB 010500Z 29005KT 9999 FEW025 21/13 Q1017 NOSIG"
"2751","RJBB",2019-11-01 05:30:00,135.2328,34.4342,69.8,53.6,56.38,290,5,0,30.03,NA,6.21,NA,"FEW",NA,NA,NA,3000,NA,NA,NA,NA,NA,NA,NA,NA,NA,NA,NA,"RJBB 010530Z 29005KT 9999 FEW030 21/12 Q1017 NOSIG"
"2752","RJBB",2019-11-01 06:00:00,135.2328,34.4342,69.8,51.8,52.77,290,5,0,30.03,NA,6.21,NA,"FEW",NA,NA,NA,2500,NA,NA,NA,NA,NA,NA,NA,NA,NA,NA,NA,"RJBB 010600Z 29005KT 230V310 9999 FEW025 21/11 Q1017 BECMG 34006KT"
"2753","RJBB",2019-11-01 06:30:00,135.2328,34.4342,69.8,53.6,56.38,300,6,0,30.03,NA,6.21,NA,"FEW",NA,NA,NA,2500,NA,NA,NA,NA,NA,NA,NA,NA,NA,NA,NA,"RJBB 010630Z 30006KT 9999 FEW025 21/12 Q1017 BECMG 34006KT"
"2754","RJBB",2019-11-01 07:00:00,135.2328,34.4342,69.8,53.6,56.38,300,6,0,30.03,NA,6.21,NA,"FEW",NA,NA,NA,2500,NA,NA,NA,NA,NA,NA,NA,NA,NA,NA,NA,"RJBB 010700Z 30006KT 9999 FEW025 21/12 Q1017 BECMG 34006KT"
"2755","RJBB",2019-11-01 07:30:00,135.2328,34.4342,68,53.6,59.97,300,7,0,30.06,NA,6.21,NA,"FEW",NA,NA,NA,2500,NA,NA,NA,NA,NA,NA,NA,NA,NA,NA,NA,"RJBB 010730Z 30007KT 9999 FEW025 20/12 Q1018 NOSIG"
"2756","RJBB",2019-11-01 08:00:00,135.2328,34.4342,68,53.6,59.97,300,6,0,30.06,NA,6.21,NA,"FEW",NA,NA,NA,2500,NA,NA,NA,NA,NA,NA,NA,NA,NA,NA,NA,"RJBB 010800Z 30006KT 9999 FEW025 20/12 Q1018 NOSIG"
"2757","RJBB",2019-11-01 08:30:00,135.2328,34.4342,68,53.6,59.97,320,6,0,30.06,NA,6.21,NA,"FEW",NA,NA,NA,2500,NA,NA,NA,NA,NA,NA,NA,NA,NA,NA,NA,"RJBB 010830Z 32006KT 290V360 9999 FEW025 20/12 Q1018 BECMG 35010KT"
"2758","RJBB",2019-11-01 09:00:00,135.2328,34.4342,68,55.4,64.04,320,8,0,30.06,NA,6.21,NA,"FEW",NA,NA,NA,2500,NA,NA,NA,NA,NA,NA,NA,NA,NA,NA,NA,"RJBB 010900Z 32008KT 9999 FEW025 20/13 Q1018 BECMG 35010KT"
"2759","RJBB",2019-11-01 09:30:00,135.2328,34.4342,68,55.4,64.04,330,10,0,30.09,NA,6.21,NA,"FEW","BKN",NA,NA,3000,7000,NA,NA,NA,NA,NA,NA,NA,NA,NA,NA,"RJBB 010930Z 33010KT 9999 FEW030 BKN070 20/13 Q1019 NOSIG"
"2760","RJBB",2019-11-01 10:00:00,135.2328,34.4342,68,57.2,68.35,340,8,0,30.09,NA,6.21,NA,"FEW","SCT","BKN",NA,3000,4000,6000,NA,NA,NA,NA,NA,NA,NA,NA,NA,"RJBB 011000Z 34008KT 9999 FEW030 SCT040 BKN060 20/14 Q1019 NOSIG"
"2761","RJBB",2019-11-01 10:30:00,135.2328,34.4342,68,53.6,59.97,10,15,0,30.09,NA,6.21,NA,"FEW","SCT",NA,NA,3000,4500,NA,NA,NA,NA,NA,NA,NA,NA,NA,NA,"RJBB 011030Z 01015KT 9999 FEW030 SCT045 20/12 Q1019 NOSIG"
"2762","RJBB",2019-11-01 11:00:00,135.2328,34.4342,68,55.4,64.04,20,15,0,30.09,NA,6.21,NA,"FEW",NA,NA,NA,3000,NA,NA,NA,NA,NA,NA,NA,NA,NA,NA,NA,"RJBB 011100Z 02015KT 9999 FEW030 20/13 Q1019 NOSIG"
"2763","RJBB",2019-11-01 11:30:00,135.2328,34.4342,66.2,53.6,63.82,20,19,0,30.09,NA,6.21,NA,"FEW",NA,NA,NA,3000,NA,NA,NA,NA,NA,NA,NA,NA,NA,NA,NA,"RJBB 011130Z 02019KT 9999 FEW030 19/12 Q1019 NOSIG"
"2764","RJBB",2019-11-01 12:00:00,135.2328,34.4342,66.2,51.8,59.74,20,18,0,30.12,NA,6.21,NA,"FEW",NA,NA,NA,3000,NA,NA,NA,NA,NA,NA,NA,NA,NA,NA,NA,"RJBB 011200Z 02018KT 9999 FEW030 19/11 Q1020 NOSIG"
"2765","RJBB",2019-11-01 12:30:00,135.2328,34.4342,66.2,51.8,59.74,10,16,0,30.12,NA,6.21,NA,"FEW",NA,NA,NA,3000,NA,NA,NA,NA,NA,NA,NA,NA,NA,NA,NA,"RJBB 011230Z 01016KT 9999 FEW030 19/11 Q1020 NOSIG"
"2766","RJBB",2019-11-01 13:00:00,135.2328,34.4342,64.4,51.8,63.6,20,17,0,30.12,NA,6.21,NA,"FEW",NA,NA,NA,3000,NA,NA,NA,NA,NA,NA,NA,NA,NA,NA,NA,"RJBB 011300Z 02017KT 9999 FEW030 18/11 Q1020 NOSIG"
"2767","RJBB",2019-11-01 13:30:00,135.2328,34.4342,64.4,51.8,63.6,30,18,0,30.12,NA,6.21,NA,"FEW",NA,NA,NA,3000,NA,NA,NA,NA,NA,NA,NA,NA,NA,NA,NA,"RJBB 011330Z 03018KT 9999 FEW030 18/11 Q1020 NOSIG"
"2768","RJBB",2019-11-01 14:00:00,135.2328,34.4342,62.6,51.8,67.75,30,20,0,30.12,NA,6.21,NA,"NCD",NA,NA,NA,NA,NA,NA,NA,NA,NA,NA,NA,NA,NA,NA,NA,"RJBB 011400Z AUTO 03020KT 9999 NCD 17/11 Q1020 NOSIG"
"2769","RJBB",2019-11-01 14:30:00,135.2328,34.4342,62.6,50,63.38,30,19,0,30.12,NA,6.21,NA,"NCD",NA,NA,NA,NA,NA,NA,NA,NA,NA,NA,NA,NA,NA,NA,NA,"RJBB 011430Z AUTO 03019KT 9999 NCD 17/10 Q1020 NOSIG"
"2770","RJBB",2019-11-01 15:00:00,135.2328,34.4342,62.6,48.2,59.26,20,19,0,30.12,NA,6.21,NA,"NCD",NA,NA,NA,NA,NA,NA,NA,NA,NA,NA,NA,NA,NA,NA,NA,"RJBB 011500Z AUTO 02019KT 9999 NCD 17/09 Q1020 NOSIG"
"2771","RJBB",2019-11-01 15:30:00,135.2328,34.4342,62.6,48.2,59.26,20,20,0,30.12,NA,6.21,NA,"NCD",NA,NA,NA,NA,NA,NA,NA,NA,NA,NA,NA,NA,NA,NA,NA,"RJBB 011530Z AUTO 02020KT 9999 NCD 17/09 Q1020 NOSIG"
"2772","RJBB",2019-11-01 16:00:00,135.2328,34.4342,60.8,48.2,63.15,30,16,0,30.12,NA,6.21,NA,"NCD",NA,NA,NA,NA,NA,NA,NA,NA,NA,NA,NA,NA,NA,NA,NA,"RJBB 011600Z AUTO 03016KT 9999 NCD 16/09 Q1020 NOSIG"
"2773","RJBB",2019-11-01 16:30:00,135.2328,34.4342,60.8,48.2,63.15,30,17,0,30.15,NA,6.21,NA,"FEW",NA,NA,NA,3400,NA,NA,NA,NA,NA,NA,NA,NA,NA,NA,NA,"RJBB 011630Z AUTO 03017KT 9999 FEW034 16/09 Q1021 NOSIG"
"2774","RJBB",2019-11-01 17:00:00,135.2328,34.4342,60.8,48.2,63.15,20,16,0,30.15,NA,6.21,NA,"FEW",NA,NA,NA,3600,NA,NA,NA,NA,NA,NA,NA,NA,NA,NA,NA,"RJBB 011700Z AUTO 02016KT 9999 FEW036 16/09 Q1021 NOSIG"
"2775","RJBB",2019-11-01 17:30:00,135.2328,34.4342,59,48.2,67.33,30,16,0,30.12,NA,6.21,NA,"FEW",NA,NA,NA,3400,NA,NA,NA,NA,NA,NA,NA,NA,NA,NA,NA,"RJBB 011730Z AUTO 03016KT 9999 FEW034 15/09 Q1020 NOSIG"
"2776","RJBB",2019-11-01 18:00:00,135.2328,34.4342,59,46.4,62.92,20,15,0,30.12,NA,6.21,NA,"FEW",NA,NA,NA,3600,NA,NA,NA,NA,NA,NA,NA,NA,NA,NA,NA,"RJBB 011800Z AUTO 02015KT 9999 FEW036 15/08 Q1020 NOSIG"
"2777","RJBB",2019-11-01 18:30:00,135.2328,34.4342,59,46.4,62.92,30,15,0,30.12,NA,6.21,NA,"FEW",NA,NA,NA,3600,NA,NA,NA,NA,NA,NA,NA,NA,NA,NA,NA,"RJBB 011830Z AUTO 03015KT 9999 FEW036 15/08 Q1020 NOSIG"
"2778","RJBB",2019-11-01 19:00:00,135.2328,34.4342,59,46.4,62.92,30,16,0,30.12,NA,6.21,NA,"NCD",NA,NA,NA,NA,NA,NA,NA,NA,NA,NA,NA,NA,NA,NA,NA,"RJBB 011900Z AUTO 03016KT 9999 NCD 15/08 Q1020 NOSIG"
"2779","RJBB",2019-11-01 19:30:00,135.2328,34.4342,59,46.4,62.92,30,17,0,30.12,NA,6.21,NA,"NCD",NA,NA,NA,NA,NA,NA,NA,NA,NA,NA,NA,NA,NA,NA,NA,"RJBB 011930Z AUTO 03017KT 9999 NCD 15/08 Q1020 NOSIG"
"2780","RJBB",2019-11-01 20:00:00,135.2328,34.4342,60.8,51.8,72.2,30,17,0,30.15,NA,6.21,NA,"NCD",NA,NA,NA,NA,NA,NA,NA,NA,NA,NA,NA,NA,NA,NA,NA,"RJBB 012000Z AUTO 03017KT 9999 NCD 16/11 Q1021 NOSIG"
"2781","RJBB",2019-11-01 20:30:00,135.2328,34.4342,59,50,72.01,40,14,0,30.15,NA,6.21,NA,"NCD",NA,NA,NA,NA,NA,NA,NA,NA,NA,NA,NA,NA,NA,NA,NA,"RJBB 012030Z AUTO 04014KT 9999 NCD 15/10 Q1021 NOSIG"
"2782","RJBB",2019-11-01 21:00:00,135.2328,34.4342,59,51.8,76.98,60,8,0,30.15,NA,6.21,NA,"FEW","SCT",NA,NA,1500,4000,NA,NA,NA,NA,NA,NA,NA,NA,NA,NA,"RJBB 012100Z 06008KT 9999 FEW015 SCT040 15/11 Q1021 NOSIG"
"2783","RJBB",2019-11-01 21:30:00,135.2328,34.4342,59,51.8,76.98,90,11,0,30.15,NA,6.21,NA,"FEW","SCT",NA,NA,1500,4000,NA,NA,NA,NA,NA,NA,NA,NA,NA,NA,"RJBB 012130Z 09011KT 9999 FEW015 SCT040 15/11 Q1021 NOSIG"
"2784","RJBB",2019-11-01 22:00:00,135.2328,34.4342,59,50,72.01,80,9,0,30.18,NA,6.21,NA,"FEW","SCT",NA,NA,2000,NA,NA,NA,NA,NA,NA,NA,NA,NA,NA,NA,"RJBB 012200Z 08009KT 9999 FEW020 SCT/// 15/10 Q1022 NOSIG"
"2785","RJBB",2019-11-01 22:30:00,135.2328,34.4342,59,50,72.01,80,9,0,30.18,NA,6.21,NA,"FEW","SCT",NA,NA,2000,NA,NA,NA,NA,NA,NA,NA,NA,NA,NA,NA,"RJBB 012230Z 08009KT 9999 FEW020 SCT/// 15/10 Q1022 NOSIG"
"2786","RJBB",2019-11-01 23:00:00,135.2328,34.4342,59,50,72.01,90,9,0,30.18,NA,6.21,NA,"FEW",NA,NA,NA,2000,NA,NA,NA,NA,NA,NA,NA,NA,NA,NA,NA,"RJBB 012300Z 09009KT 9999 FEW020 15/10 Q1022 NOSIG"
"2787","RJBB",2019-11-01 23:30:00,135.2328,34.4342,60.8,50,67.54,70,7,0,30.18,NA,6.21,NA,"FEW",NA,NA,NA,3000,NA,NA,NA,NA,NA,NA,NA,NA,NA,NA,NA,"RJBB 012330Z 07007KT 9999 FEW030 16/10 Q1022 NOSIG"
"2788","RJSU",2019-11-01 00:43:00,140.9231,38.2356,69.8,48.2,46.16,240,6,0,29.85,NA,6.21,NA,"FEW","SCT","BKN",NA,1000,5000,7000,NA,NA,NA,NA,NA,NA,NA,NA,NA,"RJSU 010043Z 24006KT 9999 FEW010 SCT050 BKN070 21/09 Q1011 RMK 1ST010 3CU050 6AC070 A2986"
"2789","RJSU",2019-11-01 01:05:00,140.9231,38.2356,71.6,50,46.43,270,6,0,29.85,NA,6.21,16,"FEW","SCT","BKN",NA,1000,3000,7000,NA,NA,NA,NA,NA,NA,NA,NA,NA,"RJSU 010105Z 27006G16KT 9999 FEW010 SCT030 BKN070 22/10 Q1011 RMK 1ST010 3CU030 6AC070 A2986"
"2790","RJSU",2019-11-01 02:41:00,140.9231,38.2356,68,50,52.51,300,13,0,29.85,NA,6.21,NA,"FEW","BKN","BKN",NA,1000,4000,7000,NA,"-SHRA",NA,NA,NA,NA,NA,NA,NA,"RJSU 010241Z 30013KT 9999 -SHRA FEW010 BKN040 BKN070 20/10 Q1011 RMK 1ST010 5CU040 6AC070 A2987"
"2791","RJSU",2019-11-01 03:19:00,140.9231,38.2356,69.8,51.8,52.77,270,12,0,29.85,NA,6.21,NA,"FEW","SCT",NA,NA,3000,9000,NA,NA,NA,NA,NA,NA,NA,NA,NA,NA,"RJSU 010319Z 27012KT 9999 FEW030 SCT090 21/11 Q1011 RMK 1CU030 3AC090 A2987"
"2792","RJSU",2019-11-01 04:36:00,140.9231,38.2356,68,46.4,45.88,300,15,0,29.85,NA,6.21,NA,"FEW","BKN",NA,NA,3000,5000,NA,NA,NA,NA,NA,NA,NA,NA,NA,NA,"RJSU 010436Z 30015KT 9999 FEW030 BKN050 20/08 Q1011 RMK 1CU030 5CU050 A2987"
"2793","RJKI",2019-11-01 00:00:00,129.9281,28.3213,73.4,62.6,68.94,40,12,0,30.09,NA,6.21,NA,"NCD",NA,NA,NA,NA,NA,NA,NA,NA,NA,NA,NA,NA,NA,NA,NA,"RJKI 010000Z AUTO 04012KT 9999 NCD 23/17 Q1019"
"2794","RJKI",2019-11-01 01:00:00,129.9281,28.3213,75.2,64.4,69.14,20,11,0,30.09,NA,6.21,NA,"SCT",NA,NA,NA,2900,NA,NA,NA,NA,NA,NA,NA,NA,NA,NA,NA,"RJKI 010100Z AUTO 02011KT 9999 SCT029 24/18 Q1019"
"2795","RJKI",2019-11-01 02:00:00,129.9281,28.3213,75.2,62.6,64.91,10,12,0,30.06,NA,6.21,NA,"NCD",NA,NA,NA,NA,NA,NA,NA,NA,NA,NA,NA,NA,NA,NA,NA,"RJKI 010200Z AUTO 01012KT 9999 NCD 24/17 Q1018"
"2796","RJKI",2019-11-01 03:00:00,129.9281,28.3213,77,62.6,61.13,20,12,0,30.06,NA,6.21,NA,"FEW",NA,NA,NA,3000,NA,NA,NA,NA,NA,NA,NA,NA,NA,NA,NA,"RJKI 010300Z AUTO 02012KT 9999 FEW030 25/17 Q1018"
"2797","RJKI",2019-11-01 04:00:00,129.9281,28.3213,77,64.4,65.12,10,12,0,30.03,NA,6.21,NA,"NCD",NA,NA,NA,NA,NA,NA,NA,NA,NA,NA,NA,NA,NA,NA,NA,"RJKI 010400Z AUTO 01012KT 9999 NCD 25/18 Q1017"
"2798","RJKI",2019-11-01 05:00:00,129.9281,28.3213,75.2,62.6,64.91,10,11,0,30,NA,6.21,NA,"FEW",NA,NA,NA,3000,NA,NA,NA,NA,NA,NA,NA,NA,NA,NA,NA,"RJKI 010500Z AUTO 01011KT 9999 FEW030 24/17 Q1016"
"2799","RJKI",2019-11-01 06:00:00,129.9281,28.3213,77,64.4,65.12,20,11,0,30,NA,6.21,NA,"FEW",NA,NA,NA,2900,NA,NA,NA,NA,NA,NA,NA,NA,NA,NA,NA,"RJKI 010600Z AUTO 02011KT 9999 FEW029 25/18 Q1016"
"2800","RJKI",2019-11-01 07:00:00,129.9281,28.3213,75.2,62.6,64.91,40,11,0,30,NA,6.21,NA,"NCD",NA,NA,NA,NA,NA,NA,NA,NA,NA,NA,NA,NA,NA,NA,NA,"RJKI 010700Z AUTO 04011KT 9999 NCD 24/17 Q1016"
"2801","RJKI",2019-11-01 08:00:00,129.9281,28.3213,73.4,60.8,64.69,30,11,0,30,NA,6.21,NA,"NCD",NA,NA,NA,NA,NA,NA,NA,NA,NA,NA,NA,NA,NA,NA,NA,"RJKI 010800Z AUTO 03011KT 9999 NCD 23/16 Q1016"
"2802","RJKI",2019-11-01 09:00:00,129.9281,28.3213,71.6,62.6,73.27,30,11,0,30.03,NA,6.21,NA,"FEW",NA,NA,NA,2900,NA,NA,NA,NA,NA,NA,NA,NA,NA,NA,NA,"RJKI 010900Z AUTO 03011KT 9999 FEW029 22/17 Q1017"
"2803","RJKI",2019-11-01 10:00:00,129.9281,28.3213,71.6,60.8,68.75,40,10,0,30.03,NA,6.21,NA,"FEW",NA,NA,NA,3000,NA,NA,NA,NA,NA,NA,NA,NA,NA,NA,NA,"RJKI 011000Z AUTO 04010KT 9999 FEW030 22/16 Q1017"
"2804","RJKI",2019-11-01 11:00:00,129.9281,28.3213,69.8,62.6,77.9,80,4,0,30.03,NA,6.21,NA,"SCT",NA,NA,NA,2900,NA,NA,NA,NA,NA,NA,NA,NA,NA,NA,NA,"RJKI 011100Z AUTO 08004KT 9999 SCT029 21/17 Q1017"
"2805","RJKI",2019-11-01 12:00:00,129.9281,28.3213,68,62.6,82.86,90,4,0,30.06,NA,6.21,NA,"BKN",NA,NA,NA,3200,NA,NA,NA,NA,NA,NA,NA,NA,NA,NA,NA,"RJKI 011200Z AUTO 09004KT 060V120 9999 BKN032 20/17 Q1018"
"2806","RJKI",2019-11-01 13:00:00,129.9281,28.3213,68,62.6,82.86,100,4,0,30.06,NA,6.21,NA,"BKN",NA,NA,NA,3400,NA,NA,NA,NA,NA,NA,NA,NA,NA,NA,NA,"RJKI 011300Z AUTO 10004KT 060V130 9999 BKN034 20/17 Q1018"
"2807","RJKI",2019-11-01 14:00:00,129.9281,28.3213,69.8,62.6,77.9,90,5,0,30.03,NA,6.21,NA,"BKN",NA,NA,NA,3300,NA,NA,NA,NA,NA,NA,NA,NA,NA,NA,NA,"RJKI 011400Z AUTO 09005KT 9999 BKN033 21/17 Q1017"
"2808","RJKI",2019-11-01 15:00:00,129.9281,28.3213,66.2,62.6,88.18,120,2,0,30.03,NA,6.21,NA,"SCT","BKN",NA,NA,3800,4100,NA,NA,NA,NA,NA,NA,NA,NA,NA,NA,"RJKI 011500Z AUTO 12002KT 9999 SCT038 BKN041 19/17 Q1017"
"2809","RJKI",2019-11-01 16:00:00,129.9281,28.3213,66.2,62.6,88.18,90,3,0,30,NA,6.21,NA,"FEW",NA,NA,NA,3400,NA,NA,NA,NA,NA,NA,NA,NA,NA,NA,NA,"RJKI 011600Z AUTO 09003KT 9999 FEW034 19/17 Q1016"
"2810","RJKI",2019-11-01 17:00:00,129.9281,28.3213,66.2,62.6,88.18,90,4,0,30,NA,6.21,NA,"FEW",NA,NA,NA,4400,NA,NA,NA,NA,NA,NA,NA,NA,NA,NA,NA,"RJKI 011700Z AUTO 09004KT 9999 FEW044 19/17 Q1016"
"2811","RJKI",2019-11-01 18:00:00,129.9281,28.3213,69.8,60.8,73.09,90,5,0,30,NA,6.21,NA,"FEW",NA,NA,NA,3900,NA,NA,NA,NA,NA,NA,NA,NA,NA,NA,NA,"RJKI 011800Z AUTO 09005KT 9999 FEW039 21/16 Q1016"
"2812","RJKI",2019-11-01 19:00:00,129.9281,28.3213,66.2,60.8,82.74,90,3,0,30,NA,6.21,NA,"FEW",NA,NA,NA,4000,NA,NA,NA,NA,NA,NA,NA,NA,NA,NA,NA,"RJKI 011900Z AUTO 09003KT 9999 FEW040 19/16 Q1016"
"2813","RJKI",2019-11-01 20:00:00,129.9281,28.3213,66.2,62.6,88.18,110,4,0,30,NA,6.21,NA,"BKN",NA,NA,NA,3800,NA,NA,NA,NA,NA,NA,NA,NA,NA,NA,NA,"RJKI 012000Z AUTO 11004KT 090V150 9999 BKN038 19/17 Q1016"
"2814","RJKI",2019-11-01 21:00:00,129.9281,28.3213,66.2,60.8,82.74,100,4,0,30,NA,6.21,NA,"FEW",NA,NA,NA,3900,NA,NA,NA,NA,NA,NA,NA,NA,NA,NA,NA,"RJKI 012100Z AUTO 10004KT 9999 FEW039 19/16 Q1016"
"2815","RJKI",2019-11-01 22:00:00,129.9281,28.3213,64.4,60.8,88.09,NA,1,0,30,NA,6.21,NA,"FEW","SCT",NA,NA,3600,3800,NA,NA,NA,NA,NA,NA,NA,NA,NA,NA,"RJKI 012200Z AUTO VRB01KT 9999 FEW036 SCT038 18/16 Q1016"
"2816","RJKI",2019-11-01 23:00:00,129.9281,28.3213,73.4,64.4,73.44,80,5,0,30.03,NA,6.21,NA,"FEW","SCT","BKN",NA,3400,4000,4400,NA,NA,NA,NA,NA,NA,NA,NA,NA,"RJKI 012300Z AUTO 08005KT 9999 FEW034 SCT040 BKN044 23/18 Q1017"
"2817","RORK",2019-11-01 00:00:00,131.3333,25.9167,80.6,73.4,78.76,50,15,0,30,NA,6.21,NA,"FEW","SCT","BKN",NA,1700,3600,5000,NA,NA,NA,NA,NA,NA,NA,NA,85.32,"RORK 010000Z AUTO 05015KT 9999 FEW017 SCT036 BKN050 27/23 Q1016"
"2818","RORK",2019-11-01 01:00:00,131.3333,25.9167,80.6,73.4,78.76,60,16,0,30,NA,6.21,NA,"FEW","BKN",NA,NA,2000,3300,NA,NA,NA,NA,NA,NA,NA,NA,NA,85.32,"RORK 010100Z AUTO 06016KT 9999 FEW020 BKN033 27/23 Q1016"
"2819","RORK",2019-11-01 02:00:00,131.3333,25.9167,78.8,75.2,88.75,90,12,0,30,NA,6.21,NA,"FEW","SCT","BKN",NA,3300,4700,5000,NA,NA,NA,NA,NA,NA,NA,NA,NA,"RORK 010200Z AUTO 09012KT 9999 FEW033 SCT047 BKN050 26/24 Q1016"
"2820","RORK",2019-11-01 03:00:00,131.3333,25.9167,84.2,75.2,74.44,60,18,0,29.97,NA,6.21,NA,"FEW","SCT","BKN",NA,1900,3900,5000,NA,NA,NA,NA,NA,NA,NA,NA,92.45,"RORK 010300Z AUTO 06018KT 9999 FEW019 SCT039 BKN050 29/24 Q1015"
"2821","RORK",2019-11-01 04:00:00,131.3333,25.9167,82.4,73.4,74.28,60,17,0,29.94,NA,6.21,NA,"FEW","SCT","BKN",NA,1500,2300,2900,NA,NA,NA,NA,NA,NA,NA,NA,88.26,"RORK 010400Z AUTO 06017KT 9999 FEW015 SCT023 BKN029 28/23 Q1014"
"2822","RORK",2019-11-01 05:00:00,131.3333,25.9167,80.6,73.4,78.76,50,17,0,29.94,NA,6.21,NA,"FEW","SCT","OVC",NA,1500,2100,4400,NA,NA,NA,NA,NA,NA,NA,NA,85.32,"RORK 010500Z AUTO 05017KT 9999 FEW015 SCT021 OVC044 27/23 Q1014"
"2823","RORK",2019-11-01 06:00:00,131.3333,25.9167,80.6,73.4,78.76,50,16,0,29.94,NA,6.21,NA,"BKN","BKN","OVC",NA,1700,2500,4300,NA,NA,NA,NA,NA,NA,NA,NA,85.32,"RORK 010600Z AUTO 05016KT 9999 BKN017 BKN025 OVC043 27/23 Q1014"
"2824","RORK",2019-11-01 07:00:00,131.3333,25.9167,78.8,73.4,83.55,50,17,0,29.94,NA,6.21,NA,"FEW","OVC",NA,NA,1700,4600,NA,NA,NA,NA,NA,NA,NA,NA,NA,NA,"RORK 010700Z AUTO 05017KT 9999 FEW017 OVC046 26/23 Q1014"
"2825","RORK",2019-11-01 08:00:00,131.3333,25.9167,78.8,73.4,83.55,60,18,0,29.94,NA,6.21,NA,"FEW","SCT","OVC",NA,1100,4400,4600,NA,NA,NA,NA,NA,NA,NA,NA,NA,"RORK 010800Z AUTO 06018KT 9999 FEW011 SCT044 OVC046 26/23 Q1014"
"2826","RORK",2019-11-01 09:00:00,131.3333,25.9167,78.8,73.4,83.55,60,19,0,29.94,NA,6.21,NA,"SCT","OVC",NA,NA,1500,5000,NA,NA,NA,NA,NA,NA,NA,NA,NA,NA,"RORK 010900Z AUTO 06019KT 9999 SCT015 OVC050 26/23 Q1014"
"2827","RORK",2019-11-01 10:00:00,131.3333,25.9167,78.8,73.4,83.55,60,19,0,29.97,NA,6.21,NA,"BKN","OVC",NA,NA,1500,4800,NA,NA,NA,NA,NA,NA,NA,NA,NA,NA,"RORK 011000Z AUTO 06019KT 9999 BKN015 OVC048 26/23 Q1015"
"2828","RORK",2019-11-01 11:00:00,131.3333,25.9167,78.8,71.6,78.62,60,17,0,29.97,NA,6.21,NA,"SCT","BKN","OVC",NA,1700,4200,4600,NA,NA,NA,NA,NA,NA,NA,NA,NA,"RORK 011100Z AUTO 06017KT 9999 SCT017 BKN042 OVC046 26/22 Q1015"
"2829","RORK",2019-11-01 12:00:00,131.3333,25.9167,78.8,71.6,78.62,60,17,0,29.97,NA,6.21,NA,"SCT","SCT","OVC",NA,1900,4800,5000,NA,NA,NA,NA,NA,NA,NA,NA,NA,"RORK 011200Z AUTO 06017KT 9999 SCT019 SCT048 OVC050 26/22 Q1015"
"2830","RORK",2019-11-01 13:00:00,131.3333,25.9167,78.8,71.6,78.62,60,17,0,30,NA,6.21,NA,"FEW","BKN","BKN",NA,1900,3700,4200,NA,NA,NA,NA,NA,NA,NA,NA,NA,"RORK 011300Z AUTO 06017KT 9999 FEW019 BKN037 BKN042 26/22 Q1016"
"2831","RORK",2019-11-01 14:00:00,131.3333,25.9167,78.8,71.6,78.62,50,17,0,29.97,NA,6.21,NA,"SCT","BKN","BKN",NA,1800,2300,4500,NA,NA,NA,NA,NA,NA,NA,NA,NA,"RORK 011400Z AUTO 05017KT 9999 SCT018 BKN023 BKN045 26/22 Q1015"
"2832","RORK",2019-11-01 15:00:00,131.3333,25.9167,78.8,71.6,78.62,60,16,0,29.94,NA,6.21,NA,"SCT","BKN",NA,NA,1800,2300,NA,NA,NA,NA,NA,NA,NA,NA,NA,NA,"RORK 011500Z AUTO 06016KT 9999 SCT018 BKN023 26/22 Q1014"
"2833","RORK",2019-11-01 16:00:00,131.3333,25.9167,78.8,71.6,78.62,60,16,0,29.94,NA,6.21,NA,"FEW","SCT","BKN",NA,1800,5000,7000,NA,NA,NA,NA,NA,NA,NA,NA,NA,"RORK 011600Z AUTO 06016KT 9999 FEW018 SCT050 BKN070 26/22 Q1014"
"2834","RORK",2019-11-01 17:00:00,131.3333,25.9167,78.8,71.6,78.62,70,17,0,29.94,NA,6.21,NA,"FEW",NA,NA,NA,1800,NA,NA,NA,NA,NA,NA,NA,NA,NA,NA,NA,"RORK 011700Z AUTO 07017KT 9999 FEW018 26/22 Q1014"
"2835","RORK",2019-11-01 18:00:00,131.3333,25.9167,77,73.4,88.67,90,14,0,29.94,NA,6.21,NA,"FEW","BKN","BKN",NA,1300,1600,2200,NA,NA,NA,NA,NA,NA,NA,NA,NA,"RORK 011800Z AUTO 09014KT 9999 FEW013 BKN016 BKN022 25/23 Q1014"
"2836","RORK",2019-11-01 19:00:00,131.3333,25.9167,78.8,73.4,83.55,70,12,0,29.91,NA,6.21,NA,"FEW","SCT","OVC",NA,1400,4400,5000,NA,NA,NA,NA,NA,NA,NA,NA,NA,"RORK 011900Z AUTO 07012KT 9999 FEW014 SCT044 OVC050 26/23 Q1013"
"2837","RORK",2019-11-01 20:00:00,131.3333,25.9167,78.8,73.4,83.55,70,14,0,29.91,NA,6.21,NA,"FEW","OVC",NA,NA,1300,5000,NA,NA,NA,NA,NA,NA,NA,NA,NA,NA,"RORK 012000Z AUTO 07014KT 9999 FEW013 OVC050 26/23 Q1013"
"2838","RORK",2019-11-01 21:00:00,131.3333,25.9167,78.8,73.4,83.55,60,14,0,29.94,NA,6.21,NA,"SCT","BKN","BKN",NA,1700,3800,5000,NA,NA,NA,NA,NA,NA,NA,NA,NA,"RORK 012100Z AUTO 06014KT 9999 SCT017 BKN038 BKN050 26/23 Q1014"
"2839","RORK",2019-11-01 22:00:00,131.3333,25.9167,78.8,73.4,83.55,60,14,0,29.94,NA,6.21,NA,"SCT","BKN","BKN",NA,1600,2000,5000,NA,NA,NA,NA,NA,NA,NA,NA,NA,"RORK 012200Z AUTO 06014KT 9999 SCT016 BKN020 BKN050 26/23 Q1014"
"2840","RORK",2019-11-01 23:00:00,131.3333,25.9167,78.8,73.4,83.55,60,14,0,29.97,NA,6.21,NA,"SCT","BKN","BKN",NA,1400,1700,2000,NA,NA,NA,NA,NA,NA,NA,NA,NA,"RORK 012300Z AUTO 06014KT 9999 SCT014 BKN017 BKN020 26/23 Q1015"
"2841","RJFR",2019-11-01 00:00:00,131.035,33.8456,66.2,57.2,72.74,NA,2,0,30.15,NA,6.21,NA,"FEW",NA,NA,NA,3000,NA,NA,NA,NA,NA,NA,NA,NA,NA,NA,NA,"RJFR 010000Z VRB02KT 9999 FEW030 19/14 Q1021"
"2842","RJFR",2019-11-01 01:00:00,131.035,33.8456,68,55.4,64.04,NA,2,0,30.12,NA,6.21,NA,"FEW",NA,NA,NA,4000,NA,NA,NA,NA,NA,NA,NA,NA,NA,NA,NA,"RJFR 010100Z VRB02KT 9999 FEW040 20/13 Q1020"
"2843","RJFR",2019-11-01 02:00:00,131.035,33.8456,69.8,57.2,64.26,NA,2,0,30.12,NA,6.21,NA,"FEW",NA,NA,NA,4000,NA,NA,NA,NA,NA,NA,NA,NA,NA,NA,NA,"RJFR 010200Z VRB02KT 9999 FEW040 21/14 Q1020"
"2844","RJFR",2019-11-01 02:20:00,131.035,33.8456,71.6,53.6,53.03,310,10,0,30.12,NA,6.21,NA,"FEW",NA,NA,NA,4000,NA,NA,NA,NA,NA,NA,NA,NA,NA,NA,NA,"RJFR 010220Z 31010KT 280V360 9999 FEW040 22/12 Q1020 RMK 1CU040 A3013"
"2845","RJFR",2019-11-01 03:00:00,131.035,33.8456,71.6,53.6,53.03,290,11,0,30.09,NA,6.21,NA,"FEW",NA,NA,NA,4000,NA,NA,NA,NA,NA,NA,NA,NA,NA,NA,NA,"RJFR 010300Z 29011KT 9999 FEW040 22/12 Q1019"
"2846","RJFR",2019-11-01 04:00:00,131.035,33.8456,71.6,53.6,53.03,320,9,0,30.09,NA,6.21,NA,"FEW",NA,NA,NA,4000,NA,NA,NA,NA,NA,NA,NA,NA,NA,NA,NA,"RJFR 010400Z 32009KT 280V350 9999 FEW040 22/12 Q1019"
"2847","RJFR",2019-11-01 05:00:00,131.035,33.8456,71.6,55.4,56.63,320,11,0,30.06,NA,6.21,NA,"FEW",NA,NA,NA,4000,NA,NA,NA,NA,NA,NA,NA,NA,NA,NA,NA,"RJFR 010500Z 32011KT 9999 FEW040 22/13 Q1018"
"2848","RJFR",2019-11-01 06:00:00,131.035,33.8456,71.6,51.8,49.64,300,12,0,30.06,NA,6.21,NA,NA,NA,NA,NA,NA,NA,NA,NA,NA,NA,NA,NA,NA,NA,NA,NA,"RJFR 010600Z 30012KT CAVOK 22/11 Q1018"
"2849","RJFR",2019-11-01 07:00:00,131.035,33.8456,69.8,50,49.37,310,10,0,30.06,NA,6.21,NA,NA,NA,NA,NA,NA,NA,NA,NA,NA,NA,NA,NA,NA,NA,NA,NA,"RJFR 010700Z 31010KT CAVOK 21/10 Q1018"
"2850","RJFR",2019-11-01 08:00:00,131.035,33.8456,68,55.4,64.04,320,8,0,30.09,NA,6.21,NA,NA,NA,NA,NA,NA,NA,NA,NA,NA,NA,NA,NA,NA,NA,NA,NA,"RJFR 010800Z 32008KT CAVOK 20/13 Q1019"
"2851","RJFR",2019-11-01 09:00:00,131.035,33.8456,66.2,53.6,63.82,310,5,0,30.09,NA,6.21,NA,"FEW",NA,NA,NA,3000,NA,NA,NA,NA,NA,NA,NA,NA,NA,NA,NA,"RJFR 010900Z 31005KT 9999 FEW030 19/12 Q1019"
"2852","RJFR",2019-11-01 10:00:00,131.035,33.8456,64.4,55.4,72.56,340,6,0,30.12,NA,6.21,NA,"FEW",NA,NA,NA,3000,NA,NA,NA,NA,NA,NA,NA,NA,NA,NA,NA,"RJFR 011000Z 34006KT 9999 FEW030 18/13 Q1020"
"2853","RJFR",2019-11-01 11:00:00,131.035,33.8456,64.4,55.4,72.56,270,5,0,30.12,NA,6.21,NA,"FEW",NA,NA,NA,3000,NA,NA,NA,NA,NA,NA,NA,NA,NA,NA,NA,"RJFR 011100Z 27005KT 9999 FEW030 18/13 Q1020"
"2854","RJFR",2019-11-01 12:00:00,131.035,33.8456,64.4,57.2,77.45,300,4,0,30.12,NA,6.21,NA,"FEW",NA,NA,NA,3000,NA,NA,NA,NA,NA,NA,NA,NA,NA,NA,NA,"RJFR 011200Z 30004KT 9999 FEW030 18/14 Q1020"
"2855","RJFR",2019-11-01 13:00:00,131.035,33.8456,62.6,53.6,72.38,290,3,0,30.12,NA,6.21,NA,"FEW",NA,NA,NA,3000,NA,NA,NA,NA,NA,NA,NA,NA,NA,NA,NA,"RJFR 011300Z 29003KT 9999 FEW030 17/12 Q1020"
"2856","RJFR",2019-11-01 14:00:00,131.035,33.8456,60.8,55.4,82.37,340,4,0,30.12,NA,6.21,NA,"FEW",NA,NA,NA,3000,NA,NA,NA,NA,NA,NA,NA,NA,NA,NA,NA,"RJFR 011400Z 34004KT 9999 FEW030 16/13 Q1020"
"2857","RJFR",2019-11-01 15:00:00,131.035,33.8456,62.6,55.4,77.29,20,6,0,30.12,NA,6.21,NA,"FEW","SCT",NA,NA,3000,NA,NA,NA,NA,NA,NA,NA,NA,NA,NA,NA,"RJFR 011500Z 02006KT 9999 FEW030 SCT/// 17/13 Q1020"
"2858","RJFR",2019-11-01 16:00:00,131.035,33.8456,62.6,55.4,77.29,30,5,0,30.12,NA,6.21,NA,"FEW",NA,NA,NA,3000,NA,NA,NA,NA,NA,NA,NA,NA,NA,NA,NA,"RJFR 011600Z 03005KT 9999 FEW030 17/13 Q1020"
"2859","RJFR",2019-11-01 17:00:00,131.035,33.8456,60.8,53.6,77.14,20,4,0,30.12,NA,6.21,NA,"FEW",NA,NA,NA,3000,NA,NA,NA,NA,NA,NA,NA,NA,NA,NA,NA,"RJFR 011700Z 02004KT 9999 FEW030 16/12 Q1020"
"2860","RJFR",2019-11-01 18:00:00,131.035,33.8456,59,55.4,87.83,340,4,0,30.09,NA,6.21,NA,"FEW",NA,NA,NA,3000,NA,NA,NA,NA,NA,NA,NA,NA,NA,NA,NA,"RJFR 011800Z 34004KT 9999 FEW030 15/13 Q1019"
"2861","RJFR",2019-11-01 19:00:00,131.035,33.8456,59,55.4,87.83,10,4,0,30.09,NA,6.21,NA,"FEW","BKN",NA,NA,2000,NA,NA,NA,NA,NA,NA,NA,NA,NA,NA,NA,"RJFR 011900Z 01004KT 9999 FEW020 BKN/// 15/13 Q1019"
"2862","RJFR",2019-11-01 20:00:00,131.035,33.8456,59,55.4,87.83,20,5,0,30.12,NA,6.21,NA,"FEW","SCT",NA,NA,2000,NA,NA,NA,NA,NA,NA,NA,NA,NA,NA,NA,"RJFR 012000Z 02005KT 9999 FEW020 SCT/// 15/13 Q1020"
"2863","RJFR",2019-11-01 21:00:00,131.035,33.8456,57.2,53.6,87.74,10,3,0,30.12,NA,6.21,NA,"FEW","SCT",NA,NA,2000,NA,NA,NA,NA,NA,NA,NA,NA,NA,NA,NA,"RJFR 012100Z 01003KT 330V030 9999 FEW020 SCT/// 14/12 Q1020"
"2864","RJFR",2019-11-01 22:00:00,131.035,33.8456,59,55.4,87.83,20,4,0,30.12,NA,6.21,NA,"FEW","BKN",NA,NA,1000,NA,NA,NA,NA,NA,NA,NA,NA,NA,NA,NA,"RJFR 012200Z 02004KT 340V070 9999 FEW010 BKN/// 15/13 Q1020"
"2865","RJFR",2019-11-01 23:00:00,131.035,33.8456,62.6,57.2,82.5,NA,2,0,30.12,NA,6.21,NA,"FEW","BKN",NA,NA,1500,NA,NA,NA,NA,NA,NA,NA,NA,NA,NA,NA,"RJFR 012300Z VRB02KT 9999 FEW015 BKN/// 17/14 Q1020"
"2866","RJBE",2019-11-01 00:00:00,135.2239,34.6328,64.4,55.4,72.56,280,10,0,30.09,NA,6.21,NA,"FEW",NA,NA,NA,2000,NA,NA,NA,NA,NA,NA,NA,NA,NA,NA,NA,"RJBE 010000Z 28010KT 9999 FEW020 18/13 Q1019"
"2867","RJBE",2019-11-01 01:00:00,135.2239,34.6328,64.4,53.6,67.95,240,6,0,30.09,NA,6.21,NA,"FEW",NA,NA,NA,2500,NA,NA,NA,NA,NA,NA,NA,NA,NA,NA,NA,"RJBE 010100Z 24006KT 9999 FEW025 18/12 Q1019"
"2868","RJBE",2019-11-01 02:00:00,135.2239,34.6328,66.2,53.6,63.82,210,4,0,30.09,NA,6.21,NA,"FEW",NA,NA,NA,2500,NA,NA,NA,NA,NA,NA,NA,NA,NA,NA,NA,"RJBE 010200Z 21004KT 180V240 9999 FEW025 19/12 Q1019"
"2869","RJBE",2019-11-01 03:00:00,135.2239,34.6328,66.2,55.4,68.15,220,4,0,30.06,NA,6.21,NA,"FEW",NA,NA,NA,2500,NA,NA,NA,NA,NA,NA,NA,NA,NA,NA,NA,"RJBE 010300Z 22004KT 190V250 9999 FEW025 19/13 Q1018"
"2870","RJBE",2019-11-01 04:00:00,135.2239,34.6328,68,55.4,64.04,220,5,0,30.03,NA,6.21,NA,"FEW",NA,NA,NA,3000,NA,NA,NA,NA,NA,NA,NA,NA,NA,NA,NA,"RJBE 010400Z 22005KT 9999 FEW030 20/13 Q1017"
"2871","RJBE",2019-11-01 05:00:00,135.2239,34.6328,68,53.6,59.97,250,7,0,30.03,NA,6.21,NA,"FEW",NA,NA,NA,3000,NA,NA,NA,NA,NA,NA,NA,NA,NA,NA,NA,"RJBE 010500Z 25007KT 9999 FEW030 20/12 Q1017"
"2872","RJBE",2019-11-01 06:00:00,135.2239,34.6328,68,53.6,59.97,250,7,0,30.03,NA,6.21,NA,"FEW",NA,NA,NA,3000,NA,NA,NA,NA,NA,NA,NA,NA,NA,NA,NA,"RJBE 010600Z 25007KT 9999 FEW030 20/12 Q1017"
"2873","RJBE",2019-11-01 07:00:00,135.2239,34.6328,68,53.6,59.97,250,9,0,30.03,NA,6.21,NA,"SCT",NA,NA,NA,4000,NA,NA,NA,NA,NA,NA,NA,NA,NA,NA,NA,"RJBE 010700Z 25009KT 9999 SCT040 20/12 Q1017"
"2874","RJBE",2019-11-01 08:00:00,135.2239,34.6328,68,55.4,64.04,240,6,0,30.03,NA,6.21,NA,"FEW",NA,NA,NA,4000,NA,NA,NA,NA,NA,NA,NA,NA,NA,NA,NA,"RJBE 010800Z 24006KT 9999 FEW040 20/13 Q1017"
"2875","RJBE",2019-11-01 09:00:00,135.2239,34.6328,66.2,53.6,63.82,310,6,0,30.06,NA,6.21,NA,"FEW","BKN",NA,NA,3000,5000,NA,NA,NA,NA,NA,NA,NA,NA,NA,NA,"RJBE 010900Z 31006KT 9999 FEW030 BKN050 19/12 Q1018"
"2876","RJBE",2019-11-01 10:00:00,135.2239,34.6328,66.2,51.8,59.74,360,8,0,30.09,NA,6.21,NA,"FEW","BKN",NA,NA,3000,5000,NA,NA,NA,NA,NA,NA,NA,NA,NA,NA,"RJBE 011000Z 36008KT 9999 FEW030 BKN050 19/11 Q1019"
"2877","RJBE",2019-11-01 11:00:00,135.2239,34.6328,64.4,51.8,63.6,10,13,0,30.09,NA,6.21,NA,"FEW",NA,NA,NA,3000,NA,NA,NA,NA,NA,NA,NA,NA,NA,NA,NA,"RJBE 011100Z 01013KT 9999 FEW030 18/11 Q1019"
"2878","RJBE",2019-11-01 12:00:00,135.2239,34.6328,64.4,50,59.5,20,12,0,30.09,NA,6.21,NA,NA,NA,NA,NA,NA,NA,NA,NA,NA,NA,NA,NA,NA,NA,NA,NA,"RJBE 011200Z 02012KT CAVOK 18/10 Q1019"
"2879","RJBE",2019-11-01 22:00:00,135.2239,34.6328,55.4,44.6,66.91,20,5,0,30.18,NA,6.21,NA,"FEW","BKN",NA,NA,2000,NA,NA,NA,NA,NA,NA,NA,NA,NA,NA,NA,"RJBE 012200Z 02005KT 9999 FEW020 BKN/// 13/07 Q1022"
"2880","RJBE",2019-11-01 23:00:00,135.2239,34.6328,59,44.6,58.77,60,6,0,30.18,NA,6.21,NA,"FEW","SCT",NA,NA,2000,NA,NA,NA,NA,NA,NA,NA,NA,NA,NA,NA,"RJBE 012300Z 06006KT 9999 FEW020 SCT/// 15/07 Q1022"
"2881","RJOK",2019-11-01 00:00:00,133.6694,33.5461,62.6,48.2,59.26,340,8,0,30.09,NA,6.21,NA,"FEW","SCT",NA,NA,2000,NA,NA,NA,NA,NA,NA,NA,NA,NA,NA,NA,"RJOK 010000Z 34008KT 9999 FEW020 SCT/// 17/09 Q1019"
"2882","RJOK",2019-11-01 01:00:00,133.6694,33.5461,66.2,48.2,52.25,310,5,0,30.06,NA,6.21,NA,"FEW","BKN",NA,NA,2500,NA,NA,NA,NA,NA,NA,NA,NA,NA,NA,NA,"RJOK 010100Z 31005KT 9999 FEW025 BKN/// 19/09 Q1018"
"2883","RJOK",2019-11-01 02:00:00,133.6694,33.5461,71.6,46.4,40.57,310,3,0,30.06,NA,6.21,NA,"FEW","SCT",NA,NA,2500,NA,NA,NA,NA,NA,NA,NA,NA,NA,NA,NA,"RJOK 010200Z 31003KT 260V350 9999 FEW025 SCT/// 22/08 Q1018"
"2884","RJOK",2019-11-01 03:00:00,133.6694,33.5461,71.6,48.2,43.42,170,7,0,30.03,NA,6.21,NA,"FEW","SCT",NA,NA,2500,NA,NA,NA,NA,NA,NA,NA,NA,NA,NA,NA,"RJOK 010300Z 17007KT 9999 FEW025 SCT/// 22/09 Q1017"
"2885","RJOK",2019-11-01 04:00:00,133.6694,33.5461,71.6,50,46.43,160,6,0,30,NA,6.21,NA,"FEW","BKN",NA,NA,2500,NA,NA,NA,NA,NA,NA,NA,NA,NA,NA,NA,"RJOK 010400Z 16006KT 9999 FEW025 BKN/// 22/10 Q1016"
"2886","RJOK",2019-11-01 05:00:00,133.6694,33.5461,73.4,50,43.69,140,6,0,30,NA,6.21,NA,"FEW","BKN",NA,NA,2500,NA,NA,NA,NA,NA,NA,NA,NA,NA,NA,NA,"RJOK 010500Z 14006KT 9999 FEW025 BKN/// 23/10 Q1016"
"2887","RJOK",2019-11-01 06:00:00,133.6694,33.5461,71.6,50,46.43,140,4,0,30,NA,6.21,NA,"FEW","SCT",NA,NA,2500,NA,NA,NA,NA,NA,NA,NA,NA,NA,NA,NA,"RJOK 010600Z 14004KT 100V170 9999 FEW025 SCT/// 22/10 Q1016"
"2888","RJOK",2019-11-01 07:00:00,133.6694,33.5461,71.6,50,46.43,150,4,0,30,NA,6.21,NA,"FEW",NA,NA,NA,2500,NA,NA,NA,NA,NA,NA,NA,NA,NA,NA,NA,"RJOK 010700Z 15004KT 120V180 9999 FEW025 22/10 Q1016"
"2889","RJOK",2019-11-01 08:00:00,133.6694,33.5461,69.8,50,49.37,NA,1,0,30.03,NA,6.21,NA,"FEW",NA,NA,NA,2500,NA,NA,NA,NA,NA,NA,NA,NA,NA,NA,NA,"RJOK 010800Z VRB01KT 9999 FEW025 21/10 Q1017"
"2890","RJOK",2019-11-01 09:00:00,133.6694,33.5461,66.2,41,39.72,10,6,0,30.06,NA,6.21,NA,"FEW",NA,NA,NA,2500,NA,NA,NA,NA,NA,NA,NA,NA,NA,NA,NA,"RJOK 010900Z 01006KT 330V050 9999 FEW025 19/05 Q1018"
"2891","RJOK",2019-11-01 10:00:00,133.6694,33.5461,64.4,44.6,48.55,360,6,0,30.06,NA,6.21,NA,"FEW",NA,NA,NA,2500,NA,NA,NA,NA,NA,NA,NA,NA,NA,NA,NA,"RJOK 011000Z 36006KT 9999 FEW025 18/07 Q1018"
"2892","RJOK",2019-11-01 11:00:00,133.6694,33.5461,62.6,46.4,55.37,360,9,0,30.09,NA,6.21,NA,"FEW",NA,NA,NA,2000,NA,NA,NA,NA,NA,NA,NA,NA,NA,NA,NA,"RJOK 011100Z 36009KT 9999 FEW020 17/08 Q1019"
"2893","RJOK",2019-11-01 22:00:00,133.6694,33.5461,55.4,46.4,71.64,350,8,0,30.09,NA,6.21,NA,"FEW","BKN",NA,NA,1500,NA,NA,NA,NA,NA,NA,NA,NA,NA,NA,NA,"RJOK 012200Z 35008KT 9999 FEW015 BKN/// 13/08 Q1019"
"2894","RJOK",2019-11-01 23:00:00,133.6694,33.5461,60.8,44.6,55.12,10,11,0,30.12,NA,6.21,NA,"FEW","SCT",NA,NA,1500,NA,NA,NA,NA,NA,NA,NA,NA,NA,NA,NA,"RJOK 012300Z 01011KT 9999 FEW015 SCT/// 16/07 Q1020"
"2895","RJNK",2019-11-01 00:00:00,136.4075,36.3939,66.2,53.6,63.82,190,6,0,30.09,NA,6.21,NA,"FEW","BKN",NA,NA,2000,5000,NA,NA,NA,NA,NA,NA,NA,NA,NA,NA,"RJNK 010000Z 19006KT 140V210 9999 FEW020 BKN050 19/12 Q1019"
"2896","RJNK",2019-11-01 01:00:00,136.4075,36.3939,68,53.6,59.97,200,12,0,30.09,NA,6.21,NA,"FEW","SCT",NA,NA,2000,6000,NA,NA,NA,NA,NA,NA,NA,NA,NA,NA,"RJNK 010100Z 20012KT 9999 FEW020 SCT060 20/12 Q1019"
"2897","RJNK",2019-11-01 02:00:00,136.4075,36.3939,69.8,53.6,56.38,230,12,0,30.06,NA,6.21,NA,"FEW",NA,NA,NA,2000,NA,NA,NA,NA,NA,NA,NA,NA,NA,NA,NA,"RJNK 010200Z 23012KT 9999 FEW020 21/12 Q1018"
"2898","RJNK",2019-11-01 03:00:00,136.4075,36.3939,71.6,55.4,56.63,230,10,0,30.06,NA,6.21,NA,"FEW","SCT",NA,NA,2000,3000,NA,NA,NA,NA,NA,NA,NA,NA,NA,NA,"RJNK 010300Z 23010KT 9999 FEW020 SCT030 22/13 Q1018"
"2899","RJNK",2019-11-01 04:00:00,136.4075,36.3939,71.6,55.4,56.63,250,11,0,30.06,NA,6.21,NA,"FEW","SCT",NA,NA,2000,3000,NA,NA,NA,NA,NA,NA,NA,NA,NA,NA,"RJNK 010400Z 25011KT 9999 FEW020 SCT030 22/13 Q1018"
"2900","RJNK",2019-11-01 05:00:00,136.4075,36.3939,68,53.6,59.97,10,12,0,30.06,NA,6.21,NA,"FEW","SCT",NA,NA,2000,3000,NA,NA,NA,NA,NA,NA,NA,NA,NA,NA,"RJNK 010500Z 01012KT 9999 FEW020 SCT030 20/12 Q1018"
"2901","RJNK",2019-11-01 06:00:00,136.4075,36.3939,66.2,51.8,59.74,10,13,0,30.06,NA,6.21,NA,"FEW","BKN","BKN",NA,2000,3000,6000,NA,NA,NA,NA,NA,NA,NA,NA,NA,"RJNK 010600Z 01013KT 9999 FEW020 BKN030 BKN060 19/11 Q1018"
"2902","RJNK",2019-11-01 07:00:00,136.4075,36.3939,62.6,50,63.38,20,15,0,30.09,NA,6.21,NA,"FEW","BKN","BKN",NA,2000,3000,6000,NA,NA,NA,NA,NA,NA,NA,NA,NA,"RJNK 010700Z 02015KT 9999 FEW020 BKN030 BKN060 17/10 Q1019"
"2903","RJNK",2019-11-01 08:00:00,136.4075,36.3939,62.6,48.2,59.26,30,11,0,30.12,NA,6.21,NA,"FEW","BKN","BKN",NA,2000,3000,6000,NA,NA,NA,NA,NA,NA,NA,NA,NA,"RJNK 010800Z 03011KT 9999 FEW020 BKN030 BKN060 17/09 Q1020"
"2904","RJNK",2019-11-01 09:00:00,136.4075,36.3939,60.8,48.2,63.15,30,10,0,30.12,NA,6.21,NA,"SCT","SCT",NA,NA,3000,6000,NA,NA,NA,NA,NA,NA,NA,NA,NA,NA,"RJNK 010900Z 03010KT 9999 SCT030 SCT060 16/09 Q1020"
"2905","RJNK",2019-11-01 10:00:00,136.4075,36.3939,59,44.6,58.77,40,12,0,30.15,NA,6.21,23,"FEW",NA,NA,NA,3000,NA,NA,NA,NA,NA,NA,NA,NA,NA,NA,NA,"RJNK 011000Z 04012G23KT 9999 FEW030 15/07 Q1021"
"2906","RJNK",2019-11-01 11:00:00,136.4075,36.3939,57.2,44.6,62.69,40,8,0,30.15,NA,6.21,NA,"FEW",NA,NA,NA,3000,NA,NA,NA,NA,NA,NA,NA,NA,NA,NA,NA,"RJNK 011100Z 04008KT 9999 FEW030 14/07 Q1021"
"2907","RJNK",2019-11-01 12:00:00,136.4075,36.3939,55.4,42.8,62.46,50,8,0,30.15,NA,6.21,NA,"FEW",NA,NA,NA,3000,NA,NA,NA,NA,NA,NA,NA,NA,NA,NA,NA,"RJNK 011200Z 05008KT 9999 FEW030 13/06 Q1021"
"2908","RJNK",2019-11-01 13:00:00,136.4075,36.3939,53.6,44.6,71.45,50,7,0,30.18,NA,6.21,NA,"FEW",NA,NA,NA,3000,NA,NA,NA,NA,NA,NA,NA,NA,NA,NA,NA,"RJNK 011300Z 05007KT 9999 FEW030 12/07 Q1022"
"2909","RJNK",2019-11-01 14:00:00,136.4075,36.3939,51.8,42.8,71.26,40,5,0,30.18,NA,6.21,NA,"FEW",NA,NA,NA,5000,NA,NA,NA,NA,NA,NA,NA,NA,NA,NA,NA,"RJNK 011400Z 04005KT 9999 FEW050 11/06 Q1022"
"2910","RJNK",2019-11-01 15:00:00,136.4075,36.3939,51.8,41,66.48,50,5,0,30.18,NA,6.21,NA,"FEW",NA,NA,NA,5000,NA,NA,NA,NA,NA,NA,NA,NA,NA,NA,NA,"RJNK 011500Z 05005KT 9999 FEW050 11/05 Q1022"
"2911","RJNK",2019-11-01 16:00:00,136.4075,36.3939,50,41,71.07,70,4,0,30.18,NA,6.21,NA,"FEW",NA,NA,NA,5000,NA,NA,NA,NA,NA,NA,NA,NA,NA,NA,48.44,"RJNK 011600Z 07004KT 9999 FEW050 10/05 Q1022"
"2912","RJNK",2019-11-01 17:00:00,136.4075,36.3939,50,39.2,66.27,60,4,0,30.18,NA,6.21,NA,"FEW",NA,NA,NA,5000,NA,NA,NA,NA,NA,NA,NA,NA,NA,NA,48.44,"RJNK 011700Z 06004KT 9999 FEW050 10/04 Q1022"
"2913","RJNK",2019-11-01 18:00:00,136.4075,36.3939,50,39.2,66.27,60,3,0,30.18,NA,6.21,NA,"FEW",NA,NA,NA,5000,NA,NA,NA,NA,NA,NA,NA,NA,NA,NA,49.27,"RJNK 011800Z 06003KT 9999 FEW050 10/04 Q1022"
"2914","RJNK",2019-11-01 19:00:00,136.4075,36.3939,48.2,42.8,81.47,110,3,0,30.15,NA,6.21,NA,"FEW",NA,NA,NA,5000,NA,NA,NA,NA,NA,NA,NA,NA,NA,NA,47.21,"RJNK 011900Z 11003KT 9999 FEW050 09/06 Q1021"
"2915","RJNK",2019-11-01 20:00:00,136.4075,36.3939,46.4,39.2,75.84,120,3,0,30.18,NA,6.21,NA,"FEW",NA,NA,NA,5000,NA,NA,NA,NA,NA,NA,NA,NA,NA,NA,45.15,"RJNK 012000Z 12003KT 9999 FEW050 08/04 Q1022"
"2916","RJNK",2019-11-01 21:00:00,136.4075,36.3939,46.4,41,81.34,130,4,0,30.18,NA,6.21,NA,"FEW",NA,NA,NA,5000,NA,NA,NA,NA,NA,NA,NA,NA,NA,NA,44.24,"RJNK 012100Z 13004KT 9999 FEW050 08/05 Q1022"
"2917","RJNK",2019-11-01 22:00:00,136.4075,36.3939,46.4,41,81.34,120,4,0,30.21,NA,6.21,NA,"FEW",NA,NA,NA,5000,NA,NA,NA,NA,NA,NA,NA,NA,NA,NA,44.24,"RJNK 012200Z 12004KT 9999 FEW050 08/05 Q1023"
"2918","RJNK",2019-11-01 23:00:00,136.4075,36.3939,50,41,71.07,120,5,0,30.21,NA,6.21,NA,"FEW",NA,NA,NA,5000,NA,NA,NA,NA,NA,NA,NA,NA,NA,NA,47.77,"RJNK 012300Z 12005KT 9999 FEW050 10/05 Q1023"
"2919","RJFT",2019-11-01 00:00:00,130.8553,32.8372,60.8,53.6,77.14,NA,2,0,30.18,NA,6.21,NA,NA,NA,NA,NA,NA,NA,NA,NA,NA,NA,NA,NA,NA,NA,NA,NA,"RJFT 010000Z VRB02KT CAVOK 16/12 Q1022"
"2920","RJFT",2019-11-01 01:00:00,130.8553,32.8372,62.6,53.6,72.38,340,3,0,30.15,NA,6.21,NA,"FEW","BKN",NA,NA,3000,NA,NA,NA,NA,NA,NA,NA,NA,NA,NA,NA,"RJFT 010100Z 34003KT 260V040 9999 FEW030 BKN/// 17/12 Q1021"
"2921","RJFT",2019-11-01 02:00:00,130.8553,32.8372,64.4,51.8,63.6,290,4,0,30.15,NA,6.21,NA,"FEW","BKN",NA,NA,3500,NA,NA,NA,NA,NA,NA,NA,NA,NA,NA,NA,"RJFT 010200Z 29004KT 240V350 9999 FEW035 BKN/// 18/11 Q1021"
"2922","RJFT",2019-11-01 03:00:00,130.8553,32.8372,68,53.6,59.97,NA,2,0,30.12,NA,6.21,NA,NA,NA,NA,NA,NA,NA,NA,NA,NA,NA,NA,NA,NA,NA,NA,NA,"RJFT 010300Z VRB02KT CAVOK 20/12 Q1020"
"2923","RJFT",2019-11-01 04:00:00,130.8553,32.8372,69.8,51.8,52.77,360,4,0,30.06,NA,6.21,NA,NA,NA,NA,NA,NA,NA,NA,NA,NA,NA,NA,NA,NA,NA,NA,NA,"RJFT 010400Z 36004KT 300V050 CAVOK 21/11 Q1018"
"2924","RJFT",2019-11-01 05:00:00,130.8553,32.8372,71.6,51.8,49.64,260,3,0,30.06,NA,6.21,NA,"FEW",NA,NA,NA,4000,NA,NA,NA,NA,NA,NA,NA,NA,NA,NA,NA,"RJFT 010500Z 26003KT 150V310 9999 FEW040 22/11 Q1018"
"2925","RJFT",2019-11-01 06:00:00,130.8553,32.8372,73.4,51.8,46.71,280,4,0,30.06,NA,6.21,NA,"FEW",NA,NA,NA,4000,NA,NA,NA,NA,NA,NA,NA,NA,NA,NA,NA,"RJFT 010600Z 28004KT 230V320 9999 FEW040 23/11 Q1018"
"2926","RJFT",2019-11-01 07:00:00,130.8553,32.8372,71.6,55.4,56.63,300,3,0,30.06,NA,6.21,NA,"FEW",NA,NA,NA,4000,NA,NA,NA,NA,NA,NA,NA,NA,NA,NA,NA,"RJFT 010700Z 30003KT 260V360 9999 FEW040 22/13 Q1018"
"2927","RJFT",2019-11-01 08:00:00,130.8553,32.8372,68,59,72.92,200,4,0,30.06,NA,6.21,NA,NA,NA,NA,NA,NA,NA,NA,NA,NA,NA,NA,NA,NA,NA,NA,NA,"RJFT 010800Z 20004KT CAVOK 20/15 Q1018"
"2928","RJFT",2019-11-01 09:00:00,130.8553,32.8372,64.4,59,82.62,180,4,0,30.09,NA,6.21,NA,NA,NA,NA,NA,NA,NA,NA,NA,NA,NA,NA,NA,NA,NA,NA,NA,"RJFT 010900Z 18004KT CAVOK 18/15 Q1019"
"2929","RJFT",2019-11-01 10:00:00,130.8553,32.8372,59,57.2,93.74,100,3,0,30.09,NA,6.21,NA,NA,NA,NA,NA,NA,NA,NA,NA,NA,NA,NA,NA,NA,NA,NA,NA,"RJFT 011000Z 10003KT CAVOK 15/14 Q1019"
"2930","RJFT",2019-11-01 11:00:00,130.8553,32.8372,59,57.2,93.74,NA,2,0,30.12,NA,6.21,NA,NA,NA,NA,NA,NA,NA,NA,NA,NA,NA,NA,NA,NA,NA,NA,NA,"RJFT 011100Z VRB02KT CAVOK 15/14 Q1020"
"2931","RJFT",2019-11-01 12:00:00,130.8553,32.8372,59,53.6,82.25,60,8,0,30.12,NA,6.21,NA,NA,NA,NA,NA,NA,NA,NA,NA,NA,NA,NA,NA,NA,NA,NA,NA,"RJFT 011200Z 06008KT CAVOK 15/12 Q1020"
"2932","RJFT",2019-11-01 21:10:00,130.8553,32.8372,51.8,51.8,100,150,3,0,30.09,NA,6.21,NA,NA,NA,NA,NA,NA,NA,NA,NA,NA,NA,NA,NA,NA,NA,NA,NA,"RJFT 012110Z 15003KT CAVOK 11/11 Q1019 RMK A3012 VOLCANIC ASH CLOUD E"
"2933","RJFT",2019-11-01 22:00:00,130.8553,32.8372,50,50,100,70,3,0,30.09,NA,6.21,NA,"FEW","BKN",NA,NA,2500,NA,NA,NA,NA,NA,NA,NA,NA,NA,NA,49.27,"RJFT 012200Z 07003KT 9999 FEW025 BKN/// 10/10 Q1019"
"2934","RJFT",2019-11-01 23:00:00,130.8553,32.8372,59,53.6,82.25,NA,1,0,30.12,NA,6.21,NA,"FEW",NA,NA,NA,2500,NA,NA,NA,NA,NA,NA,NA,NA,NA,NA,NA,"RJFT 012300Z VRB01KT 9999 FEW025 15/12 Q1020"
"2935","RJCK",2019-11-01 00:00:00,144.1931,43.0408,55.4,46.4,71.64,300,12,0,29.62,NA,6.21,NA,"FEW","SCT",NA,NA,1000,10000,NA,NA,NA,NA,NA,NA,NA,NA,NA,NA,"RJCK 010000Z 30012KT 260V340 9999 FEW010 SCT100 13/08 Q1003"
"2936","RJCK",2019-11-01 01:00:00,144.1931,43.0408,53.6,39.2,58.02,280,15,0,29.62,NA,6.21,NA,"FEW","SCT","BKN",NA,1000,2000,5000,NA,"-SHRA",NA,NA,NA,NA,NA,NA,NA,"RJCK 010100Z 28015KT 250V320 9999 -SHRA FEW010 SCT020 BKN050 12/04 Q1003"
"2937","RJCK",2019-11-01 02:00:00,144.1931,43.0408,59,33.8,38.56,290,16,0,29.59,NA,6.21,26,"FEW","SCT",NA,NA,4000,8000,NA,NA,NA,NA,NA,NA,NA,NA,NA,NA,"RJCK 010200Z 29016G26KT 250V320 9999 FEW040 SCT080 15/01 Q1002"
"2938","RJCK",2019-11-01 03:00:00,144.1931,43.0408,57.2,30.2,35.57,270,17,0,29.59,NA,6.21,28,"FEW",NA,NA,NA,5000,NA,NA,NA,NA,NA,NA,NA,NA,NA,NA,NA,"RJCK 010300Z 27017G28KT 240V310 9999 FEW050 14/M01 Q1002"
"2939","RJCK",2019-11-01 04:00:00,144.1931,43.0408,57.2,30.2,35.57,290,18,0,29.62,NA,6.21,NA,"FEW",NA,NA,NA,5000,NA,NA,NA,NA,NA,NA,NA,NA,NA,NA,NA,"RJCK 010400Z 29018KT 240V320 9999 FEW050 14/M01 Q1003"
"2940","RJCK",2019-11-01 05:00:00,144.1931,43.0408,55.4,28.4,35.28,260,13,0,29.62,NA,6.21,32,"FEW",NA,NA,NA,5000,NA,NA,NA,NA,NA,NA,NA,NA,NA,NA,NA,"RJCK 010500Z 26013G32KT 230V300 9999 FEW050 13/M02 Q1003"
"2941","RJCK",2019-11-01 06:00:00,144.1931,43.0408,53.6,28.4,37.67,270,12,0,29.65,NA,6.21,27,"FEW",NA,NA,NA,5000,NA,NA,NA,NA,NA,NA,NA,NA,NA,NA,NA,"RJCK 010600Z 27012G27KT 210V310 9999 FEW050 12/M02 Q1004"
"2942","RJCK",2019-11-01 07:00:00,144.1931,43.0408,50,30.2,46.31,270,10,0,29.68,NA,6.21,NA,"FEW",NA,NA,NA,5000,NA,NA,NA,NA,NA,NA,NA,NA,NA,NA,45.54,"RJCK 010700Z 27010KT 240V320 9999 FEW050 10/M01 Q1005"
"2943","RJCK",2019-11-01 08:00:00,144.1931,43.0408,46.4,32,57,260,8,0,29.71,NA,6.21,NA,"FEW",NA,NA,NA,5000,NA,NA,NA,NA,NA,NA,NA,NA,NA,NA,41.85,"RJCK 010800Z 26008KT 9999 FEW050 08/00 Q1006"
"2944","RJCK",2019-11-01 09:00:00,144.1931,43.0408,46.4,32,57,260,5,0,29.74,NA,6.21,NA,"FEW",NA,NA,NA,5000,NA,NA,NA,NA,NA,NA,NA,NA,NA,NA,43.5,"RJCK 010900Z 26005KT 210V300 9999 FEW050 08/00 Q1007"
"2945","RJCK",2019-11-01 10:00:00,144.1931,43.0408,44.6,32,61.03,250,5,0,29.77,NA,6.21,NA,"FEW",NA,NA,NA,5000,NA,NA,NA,NA,NA,NA,NA,NA,NA,NA,41.36,"RJCK 011000Z 25005KT 180V280 9999 FEW050 07/M00 Q1008"
"2946","RJCK",2019-11-01 11:00:00,144.1931,43.0408,42.8,32,65.38,240,6,0,29.77,NA,6.21,NA,"FEW",NA,NA,NA,5000,NA,NA,NA,NA,NA,NA,NA,NA,NA,NA,38.54,"RJCK 011100Z 24006KT 9999 FEW050 06/M00 Q1008"
"2947","RJCK",2019-11-01 21:45:00,144.1931,43.0408,46.4,33.8,61.28,270,9,0,29.91,NA,6.21,NA,"FEW",NA,NA,NA,3000,NA,NA,NA,NA,NA,NA,NA,NA,NA,NA,41.42,"RJCK 012145Z 27009KT 9999 FEW030 08/01 Q1013 RMK 1CU030 A2992"
"2948","RJCK",2019-11-01 22:00:00,144.1931,43.0408,48.2,33.8,57.26,260,11,0,29.91,NA,6.21,NA,"FEW",NA,NA,NA,3000,NA,NA,NA,NA,NA,NA,NA,NA,NA,NA,42.94,"RJCK 012200Z 26011KT 9999 FEW030 09/01 Q1013"
"2949","RJCK",2019-11-01 23:00:00,144.1931,43.0408,50,33.8,53.54,260,12,0,29.91,NA,6.21,NA,"FEW",NA,NA,NA,3000,NA,NA,NA,NA,NA,NA,NA,NA,NA,NA,44.91,"RJCK 012300Z 26012KT 9999 FEW030 10/01 Q1013"
"2950","RJAF",2019-11-01 00:00:00,137.9228,36.1667,44.6,42.8,93.35,350,4,0,30.03,NA,3.11,NA,"FEW",NA,NA,NA,100,NA,NA,NA,"BR",NA,NA,NA,NA,NA,NA,42.13,"RJAF 010000Z 35004KT 320V080 5000 BR FEW001 07/06 Q1017"
"2951","RJAF",2019-11-01 01:00:00,137.9228,36.1667,50,42.8,76.18,10,5,0,30.03,NA,6.21,NA,"FEW",NA,NA,NA,6000,NA,NA,NA,NA,NA,NA,NA,NA,NA,NA,47.77,"RJAF 010100Z 01005KT 340V040 9999 FEW060 10/06 Q1017"
"2952","RJAF",2019-11-01 02:00:00,137.9228,36.1667,55.4,44.6,66.91,350,4,0,30.03,NA,6.21,NA,"FEW",NA,NA,NA,6000,NA,NA,NA,NA,NA,NA,NA,NA,NA,NA,NA,"RJAF 010200Z 35004KT 300V060 9999 FEW060 13/07 Q1017"
"2953","RJAF",2019-11-01 03:00:00,137.9228,36.1667,59,42.8,54.86,NA,2,0,30,NA,6.21,NA,"FEW",NA,NA,NA,7000,NA,NA,NA,NA,NA,NA,NA,NA,NA,NA,NA,"RJAF 010300Z VRB02KT 9999 FEW070 15/06 Q1016"
"2954","RJAF",2019-11-01 04:00:00,137.9228,36.1667,64.4,39.2,39.43,NA,2,0,29.97,NA,6.21,NA,"FEW",NA,NA,NA,7000,NA,NA,NA,NA,NA,NA,NA,NA,NA,NA,NA,"RJAF 010400Z VRB02KT 9999 FEW070 18/04 Q1015"
"2955","RJAF",2019-11-01 05:00:00,137.9228,36.1667,66.2,42.8,42.57,330,4,0,29.97,NA,6.21,NA,"FEW",NA,NA,NA,7000,NA,NA,NA,NA,NA,NA,NA,NA,NA,NA,NA,"RJAF 010500Z 33004KT 280V040 9999 FEW070 19/06 Q1015"
"2956","RJAF",2019-11-01 06:00:00,137.9228,36.1667,66.2,39.2,37.03,320,5,0,29.97,NA,6.21,NA,"FEW",NA,NA,NA,6000,NA,NA,NA,NA,NA,NA,NA,NA,NA,NA,NA,"RJAF 010600Z 32005KT 260V360 9999 FEW060 19/04 Q1015"
"2957","RJAF",2019-11-01 07:00:00,137.9228,36.1667,62.6,42.8,48.28,360,11,0,30,NA,6.21,NA,"FEW",NA,NA,NA,6000,NA,NA,NA,NA,NA,NA,NA,NA,NA,NA,NA,"RJAF 010700Z 36011KT 9999 FEW060 17/06 Q1016"
"2958","RJAF",2019-11-01 23:10:00,137.9228,36.1667,48.2,41,76.01,NA,1,0,30.21,NA,6.21,NA,"FEW",NA,NA,NA,2000,NA,NA,NA,NA,NA,NA,NA,NA,NA,NA,NA,"RJAF 012310Z VRB01KT 9999 FEW020 09/05 Q1023 RMK 1CU020 A3022"
"2959","RJAF",2019-11-01 23:30:00,137.9228,36.1667,48.2,37.4,66.05,NA,2,0,30.21,NA,6.21,NA,"FEW",NA,NA,NA,2000,NA,NA,NA,NA,NA,NA,NA,NA,NA,NA,NA,"RJAF 012330Z VRB02KT 9999 FEW020 09/03 Q1023"
"2960","RJOM",2019-11-01 00:00:00,132.6997,33.8272,66.2,57.2,72.74,110,4,0,30.12,NA,6.21,NA,"FEW","SCT",NA,NA,2000,2500,NA,NA,NA,NA,NA,NA,NA,NA,NA,NA,"RJOM 010000Z 11004KT 060V170 9999 FEW020 SCT025 19/14 Q1020"
"2961","RJOM",2019-11-01 01:00:00,132.6997,33.8272,69.8,60.8,73.09,220,7,0,30.12,NA,6.21,NA,"FEW","SCT",NA,NA,2000,3000,NA,NA,NA,NA,NA,NA,NA,NA,NA,NA,"RJOM 010100Z 22007KT 180V250 9999 FEW020 SCT030 21/16 Q1020"
"2962","RJOM",2019-11-01 02:00:00,132.6997,33.8272,68,57.2,68.35,240,5,0,30.12,NA,6.21,NA,"FEW",NA,NA,NA,2000,NA,NA,NA,NA,NA,NA,NA,NA,NA,NA,NA,"RJOM 010200Z 24005KT 180V350 9999 FEW020 20/14 Q1020"
"2963","RJOM",2019-11-01 03:00:00,132.6997,33.8272,69.8,57.2,64.26,240,4,0,30.09,NA,6.21,NA,"FEW",NA,NA,NA,2500,NA,NA,NA,NA,NA,NA,NA,NA,NA,NA,NA,"RJOM 010300Z 24004KT 170V280 9999 FEW025 21/14 Q1019"
"2964","RJOM",2019-11-01 04:00:00,132.6997,33.8272,69.8,59,68.55,260,3,0,30.06,NA,6.21,NA,"FEW",NA,NA,NA,2500,NA,NA,NA,NA,NA,NA,NA,NA,NA,NA,NA,"RJOM 010400Z 26003KT 210V330 9999 FEW025 21/15 Q1018"
"2965","RJOM",2019-11-01 05:00:00,132.6997,33.8272,69.8,55.4,60.21,240,5,0,30.06,NA,6.21,NA,"FEW",NA,NA,NA,3000,NA,NA,NA,NA,NA,NA,NA,NA,NA,NA,NA,"RJOM 010500Z 24005KT 210V270 9999 FEW030 21/13 Q1018"
"2966","RJOM",2019-11-01 06:00:00,132.6997,33.8272,69.8,55.4,60.21,250,3,0,30.06,NA,6.21,NA,"FEW",NA,NA,NA,3000,NA,NA,NA,NA,NA,NA,NA,NA,NA,NA,NA,"RJOM 010600Z 25003KT 210V310 9999 FEW030 21/13 Q1018"
"2967","RJOM",2019-11-01 07:00:00,132.6997,33.8272,69.8,53.6,56.38,260,4,0,30.06,NA,6.21,NA,"FEW",NA,NA,NA,3500,NA,NA,NA,NA,NA,NA,NA,NA,NA,NA,NA,"RJOM 010700Z 26004KT 230V320 9999 FEW035 21/12 Q1018"
"2968","RJOM",2019-11-01 08:00:00,132.6997,33.8272,68,55.4,64.04,240,3,0,30.06,NA,6.21,NA,"FEW",NA,NA,NA,3500,NA,NA,NA,NA,NA,NA,NA,NA,NA,NA,NA,"RJOM 010800Z 24003KT 9999 FEW035 20/13 Q1018"
"2969","RJOM",2019-11-01 09:00:00,132.6997,33.8272,68,57.2,68.35,NA,2,0,30.06,NA,6.21,NA,"FEW",NA,NA,NA,3000,NA,NA,NA,NA,NA,NA,NA,NA,NA,NA,NA,"RJOM 010900Z VRB02KT 9999 FEW030 20/14 Q1018"
"2970","RJOM",2019-11-01 10:00:00,132.6997,33.8272,64.4,57.2,77.45,120,5,0,30.09,NA,6.21,NA,"FEW","SCT",NA,NA,2500,NA,NA,NA,NA,NA,NA,NA,NA,NA,NA,NA,"RJOM 011000Z 12005KT 9999 FEW025 SCT/// 18/14 Q1019"
"2971","RJOM",2019-11-01 11:00:00,132.6997,33.8272,62.6,55.4,77.29,120,6,0,30.12,NA,6.21,NA,"FEW","SCT",NA,NA,2500,NA,NA,NA,NA,NA,NA,NA,NA,NA,NA,NA,"RJOM 011100Z 12006KT 9999 FEW025 SCT/// 17/13 Q1020"
"2972","RJOM",2019-11-01 12:00:00,132.6997,33.8272,62.6,53.6,72.38,110,9,0,30.12,NA,6.21,NA,"FEW",NA,NA,NA,2500,NA,NA,NA,NA,NA,NA,NA,NA,NA,NA,NA,"RJOM 011200Z 11009KT 9999 FEW025 17/12 Q1020"
"2973","RJOM",2019-11-01 21:10:00,132.6997,33.8272,55.4,51.8,87.65,130,6,0,30.12,NA,6.21,NA,"FEW","SCT",NA,NA,2500,NA,NA,NA,NA,NA,NA,NA,NA,NA,NA,NA,"RJOM 012110Z 13006KT 9999 FEW025 SCT/// 13/11 Q1020 RMK 1CU025 A3013"
"2974","RJOM",2019-11-01 22:00:00,132.6997,33.8272,57.2,51.8,82.12,120,5,0,30.12,NA,6.21,NA,"FEW","SCT",NA,NA,2500,NA,NA,NA,NA,NA,NA,NA,NA,NA,NA,NA,"RJOM 012200Z 12005KT 9999 FEW025 SCT/// 14/11 Q1020"
"2975","RJOM",2019-11-01 23:00:00,132.6997,33.8272,62.6,51.8,67.75,NA,2,0,30.12,NA,6.21,NA,"FEW","SCT",NA,NA,2500,NA,NA,NA,NA,NA,NA,NA,NA,NA,NA,NA,"RJOM 012300Z VRB02KT 9999 FEW025 SCT/// 17/11 Q1020"
"2976","RJCM",2019-11-01 00:00:00,144.1642,43.8806,53.6,37.4,54.07,NA,5,0,29.62,NA,6.21,NA,"FEW","SCT","BKN",NA,2000,3000,5000,NA,NA,NA,NA,NA,NA,NA,NA,NA,"RJCM 010000Z VRB05KT 9999 FEW020 SCT030 BKN050 12/03 Q1003"
"2977","RJCM",2019-11-01 01:00:00,144.1642,43.8806,55.4,32,40.84,270,8,0,29.62,NA,6.21,NA,"FEW",NA,NA,NA,2000,NA,NA,NA,NA,NA,NA,NA,NA,NA,NA,NA,"RJCM 010100Z 27008KT 220V330 9999 FEW020 13/M00 Q1003"
"2978","RJCM",2019-11-01 02:00:00,144.1642,43.8806,57.2,28.4,33.05,280,9,0,29.59,NA,6.21,NA,"FEW",NA,NA,NA,3000,NA,NA,NA,NA,NA,NA,NA,NA,NA,NA,NA,"RJCM 010200Z 28009KT 230V330 9999 FEW030 14/M02 Q1002"
"2979","RJCM",2019-11-01 03:00:00,144.1642,43.8806,55.4,28.4,35.28,NA,8,0,29.59,NA,6.21,NA,"FEW",NA,NA,NA,3000,NA,NA,NA,NA,NA,NA,NA,NA,NA,NA,NA,"RJCM 010300Z VRB08KT 9999 FEW030 13/M02 Q1002"
"2980","RJCM",2019-11-01 04:00:00,144.1642,43.8806,57.2,26.6,30.69,NA,10,0,29.59,NA,6.21,20,"FEW","SCT",NA,NA,3000,6000,NA,NA,NA,NA,NA,NA,NA,NA,NA,NA,"RJCM 010400Z VRB10G20KT 9999 FEW030 SCT060 14/M03 Q1002"
"2981","RJCM",2019-11-01 05:00:00,144.1642,43.8806,53.6,28.4,37.67,280,10,0,29.62,NA,6.21,21,"FEW","BKN",NA,NA,2000,7000,NA,NA,NA,NA,NA,NA,NA,NA,NA,NA,"RJCM 010500Z 28010G21KT 230V340 9999 FEW020 BKN070 12/M02 Q1003"
"2982","RJCM",2019-11-01 06:00:00,144.1642,43.8806,50,28.4,43.03,260,9,0,29.65,NA,6.21,NA,"FEW","SCT",NA,NA,2000,6000,NA,NA,NA,NA,NA,NA,NA,NA,NA,45.9,"RJCM 010600Z 26009KT 180V320 9999 FEW020 SCT060 10/M02 Q1004"
"2983","RJCM",2019-11-01 07:00:00,144.1642,43.8806,48.2,28.4,46.02,270,8,0,29.68,NA,6.21,NA,"FEW",NA,NA,NA,2000,NA,NA,NA,NA,NA,NA,NA,NA,NA,NA,44.07,"RJCM 010700Z 27008KT 220V320 9999 FEW020 09/M02 Q1005"
"2984","RJCM",2019-11-01 08:00:00,144.1642,43.8806,46.4,28.4,49.24,280,3,0,29.71,NA,6.21,NA,"FEW","SCT","BKN",NA,2000,6000,13000,NA,NA,NA,NA,NA,NA,NA,NA,45.15,"RJCM 010800Z 28003KT 220V340 9999 FEW020 SCT060 BKN130 08/M02 Q1006"
"2985","RJCM",2019-11-01 09:00:00,144.1642,43.8806,46.4,30.2,53,250,6,0,29.71,NA,6.21,NA,"FEW","SCT","BKN",NA,2000,5000,8000,NA,NA,NA,NA,NA,NA,NA,NA,42.87,"RJCM 010900Z 25006KT 210V310 9999 FEW020 SCT050 BKN080 08/M01 Q1006"
"2986","RJCM",2019-11-01 10:00:00,144.1642,43.8806,46.4,30.2,53,270,3,0,29.77,NA,6.21,NA,"FEW","SCT","BKN",NA,2000,4500,NA,NA,NA,NA,NA,NA,NA,NA,NA,45.15,"RJCM 011000Z 27003KT 180V350 9999 FEW020 SCT045 BKN/// 08/M01 Q1008"
"2987","RJCM",2019-11-01 11:00:00,144.1642,43.8806,44.6,32,61.03,NA,2,0,29.8,NA,6.21,NA,"FEW","SCT","BKN",NA,2000,6000,7000,NA,NA,NA,NA,NA,NA,NA,NA,NA,"RJCM 011100Z VRB02KT 9999 FEW020 SCT060 BKN070 07/M00 Q1009"
"2988","RJCM",2019-11-01 22:45:00,144.1642,43.8806,39.2,32,75.16,200,4,0,29.88,NA,6.21,NA,"FEW","BKN",NA,NA,3000,6000,NA,NA,NA,NA,NA,NA,NA,NA,NA,35.83,"RJCM 012245Z 20004KT 170V240 9999 FEW030 BKN060 04/00 Q1012 RMK 1CU030 5CU060 A2990"
"2989","RJCM",2019-11-01 23:00:00,144.1642,43.8806,41,33.8,75.33,160,5,0,29.88,NA,6.21,NA,"FEW","SCT",NA,NA,2000,6000,NA,NA,NA,NA,NA,NA,NA,NA,NA,37.08,"RJCM 012300Z 16005KT 130V200 9999 FEW020 SCT060 05/01 Q1012"
"2990","RJOH",2019-11-01 00:00:00,133.2392,35.4933,64.4,55.4,72.56,220,3,0,30.12,NA,6.21,NA,"FEW",NA,NA,NA,2500,NA,NA,NA,NA,NA,NA,NA,NA,NA,NA,NA,"RJOH 010000Z 22003KT 180V250 9999 FEW025 18/13 Q1020"
"2991","RJOH",2019-11-01 01:00:00,133.2392,35.4933,68,57.2,68.35,250,11,0,30.09,NA,6.21,NA,"FEW",NA,NA,NA,3000,NA,NA,NA,NA,NA,NA,NA,NA,NA,NA,NA,"RJOH 010100Z 25011KT 9999 FEW030 20/14 Q1019"
"2992","RJOH",2019-11-01 02:00:00,133.2392,35.4933,68,57.2,68.35,250,10,0,30.09,NA,6.21,NA,"FEW",NA,NA,NA,3000,NA,NA,NA,NA,NA,NA,NA,NA,NA,NA,NA,"RJOH 010200Z 25010KT 9999 FEW030 20/14 Q1019"
"2993","RJOH",2019-11-01 03:00:00,133.2392,35.4933,69.8,53.6,56.38,280,6,0,30.09,NA,6.21,NA,"FEW","SCT",NA,NA,3000,4000,NA,NA,NA,NA,NA,NA,NA,NA,NA,NA,"RJOH 010300Z 28006KT 240V320 9999 FEW030 SCT040 21/12 Q1019"
"2994","RJOH",2019-11-01 04:00:00,133.2392,35.4933,71.6,51.8,49.64,340,8,0,30.06,NA,6.21,NA,"FEW","BKN",NA,NA,3000,4000,NA,NA,NA,NA,NA,NA,NA,NA,NA,NA,"RJOH 010400Z 34008KT 9999 FEW030 BKN040 22/11 Q1018"
"2995","RJOH",2019-11-01 05:00:00,133.2392,35.4933,71.6,51.8,49.64,340,9,0,30.06,NA,6.21,NA,"FEW","SCT",NA,NA,3000,4000,NA,NA,NA,NA,NA,NA,NA,NA,NA,NA,"RJOH 010500Z 34009KT 300V360 9999 FEW030 SCT040 22/11 Q1018"
"2996","RJOH",2019-11-01 06:00:00,133.2392,35.4933,71.6,51.8,49.64,340,9,0,30.09,NA,6.21,NA,"FEW","SCT",NA,NA,3000,4000,NA,NA,NA,NA,NA,NA,NA,NA,NA,NA,"RJOH 010600Z 34009KT 310V020 9999 FEW030 SCT040 22/11 Q1019"
"2997","RJOH",2019-11-01 07:00:00,133.2392,35.4933,69.8,53.6,56.38,30,9,0,30.09,NA,6.21,NA,"FEW","SCT",NA,NA,3000,4000,NA,NA,NA,NA,NA,NA,NA,NA,NA,NA,"RJOH 010700Z 03009KT 9999 FEW030 SCT040 21/12 Q1019"
"2998","RJOH",2019-11-01 08:00:00,133.2392,35.4933,68,55.4,64.04,40,10,0,30.09,NA,6.21,NA,"FEW","SCT",NA,NA,3000,4000,NA,NA,NA,NA,NA,NA,NA,NA,NA,NA,"RJOH 010800Z 04010KT 9999 FEW030 SCT040 20/13 Q1019"
"2999","RJOH",2019-11-01 09:00:00,133.2392,35.4933,66.2,55.4,68.15,40,12,0,30.12,NA,6.21,NA,"FEW","SCT",NA,NA,2500,4000,NA,NA,NA,NA,NA,NA,NA,NA,NA,NA,"RJOH 010900Z 04012KT 9999 FEW025 SCT040 19/13 Q1020"
"3000","RJOH",2019-11-01 10:00:00,133.2392,35.4933,64.4,55.4,72.56,40,12,0,30.15,NA,6.21,NA,"FEW","SCT",NA,NA,2500,4000,NA,NA,NA,NA,NA,NA,NA,NA,NA,NA,"RJOH 011000Z 04012KT 9999 FEW025 SCT040 18/13 Q1021"
"3001","RJOH",2019-11-01 11:00:00,133.2392,35.4933,64.4,53.6,67.95,50,13,0,30.15,NA,6.21,NA,"FEW","BKN",NA,NA,2500,4000,NA,NA,NA,NA,NA,NA,NA,NA,NA,NA,"RJOH 011100Z 05013KT 9999 FEW025 BKN040 18/12 Q1021"
"3002","RJOH",2019-11-01 12:00:00,133.2392,35.4933,64.4,51.8,63.6,60,12,0,30.15,NA,6.21,NA,"FEW","BKN",NA,NA,2500,4000,NA,NA,NA,NA,NA,NA,NA,NA,NA,NA,"RJOH 011200Z 06012KT 9999 FEW025 BKN040 18/11 Q1021"
"3003","RJOH",2019-11-01 13:00:00,133.2392,35.4933,64.4,50,59.5,50,13,0,30.18,NA,6.21,NA,"FEW","BKN",NA,NA,2500,4000,NA,NA,NA,NA,NA,NA,NA,NA,NA,NA,"RJOH 011300Z 05013KT 9999 FEW025 BKN040 18/10 Q1022"
"3004","RJOH",2019-11-01 14:00:00,133.2392,35.4933,64.4,50,59.5,40,12,0,30.18,NA,6.21,NA,"FEW","BKN",NA,NA,2500,4000,NA,NA,NA,NA,NA,NA,NA,NA,NA,NA,"RJOH 011400Z 04012KT 9999 FEW025 BKN040 18/10 Q1022"
"3005","RJOH",2019-11-01 15:00:00,133.2392,35.4933,64.4,46.4,51.98,50,9,0,30.18,NA,6.21,NA,"FEW","SCT",NA,NA,2500,4000,NA,NA,NA,NA,NA,NA,NA,NA,NA,NA,"RJOH 011500Z 05009KT 9999 FEW025 SCT040 18/08 Q1022"
"3006","RJOH",2019-11-01 16:00:00,133.2392,35.4933,62.6,44.6,51.72,60,9,0,30.18,NA,6.21,NA,"FEW","SCT",NA,NA,2500,4000,NA,NA,NA,NA,NA,NA,NA,NA,NA,NA,"RJOH 011600Z 06009KT 9999 FEW025 SCT040 17/07 Q1022"
"3007","RJOH",2019-11-01 17:00:00,133.2392,35.4933,60.8,44.6,55.12,50,10,0,30.18,NA,6.21,NA,"FEW","SCT",NA,NA,1500,4000,NA,NA,NA,NA,NA,NA,NA,NA,NA,NA,"RJOH 011700Z 05010KT 9999 FEW015 SCT040 16/07 Q1022"
"3008","RJOH",2019-11-01 18:00:00,133.2392,35.4933,60.8,44.6,55.12,60,10,0,30.15,NA,6.21,NA,"FEW","SCT","BKN",NA,1500,4000,NA,NA,NA,NA,NA,NA,NA,NA,NA,NA,"RJOH 011800Z 06010KT 9999 FEW015 SCT040 BKN/// 16/07 Q1021"
"3009","RJOH",2019-11-01 19:00:00,133.2392,35.4933,59,48.2,67.33,90,7,0,30.15,NA,6.21,NA,"FEW","SCT",NA,NA,3000,4000,NA,NA,NA,NA,NA,NA,NA,NA,NA,NA,"RJOH 011900Z 09007KT 050V120 9999 FEW030 SCT040 15/09 Q1021"
"3010","RJOH",2019-11-01 20:00:00,133.2392,35.4933,55.4,48.2,76.66,170,4,0,30.15,NA,6.21,NA,"FEW","SCT",NA,NA,1500,4000,NA,NA,NA,NA,NA,NA,NA,NA,NA,NA,"RJOH 012000Z 17004KT 130V190 9999 FEW015 SCT040 13/09 Q1021"
"3011","RJOH",2019-11-01 21:00:00,133.2392,35.4933,51.8,46.4,81.74,140,6,0,30.15,NA,6.21,NA,"FEW",NA,NA,NA,2500,NA,NA,NA,NA,NA,NA,NA,NA,NA,NA,NA,"RJOH 012100Z 14006KT 9999 FEW025 11/08 Q1021"
"3012","RJOH",2019-11-01 22:00:00,133.2392,35.4933,55.4,46.4,71.64,190,4,0,30.18,NA,6.21,NA,"FEW",NA,NA,NA,3000,NA,NA,NA,NA,NA,NA,NA,NA,NA,NA,NA,"RJOH 012200Z 19004KT 9999 FEW030 13/08 Q1022"
"3013","RJOH",2019-11-01 23:00:00,133.2392,35.4933,57.2,50,76.82,NA,2,0,30.21,NA,6.21,NA,"FEW",NA,NA,NA,5000,NA,NA,NA,NA,NA,NA,NA,NA,NA,NA,NA,"RJOH 012300Z VRB02KT 9999 FEW050 14/10 Q1023"
"3014","ROMD",2019-11-01 00:00:00,131.2286,25.8289,80.6,73.4,78.76,40,10,0,30,NA,6.21,NA,"SCT","BKN",NA,NA,1700,5000,NA,NA,NA,NA,NA,NA,NA,NA,NA,85.32,"ROMD 010000Z AUTO 04010KT 9999 SCT017 BKN050 27/23 Q1016"
"3015","ROMD",2019-11-01 01:00:00,131.2286,25.8289,78.8,73.4,83.55,60,11,0,30,NA,6.21,NA,"FEW","BKN","BKN",NA,1100,1800,2300,NA,"-RA",NA,NA,NA,NA,NA,NA,NA,"ROMD 010100Z AUTO 06011KT 010V090 9999 -RA FEW011 BKN018 BKN023 26/23 Q1016"
"3016","ROMD",2019-11-01 01:38:00,131.2286,25.8289,77,73.4,88.67,50,13,0,30,NA,1.86,NA,"FEW","OVC",NA,NA,2100,3000,NA,NA,"-RA BR",NA,NA,NA,NA,NA,NA,NA,"ROMD 010138Z AUTO 05013KT 020V090 3000 -RA BR FEW021 OVC030 25/23 Q1016 RMK A3002"
"3017","ROMD",2019-11-01 01:44:00,131.2286,25.8289,77,73.4,88.67,50,13,0,30,NA,6.21,NA,"FEW","BKN","BKN",NA,2100,3000,3800,NA,NA,NA,NA,NA,NA,NA,NA,NA,"ROMD 010144Z AUTO 05013KT 9999 FEW021 BKN030 BKN038 25/23 Q1016 RMK A3001"
"3018","ROMD",2019-11-01 02:00:00,131.2286,25.8289,77,73.4,88.67,50,11,0,30,NA,6.21,NA,"FEW","BKN","OVC",NA,2300,3100,4100,NA,NA,NA,NA,NA,NA,NA,NA,NA,"ROMD 010200Z AUTO 05011KT 9999 FEW023 BKN031 OVC041 25/23 Q1016"
"3019","ROMD",2019-11-01 03:00:00,131.2286,25.8289,84.2,73.4,70.08,50,10,0,29.97,NA,6.21,NA,"SCT","BKN","BKN",NA,1900,3700,4100,NA,NA,NA,NA,NA,NA,NA,NA,90.94,"ROMD 010300Z AUTO 05010KT 020V090 9999 SCT019 BKN037 BKN041 29/23 Q1015"
"3020","ROMD",2019-11-01 04:00:00,131.2286,25.8289,80.6,73.4,78.76,60,8,0,29.94,NA,6.21,NA,"SCT","BKN","OVC",NA,1800,3200,4000,NA,NA,NA,NA,NA,NA,NA,NA,85.32,"ROMD 010400Z AUTO 06008KT 020V100 9999 SCT018 BKN032 OVC040 27/23 Q1014"
"3021","ROMD",2019-11-01 04:23:00,131.2286,25.8289,78.8,73.4,83.55,60,9,0,29.94,NA,2.49,NA,"BKN","BKN",NA,NA,1500,1800,NA,NA,"-RA BR",NA,NA,NA,NA,NA,NA,NA,"ROMD 010423Z AUTO 06009KT 010V130 4000 -RA BR BKN015 BKN018 26/23 Q1014 RMK A2995"
"3022","ROMD",2019-11-01 04:29:00,131.2286,25.8289,77,73.4,88.67,50,11,0,29.94,NA,6.21,NA,"SCT","SCT","BKN",NA,1500,1900,2300,NA,NA,NA,NA,NA,NA,NA,NA,NA,"ROMD 010429Z AUTO 05011KT 010V090 9999 SCT015 SCT019 BKN023 25/23 Q1014 RMK A2995"
"3023","ROMD",2019-11-01 05:00:00,131.2286,25.8289,77,73.4,88.67,50,13,0,29.94,NA,4.35,NA,"SCT","BKN","BKN",NA,1500,2100,2600,NA,"-RA",NA,NA,NA,NA,NA,NA,NA,"ROMD 010500Z AUTO 05013KT 7000 -RA SCT015 BKN021 BKN026 25/23 Q1014"
"3024","ROMD",2019-11-01 06:00:00,131.2286,25.8289,78.8,73.4,83.55,40,12,0,29.94,NA,6.21,NA,"SCT","OVC",NA,NA,1600,3700,NA,NA,NA,NA,NA,NA,NA,NA,NA,NA,"ROMD 010600Z AUTO 04012KT 9999 SCT016 OVC037 26/23 Q1014"
"3025","ROMD",2019-11-01 07:00:00,131.2286,25.8289,77,73.4,88.67,50,11,0,29.94,NA,2.55,NA,"FEW","SCT","BKN",NA,500,700,1400,NA,"-RA BR",NA,NA,NA,NA,NA,NA,NA,"ROMD 010700Z AUTO 05011KT 020V090 4100 -RA BR FEW005 SCT007 BKN014 25/23 Q1014"
"3026","ROMD",2019-11-01 07:13:00,131.2286,25.8289,75.2,73.4,94.14,50,14,0,29.94,NA,1.55,NA,"FEW","BKN","BKN",NA,300,700,900,NA,"RA BR",NA,NA,NA,NA,NA,NA,NA,"ROMD 010713Z AUTO 05014KT 2500 RA BR FEW003 BKN007 BKN009 24/23 Q1014 RMK A2995 RI004"
"3027","ROMD",2019-11-01 07:27:00,131.2286,25.8289,75.2,73.4,94.14,50,14,0,29.94,NA,2.8,NA,"FEW","SCT","OVC",NA,500,900,1000,NA,"RA BR",NA,NA,NA,NA,NA,NA,NA,"ROMD 010727Z AUTO 05014KT 020V080 4500 RA BR FEW005 SCT009 OVC010 24/23 Q1014 RMK A2995 RI003"
"3028","ROMD",2019-11-01 07:31:00,131.2286,25.8289,75.2,73.4,94.14,50,15,0,29.94,NA,3.11,NA,"SCT","BKN","BKN","///",500,700,900,NA,"-RA BR",NA,NA,NA,NA,NA,NA,NA,"ROMD 010731Z AUTO 05015KT 020V080 5000 -RA BR SCT005 BKN007 BKN009 //////TCU 24/23 Q1014 RMK A2995 TCU 30KM SW MOV UNKNOWN"
"3029","ROMD",2019-11-01 07:42:00,131.2286,25.8289,75.2,73.4,94.14,50,15,0,29.94,NA,1.93,NA,"FEW","SCT","BKN",NA,500,700,900,NA,"-RA BR",NA,NA,NA,NA,NA,NA,NA,"ROMD 010742Z AUTO 05015KT 3100 -RA BR FEW005 SCT007 BKN009 24/23 Q1014 RMK A2996"
"3030","ROMD",2019-11-01 08:00:00,131.2286,25.8289,75.2,73.4,94.14,40,13,0,29.94,NA,3.11,NA,"FEW","BKN","OVC",NA,500,700,4100,NA,"-RA BR",NA,NA,NA,NA,NA,NA,NA,"ROMD 010800Z AUTO 04013KT 5000 -RA BR FEW005 BKN007 OVC041 24/23 Q1014"
"3031","ROMD",2019-11-01 08:02:00,131.2286,25.8289,75.2,73.4,94.14,40,13,0,29.94,NA,2.11,NA,"FEW","BKN","BKN",NA,500,700,900,NA,"-RA BR",NA,NA,NA,NA,NA,NA,NA,"ROMD 010802Z AUTO 04013KT 3400 -RA BR FEW005 BKN007 BKN009 24/23 Q1014 RMK A2996"
"3032","ROMD",2019-11-01 08:16:00,131.2286,25.8289,75.2,73.4,94.14,50,13,0,29.94,NA,4.35,NA,"FEW","SCT","BKN","///",500,1100,4100,NA,"-RA",NA,NA,NA,NA,NA,NA,NA,"ROMD 010816Z AUTO 05013KT 7000 -RA FEW005 SCT011 BKN041 //////CB 24/23 Q1014 RMK A2996 CB 40KM SW MOV UNKNOWN"
"3033","ROMD",2019-11-01 09:00:00,131.2286,25.8289,75.2,73.4,94.14,40,13,0,29.94,NA,6.21,NA,"FEW","SCT","BKN","///",1300,1500,4000,NA,NA,NA,NA,NA,NA,NA,NA,NA,"ROMD 010900Z AUTO 04013KT 9999 FEW013 SCT015 BKN040 //////CB 24/23 Q1014"
"3034","ROMD",2019-11-01 10:00:00,131.2286,25.8289,77,73.4,88.67,50,15,0,29.97,NA,6.21,NA,"FEW","SCT","OVC",NA,1300,4300,5000,NA,NA,NA,NA,NA,NA,NA,NA,NA,"ROMD 011000Z AUTO 05015KT 9999 FEW013 SCT043 OVC050 25/23 Q1015"
"3035","ROMD",2019-11-01 11:00:00,131.2286,25.8289,77,73.4,88.67,50,13,0,29.97,NA,6.21,NA,"SCT","BKN","OVC",NA,1700,4400,4800,NA,NA,NA,NA,NA,NA,NA,NA,NA,"ROMD 011100Z AUTO 05013KT 9999 SCT017 BKN044 OVC048 25/23 Q1015"
"3036","ROMD",2019-11-01 12:00:00,131.2286,25.8289,77,71.6,83.44,50,13,0,29.97,NA,6.21,NA,"SCT","BKN","BKN",NA,1700,2900,3800,NA,NA,NA,NA,NA,NA,NA,NA,NA,"ROMD 011200Z AUTO 05013KT 9999 SCT017 BKN029 BKN038 25/22 Q1015"
"3037","ROMD",2019-11-01 13:00:00,131.2286,25.8289,77,71.6,83.44,50,14,0,29.97,NA,6.21,NA,"FEW","SCT","BKN",NA,1800,2300,2800,NA,NA,NA,NA,NA,NA,NA,NA,NA,"ROMD 011300Z AUTO 05014KT 9999 FEW018 SCT023 BKN028 25/22 Q1015"
"3038","ROMD",2019-11-01 14:00:00,131.2286,25.8289,77,71.6,83.44,50,13,0,29.97,NA,6.21,NA,"BKN","BKN",NA,NA,1700,2800,NA,NA,NA,NA,NA,NA,NA,NA,NA,NA,"ROMD 011400Z AUTO 05013KT 9999 BKN017 BKN028 25/22 Q1015"
"3039","ROMD",2019-11-01 15:00:00,131.2286,25.8289,77,71.6,83.44,50,13,0,29.94,NA,6.21,NA,"FEW",NA,NA,NA,1700,NA,NA,NA,NA,NA,NA,NA,NA,NA,NA,NA,"ROMD 011500Z AUTO 05013KT 9999 FEW017 25/22 Q1014"
"3040","ROMD",2019-11-01 16:00:00,131.2286,25.8289,77,71.6,83.44,50,13,0,29.94,NA,6.21,NA,"BKN","BKN",NA,NA,1700,5000,NA,NA,NA,NA,NA,NA,NA,NA,NA,NA,"ROMD 011600Z AUTO 05013KT 9999 BKN017 BKN050 25/22 Q1014"
"3041","ROMD",2019-11-01 17:00:00,131.2286,25.8289,77,73.4,88.67,50,10,0,29.94,NA,6.21,NA,"BKN","BKN",NA,NA,1400,1600,NA,NA,NA,NA,NA,NA,NA,NA,NA,NA,"ROMD 011700Z AUTO 05010KT 9999 BKN014 BKN016 25/23 Q1014"
"3042","ROMD",2019-11-01 18:00:00,131.2286,25.8289,77,71.6,83.44,60,8,0,29.94,NA,6.21,NA,"FEW","OVC",NA,NA,1300,4600,NA,NA,NA,NA,NA,NA,NA,NA,NA,NA,"ROMD 011800Z AUTO 06008KT 010V100 9999 FEW013 OVC046 25/22 Q1014"
"3043","ROMD",2019-11-01 19:00:00,131.2286,25.8289,77,73.4,88.67,50,6,0,29.94,NA,6.21,NA,"FEW","SCT","BKN",NA,1200,3100,4300,NA,NA,NA,NA,NA,NA,NA,NA,NA,"ROMD 011900Z AUTO 05006KT 010V100 9999 FEW012 SCT031 BKN043 25/23 Q1014"
"3044","ROMD",2019-11-01 20:00:00,131.2286,25.8289,77,73.4,88.67,60,7,0,29.94,NA,6.21,NA,"SCT","OVC",NA,NA,1400,5000,NA,NA,NA,NA,NA,NA,NA,NA,NA,NA,"ROMD 012000Z AUTO 06007KT 010V100 9999 SCT014 OVC050 25/23 Q1014"
"3045","ROMD",2019-11-01 21:00:00,131.2286,25.8289,77,73.4,88.67,60,7,0,29.94,NA,6.21,NA,"SCT","BKN","BKN",NA,1300,1900,5000,NA,NA,NA,NA,NA,NA,NA,NA,NA,"ROMD 012100Z AUTO 06007KT 010V100 9999 SCT013 BKN019 BKN050 25/23 Q1014"
"3046","ROMD",2019-11-01 22:00:00,131.2286,25.8289,77,73.4,88.67,60,6,0,29.94,NA,6.21,NA,"FEW",NA,NA,NA,1500,NA,NA,NA,NA,NA,NA,NA,NA,NA,NA,NA,"ROMD 012200Z AUTO 06006KT 010V090 9999 FEW015 25/23 Q1014"
"3047","ROMD",2019-11-01 23:00:00,131.2286,25.8289,78.8,73.4,83.55,60,8,0,29.97,NA,6.21,NA,"FEW","SCT","BKN",NA,900,1100,1400,NA,NA,NA,NA,NA,NA,NA,NA,NA,"ROMD 012300Z AUTO 06008KT 010V100 9999 FEW009 SCT011 BKN014 26/23 Q1015"
"3048","RJSM",2019-11-01 00:00:00,141.3684,40.7032,60.8,53.6,77.14,300,19,0,29.77,NA,6.21,NA,"FEW",NA,NA,NA,3000,NA,NA,NA,NA,NA,NA,NA,NA,NA,NA,NA,"RJSM 010000Z 30019KT 9999 FEW030 16/12 Q1008"
"3049","RJSM",2019-11-01 01:00:00,141.3684,40.7032,60.8,46.4,59.01,310,20,0,29.8,NA,6.21,NA,"FEW","SCT",NA,NA,3000,4000,NA,NA,NA,NA,NA,NA,NA,NA,NA,NA,"RJSM 010100Z 31020KT 9999 FEW030 SCT040 16/08 Q1009"
"3050","RJSM",2019-11-01 02:00:00,141.3684,40.7032,59,46.4,62.92,300,21,0,29.8,NA,6.21,NA,"FEW","SCT",NA,NA,3000,4000,NA,NA,NA,NA,NA,NA,NA,NA,NA,NA,"RJSM 010200Z 30021KT 9999 FEW030 SCT040 15/08 Q1009"
"3051","RJSM",2019-11-01 03:00:00,141.3684,40.7032,59,41,51.18,310,22,0,29.8,NA,6.21,NA,"FEW","SCT",NA,NA,3000,4000,NA,NA,NA,NA,NA,NA,NA,NA,NA,NA,"RJSM 010300Z 31022KT 9999 FEW030 SCT040 15/05 Q1009"
"3052","RJSM",2019-11-01 04:00:00,141.3684,40.7032,60.8,41,48,290,22,0,29.8,NA,6.21,NA,"FEW","BKN",NA,NA,3000,4000,NA,NA,NA,NA,NA,NA,NA,NA,NA,NA,"RJSM 010400Z 29022KT 9999 FEW030 BKN040 16/05 Q1009"
"3053","RJSM",2019-11-01 05:00:00,141.3684,40.7032,53.6,42.8,66.7,300,28,0,29.83,NA,6.21,NA,"FEW","BKN","BKN",NA,2000,3000,4000,NA,"-SHRA",NA,NA,NA,NA,NA,NA,NA,"RJSM 010500Z 30028KT 9999 -SHRA FEW020 BKN030 BKN040 12/06 Q1010"
"3054","RJSM",2019-11-01 06:00:00,141.3684,40.7032,55.4,44.6,66.91,280,12,0,29.85,NA,6.21,26,"FEW","SCT",NA,NA,3000,4000,NA,NA,NA,NA,NA,NA,NA,NA,NA,NA,"RJSM 010600Z 28012G26KT 9999 FEW030 SCT040 13/07 Q1011"
"3055","RJSM",2019-11-01 07:00:00,141.3684,40.7032,55.4,35.6,47.16,290,17,0,29.88,NA,6.21,28,"FEW","SCT",NA,NA,3000,4000,NA,NA,NA,NA,NA,NA,NA,NA,NA,NA,"RJSM 010700Z 29017G28KT 9999 FEW030 SCT040 13/02 Q1012"
"3056","RJSM",2019-11-01 08:00:00,141.3684,40.7032,51.8,42.8,71.26,280,12,0,29.91,NA,6.21,23,"FEW","SCT",NA,NA,3000,4000,NA,NA,NA,NA,NA,NA,NA,NA,NA,NA,"RJSM 010800Z 28012G23KT 9999 FEW030 SCT040 11/06 Q1013"
"3057","RJSM",2019-11-01 09:00:00,141.3684,40.7032,50,39.2,66.27,290,14,0,29.94,NA,6.21,NA,"FEW",NA,NA,NA,3000,NA,NA,NA,NA,NA,NA,NA,NA,NA,NA,44.36,"RJSM 010900Z 29014KT 9999 FEW030 10/04 Q1014"
"3058","RJSM",2019-11-01 10:00:00,141.3684,40.7032,50,41,71.07,270,7,0,29.97,NA,6.21,NA,"FEW","SCT",NA,NA,3000,4000,NA,NA,NA,NA,NA,NA,NA,NA,NA,46.72,"RJSM 011000Z 27007KT 9999 FEW030 SCT040 10/05 Q1015"
"3059","RJSM",2019-11-01 11:00:00,141.3684,40.7032,50,39.2,66.27,290,20,0,29.94,NA,6.21,30,"FEW",NA,NA,NA,3000,NA,NA,NA,NA,NA,NA,NA,NA,NA,NA,43.05,"RJSM 011100Z 29020G30KT 9999 FEW030 10/04 Q1014"
"3060","RJSM",2019-11-01 12:00:00,141.3684,40.7032,50,39.2,66.27,240,6,0,29.97,NA,6.21,NA,"FEW",NA,NA,NA,3000,NA,NA,NA,NA,NA,NA,NA,NA,NA,NA,47.21,"RJSM 011200Z 24006KT 200V290 9999 FEW030 10/04 Q1015"
"3061","RJSM",2019-11-01 13:00:00,141.3684,40.7032,50,39.2,66.27,260,10,0,30,NA,6.21,NA,"FEW",NA,NA,NA,4000,NA,NA,NA,NA,NA,NA,NA,NA,NA,NA,45.54,"RJSM 011300Z 26010KT 9999 FEW040 10/04 Q1016"
"3062","RJSM",2019-11-01 14:00:00,141.3684,40.7032,48.2,39.2,70.88,190,4,0,30,NA,6.21,NA,"FEW","SCT",NA,NA,4000,7000,NA,NA,NA,NA,NA,NA,NA,NA,NA,46.34,"RJSM 011400Z 19004KT 9999 FEW040 SCT070 09/04 Q1016"
"3063","RJSM",2019-11-01 15:00:00,141.3684,40.7032,48.2,41,76.01,240,3,0,30.03,NA,6.21,NA,"SCT",NA,NA,NA,4000,NA,NA,NA,NA,NA,NA,NA,NA,NA,NA,47.21,"RJSM 011500Z 24003KT 9999 SCT040 09/05 Q1017"
"3064","RJSM",2019-11-01 16:00:00,141.3684,40.7032,50,39.2,66.27,270,8,0,30.03,NA,6.21,NA,"FEW","BKN",NA,NA,3000,4000,NA,NA,NA,NA,NA,NA,NA,NA,NA,46.29,"RJSM 011600Z 27008KT 9999 FEW030 BKN040 10/04 Q1017"
"3065","RJSM",2019-11-01 17:00:00,141.3684,40.7032,48.2,41,76.01,230,5,0,30.06,NA,6.21,NA,"FEW","BKN",NA,NA,3000,4000,NA,NA,NA,NA,NA,NA,NA,NA,NA,45.63,"RJSM 011700Z 23005KT 9999 FEW030 BKN040 09/05 Q1018"
"3066","RJSM",2019-11-01 18:00:00,141.3684,40.7032,48.2,41,76.01,230,6,0,30.06,NA,6.21,NA,"FEW","BKN",NA,NA,2500,4000,NA,NA,NA,NA,NA,NA,NA,NA,NA,45.04,"RJSM 011800Z 23006KT 9999 FEW025 BKN040 09/05 Q1018"
"3067","RJSM",2019-11-01 19:00:00,141.3684,40.7032,50,41,71.07,240,7,0,30.06,NA,6.21,NA,"FEW","BKN",NA,NA,2500,4000,NA,NA,NA,NA,NA,NA,NA,NA,NA,46.72,"RJSM 011900Z 24007KT 9999 FEW025 BKN040 10/05 Q1018"
"3068","RJSM",2019-11-01 20:00:00,141.3684,40.7032,50,44.6,81.61,240,9,0,30.06,NA,6.21,NA,"FEW","BKN",NA,NA,2500,4000,NA,NA,NA,NA,NA,NA,NA,NA,NA,45.9,"RJSM 012000Z 24009KT 210V270 9999 FEW025 BKN040 10/07 Q1018"
"3069","RJSM",2019-11-01 21:00:00,141.3684,40.7032,50,46.4,87.37,240,3,0,30.06,NA,6.21,NA,"FEW","SCT",NA,NA,2500,4000,NA,NA,NA,NA,NA,NA,NA,NA,NA,49.27,"RJSM 012100Z 24003KT 200V280 9999 FEW025 SCT040 10/08 Q1018"
"3070","RJSM",2019-11-01 22:00:00,141.3684,40.7032,48.2,42.8,81.47,230,5,0,30.06,NA,6.21,NA,"FEW",NA,NA,NA,2500,NA,NA,NA,NA,NA,NA,NA,NA,NA,NA,45.63,"RJSM 012200Z 23005KT 9999 FEW025 09/06 Q1018"
"3071","RJSM",2019-11-01 23:00:00,141.3684,40.7032,53.6,41,62.23,230,6,0,30.06,NA,6.21,NA,"FEW",NA,NA,NA,2000,NA,NA,NA,NA,NA,NA,NA,NA,NA,NA,NA,"RJSM 012300Z 23006KT 9999 FEW020 12/05 Q1018"
"3072","ROMY",2019-11-01 00:00:00,125.2767,24.7933,78.8,69.8,73.95,40,14,0,30.03,NA,6.21,NA,"FEW","BKN","BKN",NA,1900,3000,NA,NA,NA,NA,NA,NA,NA,NA,NA,NA,"ROMY 010000Z 04014KT 9999 FEW019 BKN030 BKN/// 26/21 Q1017"
"3073","ROMY",2019-11-01 01:00:00,125.2767,24.7933,77,69.8,78.48,50,12,0,30.03,NA,6.21,NA,"SCT","BKN",NA,NA,1700,3000,NA,NA,NA,NA,NA,NA,NA,NA,NA,NA,"ROMY 010100Z 05012KT 9999 SCT017 BKN030 25/21 Q1017"
"3074","ROMY",2019-11-01 02:00:00,125.2767,24.7933,78.8,69.8,73.95,50,14,0,30.03,NA,6.21,NA,"FEW","BKN",NA,NA,1700,3800,NA,NA,NA,NA,NA,NA,NA,NA,NA,NA,"ROMY 010200Z 05014KT 9999 FEW017 BKN038 26/21 Q1017"
"3075","ROMY",2019-11-01 03:00:00,125.2767,24.7933,80.6,69.8,69.71,30,14,0,30,NA,6.21,25,"FEW","BKN",NA,NA,1700,3800,NA,NA,NA,NA,NA,NA,NA,NA,NA,83.9,"ROMY 010300Z 03014G25KT 9999 FEW017 BKN038 27/21 Q1016"
"3076","ROMY",2019-11-01 04:00:00,125.2767,24.7933,78.8,68,69.52,50,18,0,29.97,NA,6.21,NA,"FEW","SCT",NA,NA,1800,3800,NA,NA,NA,NA,NA,NA,NA,NA,NA,NA,"ROMY 010400Z 05018KT 9999 FEW018 SCT038 26/20 Q1015"
"3077","ROMY",2019-11-01 05:00:00,125.2767,24.7933,78.8,68,69.52,40,16,0,29.97,NA,6.21,NA,"SCT","SCT",NA,NA,1900,NA,NA,NA,NA,NA,NA,NA,NA,NA,NA,NA,"ROMY 010500Z 04016KT 9999 SCT019 SCT/// 26/20 Q1015"
"3078","ROMY",2019-11-01 06:00:00,125.2767,24.7933,78.8,68,69.52,40,16,0,29.97,NA,6.21,NA,"BKN",NA,NA,NA,2000,NA,NA,NA,NA,NA,NA,NA,NA,NA,NA,NA,"ROMY 010600Z 04016KT 9999 BKN020 26/20 Q1015"
"3079","ROMY",2019-11-01 07:00:00,125.2767,24.7933,77,68,73.78,50,14,0,29.97,NA,6.21,NA,"SCT","BKN",NA,NA,2200,2800,NA,NA,NA,NA,NA,NA,NA,NA,NA,NA,"ROMY 010700Z 05014KT 9999 SCT022 BKN028 25/20 Q1015"
"3080","ROMY",2019-11-01 08:00:00,125.2767,24.7933,77,68,73.78,40,15,0,29.97,NA,6.21,NA,"FEW","BKN",NA,NA,2200,3200,NA,NA,NA,NA,NA,NA,NA,NA,NA,NA,"ROMY 010800Z 04015KT 9999 FEW022 BKN032 25/20 Q1015"
"3081","ROMY",2019-11-01 09:00:00,125.2767,24.7933,75.2,68,78.34,40,13,0,29.97,NA,6.21,NA,"FEW","SCT",NA,NA,1900,2600,NA,NA,NA,NA,NA,NA,NA,NA,NA,NA,"ROMY 010900Z 04013KT 9999 FEW019 SCT026 24/20 Q1015"
"3082","ROMY",2019-11-01 10:00:00,125.2767,24.7933,75.2,68,78.34,40,12,0,29.97,NA,6.21,NA,"FEW","BKN",NA,NA,2100,2700,NA,NA,NA,NA,NA,NA,NA,NA,NA,NA,"ROMY 011000Z 04012KT 9999 FEW021 BKN027 24/20 Q1015"
"3083","ROMY",2019-11-01 11:00:00,125.2767,24.7933,75.2,68,78.34,40,14,0,29.97,NA,6.21,NA,"FEW","BKN",NA,NA,2100,2700,NA,NA,NA,NA,NA,NA,NA,NA,NA,NA,"ROMY 011100Z 04014KT 9999 FEW021 BKN027 24/20 Q1015"
"3084","ROMY",2019-11-01 21:30:00,125.2767,24.7933,73.4,69.8,88.51,30,8,0,29.94,NA,6.21,NA,"FEW","SCT","BKN",NA,1700,2600,3200,NA,NA,NA,NA,NA,NA,NA,NA,NA,"ROMY 012130Z 03008KT 9999 FEW017 SCT026 BKN032 23/21 Q1014"
"3085","ROMY",2019-11-01 22:00:00,125.2767,24.7933,75.2,69.8,83.32,30,8,0,29.97,NA,6.21,NA,"FEW","SCT","BKN",NA,1600,2000,2800,NA,NA,NA,NA,NA,NA,NA,NA,NA,"ROMY 012200Z 03008KT 9999 FEW016 SCT020 BKN028 24/21 Q1015"
"3086","ROMY",2019-11-01 23:00:00,125.2767,24.7933,77,69.8,78.48,40,9,0,29.97,NA,6.21,NA,"SCT","BKN",NA,NA,1900,3000,NA,NA,NA,NA,NA,NA,NA,NA,NA,NA,"ROMY 012300Z 04009KT 010V070 9999 SCT019 BKN030 25/21 Q1015"
"3087","RJFM",2019-11-01 00:00:00,131.4486,31.8772,62.6,50,63.38,310,7,0,30.12,NA,6.21,NA,"FEW","BKN",NA,NA,3000,NA,NA,NA,NA,NA,NA,NA,NA,NA,NA,NA,"RJFM 010000Z 31007KT 9999 FEW030 BKN/// 17/10 Q1020"
"3088","RJFM",2019-11-01 01:00:00,131.4486,31.8772,64.4,50,59.5,290,8,0,30.12,NA,6.21,NA,"FEW","BKN",NA,NA,3000,NA,NA,NA,NA,NA,NA,NA,NA,NA,NA,NA,"RJFM 010100Z 29008KT 9999 FEW030 BKN/// 18/10 Q1020"
"3089","RJFM",2019-11-01 02:00:00,131.4486,31.8772,68,51.8,56.13,310,4,0,30.09,NA,6.21,NA,"FEW","BKN",NA,NA,3000,NA,NA,NA,NA,NA,NA,NA,NA,NA,NA,NA,"RJFM 010200Z 31004KT 260V350 9999 FEW030 BKN/// 20/11 Q1019"
"3090","RJFM",2019-11-01 03:00:00,131.4486,31.8772,69.8,51.8,52.77,10,4,0,30.09,NA,6.21,NA,"FEW","BKN",NA,NA,3000,NA,NA,NA,NA,NA,NA,NA,NA,NA,NA,NA,"RJFM 010300Z 01004KT 290V060 9999 FEW030 BKN/// 21/11 Q1019"
"3091","RJFM",2019-11-01 04:00:00,131.4486,31.8772,71.6,53.6,53.03,80,5,0,30.03,NA,6.21,NA,"FEW","SCT",NA,NA,3000,NA,NA,NA,NA,NA,NA,NA,NA,NA,NA,NA,"RJFM 010400Z 08005KT 050V110 9999 FEW030 SCT/// 22/12 Q1017"
"3092","RJFM",2019-11-01 05:00:00,131.4486,31.8772,71.6,55.4,56.63,100,5,0,30.03,NA,6.21,NA,"FEW",NA,NA,NA,3000,NA,NA,NA,NA,NA,NA,NA,NA,NA,NA,NA,"RJFM 010500Z 10005KT 9999 FEW030 22/13 Q1017"
"3093","RJFM",2019-11-01 06:00:00,131.4486,31.8772,71.6,57.2,60.44,80,5,0,30.03,NA,6.21,NA,"FEW",NA,NA,NA,3000,NA,NA,NA,NA,NA,NA,NA,NA,NA,NA,NA,"RJFM 010600Z 08005KT 9999 FEW030 22/14 Q1017"
"3094","RJFM",2019-11-01 07:00:00,131.4486,31.8772,71.6,53.6,53.03,120,5,0,30.03,NA,6.21,NA,"FEW",NA,NA,NA,3000,NA,NA,NA,NA,NA,NA,NA,NA,NA,NA,NA,"RJFM 010700Z 12005KT 9999 FEW030 22/12 Q1017"
"3095","RJFM",2019-11-01 08:00:00,131.4486,31.8772,69.8,48.2,46.16,130,6,0,30.03,NA,6.21,NA,"FEW",NA,NA,NA,5000,NA,NA,NA,NA,NA,NA,NA,NA,NA,NA,NA,"RJFM 010800Z 13006KT 9999 FEW050 21/09 Q1017"
"3096","RJFM",2019-11-01 09:00:00,131.4486,31.8772,66.2,48.2,52.25,90,5,0,30.06,NA,6.21,NA,"FEW",NA,NA,NA,5000,NA,NA,NA,NA,NA,NA,NA,NA,NA,NA,NA,"RJFM 010900Z 09005KT 9999 FEW050 19/09 Q1018"
"3097","RJFM",2019-11-01 10:00:00,131.4486,31.8772,64.4,53.6,67.95,NA,2,0,30.06,NA,6.21,NA,"FEW",NA,NA,NA,5000,NA,NA,NA,NA,NA,NA,NA,NA,NA,NA,NA,"RJFM 011000Z VRB02KT 9999 FEW050 18/12 Q1018"
"3098","RJFM",2019-11-01 11:00:00,131.4486,31.8772,60.8,55.4,82.37,280,6,0,30.09,NA,6.21,NA,"FEW",NA,NA,NA,5000,NA,NA,NA,NA,NA,NA,NA,NA,NA,NA,NA,"RJFM 011100Z 28006KT 9999 FEW050 16/13 Q1019"
"3099","RJFM",2019-11-01 12:00:00,131.4486,31.8772,59,55.4,87.83,280,7,0,30.09,NA,6.21,NA,"FEW",NA,NA,NA,5000,NA,NA,NA,NA,NA,NA,NA,NA,NA,NA,NA,"RJFM 011200Z 28007KT 9999 FEW050 15/13 Q1019"
"3100","RJFM",2019-11-01 22:00:00,131.4486,31.8772,53.6,50,87.56,290,8,0,30.09,NA,6.21,NA,"FEW","SCT",NA,NA,3000,NA,NA,NA,NA,NA,NA,NA,NA,NA,NA,NA,"RJFM 012200Z 29008KT 9999 FEW030 SCT/// 12/10 Q1019"
"3101","RJFM",2019-11-01 23:00:00,131.4486,31.8772,59,51.8,76.98,300,8,0,30.12,NA,6.21,NA,"FEW","SCT",NA,NA,3500,NA,NA,NA,NA,NA,NA,NA,NA,NA,NA,NA,"RJFM 012300Z 30008KT 9999 FEW035 SCT/// 15/11 Q1020"
"3102","RJEB",2019-11-01 00:00:00,143.404,44.3039,53.6,30.2,40.54,240,17,0,29.62,NA,6.21,27,"FEW",NA,NA,NA,4000,NA,NA,NA,NA,NA,NA,NA,NA,NA,NA,NA,"RJEB 010000Z 24017G27KT 9999 FEW040 12/M01 Q1003"
"3103","RJEB",2019-11-01 01:00:00,143.404,44.3039,53.6,30.2,40.54,250,20,0,29.59,NA,6.21,30,"FEW",NA,NA,NA,4000,NA,NA,NA,NA,NA,NA,NA,NA,NA,NA,NA,"RJEB 010100Z 25020G30KT 9999 FEW040 12/M01 Q1002"
"3104","RJEB",2019-11-01 02:00:00,143.404,44.3039,51.8,32,46.59,270,19,0,29.59,NA,6.21,NA,"FEW",NA,NA,NA,4000,NA,NA,NA,NA,NA,NA,NA,NA,NA,NA,NA,"RJEB 010200Z 27019KT 230V300 9999 FEW040 11/00 Q1002"
"3105","RJEB",2019-11-01 03:00:00,143.404,44.3039,51.8,33.8,50.08,260,15,0,29.59,NA,6.21,NA,"FEW",NA,NA,NA,4000,NA,NA,NA,NA,NA,NA,NA,NA,NA,NA,NA,"RJEB 010300Z 26015KT 9999 FEW040 11/01 Q1002"
"3106","RJEB",2019-11-01 04:00:00,143.404,44.3039,51.8,37.4,57.77,240,12,0,29.62,NA,6.21,NA,"SCT",NA,NA,NA,4000,NA,NA,NA,NA,NA,NA,NA,NA,NA,NA,NA,"RJEB 010400Z 24012KT 210V270 9999 SCT040 11/03 Q1003"
"3107","RJEB",2019-11-01 05:00:00,143.404,44.3039,50,32,49.81,240,10,0,29.62,NA,6.21,NA,"SCT",NA,NA,NA,4000,NA,NA,NA,NA,NA,NA,NA,NA,NA,NA,45.54,"RJEB 010500Z 24010KT 9999 SCT040 10/00 Q1003"
"3108","RJEB",2019-11-01 06:00:00,143.404,44.3039,50,33.8,53.54,250,9,0,29.65,NA,6.21,NA,"BKN",NA,NA,NA,5000,NA,NA,NA,NA,NA,NA,NA,NA,NA,NA,45.9,"RJEB 010600Z 25009KT 9999 BKN050 10/01 Q1004"
"3109","RJEB",2019-11-01 07:00:00,143.404,44.3039,46.4,33.8,61.28,270,12,0,29.68,NA,6.21,NA,"FEW","BKN",NA,NA,3000,5000,NA,NA,NA,NA,NA,NA,NA,NA,NA,40.33,"RJEB 010700Z 27012KT 9999 FEW030 BKN050 08/01 Q1005"
"3110","RJFU",2019-11-01 00:00:00,129.9136,32.9169,62.6,57.2,82.5,140,4,0,30.15,NA,6.21,NA,"FEW","BKN",NA,NA,2000,NA,NA,NA,NA,NA,NA,NA,NA,NA,NA,NA,"RJFU 010000Z 14004KT 100V170 9999 FEW020 BKN/// 17/14 Q1021"
"3111","RJFU",2019-11-01 01:00:00,129.9136,32.9169,64.4,57.2,77.45,NA,1,0,30.15,NA,6.21,NA,"FEW","BKN",NA,NA,3000,NA,NA,NA,NA,NA,NA,NA,NA,NA,NA,NA,"RJFU 010100Z VRB01KT 9999 FEW030 BKN/// 18/14 Q1021"
"3112","RJFU",2019-11-01 02:00:00,129.9136,32.9169,69.8,59,68.55,170,4,0,30.12,NA,6.21,NA,"FEW",NA,NA,NA,3500,NA,NA,NA,NA,NA,NA,NA,NA,NA,NA,NA,"RJFU 010200Z 17004KT 9999 FEW035 21/15 Q1020"
"3113","RJFU",2019-11-01 03:00:00,129.9136,32.9169,69.8,59,68.55,220,4,0,30.09,NA,6.21,NA,"FEW",NA,NA,NA,4000,NA,NA,NA,NA,NA,NA,NA,NA,NA,NA,NA,"RJFU 010300Z 22004KT 180V260 9999 FEW040 21/15 Q1019"
"3114","RJFU",2019-11-01 04:00:00,129.9136,32.9169,71.6,55.4,56.63,200,3,0,30.06,NA,6.21,NA,"FEW",NA,NA,NA,4000,NA,NA,NA,NA,NA,NA,NA,NA,NA,NA,NA,"RJFU 010400Z 20003KT 160V230 9999 FEW040 22/13 Q1018"
"3115","RJFU",2019-11-01 05:00:00,129.9136,32.9169,71.6,55.4,56.63,190,3,0,30.06,NA,6.21,NA,"FEW",NA,NA,NA,4000,NA,NA,NA,NA,NA,NA,NA,NA,NA,NA,NA,"RJFU 010500Z 19003KT 9999 FEW040 22/13 Q1018"
"3116","RJFU",2019-11-01 06:00:00,129.9136,32.9169,73.4,55.4,53.29,210,4,0,30.06,NA,6.21,NA,"FEW",NA,NA,NA,4000,NA,NA,NA,NA,NA,NA,NA,NA,NA,NA,NA,"RJFU 010600Z 21004KT 180V250 9999 FEW040 23/13 Q1018"
"3117","RJFU",2019-11-01 07:00:00,129.9136,32.9169,73.4,57.2,56.88,270,3,0,30.06,NA,6.21,NA,"FEW",NA,NA,NA,4000,NA,NA,NA,NA,NA,NA,NA,NA,NA,NA,NA,"RJFU 010700Z 27003KT 220V320 9999 FEW040 23/14 Q1018"
"3118","RJFU",2019-11-01 07:38:00,129.9136,32.9169,71.6,55.4,56.63,360,10,0,30.03,NA,6.21,NA,NA,NA,NA,NA,NA,NA,NA,NA,NA,NA,NA,NA,NA,NA,NA,NA,"RJFU 010738Z 36010KT CAVOK 22/13 Q1017 RMK A3006"
"3119","RJFU",2019-11-01 08:00:00,129.9136,32.9169,69.8,53.6,56.38,360,13,0,30.06,NA,6.21,NA,NA,NA,NA,NA,NA,NA,NA,NA,NA,NA,NA,NA,NA,NA,NA,NA,"RJFU 010800Z 36013KT CAVOK 21/12 Q1018"
"3120","RJFU",2019-11-01 09:00:00,129.9136,32.9169,68,55.4,64.04,10,12,0,30.09,NA,6.21,NA,NA,NA,NA,NA,NA,NA,NA,NA,NA,NA,NA,NA,NA,NA,NA,NA,"RJFU 010900Z 01012KT CAVOK 20/13 Q1019"
"3121","RJFU",2019-11-01 10:00:00,129.9136,32.9169,64.4,53.6,67.95,350,11,0,30.09,NA,6.21,NA,NA,NA,NA,NA,NA,NA,NA,NA,NA,NA,NA,NA,NA,NA,NA,NA,"RJFU 011000Z 35011KT CAVOK 18/12 Q1019"
"3122","RJFU",2019-11-01 11:00:00,129.9136,32.9169,64.4,53.6,67.95,50,6,0,30.09,NA,6.21,NA,NA,NA,NA,NA,NA,NA,NA,NA,NA,NA,NA,NA,NA,NA,NA,NA,"RJFU 011100Z 05006KT CAVOK 18/12 Q1019"
"3123","RJFU",2019-11-01 12:00:00,129.9136,32.9169,60.8,50,67.54,50,3,0,30.09,NA,6.21,NA,NA,NA,NA,NA,NA,NA,NA,NA,NA,NA,NA,NA,NA,NA,NA,NA,"RJFU 011200Z 05003KT 010V080 CAVOK 16/10 Q1019"
"3124","RJFU",2019-11-01 21:10:00,129.9136,32.9169,55.4,53.6,93.65,140,6,0,30.09,NA,6.21,NA,NA,NA,NA,NA,NA,NA,NA,NA,NA,NA,NA,NA,NA,NA,NA,NA,"RJFU 012110Z 14006KT CAVOK 13/12 Q1019 RMK A3010"
"3125","RJFU",2019-11-01 22:00:00,129.9136,32.9169,55.4,53.6,93.65,140,6,0,30.09,NA,6.21,NA,NA,NA,NA,NA,NA,NA,NA,NA,NA,NA,NA,NA,NA,NA,NA,NA,"RJFU 012200Z 14006KT CAVOK 13/12 Q1019"
"3126","RJFU",2019-11-01 23:00:00,129.9136,32.9169,59,55.4,87.83,130,5,0,30.12,NA,5.59,NA,"NSC",NA,NA,NA,NA,NA,NA,NA,NA,NA,NA,NA,NA,NA,NA,NA,"RJFU 012300Z 13005KT 9000 NSC 15/13 Q1020"
"3127","RJGG",2019-11-01 00:00:00,136.8054,34.8584,62.6,53.6,72.38,330,12,0,30.06,NA,6.21,NA,"FEW",NA,NA,NA,3000,NA,NA,NA,NA,NA,NA,NA,NA,NA,NA,NA,"RJGG 010000Z 33012KT 9999 FEW030 17/12 Q1018 NOSIG"
"3128","RJGG",2019-11-01 00:30:00,136.8054,34.8584,62.6,55.4,77.29,330,12,0,30.06,NA,6.21,NA,"FEW",NA,NA,NA,3000,NA,NA,NA,NA,NA,NA,NA,NA,NA,NA,NA,"RJGG 010030Z 33012KT 9999 FEW030 17/13 Q1018 NOSIG"
"3129","RJGG",2019-11-01 01:00:00,136.8054,34.8584,64.4,55.4,72.56,320,10,0,30.06,NA,6.21,NA,"FEW",NA,NA,NA,3000,NA,NA,NA,NA,NA,NA,NA,NA,NA,NA,NA,"RJGG 010100Z 32010KT 9999 FEW030 18/13 Q1018 NOSIG"
"3130","RJGG",2019-11-01 01:30:00,136.8054,34.8584,64.4,55.4,72.56,300,7,0,30.06,NA,6.21,NA,"FEW",NA,NA,NA,3000,NA,NA,NA,NA,NA,NA,NA,NA,NA,NA,NA,"RJGG 010130Z 30007KT 9999 FEW030 18/13 Q1018 NOSIG"
"3131","RJGG",2019-11-01 02:00:00,136.8054,34.8584,66.2,55.4,68.15,290,5,0,30.06,NA,6.21,NA,"FEW",NA,NA,NA,3000,NA,NA,NA,NA,NA,NA,NA,NA,NA,NA,NA,"RJGG 010200Z 29005KT 9999 FEW030 19/13 Q1018 NOSIG"
"3132","RJGG",2019-11-01 02:30:00,136.8054,34.8584,68,57.2,68.35,280,4,0,30.03,NA,6.21,NA,"FEW",NA,NA,NA,3000,NA,NA,NA,NA,NA,NA,NA,NA,NA,NA,NA,"RJGG 010230Z 28004KT 9999 FEW030 20/14 Q1017 NOSIG"
"3133","RJGG",2019-11-01 03:00:00,136.8054,34.8584,69.8,55.4,60.21,320,5,0,30,NA,6.21,NA,"FEW",NA,NA,NA,3000,NA,NA,NA,NA,NA,NA,NA,NA,NA,NA,NA,"RJGG 010300Z 32005KT 290V350 9999 FEW030 21/13 Q1016 NOSIG"
"3134","RJGG",2019-11-01 03:30:00,136.8054,34.8584,71.6,55.4,56.63,320,14,0,30,NA,6.21,NA,"FEW",NA,NA,NA,3000,NA,NA,NA,NA,NA,NA,NA,NA,NA,NA,NA,"RJGG 010330Z 32014KT 9999 FEW030 22/13 Q1016 NOSIG"
"3135","RJGG",2019-11-01 04:00:00,136.8054,34.8584,69.8,53.6,56.38,310,20,0,29.97,NA,6.21,NA,"FEW",NA,NA,NA,3000,NA,NA,NA,NA,NA,NA,NA,NA,NA,NA,NA,"RJGG 010400Z 31020KT 9999 FEW030 21/12 Q1015 NOSIG"
"3136","RJGG",2019-11-01 04:30:00,136.8054,34.8584,71.6,55.4,56.63,320,20,0,29.97,NA,6.21,NA,"FEW",NA,NA,NA,3000,NA,NA,NA,NA,NA,NA,NA,NA,NA,NA,NA,"RJGG 010430Z 32020KT 9999 FEW030 22/13 Q1015 NOSIG"
"3137","RJGG",2019-11-01 05:00:00,136.8054,34.8584,71.6,53.6,53.03,310,20,0,29.97,NA,6.21,NA,"FEW",NA,NA,NA,3000,NA,NA,NA,NA,NA,NA,NA,NA,NA,NA,NA,"RJGG 010500Z 31020KT 9999 FEW030 22/12 Q1015 NOSIG"
"3138","RJGG",2019-11-01 05:30:00,136.8054,34.8584,71.6,53.6,53.03,310,21,0,29.97,NA,6.21,NA,"FEW",NA,NA,NA,3000,NA,NA,NA,NA,NA,NA,NA,NA,NA,NA,NA,"RJGG 010530Z 31021KT 9999 FEW030 22/12 Q1015 NOSIG"
"3139","RJGG",2019-11-01 06:00:00,136.8054,34.8584,71.6,55.4,56.63,310,22,0,29.97,NA,6.21,NA,"FEW",NA,NA,NA,3000,NA,NA,NA,NA,NA,NA,NA,NA,NA,NA,NA,"RJGG 010600Z 31022KT 9999 FEW030 22/13 Q1015 NOSIG"
"3140","RJGG",2019-11-01 06:30:00,136.8054,34.8584,71.6,55.4,56.63,310,18,0,29.97,NA,6.21,NA,"FEW",NA,NA,NA,3000,NA,NA,NA,NA,NA,NA,NA,NA,NA,NA,NA,"RJGG 010630Z 31018KT 9999 FEW030 22/13 Q1015 NOSIG"
"3141","RJGG",2019-11-01 07:00:00,136.8054,34.8584,71.6,55.4,56.63,310,19,0,29.97,NA,6.21,NA,"FEW","SCT",NA,NA,3000,7000,NA,NA,NA,NA,NA,NA,NA,NA,NA,NA,"RJGG 010700Z 31019KT 9999 FEW030 SCT070 22/13 Q1015 NOSIG"
"3142","RJGG",2019-11-01 07:30:00,136.8054,34.8584,69.8,55.4,60.21,300,22,0,29.97,NA,6.21,NA,"FEW",NA,NA,NA,3000,NA,NA,NA,NA,NA,NA,NA,NA,NA,NA,NA,"RJGG 010730Z 30022KT 9999 FEW030 21/13 Q1015 NOSIG"
"3143","RJGG",2019-11-01 08:00:00,136.8054,34.8584,69.8,55.4,60.21,310,25,0,29.97,NA,6.21,NA,"FEW",NA,NA,NA,3000,NA,NA,NA,NA,NA,NA,NA,NA,NA,NA,NA,"RJGG 010800Z 31025KT 9999 FEW030 21/13 Q1015 NOSIG"
"3144","RJGG",2019-11-01 08:30:00,136.8054,34.8584,69.8,55.4,60.21,310,22,0,30,NA,6.21,NA,"FEW",NA,NA,NA,3000,NA,NA,NA,NA,NA,NA,NA,NA,NA,NA,NA,"RJGG 010830Z 31022KT 9999 FEW030 21/13 Q1016 NOSIG"
"3145","RJGG",2019-11-01 09:00:00,136.8054,34.8584,68,55.4,64.04,300,19,0,30,NA,6.21,NA,"FEW",NA,NA,NA,3000,NA,NA,NA,NA,NA,NA,NA,NA,NA,NA,NA,"RJGG 010900Z 30019KT 9999 FEW030 20/13 Q1016 NOSIG"
"3146","RJGG",2019-11-01 09:30:00,136.8054,34.8584,68,55.4,64.04,310,22,0,30.03,NA,6.21,NA,"FEW",NA,NA,NA,3000,NA,NA,NA,NA,NA,NA,NA,NA,NA,NA,NA,"RJGG 010930Z 31022KT 9999 FEW030 20/13 Q1017 NOSIG"
"3147","RJGG",2019-11-01 10:00:00,136.8054,34.8584,68,55.4,64.04,300,22,0,30,NA,6.21,NA,"FEW",NA,NA,NA,3000,NA,NA,NA,NA,NA,NA,NA,NA,NA,NA,NA,"RJGG 011000Z 30022KT 9999 FEW030 20/13 Q1016 NOSIG"
"3148","RJGG",2019-11-01 10:30:00,136.8054,34.8584,68,55.4,64.04,300,25,0,30.03,NA,6.21,NA,"FEW",NA,NA,NA,3000,NA,NA,NA,NA,NA,NA,NA,NA,NA,NA,NA,"RJGG 011030Z 30025KT 9999 FEW030 20/13 Q1017 NOSIG"
"3149","RJGG",2019-11-01 11:00:00,136.8054,34.8584,68,55.4,64.04,310,24,0,30.03,NA,6.21,NA,"FEW",NA,NA,NA,3000,NA,NA,NA,NA,NA,NA,NA,NA,NA,NA,NA,"RJGG 011100Z 31024KT 9999 FEW030 20/13 Q1017 NOSIG"
"3150","RJGG",2019-11-01 11:30:00,136.8054,34.8584,68,53.6,59.97,310,23,0,30.03,NA,6.21,NA,"FEW",NA,NA,NA,3000,NA,NA,NA,NA,NA,NA,NA,NA,NA,NA,NA,"RJGG 011130Z 31023KT 9999 FEW030 20/12 Q1017 NOSIG"
"3151","RJGG",2019-11-01 12:00:00,136.8054,34.8584,66.2,55.4,68.15,310,22,0,30.03,NA,6.21,NA,"FEW",NA,NA,NA,3000,NA,NA,NA,NA,NA,NA,NA,NA,NA,NA,NA,"RJGG 011200Z 31022KT 9999 FEW030 19/13 Q1017 NOSIG"
"3152","RJGG",2019-11-01 12:30:00,136.8054,34.8584,66.2,53.6,63.82,310,19,0,30.06,NA,6.21,NA,"FEW",NA,NA,NA,3000,NA,NA,NA,NA,NA,NA,NA,NA,NA,NA,NA,"RJGG 011230Z 31019KT 9999 FEW030 19/12 Q1018 NOSIG"
"3153","RJGG",2019-11-01 13:00:00,136.8054,34.8584,64.4,53.6,67.95,310,21,0,30.06,NA,6.21,NA,"FEW",NA,NA,NA,3000,NA,NA,NA,NA,NA,NA,NA,NA,NA,NA,NA,"RJGG 011300Z 31021KT 9999 FEW030 18/12 Q1018 NOSIG"
"3154","RJGG",2019-11-01 13:30:00,136.8054,34.8584,64.4,53.6,67.95,310,21,0,30.06,NA,6.21,NA,"FEW",NA,NA,NA,3000,NA,NA,NA,NA,NA,NA,NA,NA,NA,NA,NA,"RJGG 011330Z 31021KT 9999 FEW030 18/12 Q1018 NOSIG"
"3155","RJGG",2019-11-01 14:00:00,136.8054,34.8584,64.4,53.6,67.95,310,20,0,30.06,NA,6.21,NA,"FEW",NA,NA,NA,3000,NA,NA,NA,NA,NA,NA,NA,NA,NA,NA,NA,"RJGG 011400Z 31020KT 9999 FEW030 18/12 Q1018 NOSIG"
"3156","RJGG",2019-11-01 14:30:00,136.8054,34.8584,64.4,53.6,67.95,320,22,0,30.06,NA,6.21,NA,"FEW",NA,NA,NA,3000,NA,NA,NA,NA,NA,NA,NA,NA,NA,NA,NA,"RJGG 011430Z 32022KT 9999 FEW030 18/12 Q1018 NOSIG"
"3157","RJGG",2019-11-01 15:00:00,136.8054,34.8584,64.4,53.6,67.95,320,22,0,30.06,NA,6.21,NA,"FEW",NA,NA,NA,3000,NA,NA,NA,NA,NA,NA,NA,NA,NA,NA,NA,"RJGG 011500Z 32022KT 9999 FEW030 18/12 Q1018 NOSIG"
"3158","RJGG",2019-11-01 15:30:00,136.8054,34.8584,62.6,50,63.38,310,23,0,30.06,NA,6.21,NA,"FEW",NA,NA,NA,3000,NA,NA,NA,NA,NA,NA,NA,NA,NA,NA,NA,"RJGG 011530Z 31023KT 9999 FEW030 17/10 Q1018 NOSIG"
"3159","RJGG",2019-11-01 16:00:00,136.8054,34.8584,62.6,51.8,67.75,320,22,0,30.06,NA,6.21,NA,"FEW",NA,NA,NA,3000,NA,NA,NA,NA,NA,NA,NA,NA,NA,NA,NA,"RJGG 011600Z 32022KT 9999 FEW030 17/11 Q1018 NOSIG"
"3160","RJGG",2019-11-01 16:30:00,136.8054,34.8584,62.6,48.2,59.26,320,21,0,30.09,NA,6.21,NA,"FEW",NA,NA,NA,3000,NA,NA,NA,NA,NA,NA,NA,NA,NA,NA,NA,"RJGG 011630Z 32021KT 9999 FEW030 17/09 Q1019 NOSIG"
"3161","RJGG",2019-11-01 17:00:00,136.8054,34.8584,62.6,48.2,59.26,330,18,0,30.09,NA,6.21,NA,"FEW",NA,NA,NA,3000,NA,NA,NA,NA,NA,NA,NA,NA,NA,NA,NA,"RJGG 011700Z 33018KT 9999 FEW030 17/09 Q1019 NOSIG"
"3162","RJGG",2019-11-01 17:30:00,136.8054,34.8584,59,44.6,58.77,340,16,0,30.09,NA,6.21,NA,"FEW",NA,NA,NA,3000,NA,NA,NA,NA,NA,NA,NA,NA,NA,NA,NA,"RJGG 011730Z 34016KT 9999 FEW030 15/07 Q1019 NOSIG"
"3163","RJGG",2019-11-01 18:00:00,136.8054,34.8584,59,44.6,58.77,350,14,0,30.06,NA,6.21,NA,"FEW",NA,NA,NA,3000,NA,NA,NA,NA,NA,NA,NA,NA,NA,NA,NA,"RJGG 011800Z 35014KT 9999 FEW030 15/07 Q1018 NOSIG"
"3164","RJGG",2019-11-01 18:30:00,136.8054,34.8584,57.2,44.6,62.69,340,15,0,30.06,NA,6.21,NA,"FEW",NA,NA,NA,3000,NA,NA,NA,NA,NA,NA,NA,NA,NA,NA,NA,"RJGG 011830Z 34015KT 9999 FEW030 14/07 Q1018 NOSIG"
"3165","RJGG",2019-11-01 19:00:00,136.8054,34.8584,57.2,44.6,62.69,350,14,0,30.09,NA,6.21,NA,"FEW",NA,NA,NA,3000,NA,NA,NA,NA,NA,NA,NA,NA,NA,NA,NA,"RJGG 011900Z 35014KT 9999 FEW030 14/07 Q1019 NOSIG"
"3166","RJGG",2019-11-01 19:30:00,136.8054,34.8584,57.2,42.8,58.52,350,15,0,30.09,NA,6.21,NA,"FEW",NA,NA,NA,3000,NA,NA,NA,NA,NA,NA,NA,NA,NA,NA,NA,"RJGG 011930Z 35015KT 9999 FEW030 14/06 Q1019 NOSIG"
"3167","RJGG",2019-11-01 20:00:00,136.8054,34.8584,57.2,42.8,58.52,350,14,0,30.09,NA,6.21,NA,"FEW",NA,NA,NA,3000,NA,NA,NA,NA,NA,NA,NA,NA,NA,NA,NA,"RJGG 012000Z 35014KT 9999 FEW030 14/06 Q1019 NOSIG"
"3168","RJGG",2019-11-01 20:30:00,136.8054,34.8584,57.2,42.8,58.52,350,15,0,30.12,NA,6.21,NA,"FEW",NA,NA,NA,3000,NA,NA,NA,NA,NA,NA,NA,NA,NA,NA,NA,"RJGG 012030Z 35015KT 9999 FEW030 14/06 Q1020 NOSIG"
"3169","RJGG",2019-11-01 21:00:00,136.8054,34.8584,57.2,42.8,58.52,350,13,0,30.12,NA,6.21,NA,"FEW","SCT",NA,NA,3000,NA,NA,NA,NA,NA,NA,NA,NA,NA,NA,NA,"RJGG 012100Z 35013KT 9999 FEW030 SCT/// 14/06 Q1020 NOSIG"
"3170","RJGG",2019-11-01 21:30:00,136.8054,34.8584,55.4,41,58.27,350,12,0,30.12,NA,6.21,NA,"FEW",NA,NA,NA,3000,NA,NA,NA,NA,NA,NA,NA,NA,NA,NA,NA,"RJGG 012130Z 35012KT 9999 FEW030 13/05 Q1020 NOSIG"
"3171","RJGG",2019-11-01 22:00:00,136.8054,34.8584,57.2,46.4,67.12,350,11,0,30.15,NA,6.21,NA,"FEW",NA,NA,NA,3000,NA,NA,NA,NA,NA,NA,NA,NA,NA,NA,NA,"RJGG 012200Z 35011KT 9999 FEW030 14/08 Q1021 NOSIG"
"3172","RJGG",2019-11-01 22:30:00,136.8054,34.8584,59,44.6,58.77,330,11,0,30.15,NA,6.21,NA,"FEW","SCT",NA,NA,3000,NA,NA,NA,NA,NA,NA,NA,NA,NA,NA,NA,"RJGG 012230Z 33011KT 9999 FEW030 SCT/// 15/07 Q1021 NOSIG"
"3173","RJGG",2019-11-01 23:00:00,136.8054,34.8584,59,41,51.18,340,10,0,30.15,NA,6.21,NA,"FEW","BKN",NA,NA,3000,NA,NA,NA,NA,NA,NA,NA,NA,NA,NA,NA,"RJGG 012300Z 34010KT 9999 FEW030 BKN/// 15/05 Q1021 NOSIG"
"3174","RJGG",2019-11-01 23:30:00,136.8054,34.8584,59,41,51.18,360,11,0,30.15,NA,6.21,NA,"FEW","BKN",NA,NA,3000,NA,NA,NA,NA,NA,NA,NA,NA,NA,NA,NA,"RJGG 012330Z 36011KT 9999 FEW030 BKN/// 15/05 Q1021 NOSIG"
"3175","ROAH",2019-11-01 00:00:00,127.6458,26.1958,77,66.2,69.33,30,12,0,30.03,NA,6.21,NA,"FEW",NA,NA,NA,3000,NA,NA,NA,NA,NA,NA,NA,NA,NA,NA,NA,"ROAH 010000Z 03012KT 010V070 9999 FEW030 25/19 Q1017"
"3176","ROAH",2019-11-01 00:30:00,127.6458,26.1958,77,64.4,65.12,30,10,0,30.03,NA,6.21,NA,"FEW",NA,NA,NA,3000,NA,NA,NA,NA,NA,NA,NA,NA,NA,NA,NA,"ROAH 010030Z 03010KT 350V060 9999 FEW030 25/18 Q1017 RMK 1SC030 A3005"
"3177","ROAH",2019-11-01 01:00:00,127.6458,26.1958,77,66.2,69.33,20,11,0,30.03,NA,6.21,NA,"FEW","SCT",NA,NA,2500,3000,NA,NA,NA,NA,NA,NA,NA,NA,NA,NA,"ROAH 010100Z 02011KT 9999 FEW025 SCT030 25/19 Q1017"
"3178","ROAH",2019-11-01 01:30:00,127.6458,26.1958,78.8,66.2,65.33,20,11,0,30.03,NA,6.21,NA,"FEW","BKN",NA,NA,2500,3000,NA,NA,NA,NA,NA,NA,NA,NA,NA,NA,"ROAH 010130Z 02011KT 9999 FEW025 BKN030 26/19 Q1017 RMK 2CU025 5SC030 A3005"
"3179","ROAH",2019-11-01 02:00:00,127.6458,26.1958,80.6,66.2,61.58,10,14,0,30.03,NA,6.21,NA,"FEW","SCT",NA,NA,2700,3200,NA,NA,NA,NA,NA,NA,NA,NA,NA,82.75,"ROAH 010200Z 01014KT 9999 FEW027 SCT032 27/19 Q1017"
"3180","ROAH",2019-11-01 02:30:00,127.6458,26.1958,78.8,66.2,65.33,10,14,0,30.03,NA,6.21,NA,"FEW","SCT",NA,NA,2700,3200,NA,NA,NA,NA,NA,NA,NA,NA,NA,NA,"ROAH 010230Z 01014KT 9999 FEW027 SCT032 26/19 Q1017"
"3181","ROAH",2019-11-01 03:00:00,127.6458,26.1958,78.8,66.2,65.33,10,13,0,30,NA,6.21,NA,"FEW","SCT",NA,NA,2700,3200,NA,NA,NA,NA,NA,NA,NA,NA,NA,NA,"ROAH 010300Z 01013KT 9999 FEW027 SCT032 26/19 Q1016"
"3182","ROAH",2019-11-01 03:30:00,127.6458,26.1958,80.6,66.2,61.58,20,15,0,30,NA,6.21,NA,"FEW",NA,NA,NA,2700,NA,NA,NA,NA,NA,NA,NA,NA,NA,NA,82.75,"ROAH 010330Z 02015KT 9999 FEW027 27/19 Q1016"
"3183","ROAH",2019-11-01 04:00:00,127.6458,26.1958,80.6,66.2,61.58,10,16,0,30,NA,6.21,NA,"FEW",NA,NA,NA,2700,NA,NA,NA,NA,NA,NA,NA,NA,NA,NA,82.75,"ROAH 010400Z 01016KT 9999 FEW027 27/19 Q1016"
"3184","ROAH",2019-11-01 04:30:00,127.6458,26.1958,80.6,68,65.54,10,15,0,29.97,NA,6.21,NA,"FEW",NA,NA,NA,3000,NA,NA,NA,NA,NA,NA,NA,NA,NA,NA,83.29,"ROAH 010430Z 01015KT 9999 FEW030 27/20 Q1015"
"3185","ROAH",2019-11-01 05:00:00,127.6458,26.1958,80.6,68,65.54,10,18,0,29.97,NA,6.21,NA,"FEW",NA,NA,NA,3000,NA,NA,NA,NA,NA,NA,NA,NA,NA,NA,83.29,"ROAH 010500Z 01018KT 9999 FEW030 27/20 Q1015"
"3186","ROAH",2019-11-01 05:30:00,127.6458,26.1958,80.6,66.2,61.58,10,17,0,29.97,NA,6.21,NA,"FEW",NA,NA,NA,3500,NA,NA,NA,NA,NA,NA,NA,NA,NA,NA,82.75,"ROAH 010530Z 01017KT 9999 FEW035 27/19 Q1015 RMK 2SC035 A2998"
"3187","ROAH",2019-11-01 06:00:00,127.6458,26.1958,80.6,66.2,61.58,10,19,0,29.97,NA,6.21,NA,"FEW",NA,NA,NA,3500,NA,NA,NA,NA,NA,NA,NA,NA,NA,NA,82.75,"ROAH 010600Z 01019KT 9999 FEW035 27/19 Q1015 RMK 2SC035 A2998"
"3188","ROAH",2019-11-01 06:30:00,127.6458,26.1958,80.6,66.2,61.58,10,17,0,29.97,NA,6.21,NA,"FEW",NA,NA,NA,3500,NA,NA,NA,NA,NA,NA,NA,NA,NA,NA,82.75,"ROAH 010630Z 01017KT 9999 FEW035 27/19 Q1015 RMK 2SC035 A2998"
"3189","ROAH",2019-11-01 07:00:00,127.6458,26.1958,78.8,68,69.52,20,15,0,29.97,NA,6.21,NA,"FEW",NA,NA,NA,3500,NA,NA,NA,NA,NA,NA,NA,NA,NA,NA,NA,"ROAH 010700Z 02015KT 9999 FEW035 26/20 Q1015"
"3190","ROAH",2019-11-01 07:30:00,127.6458,26.1958,78.8,66.2,65.33,10,15,0,29.97,NA,6.21,NA,"FEW",NA,NA,NA,3500,NA,NA,NA,NA,NA,NA,NA,NA,NA,NA,NA,"ROAH 010730Z 01015KT 9999 FEW035 26/19 Q1015"
"3191","ROAH",2019-11-01 08:00:00,127.6458,26.1958,77,66.2,69.33,10,16,0,29.97,NA,6.21,NA,"FEW",NA,NA,NA,3500,NA,NA,NA,NA,NA,NA,NA,NA,NA,NA,NA,"ROAH 010800Z 01016KT 9999 FEW035 25/19 Q1015"
"3192","ROAH",2019-11-01 08:30:00,127.6458,26.1958,77,66.2,69.33,20,13,0,29.97,NA,6.21,NA,"FEW",NA,NA,NA,3000,NA,NA,NA,NA,NA,NA,NA,NA,NA,NA,NA,"ROAH 010830Z 02013KT 9999 FEW030 25/19 Q1015 RMK 1CU030 A2999"
"3193","ROAH",2019-11-01 09:00:00,127.6458,26.1958,75.2,64.4,69.14,30,13,0,29.97,NA,6.21,NA,"FEW","SCT",NA,NA,3000,NA,NA,NA,NA,NA,NA,NA,NA,NA,NA,NA,"ROAH 010900Z 03013KT 9999 FEW030 SCT/// 24/18 Q1015"
"3194","ROAH",2019-11-01 09:30:00,127.6458,26.1958,75.2,64.4,69.14,30,12,0,29.97,NA,6.21,NA,"FEW",NA,NA,NA,3000,NA,NA,NA,NA,NA,NA,NA,NA,NA,NA,NA,"ROAH 010930Z 03012KT 9999 FEW030 24/18 Q1015"
"3195","ROAH",2019-11-01 10:00:00,127.6458,26.1958,75.2,64.4,69.14,30,11,0,30,NA,6.21,NA,"SCT",NA,NA,NA,3000,NA,NA,NA,NA,NA,NA,NA,NA,NA,NA,NA,"ROAH 011000Z 03011KT 9999 SCT030 24/18 Q1016"
"3196","ROAH",2019-11-01 10:30:00,127.6458,26.1958,75.2,64.4,69.14,40,12,0,30,NA,6.21,NA,"BKN",NA,NA,NA,3000,NA,NA,NA,NA,NA,NA,NA,NA,NA,NA,NA,"ROAH 011030Z 04012KT 9999 BKN030 24/18 Q1016 RMK 7CU030 A3001"
"3197","ROAH",2019-11-01 11:00:00,127.6458,26.1958,75.2,64.4,69.14,40,11,0,30,NA,6.21,NA,"BKN",NA,NA,NA,3000,NA,NA,NA,NA,NA,NA,NA,NA,NA,NA,NA,"ROAH 011100Z 04011KT 9999 BKN030 24/18 Q1016"
"3198","ROAH",2019-11-01 11:30:00,127.6458,26.1958,75.2,64.4,69.14,40,11,0,30,NA,6.21,NA,"BKN",NA,NA,NA,3500,NA,NA,NA,NA,NA,NA,NA,NA,NA,NA,NA,"ROAH 011130Z 04011KT 9999 BKN035 24/18 Q1016 RMK 6SC035 A3002"
"3199","ROAH",2019-11-01 12:00:00,127.6458,26.1958,75.2,64.4,69.14,40,10,0,30,NA,6.21,NA,"BKN",NA,NA,NA,3500,NA,NA,NA,NA,NA,NA,NA,NA,NA,NA,NA,"ROAH 011200Z 04010KT 9999 BKN035 24/18 Q1016"
"3200","ROAH",2019-11-01 12:30:00,127.6458,26.1958,75.2,64.4,69.14,40,9,0,30,NA,6.21,NA,"FEW",NA,NA,NA,3700,NA,NA,NA,NA,NA,NA,NA,NA,NA,NA,NA,"ROAH 011230Z 04009KT 9999 FEW037 24/18 Q1016 RMK 2SC037 A3002"
"3201","ROAH",2019-11-01 13:00:00,127.6458,26.1958,75.2,66.2,73.61,50,9,0,30,NA,6.21,NA,"FEW",NA,NA,NA,3500,NA,NA,NA,NA,NA,NA,NA,NA,NA,NA,NA,"ROAH 011300Z 05009KT 9999 FEW035 24/19 Q1016"
"3202","ROAH",2019-11-01 13:30:00,127.6458,26.1958,75.2,66.2,73.61,30,8,0,30,NA,6.21,NA,"FEW",NA,NA,NA,3200,NA,NA,NA,NA,NA,NA,NA,NA,NA,NA,NA,"ROAH 011330Z 03008KT 9999 FEW032 24/19 Q1016"
"3203","ROAH",2019-11-01 14:00:00,127.6458,26.1958,73.4,66.2,78.19,40,9,0,30,NA,6.21,NA,"FEW",NA,NA,NA,3200,NA,NA,NA,NA,NA,NA,NA,NA,NA,NA,NA,"ROAH 011400Z 04009KT 9999 FEW032 23/19 Q1016"
"3204","ROAH",2019-11-01 14:30:00,127.6458,26.1958,73.4,66.2,78.19,30,6,0,30,NA,6.21,NA,"FEW",NA,NA,NA,3200,NA,NA,NA,NA,NA,NA,NA,NA,NA,NA,NA,"ROAH 011430Z 03006KT 9999 FEW032 23/19 Q1016 RMK 1SC032 A3000"
"3205","ROAH",2019-11-01 15:00:00,127.6458,26.1958,73.4,66.2,78.19,30,8,0,30,NA,6.21,NA,"FEW",NA,NA,NA,3200,NA,NA,NA,NA,NA,NA,NA,NA,NA,NA,NA,"ROAH 011500Z 03008KT 9999 FEW032 23/19 Q1016"
"3206","ROAH",2019-11-01 15:30:00,127.6458,26.1958,73.4,66.2,78.19,30,8,0,29.97,NA,6.21,NA,"FEW",NA,NA,NA,3200,NA,NA,NA,NA,NA,NA,NA,NA,NA,NA,NA,"ROAH 011530Z 03008KT 9999 FEW032 23/19 Q1015 RMK 1SC032 A3000"
"3207","ROAH",2019-11-01 16:00:00,127.6458,26.1958,73.4,64.4,73.44,40,9,0,29.97,NA,6.21,NA,"FEW",NA,NA,NA,3200,NA,NA,NA,NA,NA,NA,NA,NA,NA,NA,NA,"ROAH 011600Z 04009KT 9999 FEW032 23/18 Q1015"
"3208","ROAH",2019-11-01 16:30:00,127.6458,26.1958,73.4,64.4,73.44,50,9,0,29.97,NA,6.21,NA,"FEW",NA,NA,NA,3200,NA,NA,NA,NA,NA,NA,NA,NA,NA,NA,NA,"ROAH 011630Z 05009KT 9999 FEW032 23/18 Q1015"
"3209","ROAH",2019-11-01 17:00:00,127.6458,26.1958,73.4,64.4,73.44,40,9,0,29.97,NA,6.21,NA,"FEW",NA,NA,NA,3000,NA,NA,NA,NA,NA,NA,NA,NA,NA,NA,NA,"ROAH 011700Z 04009KT 9999 FEW030 23/18 Q1015"
"3210","ROAH",2019-11-01 17:30:00,127.6458,26.1958,73.4,64.4,73.44,40,7,0,29.97,NA,6.21,NA,"FEW",NA,NA,NA,3000,NA,NA,NA,NA,NA,NA,NA,NA,NA,NA,NA,"ROAH 011730Z 04007KT 9999 FEW030 23/18 Q1015"
"3211","ROAH",2019-11-01 18:00:00,127.6458,26.1958,73.4,64.4,73.44,30,7,0,29.94,NA,6.21,NA,"FEW",NA,NA,NA,3000,NA,NA,NA,NA,NA,NA,NA,NA,NA,NA,NA,"ROAH 011800Z 03007KT 9999 FEW030 23/18 Q1014"
"3212","ROAH",2019-11-01 18:30:00,127.6458,26.1958,73.4,64.4,73.44,20,7,0,29.94,NA,6.21,NA,"FEW",NA,NA,NA,3000,NA,NA,NA,NA,NA,NA,NA,NA,NA,NA,NA,"ROAH 011830Z 02007KT 9999 FEW030 23/18 Q1014"
"3213","ROAH",2019-11-01 19:00:00,127.6458,26.1958,73.4,64.4,73.44,40,7,0,29.94,NA,6.21,NA,"FEW",NA,NA,NA,3000,NA,NA,NA,NA,NA,NA,NA,NA,NA,NA,NA,"ROAH 011900Z 04007KT 9999 FEW030 23/18 Q1014"
"3214","ROAH",2019-11-01 19:30:00,127.6458,26.1958,73.4,64.4,73.44,30,8,0,29.94,NA,6.21,NA,"FEW",NA,NA,NA,3000,NA,NA,NA,NA,NA,NA,NA,NA,NA,NA,NA,"ROAH 011930Z 03008KT 9999 FEW030 23/18 Q1014 RMK 1CU030 A2996"
"3215","ROAH",2019-11-01 20:00:00,127.6458,26.1958,71.6,64.4,78.04,30,8,0,29.94,NA,6.21,NA,"FEW",NA,NA,NA,3000,NA,NA,NA,NA,NA,NA,NA,NA,NA,NA,NA,"ROAH 012000Z 03008KT 9999 FEW030 22/18 Q1014"
"3216","ROAH",2019-11-01 20:30:00,127.6458,26.1958,71.6,64.4,78.04,30,9,0,29.94,NA,6.21,NA,"FEW",NA,NA,NA,3000,NA,NA,NA,NA,NA,NA,NA,NA,NA,NA,NA,"ROAH 012030Z 03009KT 9999 FEW030 22/18 Q1014"
"3217","ROAH",2019-11-01 21:00:00,127.6458,26.1958,73.4,64.4,73.44,40,9,0,29.97,NA,6.21,NA,"FEW",NA,NA,NA,2500,NA,NA,NA,NA,NA,NA,NA,NA,NA,NA,NA,"ROAH 012100Z 04009KT 030V090 9999 FEW025 23/18 Q1015"
"3218","ROAH",2019-11-01 21:30:00,127.6458,26.1958,71.6,64.4,78.04,30,9,0,29.97,NA,6.21,NA,"FEW",NA,NA,NA,2500,NA,NA,NA,NA,NA,NA,NA,NA,NA,NA,NA,"ROAH 012130Z 03009KT 9999 FEW025 22/18 Q1015"
"3219","ROAH",2019-11-01 22:00:00,127.6458,26.1958,73.4,64.4,73.44,30,9,0,29.97,NA,6.21,NA,"FEW",NA,NA,NA,3000,NA,NA,NA,NA,NA,NA,NA,NA,NA,NA,NA,"ROAH 012200Z 03009KT 9999 FEW030 23/18 Q1015"
"3220","ROAH",2019-11-01 22:30:00,127.6458,26.1958,73.4,64.4,73.44,40,10,0,29.97,NA,6.21,NA,"FEW",NA,NA,NA,3000,NA,NA,NA,NA,NA,NA,NA,NA,NA,NA,NA,"ROAH 012230Z 04010KT 9999 FEW030 23/18 Q1015"
"3221","ROAH",2019-11-01 23:00:00,127.6458,26.1958,75.2,64.4,69.14,40,8,0,29.97,NA,6.21,NA,"FEW",NA,NA,NA,3000,NA,NA,NA,NA,NA,NA,NA,NA,NA,NA,NA,"ROAH 012300Z 04008KT 9999 FEW030 24/18 Q1015"
"3222","ROAH",2019-11-01 23:30:00,127.6458,26.1958,77,66.2,69.33,40,8,0,30,NA,6.21,NA,"FEW",NA,NA,NA,2500,NA,NA,NA,NA,NA,NA,NA,NA,NA,NA,NA,"ROAH 012330Z 04008KT 9999 FEW025 25/19 Q1016"
"3223","RJCN",2019-11-01 00:00:00,144.96,43.5775,55.4,51.8,87.65,270,7,0,29.59,NA,6.21,NA,"FEW","SCT","BKN",NA,1500,6000,10000,NA,"-SHRA",NA,NA,NA,NA,NA,NA,NA,"RJCN 010000Z 27007KT 9999 -SHRA FEW015 SCT060 BKN100 13/11 Q1002"
"3224","RJCN",2019-11-01 01:00:00,144.96,43.5775,55.4,50,81.99,280,11,0,29.59,NA,4.97,21,"FEW","SCT","BKN",NA,800,1500,4000,NA,"-SHRA",NA,NA,NA,NA,NA,NA,NA,"RJCN 010100Z 28011G21KT 250V310 8000 -SHRA FEW008 SCT015 BKN040 13/10 Q1002"
"3225","RJCN",2019-11-01 02:00:00,144.96,43.5775,55.4,42.8,62.46,270,5,0,29.59,NA,6.21,NA,"FEW","BKN",NA,NA,2500,7000,NA,NA,NA,NA,NA,NA,NA,NA,NA,NA,"RJCN 010200Z 27005KT 220V320 9999 FEW025 BKN070 13/06 Q1002"
"3226","RJCN",2019-11-01 03:00:00,144.96,43.5775,59,41,51.18,280,5,0,29.56,NA,6.21,NA,"FEW",NA,NA,NA,3000,NA,NA,NA,NA,NA,NA,NA,NA,NA,NA,NA,"RJCN 010300Z 28005KT 200V350 9999 FEW030 15/05 Q1001"
"3227","RJCN",2019-11-01 04:00:00,144.96,43.5775,59,32,35.87,290,9,0,29.56,NA,6.21,NA,"FEW","SCT",NA,NA,3000,5000,NA,NA,NA,NA,NA,NA,NA,NA,NA,NA,"RJCN 010400Z 29009KT 250V340 9999 FEW030 SCT050 15/00 Q1001"
"3228","RJCN",2019-11-01 05:00:00,144.96,43.5775,57.2,32,38.26,310,10,0,29.56,NA,6.21,NA,"FEW","SCT",NA,NA,2500,5000,NA,NA,NA,NA,NA,NA,NA,NA,NA,NA,"RJCN 010500Z 31010KT 280V340 9999 FEW025 SCT050 14/00 Q1001"
"3229","RJCN",2019-11-01 06:00:00,144.96,43.5775,53.6,28.4,37.67,300,11,0,29.59,NA,6.21,NA,"FEW","SCT",NA,NA,2500,5000,NA,NA,NA,NA,NA,NA,NA,NA,NA,NA,"RJCN 010600Z 30011KT 260V340 9999 FEW025 SCT050 12/M02 Q1002"
"3230","RJCN",2019-11-01 07:00:00,144.96,43.5775,50,32,49.81,310,9,0,29.65,NA,6.21,19,"FEW","SCT",NA,NA,2000,5000,NA,NA,NA,NA,NA,NA,NA,NA,NA,45.9,"RJCN 010700Z 31009G19KT 260V350 9999 FEW020 SCT050 10/M00 Q1004"
"3231","RJCN",2019-11-01 08:00:00,144.96,43.5775,46.4,30.2,53,290,7,0,29.68,NA,6.21,NA,"FEW",NA,NA,NA,2500,NA,NA,NA,NA,NA,NA,NA,NA,NA,NA,42.33,"RJCN 010800Z 29007KT 250V320 9999 FEW025 08/M01 Q1005"
"3232","RJCN",2019-11-01 09:00:00,144.96,43.5775,46.4,30.2,53,270,8,0,29.71,NA,6.21,NA,"FEW",NA,NA,NA,2500,NA,NA,NA,NA,NA,NA,NA,NA,NA,NA,41.85,"RJCN 010900Z 27008KT 240V300 9999 FEW025 08/M01 Q1006"
"3233","RJCN",2019-11-01 23:30:00,144.96,43.5775,46.4,33.8,61.28,230,10,0,29.88,NA,6.21,NA,"FEW",NA,NA,NA,3000,NA,NA,NA,NA,NA,NA,NA,NA,NA,NA,41.03,"RJCN 012330Z 23010KT 9999 FEW030 08/01 Q1012"
"3234","RJBD",2019-11-01 00:00:00,135.3644,33.6622,66.2,55.4,68.15,350,11,0,30.06,NA,6.21,NA,"FEW",NA,NA,NA,2000,NA,NA,NA,NA,NA,NA,NA,NA,NA,NA,NA,"RJBD 010000Z 35011KT 9999 FEW020 19/13 Q1018"
"3235","RJBD",2019-11-01 01:00:00,135.3644,33.6622,68,53.6,59.97,340,12,0,30.06,NA,6.21,NA,"FEW","SCT",NA,NA,2000,NA,NA,NA,NA,NA,NA,NA,NA,NA,NA,NA,"RJBD 010100Z 34012KT 300V010 9999 FEW020 SCT/// 20/12 Q1018"
"3236","RJBD",2019-11-01 02:00:00,135.3644,33.6622,71.6,55.4,56.63,340,13,0,30.06,NA,6.21,NA,"FEW","SCT",NA,NA,2000,NA,NA,NA,NA,NA,NA,NA,NA,NA,NA,NA,"RJBD 010200Z 34013KT 9999 FEW020 SCT/// 22/13 Q1018"
"3237","RJBD",2019-11-01 03:00:00,135.3644,33.6622,71.6,53.6,53.03,320,11,0,30.03,NA,6.21,NA,"FEW","SCT",NA,NA,2500,NA,NA,NA,NA,NA,NA,NA,NA,NA,NA,NA,"RJBD 010300Z 32011KT 290V360 9999 FEW025 SCT/// 22/12 Q1017"
"3238","RJBD",2019-11-01 04:00:00,135.3644,33.6622,73.4,51.8,46.71,330,11,0,30,NA,6.21,NA,"FEW","SCT",NA,NA,3000,NA,NA,NA,NA,NA,NA,NA,NA,NA,NA,NA,"RJBD 010400Z 33011KT 9999 FEW030 SCT/// 23/11 Q1016"
"3239","RJBD",2019-11-01 05:00:00,135.3644,33.6622,73.4,51.8,46.71,320,13,0,30,NA,6.21,NA,NA,NA,NA,NA,NA,NA,NA,NA,NA,NA,NA,NA,NA,NA,NA,NA,"RJBD 010500Z 32013KT CAVOK 23/11 Q1016"
"3240","RJBD",2019-11-01 06:00:00,135.3644,33.6622,69.8,51.8,52.77,320,11,0,30,NA,6.21,NA,NA,NA,NA,NA,NA,NA,NA,NA,NA,NA,NA,NA,NA,NA,NA,NA,"RJBD 010600Z 32011KT CAVOK 21/11 Q1016"
"3241","RJBD",2019-11-01 07:00:00,135.3644,33.6622,69.8,53.6,56.38,320,9,0,30,NA,6.21,NA,NA,NA,NA,NA,NA,NA,NA,NA,NA,NA,NA,NA,NA,NA,NA,NA,"RJBD 010700Z 32009KT CAVOK 21/12 Q1016"
"3242","RJBD",2019-11-01 08:00:00,135.3644,33.6622,66.2,51.8,59.74,320,12,0,30.03,NA,6.21,NA,"FEW","SCT",NA,NA,3500,NA,NA,NA,NA,NA,NA,NA,NA,NA,NA,NA,"RJBD 010800Z 32012KT 9999 FEW035 SCT/// 19/11 Q1017"
"3243","RJBD",2019-11-01 09:00:00,135.3644,33.6622,66.2,53.6,63.82,330,12,0,30.03,NA,6.21,NA,"FEW","SCT",NA,NA,3500,NA,NA,NA,NA,NA,NA,NA,NA,NA,NA,NA,"RJBD 010900Z 33012KT 9999 FEW035 SCT/// 19/12 Q1017"
"3244","RJBD",2019-11-01 10:00:00,135.3644,33.6622,64.4,55.4,72.56,340,9,0,30.06,NA,6.21,NA,"FEW","SCT",NA,NA,3500,NA,NA,NA,NA,NA,NA,NA,NA,NA,NA,NA,"RJBD 011000Z 34009KT 300V020 9999 FEW035 SCT/// 18/13 Q1018"
"3245","RJBD",2019-11-01 22:40:00,135.3644,33.6622,59,44.6,58.77,50,7,0,30.09,NA,6.21,NA,"FEW",NA,NA,NA,3000,NA,NA,NA,NA,NA,NA,NA,NA,NA,NA,NA,"RJBD 012240Z 05007KT 9999 FEW030 15/07 Q1019 RMK 1CU030 A3012"
"3246","RJBD",2019-11-01 23:00:00,135.3644,33.6622,59,44.6,58.77,40,9,0,30.12,NA,6.21,NA,"FEW",NA,NA,NA,3000,NA,NA,NA,NA,NA,NA,NA,NA,NA,NA,NA,"RJBD 012300Z 04009KT 9999 FEW030 15/07 Q1020"
"3247","RJOA",2019-11-01 00:00:00,132.9194,34.4361,60.8,46.4,59.01,NA,2,0,30.12,NA,6.21,NA,"FEW",NA,NA,NA,0,NA,NA,NA,"BCFG",NA,NA,NA,NA,NA,NA,NA,"RJOA 010000Z VRB02KT 9999 BCFG FEW000 16/08 Q1020"
"3248","RJOA",2019-11-01 01:00:00,132.9194,34.4361,62.6,46.4,55.37,270,3,0,30.12,NA,6.21,NA,"FEW",NA,NA,NA,100,NA,NA,NA,NA,NA,NA,NA,NA,NA,NA,NA,"RJOA 010100Z 27003KT 210V330 9999 FEW001 17/08 Q1020"
"3249","RJOA",2019-11-01 02:00:00,132.9194,34.4361,64.4,48.2,55.63,240,3,0,30.12,NA,6.21,NA,"FEW",NA,NA,NA,2500,NA,NA,NA,NA,NA,NA,NA,NA,NA,NA,NA,"RJOA 010200Z 24003KT 9999 FEW025 18/09 Q1020"
"3250","RJOA",2019-11-01 03:00:00,132.9194,34.4361,68,48.2,49.1,260,4,0,30.09,NA,6.21,NA,"FEW","SCT",NA,NA,2500,3500,NA,NA,NA,NA,NA,NA,NA,NA,NA,NA,"RJOA 010300Z 26004KT 210V360 9999 FEW025 SCT035 20/09 Q1019"
"3251","RJOA",2019-11-01 04:00:00,132.9194,34.4361,66.2,46.4,48.83,NA,2,0,30.09,NA,6.21,NA,"FEW","SCT",NA,NA,2500,3500,NA,NA,NA,NA,NA,NA,NA,NA,NA,NA,"RJOA 010400Z VRB02KT 9999 FEW025 SCT035 19/08 Q1019"
"3252","RJOA",2019-11-01 05:00:00,132.9194,34.4361,68,46.4,45.88,320,7,0,30.06,NA,6.21,NA,"FEW","SCT",NA,NA,3000,4000,NA,NA,NA,NA,NA,NA,NA,NA,NA,NA,"RJOA 010500Z 32007KT 270V060 9999 FEW030 SCT040 20/08 Q1018"
"3253","RJOA",2019-11-01 06:00:00,132.9194,34.4361,69.8,46.4,43.13,360,5,0,30.06,NA,6.21,NA,"FEW","SCT",NA,NA,3000,4000,NA,NA,NA,NA,NA,NA,NA,NA,NA,NA,"RJOA 010600Z 36005KT 310V040 9999 FEW030 SCT040 21/08 Q1018"
"3254","RJOA",2019-11-01 07:00:00,132.9194,34.4361,68,44.6,42.85,260,4,0,30.09,NA,6.21,NA,"FEW",NA,NA,NA,3000,NA,NA,NA,NA,NA,NA,NA,NA,NA,NA,NA,"RJOA 010700Z 26004KT 9999 FEW030 20/07 Q1019"
"3255","RJOA",2019-11-01 08:00:00,132.9194,34.4361,64.4,44.6,48.55,330,6,0,30.09,NA,6.21,NA,"FEW",NA,NA,NA,3000,NA,NA,NA,NA,NA,NA,NA,NA,NA,NA,NA,"RJOA 010800Z 33006KT 300V010 9999 FEW030 18/07 Q1019"
"3256","RJOA",2019-11-01 09:00:00,132.9194,34.4361,62.6,46.4,55.37,340,9,0,30.09,NA,6.21,NA,"FEW",NA,NA,NA,3000,NA,NA,NA,NA,NA,NA,NA,NA,NA,NA,NA,"RJOA 010900Z 34009KT 9999 FEW030 17/08 Q1019"
"3257","RJOA",2019-11-01 10:00:00,132.9194,34.4361,60.8,48.2,63.15,350,10,0,30.12,NA,6.21,NA,"FEW",NA,NA,NA,4500,NA,NA,NA,NA,NA,NA,NA,NA,NA,NA,NA,"RJOA 011000Z 35010KT 9999 FEW045 16/09 Q1020"
"3258","RJOA",2019-11-01 11:00:00,132.9194,34.4361,60.8,48.2,63.15,350,4,0,30.15,NA,6.21,NA,"FEW","SCT",NA,NA,4500,15000,NA,NA,NA,NA,NA,NA,NA,NA,NA,NA,"RJOA 011100Z 35004KT 300V040 9999 FEW045 SCT150 16/09 Q1021"
"3259","RJOA",2019-11-01 12:00:00,132.9194,34.4361,59,46.4,62.92,10,7,0,30.15,NA,6.21,NA,"FEW","SCT",NA,NA,4500,15000,NA,NA,NA,NA,NA,NA,NA,NA,NA,NA,"RJOA 011200Z 01007KT 9999 FEW045 SCT150 15/08 Q1021"
"3260","RJOA",2019-11-01 13:00:00,132.9194,34.4361,59,46.4,62.92,10,4,0,30.15,NA,6.21,NA,"FEW",NA,NA,NA,4500,NA,NA,NA,NA,NA,NA,NA,NA,NA,NA,NA,"RJOA 011300Z 01004KT 310V040 9999 FEW045 15/08 Q1021"
"3261","RJOA",2019-11-01 21:10:00,132.9194,34.4361,50,42.8,76.18,50,4,0,30.15,NA,6.21,NA,NA,NA,NA,NA,NA,NA,NA,NA,NA,NA,NA,NA,NA,NA,NA,48.44,"RJOA 012110Z 05004KT CAVOK 10/06 Q1021 RMK A3017"
"3262","RJOA",2019-11-01 22:00:00,132.9194,34.4361,51.8,42.8,71.26,50,9,0,30.15,NA,6.21,NA,NA,NA,NA,NA,NA,NA,NA,NA,NA,NA,NA,NA,NA,NA,NA,NA,"RJOA 012200Z 05009KT CAVOK 11/06 Q1021"
"3263","RJOA",2019-11-01 23:00:00,132.9194,34.4361,53.6,41,62.23,60,11,0,30.18,NA,6.21,NA,NA,NA,NA,NA,NA,NA,NA,NA,NA,NA,NA,NA,NA,NA,NA,NA,"RJOA 012300Z 06011KT CAVOK 12/05 Q1022"
"3264","RJAA",2019-11-01 00:00:00,140.3856,35.7653,59,57.2,93.74,310,5,0,29.97,NA,4.97,NA,"NSC",NA,NA,NA,NA,NA,NA,NA,NA,NA,NA,NA,NA,NA,NA,NA,"RJAA 010000Z 31005KT 280V340 8000 NSC 15/14 Q1015 NOSIG"
"3265","RJAA",2019-11-01 00:30:00,140.3856,35.7653,62.6,57.2,82.5,310,4,0,29.97,NA,4.97,NA,"NSC",NA,NA,NA,NA,NA,NA,NA,NA,NA,NA,NA,NA,NA,NA,NA,"RJAA 010030Z 31004KT 260V350 8000 NSC 17/14 Q1015 NOSIG RMK A2998"
"3266","RJAA",2019-11-01 01:00:00,140.3856,35.7653,64.4,57.2,77.45,320,5,0,29.97,NA,5.59,NA,"NSC",NA,NA,NA,NA,NA,NA,NA,NA,NA,NA,NA,NA,NA,NA,NA,"RJAA 010100Z 32005KT 270V360 9000 NSC 18/14 Q1015 NOSIG"
"3267","RJAA",2019-11-01 01:30:00,140.3856,35.7653,66.2,57.2,72.74,310,3,0,29.94,NA,6.21,NA,NA,NA,NA,NA,NA,NA,NA,NA,NA,NA,NA,NA,NA,NA,NA,NA,"RJAA 010130Z 31003KT 220V360 CAVOK 19/14 Q1014 NOSIG RMK A2996"
"3268","RJAA",2019-11-01 02:00:00,140.3856,35.7653,68,57.2,68.35,290,3,0,29.94,NA,6.21,NA,NA,NA,NA,NA,NA,NA,NA,NA,NA,NA,NA,NA,NA,NA,NA,NA,"RJAA 010200Z 29003KT 210V010 CAVOK 20/14 Q1014 NOSIG"
"3269","RJAA",2019-11-01 02:30:00,140.3856,35.7653,69.8,55.4,60.21,NA,3,0,29.91,NA,6.21,NA,NA,NA,NA,NA,NA,NA,NA,NA,NA,NA,NA,NA,NA,NA,NA,NA,"RJAA 010230Z VRB03KT CAVOK 21/13 Q1013 BECMG 30005KT"
"3270","RJAA",2019-11-01 03:00:00,140.3856,35.7653,69.8,57.2,64.26,NA,2,0,29.91,NA,6.21,NA,"FEW",NA,NA,NA,3000,NA,NA,NA,NA,NA,NA,NA,NA,NA,NA,NA,"RJAA 010300Z VRB02KT 9999 FEW030 21/14 Q1013 BECMG 30005KT RMK 1CU030 A2992"
"3271","RJAA",2019-11-01 03:30:00,140.3856,35.7653,71.6,57.2,60.44,330,3,0,29.88,NA,6.21,NA,NA,NA,NA,NA,NA,NA,NA,NA,NA,NA,NA,NA,NA,NA,NA,NA,"RJAA 010330Z 33003KT 250V030 CAVOK 22/14 Q1012 NOSIG"
"3272","RJAA",2019-11-01 04:00:00,140.3856,35.7653,71.6,57.2,60.44,NA,1,0,29.88,NA,6.21,NA,NA,NA,NA,NA,NA,NA,NA,NA,NA,NA,NA,NA,NA,NA,NA,NA,"RJAA 010400Z VRB01KT CAVOK 22/14 Q1012 BECMG 30005KT"
"3273","RJAA",2019-11-01 04:30:00,140.3856,35.7653,71.6,55.4,56.63,NA,2,0,29.88,NA,6.21,NA,NA,NA,NA,NA,NA,NA,NA,NA,NA,NA,NA,NA,NA,NA,NA,NA,"RJAA 010430Z VRB02KT CAVOK 22/13 Q1012 BECMG 22005KT"
"3274","RJAA",2019-11-01 05:00:00,140.3856,35.7653,73.4,55.4,53.29,NA,3,0,29.88,NA,6.21,NA,NA,NA,NA,NA,NA,NA,NA,NA,NA,NA,NA,NA,NA,NA,NA,NA,"RJAA 010500Z VRB03KT CAVOK 23/13 Q1012 NOSIG"
"3275","RJAA",2019-11-01 05:30:00,140.3856,35.7653,73.4,53.6,49.9,NA,3,0,29.88,NA,6.21,NA,NA,NA,NA,NA,NA,NA,NA,NA,NA,NA,NA,NA,NA,NA,NA,NA,"RJAA 010530Z VRB03KT CAVOK 23/12 Q1012 NOSIG RMK A2989"
"3276","RJAA",2019-11-01 06:00:00,140.3856,35.7653,73.4,51.8,46.71,220,4,0,29.88,NA,6.21,NA,NA,NA,NA,NA,NA,NA,NA,NA,NA,NA,NA,NA,NA,NA,NA,NA,"RJAA 010600Z 22004KT 180V300 CAVOK 23/11 Q1012 NOSIG"
"3277","RJAA",2019-11-01 06:30:00,140.3856,35.7653,71.6,51.8,49.64,200,3,0,29.88,NA,6.21,NA,NA,NA,NA,NA,NA,NA,NA,NA,NA,NA,NA,NA,NA,NA,NA,NA,"RJAA 010630Z 20003KT 160V220 CAVOK 22/11 Q1012 NOSIG RMK A2989"
"3278","RJAA",2019-11-01 07:00:00,140.3856,35.7653,71.6,50,46.43,NA,1,0,29.88,NA,6.21,NA,NA,NA,NA,NA,NA,NA,NA,NA,NA,NA,NA,NA,NA,NA,NA,NA,"RJAA 010700Z VRB01KT CAVOK 22/10 Q1012 NOSIG"
"3279","RJAA",2019-11-01 07:30:00,140.3856,35.7653,69.8,51.8,52.77,340,4,0,29.91,NA,6.21,NA,"FEW",NA,NA,NA,3000,NA,NA,NA,NA,NA,NA,NA,NA,NA,NA,NA,"RJAA 010730Z 34004KT 9999 FEW030 21/11 Q1013 NOSIG"
"3280","RJAA",2019-11-01 08:00:00,140.3856,35.7653,62.6,59,88,120,4,0,29.91,NA,6.21,NA,"FEW",NA,NA,NA,3000,NA,NA,NA,NA,NA,NA,NA,NA,NA,NA,NA,"RJAA 010800Z 12004KT 9999 FEW030 17/15 Q1013 BECMG 34005KT"
"3281","RJAA",2019-11-01 08:30:00,140.3856,35.7653,62.6,57.2,82.5,140,5,0,29.91,NA,6.21,NA,"FEW",NA,NA,NA,3000,NA,NA,NA,NA,NA,NA,NA,NA,NA,NA,NA,"RJAA 010830Z 14005KT 090V170 9999 FEW030 17/14 Q1013 BECMG 34005KT RMK 1CU030 A2994"
"3282","RJAA",2019-11-01 09:00:00,140.3856,35.7653,60.8,57.2,87.92,170,4,0,29.94,NA,6.21,NA,"FEW",NA,NA,NA,3000,NA,NA,NA,NA,NA,NA,NA,NA,NA,NA,NA,"RJAA 010900Z 17004KT 9999 FEW030 16/14 Q1014 BECMG FM1000 02010KT"
"3283","RJAA",2019-11-01 09:30:00,140.3856,35.7653,59,57.2,93.74,160,4,0,29.94,NA,6.21,NA,"FEW",NA,NA,NA,3000,NA,NA,NA,NA,NA,NA,NA,NA,NA,NA,NA,"RJAA 010930Z 16004KT 130V220 9999 FEW030 15/14 Q1014 BECMG FM1000 02010KT"
"3284","RJAA",2019-11-01 10:00:00,140.3856,35.7653,57.2,57.2,100,160,4,0,29.94,NA,4.97,NA,"FEW",NA,NA,NA,3000,NA,NA,NA,NA,NA,NA,NA,NA,NA,NA,NA,"RJAA 011000Z 16004KT 8000 FEW030 14/14 Q1014 BECMG 02008KT"
"3285","RJAA",2019-11-01 10:30:00,140.3856,35.7653,59,57.2,93.74,NA,2,0,29.97,NA,4.97,NA,"FEW",NA,NA,NA,3000,NA,NA,NA,NA,NA,NA,NA,NA,NA,NA,NA,"RJAA 011030Z VRB02KT 8000 FEW030 15/14 Q1015 BECMG 02008KT RMK 1CU030 A2997"
"3286","RJAA",2019-11-01 11:00:00,140.3856,35.7653,55.4,53.6,93.65,280,2,0,29.97,NA,4.97,NA,"FEW",NA,NA,NA,3000,NA,NA,NA,NA,NA,NA,NA,NA,NA,NA,NA,"RJAA 011100Z 28002KT 8000 FEW030 13/12 Q1015 NOSIG"
"3287","RJAA",2019-11-01 11:30:00,140.3856,35.7653,59,57.2,93.74,10,2,0,30,NA,4.35,NA,"FEW",NA,NA,NA,2500,NA,NA,NA,NA,NA,NA,NA,NA,NA,NA,NA,"RJAA 011130Z 01002KT 7000 FEW025 15/14 Q1016 NOSIG RMK 1CU025 A3001"
"3288","RJAA",2019-11-01 12:00:00,140.3856,35.7653,62.6,57.2,82.5,60,6,0,30,NA,3.73,NA,"FEW",NA,NA,NA,2500,NA,NA,NA,NA,NA,NA,NA,NA,NA,NA,NA,"RJAA 011200Z 06006KT 6000 FEW025 17/14 Q1016 BECMG 02008KT"
"3289","RJAA",2019-11-01 12:30:00,140.3856,35.7653,59,55.4,87.83,10,5,0,30.03,NA,3.11,NA,"FEW",NA,NA,NA,2500,NA,NA,NA,"BR",NA,NA,NA,NA,NA,NA,NA,"RJAA 011230Z 01005KT 5000 BR FEW025 15/13 Q1017 NOSIG RMK 1CU025 A3003"
"3290","RJAA",2019-11-01 13:00:00,140.3856,35.7653,59,55.4,87.83,300,5,0,30.03,NA,2.8,NA,"FEW",NA,NA,NA,2500,NA,NA,NA,"BR",NA,NA,NA,NA,NA,NA,NA,"RJAA 011300Z 30005KT 270V330 4500 BR FEW025 15/13 Q1017 BECMG 6000 NSW"
"3291","RJAA",2019-11-01 13:30:00,140.3856,35.7653,59,57.2,93.74,320,5,0,30.03,NA,2.8,NA,"FEW",NA,NA,NA,2000,NA,NA,NA,"BR",NA,NA,NA,NA,NA,NA,NA,"RJAA 011330Z 32005KT 4500 BR FEW020 15/14 Q1017 BECMG 6000 NSW"
"3292","RJAA",2019-11-01 14:00:00,140.3856,35.7653,60.8,57.2,87.92,10,7,0,30.03,NA,4.35,NA,"FEW","BKN",NA,NA,2000,3000,NA,NA,NA,NA,NA,NA,NA,NA,NA,NA,"RJAA 011400Z 01007KT 340V050 7000 FEW020 BKN030 16/14 Q1017 TEMPO 4500 BR"
"3293","RJAA",2019-11-01 14:30:00,140.3856,35.7653,60.8,53.6,77.14,20,7,0,30.06,NA,4.97,NA,"FEW","SCT",NA,NA,2000,3000,NA,NA,NA,NA,NA,NA,NA,NA,NA,NA,"RJAA 011430Z 02007KT 8000 FEW020 SCT030 16/12 Q1018 NOSIG RMK 1CU020 4CU030 A3006"
"3294","RJAA",2019-11-01 15:00:00,140.3856,35.7653,59,53.6,82.25,20,4,0,30.06,NA,6.21,NA,"FEW","BKN","BKN",NA,2000,3000,5000,NA,NA,NA,NA,NA,NA,NA,NA,NA,"RJAA 011500Z 02004KT 9999 FEW020 BKN030 BKN050 15/12 Q1018 NOSIG"
"3295","RJAA",2019-11-01 15:30:00,140.3856,35.7653,57.2,51.8,82.12,10,5,0,30.06,NA,6.21,NA,"FEW","BKN","BKN",NA,2000,3000,5000,NA,NA,NA,NA,NA,NA,NA,NA,NA,"RJAA 011530Z 01005KT 9999 FEW020 BKN030 BKN050 14/11 Q1018 NOSIG RMK 1CU020 6CU030 7SC050 A3007"
"3296","RJAA",2019-11-01 16:00:00,140.3856,35.7653,57.2,48.2,71.83,30,6,0,30.06,NA,6.21,NA,"FEW","SCT",NA,NA,2000,3000,NA,NA,NA,NA,NA,NA,NA,NA,NA,NA,"RJAA 011600Z 03006KT 9999 FEW020 SCT030 14/09 Q1018 NOSIG"
"3297","RJAA",2019-11-01 16:30:00,140.3856,35.7653,55.4,48.2,76.66,20,6,0,30.06,NA,6.21,NA,"FEW","SCT",NA,NA,2000,3500,NA,NA,NA,NA,NA,NA,NA,NA,NA,NA,"RJAA 011630Z 02006KT 9999 FEW020 SCT035 13/09 Q1018 NOSIG"
"3298","RJAA",2019-11-01 17:00:00,140.3856,35.7653,55.4,46.4,71.64,10,6,0,30.09,NA,6.21,NA,"FEW",NA,NA,NA,2000,NA,NA,NA,NA,NA,NA,NA,NA,NA,NA,NA,"RJAA 011700Z 01006KT 9999 FEW020 13/08 Q1019 NOSIG"
"3299","RJAA",2019-11-01 17:30:00,140.3856,35.7653,53.6,44.6,71.45,30,5,0,30.09,NA,6.21,NA,"FEW",NA,NA,NA,2000,NA,NA,NA,NA,NA,NA,NA,NA,NA,NA,NA,"RJAA 011730Z 03005KT 9999 FEW020 12/07 Q1019 NOSIG"
"3300","RJAA",2019-11-01 18:00:00,140.3856,35.7653,53.6,44.6,71.45,10,3,0,30.09,NA,6.21,NA,"FEW",NA,NA,NA,4000,NA,NA,NA,NA,NA,NA,NA,NA,NA,NA,NA,"RJAA 011800Z 01003KT 9999 FEW040 12/07 Q1019 NOSIG"
"3301","RJAA",2019-11-01 18:30:00,140.3856,35.7653,51.8,44.6,76.34,10,5,0,30.09,NA,6.21,NA,"FEW",NA,NA,NA,4000,NA,NA,NA,NA,NA,NA,NA,NA,NA,NA,NA,"RJAA 011830Z 01005KT 9999 FEW040 11/07 Q1019 NOSIG"
"3302","RJAA",2019-11-01 19:00:00,140.3856,35.7653,51.8,44.6,76.34,340,4,0,30.09,NA,6.21,NA,"FEW",NA,NA,NA,4000,NA,NA,NA,NA,NA,NA,NA,NA,NA,NA,NA,"RJAA 011900Z 34004KT 9999 FEW040 11/07 Q1019 NOSIG"
"3303","RJAA",2019-11-01 19:30:00,140.3856,35.7653,51.8,44.6,76.34,10,5,0,30.12,NA,6.21,NA,"FEW",NA,NA,NA,4000,NA,NA,NA,NA,NA,NA,NA,NA,NA,NA,NA,"RJAA 011930Z 01005KT 9999 FEW040 11/07 Q1020 NOSIG RMK 1SC040 A3012"
"3304","RJAA",2019-11-01 20:00:00,140.3856,35.7653,51.8,42.8,71.26,10,4,0,30.12,NA,6.21,NA,"FEW",NA,NA,NA,4000,NA,NA,NA,NA,NA,NA,NA,NA,NA,NA,NA,"RJAA 012000Z 01004KT 9999 FEW040 11/06 Q1020 NOSIG"
"3305","RJAA",2019-11-01 20:30:00,140.3856,35.7653,50,42.8,76.18,360,3,0,30.12,NA,6.21,NA,"FEW","SCT",NA,NA,2000,4000,NA,NA,NA,NA,NA,NA,NA,NA,NA,49.27,"RJAA 012030Z 36003KT 9999 FEW020 SCT040 10/06 Q1020 NOSIG"
"3306","RJAA",2019-11-01 21:00:00,140.3856,35.7653,50,42.8,76.18,340,4,0,30.12,NA,6.21,NA,"FEW","SCT",NA,NA,2000,4000,NA,NA,NA,NA,NA,NA,NA,NA,NA,48.44,"RJAA 012100Z 34004KT 9999 FEW020 SCT040 10/06 Q1020 NOSIG"
"3307","RJAA",2019-11-01 21:30:00,140.3856,35.7653,50,44.6,81.61,360,5,0,30.15,NA,6.21,NA,"FEW",NA,NA,NA,2000,NA,NA,NA,NA,NA,NA,NA,NA,NA,NA,47.77,"RJAA 012130Z 36005KT 9999 FEW020 10/07 Q1021 NOSIG"
"3308","RJAA",2019-11-01 22:00:00,140.3856,35.7653,51.8,46.4,81.74,330,5,0,30.15,NA,6.21,NA,"FEW",NA,NA,NA,2000,NA,NA,NA,NA,NA,NA,NA,NA,NA,NA,NA,"RJAA 012200Z 33005KT 9999 FEW020 11/08 Q1021 NOSIG RMK 1CU020 A3017"
"3309","RJAA",2019-11-01 22:30:00,140.3856,35.7653,53.6,46.4,76.5,330,5,0,30.15,NA,6.21,NA,"FEW",NA,NA,NA,2000,NA,NA,NA,NA,NA,NA,NA,NA,NA,NA,NA,"RJAA 012230Z 33005KT 9999 FEW020 12/08 Q1021 NOSIG"
"3310","RJAA",2019-11-01 23:00:00,140.3856,35.7653,55.4,48.2,76.66,340,6,0,30.18,NA,6.21,NA,"FEW",NA,NA,NA,2000,NA,NA,NA,NA,NA,NA,NA,NA,NA,NA,NA,"RJAA 012300Z 34006KT 320V020 9999 FEW020 13/09 Q1022 NOSIG"
"3311","RJAA",2019-11-01 23:30:00,140.3856,35.7653,57.2,48.2,71.83,360,6,0,30.18,NA,6.21,NA,"FEW","SCT",NA,NA,2000,6000,NA,NA,NA,NA,NA,NA,NA,NA,NA,NA,"RJAA 012330Z 36006KT 340V040 9999 FEW020 SCT060 14/09 Q1022 NOSIG"
"3312","RJSN",2019-11-01 00:00:00,139.1117,37.9558,64.4,53.6,67.95,210,14,0,29.94,NA,6.21,NA,"FEW","SCT","BKN",NA,2000,3000,4000,NA,NA,NA,NA,NA,NA,NA,NA,NA,"RJSN 010000Z 21014KT 9999 FEW020 SCT030 BKN040 18/12 Q1014"
"3313","RJSN",2019-11-01 00:38:00,139.1117,37.9558,66.2,57.2,72.74,230,15,0,29.94,NA,6.21,30,"FEW","SCT","BKN",NA,1500,2000,3000,NA,"-SHRA",NA,NA,NA,NA,NA,NA,NA,"RJSN 010038Z 23015G30KT 200V260 9999 -SHRA FEW015 SCT020 BKN030 19/14 Q1014 RMK 1CU015 3CU020 5CU030 A2997"
"3314","RJSN",2019-11-01 01:00:00,139.1117,37.9558,64.4,57.2,77.45,240,18,0,29.97,NA,6.21,28,"FEW","SCT","BKN",NA,1500,2000,3000,NA,"-SHRA",NA,NA,NA,NA,NA,NA,NA,"RJSN 010100Z 24018G28KT 9999 -SHRA FEW015 SCT020 BKN030 18/14 Q1015"
"3315","RJSN",2019-11-01 02:00:00,139.1117,37.9558,64.4,55.4,72.56,330,17,0,29.97,NA,6.21,NA,"FEW","SCT","BKN",NA,1500,2000,3000,NA,"-SHRA",NA,NA,NA,NA,NA,NA,NA,"RJSN 010200Z 33017KT 9999 -SHRA FEW015 SCT020 BKN030 18/13 Q1015"
"3316","RJSN",2019-11-01 03:00:00,139.1117,37.9558,66.2,51.8,59.74,320,17,0,29.97,NA,6.21,NA,"FEW","SCT",NA,NA,2000,3000,NA,NA,NA,NA,NA,NA,NA,NA,NA,NA,"RJSN 010300Z 32017KT 9999 FEW020 SCT030 19/11 Q1015"
"3317","RJSN",2019-11-01 04:00:00,139.1117,37.9558,64.4,50,59.5,320,17,0,30,NA,6.21,NA,"FEW","SCT","BKN",NA,2000,3000,5000,NA,NA,NA,NA,NA,NA,NA,NA,NA,"RJSN 010400Z 32017KT 9999 FEW020 SCT030 BKN050 18/10 Q1016"
"3318","RJSN",2019-11-01 05:00:00,139.1117,37.9558,64.4,50,59.5,320,16,0,30,NA,6.21,NA,"FEW","SCT","BKN",NA,2000,3000,5000,NA,NA,NA,NA,NA,NA,NA,NA,NA,"RJSN 010500Z 32016KT 9999 FEW020 SCT030 BKN050 18/10 Q1016"
"3319","RJSN",2019-11-01 06:00:00,139.1117,37.9558,62.6,44.6,51.72,320,17,0,30.03,NA,6.21,NA,"FEW","SCT","BKN",NA,3000,5000,8000,NA,NA,NA,NA,NA,NA,NA,NA,NA,"RJSN 010600Z 32017KT 9999 FEW030 SCT050 BKN080 17/07 Q1017"
"3320","RJSN",2019-11-01 07:00:00,139.1117,37.9558,60.8,42.8,51.45,310,16,0,30.03,NA,6.21,NA,"FEW","BKN",NA,NA,3000,8000,NA,NA,NA,NA,NA,NA,NA,NA,NA,NA,"RJSN 010700Z 31016KT 9999 FEW030 BKN080 16/06 Q1017"
"3321","RJSN",2019-11-01 08:00:00,139.1117,37.9558,60.8,41,48,310,18,0,30.06,NA,6.21,NA,"FEW",NA,NA,NA,3000,NA,NA,NA,NA,NA,NA,NA,NA,NA,NA,NA,"RJSN 010800Z 31018KT 9999 FEW030 16/05 Q1018"
"3322","RJSN",2019-11-01 09:00:00,139.1117,37.9558,59,42.8,54.86,310,15,0,30.09,NA,6.21,NA,"FEW","SCT",NA,NA,3000,8000,NA,NA,NA,NA,NA,NA,NA,NA,NA,NA,"RJSN 010900Z 31015KT 9999 FEW030 SCT080 15/06 Q1019"
"3323","RJSN",2019-11-01 10:00:00,139.1117,37.9558,59,41,51.18,310,14,0,30.12,NA,6.21,NA,"FEW","SCT",NA,NA,3000,5000,NA,NA,NA,NA,NA,NA,NA,NA,NA,NA,"RJSN 011000Z 31014KT 9999 FEW030 SCT050 15/05 Q1020"
"3324","RJSN",2019-11-01 11:00:00,139.1117,37.9558,59,42.8,54.86,290,12,0,30.12,NA,6.21,NA,"FEW","BKN",NA,NA,3000,5000,NA,NA,NA,NA,NA,NA,NA,NA,NA,NA,"RJSN 011100Z 29012KT 9999 FEW030 BKN050 15/06 Q1020"
"3325","RJSN",2019-11-01 12:00:00,139.1117,37.9558,59,41,51.18,290,12,0,30.15,NA,6.21,NA,"FEW","BKN",NA,NA,3000,5000,NA,NA,NA,NA,NA,NA,NA,NA,NA,NA,"RJSN 011200Z 29012KT 9999 FEW030 BKN050 15/05 Q1021"
"3326","RJSN",2019-11-01 21:10:00,139.1117,37.9558,50,44.6,81.61,200,6,0,30.18,NA,6.21,NA,"FEW","BKN",NA,NA,2000,5000,NA,NA,NA,NA,NA,NA,NA,NA,NA,47.21,"RJSN 012110Z 20006KT 9999 FEW020 BKN050 10/07 Q1022 RMK 1CU020 6CU050 A3018"
"3327","RJSN",2019-11-01 22:00:00,139.1117,37.9558,51.8,46.4,81.74,200,6,0,30.18,NA,6.21,NA,"FEW","BKN",NA,NA,2000,5000,NA,NA,NA,NA,NA,NA,NA,NA,NA,NA,"RJSN 012200Z 20006KT 9999 FEW020 BKN050 11/08 Q1022"
"3328","RJSN",2019-11-01 23:00:00,139.1117,37.9558,53.6,46.4,76.5,190,9,0,30.21,NA,6.21,NA,"FEW","BKN",NA,NA,2000,5000,NA,NA,NA,NA,NA,NA,NA,NA,NA,NA,"RJSN 012300Z 19009KT 9999 FEW020 BKN050 12/08 Q1023"
"3329","RJNW",2019-11-01 00:00:00,136.9618,37.2931,62.6,55.4,77.29,230,12,0,30.03,NA,6.21,NA,"FEW","BKN",NA,NA,1500,2000,NA,NA,NA,NA,NA,NA,NA,NA,NA,NA,"RJNW 010000Z 23012KT 9999 FEW015 BKN020 17/13 Q1017"
"3330","RJNW",2019-11-01 01:00:00,136.9618,37.2931,64.4,55.4,72.56,300,13,0,30.03,NA,6.21,NA,"FEW","SCT","BKN",NA,1500,2500,5000,NA,"VCSH",NA,NA,NA,NA,NA,NA,NA,"RJNW 010100Z 30013KT 260V340 9999 VCSH FEW015 SCT025 BKN050 18/13 Q1017"
"3331","RJNW",2019-11-01 02:00:00,136.9618,37.2931,64.4,50,59.5,330,5,0,30.06,NA,6.21,NA,"FEW",NA,NA,NA,2000,NA,NA,NA,NA,NA,NA,NA,NA,NA,NA,NA,"RJNW 010200Z 33005KT 260V050 9999 FEW020 18/10 Q1018"
"3332","RJNW",2019-11-01 03:00:00,136.9618,37.2931,64.4,48.2,55.63,320,8,0,30.06,NA,6.21,NA,"FEW","SCT",NA,NA,2000,3500,NA,NA,NA,NA,NA,NA,NA,NA,NA,NA,"RJNW 010300Z 32008KT 270V010 9999 FEW020 SCT035 18/09 Q1018"
"3333","RJNW",2019-11-01 04:00:00,136.9618,37.2931,62.6,46.4,55.37,330,9,0,30.06,NA,6.21,NA,"FEW","SCT",NA,NA,3000,5000,NA,NA,NA,NA,NA,NA,NA,NA,NA,NA,"RJNW 010400Z 33009KT 250V010 9999 FEW030 SCT050 17/08 Q1018"
"3334","RJNW",2019-11-01 05:00:00,136.9618,37.2931,59,44.6,58.77,330,8,0,30.06,NA,6.21,18,"FEW","SCT",NA,NA,3000,6000,NA,NA,NA,NA,NA,NA,NA,NA,NA,NA,"RJNW 010500Z 33008G18KT 260V040 9999 FEW030 SCT060 15/07 Q1018"
"3335","RJNW",2019-11-01 06:00:00,136.9618,37.2931,57.2,42.8,58.52,340,7,0,30.09,NA,6.21,NA,NA,NA,NA,NA,NA,NA,NA,NA,NA,NA,NA,NA,NA,NA,NA,NA,"RJNW 010600Z 34007KT 270V050 CAVOK 14/06 Q1019"
"3336","RJNW",2019-11-01 07:00:00,136.9618,37.2931,55.4,41,58.27,340,5,0,30.09,NA,6.21,NA,NA,NA,NA,NA,NA,NA,NA,NA,NA,NA,NA,NA,NA,NA,NA,NA,"RJNW 010700Z 34005KT 260V070 CAVOK 13/05 Q1019"
"3337","RJNW",2019-11-01 08:00:00,136.9618,37.2931,53.6,39.2,58.02,NA,1,0,30.12,NA,6.21,NA,"FEW",NA,NA,NA,2000,NA,NA,NA,NA,NA,NA,NA,NA,NA,NA,NA,"RJNW 010800Z VRB01KT 9999 FEW020 12/04 Q1020"
"3338","RJNW",2019-11-01 09:00:00,136.9618,37.2931,51.8,39.2,61.99,NA,2,0,30.12,NA,6.21,NA,NA,NA,NA,NA,NA,NA,NA,NA,NA,NA,NA,NA,NA,NA,NA,NA,"RJNW 010900Z VRB02KT CAVOK 11/04 Q1020"
"3339","RJNW",2019-11-01 10:00:00,136.9618,37.2931,50,39.2,66.27,310,3,0,30.15,NA,6.21,NA,NA,NA,NA,NA,NA,NA,NA,NA,NA,NA,NA,NA,NA,NA,NA,49.27,"RJNW 011000Z 31003KT 280V340 CAVOK 10/04 Q1021"
"3340","RJNW",2019-11-01 23:00:00,136.9618,37.2931,53.6,39.2,58.02,NA,2,0,30.21,NA,6.21,NA,"FEW","SCT",NA,NA,500,4000,NA,NA,NA,NA,NA,NA,NA,NA,NA,NA,"RJNW 012300Z VRB02KT 9999 FEW005 SCT040 12/04 Q1023"
"3341","RJCB",2019-11-01 00:00:00,143.2172,42.7333,55.4,41,58.27,350,11,0,29.65,NA,6.21,NA,"FEW","SCT",NA,NA,3000,6000,NA,NA,NA,NA,NA,NA,NA,NA,NA,NA,"RJCB 010000Z 35011KT 9999 FEW030 SCT060 13/05 Q1004"
"3342","RJCB",2019-11-01 01:00:00,143.2172,42.7333,57.2,33.8,41.13,300,15,0,29.65,NA,6.21,NA,"FEW",NA,NA,NA,6000,NA,NA,NA,NA,NA,NA,NA,NA,NA,NA,NA,"RJCB 010100Z 30015KT 260V330 9999 FEW060 14/01 Q1004"
"3343","RJCB",2019-11-01 02:00:00,143.2172,42.7333,57.2,30.2,35.57,290,14,0,29.65,NA,6.21,25,"FEW",NA,NA,NA,6000,NA,NA,NA,NA,NA,NA,NA,NA,NA,NA,NA,"RJCB 010200Z 29014G25KT 260V320 9999 FEW060 14/M01 Q1004"
"3344","RJCB",2019-11-01 03:00:00,143.2172,42.7333,57.2,28.4,33.05,310,16,0,29.65,NA,6.21,NA,"FEW",NA,NA,NA,6000,NA,NA,NA,NA,NA,NA,NA,NA,NA,NA,NA,"RJCB 010300Z 31016KT 9999 FEW060 14/M02 Q1004"
"3345","RJCB",2019-11-01 04:00:00,143.2172,42.7333,55.4,28.4,35.28,300,13,0,29.65,NA,6.21,NA,"FEW",NA,NA,NA,6000,NA,NA,NA,NA,NA,NA,NA,NA,NA,NA,NA,"RJCB 010400Z 30013KT 9999 FEW060 13/M02 Q1004"
"3346","RJCB",2019-11-01 05:00:00,143.2172,42.7333,55.4,28.4,35.28,290,9,0,29.65,NA,6.21,NA,"FEW","SCT",NA,NA,6000,8000,NA,NA,NA,NA,NA,NA,NA,NA,NA,NA,"RJCB 010500Z 29009KT 260V330 9999 FEW060 SCT080 13/M02 Q1004"
"3347","RJCB",2019-11-01 06:00:00,143.2172,42.7333,51.8,30.2,43.32,300,11,0,29.71,NA,6.21,NA,"FEW",NA,NA,NA,5000,NA,NA,NA,NA,NA,NA,NA,NA,NA,NA,NA,"RJCB 010600Z 30011KT 250V320 9999 FEW050 11/M01 Q1006"
"3348","RJCB",2019-11-01 07:00:00,143.2172,42.7333,46.4,32,57,290,8,0,29.71,NA,6.21,NA,"FEW",NA,NA,NA,5000,NA,NA,NA,NA,NA,NA,NA,NA,NA,NA,41.85,"RJCB 010700Z 29008KT 9999 FEW050 08/00 Q1006"
"3349","RJCB",2019-11-01 08:00:00,143.2172,42.7333,44.6,32,61.03,350,8,0,29.74,NA,6.21,NA,"FEW",NA,NA,NA,5000,NA,NA,NA,NA,NA,NA,NA,NA,NA,NA,39.63,"RJCB 010800Z 35008KT 9999 FEW050 07/00 Q1007"
"3350","RJCB",2019-11-01 09:00:00,143.2172,42.7333,46.4,30.2,53,290,13,0,29.77,NA,6.21,24,"FEW",NA,NA,NA,5000,NA,NA,NA,NA,NA,NA,NA,NA,NA,NA,40.02,"RJCB 010900Z 29013G24KT 260V320 9999 FEW050 08/M01 Q1008"
"3351","RJCB",2019-11-01 10:00:00,143.2172,42.7333,44.6,30.2,56.74,290,5,0,29.77,NA,6.21,NA,"FEW",NA,NA,NA,5000,NA,NA,NA,NA,NA,NA,NA,NA,NA,NA,41.36,"RJCB 011000Z 29005KT 9999 FEW050 07/M01 Q1008"
"3352","RJCB",2019-11-01 11:00:00,143.2172,42.7333,42.8,30.2,60.79,310,5,0,29.8,NA,6.21,NA,"FEW",NA,NA,NA,5000,NA,NA,NA,NA,NA,NA,NA,NA,NA,NA,39.22,"RJCB 011100Z 31005KT 260V350 9999 FEW050 06/M01 Q1009"
"3353","RJCB",2019-11-01 22:40:00,143.2172,42.7333,39.2,33.8,80.79,NA,1,0,29.91,NA,6.21,NA,"FEW",NA,NA,NA,4000,NA,NA,NA,NA,NA,NA,NA,NA,NA,NA,NA,"RJCB 012240Z VRB01KT 9999 FEW040 04/01 Q1013 RMK 1CU040 A2993"
"3354","RJCB",2019-11-01 23:00:00,143.2172,42.7333,42.8,33.8,70.28,130,3,0,29.91,NA,6.21,NA,"FEW",NA,NA,NA,5000,NA,NA,NA,NA,NA,NA,NA,NA,NA,NA,41.03,"RJCB 012300Z 13003KT 9999 FEW050 06/01 Q1013"
"3355","RJSR",2019-11-01 00:00:00,140.3714,40.1919,59,55.4,87.83,250,10,0,29.85,NA,6.21,NA,"FEW","SCT","BKN",NA,1500,3000,NA,NA,NA,NA,NA,NA,NA,NA,NA,NA,"RJSR 010000Z 25010KT 9999 FEW015 SCT030 BKN/// 15/13 Q1011"
"3356","RJSR",2019-11-01 01:00:00,140.3714,40.1919,59,48.2,67.33,290,10,0,29.85,NA,6.21,NA,"FEW","BKN",NA,NA,2000,3000,NA,NA,NA,NA,NA,NA,NA,NA,NA,NA,"RJSR 010100Z 29010KT 9999 FEW020 BKN030 15/09 Q1011"
"3357","RJSR",2019-11-01 02:00:00,140.3714,40.1919,57.2,44.6,62.69,270,11,0,29.88,NA,6.21,NA,"FEW","BKN",NA,NA,3000,4000,NA,NA,NA,NA,NA,NA,NA,NA,NA,NA,"RJSR 010200Z 27011KT 230V300 9999 FEW030 BKN040 14/07 Q1012"
"3358","RJSR",2019-11-01 03:00:00,140.3714,40.1919,59,46.4,62.92,280,10,0,29.88,NA,6.21,NA,"FEW","BKN",NA,NA,3000,4000,NA,NA,NA,NA,NA,NA,NA,NA,NA,NA,"RJSR 010300Z 28010KT 9999 FEW030 BKN040 15/08 Q1012"
"3359","RJSR",2019-11-01 04:00:00,140.3714,40.1919,57.2,44.6,62.69,280,17,0,29.88,NA,6.21,27,"FEW","BKN",NA,NA,3000,4000,NA,NA,NA,NA,NA,NA,NA,NA,NA,NA,"RJSR 010400Z 28017G27KT 9999 FEW030 BKN040 14/07 Q1012"
"3360","RJSR",2019-11-01 05:00:00,140.3714,40.1919,55.4,39.2,54.34,280,13,0,29.91,NA,6.21,NA,"FEW","BKN","BKN",NA,3000,5000,7000,NA,NA,NA,NA,NA,NA,NA,NA,NA,"RJSR 010500Z 28013KT 9999 FEW030 BKN050 BKN070 13/04 Q1013"
"3361","RJSR",2019-11-01 06:00:00,140.3714,40.1919,55.4,39.2,54.34,280,14,0,29.94,NA,6.21,NA,"FEW","BKN",NA,NA,3000,5000,NA,NA,NA,NA,NA,NA,NA,NA,NA,NA,"RJSR 010600Z 28014KT 9999 FEW030 BKN050 13/04 Q1014"
"3362","RJSR",2019-11-01 07:00:00,140.3714,40.1919,51.8,37.4,57.77,270,9,0,29.97,NA,6.21,NA,"FEW","BKN",NA,NA,3000,5000,NA,NA,NA,NA,NA,NA,NA,NA,NA,NA,"RJSR 010700Z 27009KT 9999 FEW030 BKN050 11/03 Q1015"
"3363","RJSR",2019-11-01 08:00:00,140.3714,40.1919,50,37.4,61.76,280,8,0,29.97,NA,6.21,NA,"FEW","SCT","BKN",NA,3000,4000,5000,NA,NA,NA,NA,NA,NA,NA,NA,46.29,"RJSR 010800Z 28008KT 250V330 9999 FEW030 SCT040 BKN050 10/03 Q1015"
"3364","RJSR",2019-11-01 09:00:00,140.3714,40.1919,50,37.4,61.76,270,6,0,30.03,NA,6.21,NA,"FEW","BKN",NA,NA,3000,5000,NA,NA,NA,NA,NA,NA,NA,NA,NA,47.21,"RJSR 010900Z 27006KT 240V300 9999 FEW030 BKN050 10/03 Q1017"
"3365","RJSR",2019-11-01 10:00:00,140.3714,40.1919,46.4,39.2,75.84,NA,1,0,30.03,NA,6.21,NA,"FEW","BKN",NA,NA,3000,7000,NA,NA,NA,NA,NA,NA,NA,NA,NA,NA,"RJSR 011000Z VRB01KT 9999 FEW030 BKN070 08/04 Q1017"
"3366","RJSR",2019-11-01 23:00:00,140.3714,40.1919,46.4,44.6,93.4,NA,2,0,30.12,NA,6.21,NA,"FEW","SCT",NA,NA,500,4000,NA,NA,NA,NA,NA,NA,NA,NA,NA,NA,"RJSR 012300Z VRB02KT 9999 FEW005 SCT040 08/07 Q1020"
"3367","RJFO",2019-11-01 00:00:00,131.7372,33.4794,64.4,57.2,77.45,200,3,0,30.12,NA,6.21,NA,"FEW","SCT",NA,NA,2500,NA,NA,NA,NA,NA,NA,NA,NA,NA,NA,NA,"RJFO 010000Z 20003KT 170V240 9999 FEW025 SCT/// 18/14 Q1020"
"3368","RJFO",2019-11-01 01:00:00,131.7372,33.4794,68,57.2,68.35,310,5,0,30.12,NA,6.21,NA,"FEW","SCT",NA,NA,3000,NA,NA,NA,NA,NA,NA,NA,NA,NA,NA,NA,"RJFO 010100Z 31005KT 260V360 9999 FEW030 SCT/// 20/14 Q1020"
"3369","RJFO",2019-11-01 02:00:00,131.7372,33.4794,69.8,57.2,64.26,70,4,0,30.09,NA,6.21,NA,"FEW","SCT",NA,NA,3000,NA,NA,NA,NA,NA,NA,NA,NA,NA,NA,NA,"RJFO 010200Z 07004KT 040V100 9999 FEW030 SCT/// 21/14 Q1019"
"3370","RJFO",2019-11-01 03:00:00,131.7372,33.4794,73.4,53.6,49.9,140,4,0,30.09,NA,6.21,NA,"FEW","SCT",NA,NA,3000,NA,NA,NA,NA,NA,NA,NA,NA,NA,NA,NA,"RJFO 010300Z 14004KT 120V180 9999 FEW030 SCT/// 23/12 Q1019"
"3371","RJFO",2019-11-01 04:00:00,131.7372,33.4794,73.4,55.4,53.29,300,7,0,30.06,NA,6.21,NA,"FEW","SCT",NA,NA,3000,NA,NA,NA,NA,NA,NA,NA,NA,NA,NA,NA,"RJFO 010400Z 30007KT 250V330 9999 FEW030 SCT/// 23/13 Q1018"
"3372","RJFO",2019-11-01 05:00:00,131.7372,33.4794,73.4,53.6,49.9,350,14,0,30.03,NA,6.21,NA,NA,NA,NA,NA,NA,NA,NA,NA,NA,NA,NA,NA,NA,NA,NA,NA,"RJFO 010500Z 35014KT CAVOK 23/12 Q1017"
"3373","RJFO",2019-11-01 06:00:00,131.7372,33.4794,73.4,57.2,56.88,310,8,0,30.06,NA,6.21,NA,NA,NA,NA,NA,NA,NA,NA,NA,NA,NA,NA,NA,NA,NA,NA,NA,"RJFO 010600Z 31008KT 280V350 CAVOK 23/14 Q1018"
"3374","RJFO",2019-11-01 07:00:00,131.7372,33.4794,71.6,57.2,60.44,300,8,0,30.06,NA,6.21,NA,NA,NA,NA,NA,NA,NA,NA,NA,NA,NA,NA,NA,NA,NA,NA,NA,"RJFO 010700Z 30008KT 260V320 CAVOK 22/14 Q1018"
"3375","RJFO",2019-11-01 08:00:00,131.7372,33.4794,69.8,57.2,64.26,290,8,0,30.06,NA,6.21,NA,NA,NA,NA,NA,NA,NA,NA,NA,NA,NA,NA,NA,NA,NA,NA,NA,"RJFO 010800Z 29008KT CAVOK 21/14 Q1018"
"3376","RJFO",2019-11-01 09:00:00,131.7372,33.4794,66.2,57.2,72.74,NA,2,0,30.06,NA,6.21,NA,NA,NA,NA,NA,NA,NA,NA,NA,NA,NA,NA,NA,NA,NA,NA,NA,"RJFO 010900Z VRB02KT CAVOK 19/14 Q1018"
"3377","RJFO",2019-11-01 10:00:00,131.7372,33.4794,66.2,57.2,72.74,330,6,0,30.09,NA,6.21,NA,NA,NA,NA,NA,NA,NA,NA,NA,NA,NA,NA,NA,NA,NA,NA,NA,"RJFO 011000Z 33006KT CAVOK 19/14 Q1019"
"3378","RJFO",2019-11-01 11:00:00,131.7372,33.4794,64.4,57.2,77.45,360,8,0,30.09,NA,6.21,NA,NA,NA,NA,NA,NA,NA,NA,NA,NA,NA,NA,NA,NA,NA,NA,NA,"RJFO 011100Z 36008KT CAVOK 18/14 Q1019"
"3379","RJFO",2019-11-01 12:00:00,131.7372,33.4794,64.4,55.4,72.56,270,4,0,30.09,NA,6.21,NA,NA,NA,NA,NA,NA,NA,NA,NA,NA,NA,NA,NA,NA,NA,NA,NA,"RJFO 011200Z 27004KT CAVOK 18/13 Q1019"
"3380","RJFO",2019-11-01 13:00:00,131.7372,33.4794,60.8,55.4,82.37,360,3,0,30.12,NA,6.21,NA,NA,NA,NA,NA,NA,NA,NA,NA,NA,NA,NA,NA,NA,NA,NA,NA,"RJFO 011300Z 36003KT 300V040 CAVOK 16/13 Q1020"
"3381","RJFO",2019-11-01 22:00:00,131.7372,33.4794,66.2,59,77.6,40,10,0,30.12,NA,6.21,NA,"FEW","BKN","BKN",NA,2500,3500,NA,NA,NA,NA,NA,NA,NA,NA,NA,NA,"RJFO 012200Z 04010KT 9999 FEW025 BKN035 BKN/// 19/15 Q1020"
"3382","RJFO",2019-11-01 23:00:00,131.7372,33.4794,66.2,59,77.6,30,10,0,30.12,NA,6.21,NA,"FEW","SCT","BKN",NA,2000,2500,3500,NA,NA,NA,NA,NA,NA,NA,NA,NA,"RJFO 012300Z 03010KT 9999 FEW020 SCT025 BKN035 19/15 Q1020"
"3383","RJOB",2019-11-01 00:00:00,133.8553,34.7569,59,53.6,82.25,NA,2,0,30.12,NA,6.21,NA,"FEW",NA,NA,NA,0,NA,NA,NA,"PRFG",NA,NA,NA,NA,NA,NA,NA,"RJOB 010000Z VRB02KT 9999 PRFG FEW000 15/12 Q1020"
"3384","RJOB",2019-11-01 01:00:00,133.8553,34.7569,64.4,53.6,67.95,NA,2,0,30.09,NA,6.21,NA,"FEW",NA,NA,NA,2000,NA,NA,NA,NA,NA,NA,NA,NA,NA,NA,NA,"RJOB 010100Z VRB02KT 9999 FEW020 18/12 Q1019"
"3385","RJOB",2019-11-01 02:00:00,133.8553,34.7569,68,53.6,59.97,NA,4,0,30.09,NA,6.21,NA,"FEW",NA,NA,NA,3000,NA,NA,NA,NA,NA,NA,NA,NA,NA,NA,NA,"RJOB 010200Z VRB04KT 9999 FEW030 20/12 Q1019"
"3386","RJOB",2019-11-01 03:00:00,133.8553,34.7569,68,51.8,56.13,NA,3,0,30.09,NA,6.21,NA,"FEW",NA,NA,NA,3000,NA,NA,NA,NA,NA,NA,NA,NA,NA,NA,NA,"RJOB 010300Z VRB03KT 9999 FEW030 20/11 Q1019"
"3387","RJOB",2019-11-01 04:00:00,133.8553,34.7569,69.8,53.6,56.38,260,6,0,30.06,NA,6.21,NA,"FEW",NA,NA,NA,3000,NA,NA,NA,NA,NA,NA,NA,NA,NA,NA,NA,"RJOB 010400Z 26006KT 220V310 9999 FEW030 21/12 Q1018"
"3388","RJOB",2019-11-01 05:00:00,133.8553,34.7569,69.8,53.6,56.38,NA,4,0,30.03,NA,6.21,NA,"FEW","SCT",NA,NA,3000,4500,NA,NA,NA,NA,NA,NA,NA,NA,NA,NA,"RJOB 010500Z VRB04KT 9999 FEW030 SCT045 21/12 Q1017"
"3389","RJOB",2019-11-01 06:00:00,133.8553,34.7569,71.6,53.6,53.03,NA,3,0,30.03,NA,6.21,NA,"FEW","SCT",NA,NA,3000,4500,NA,NA,NA,NA,NA,NA,NA,NA,NA,NA,"RJOB 010600Z VRB03KT 9999 FEW030 SCT045 22/12 Q1017"
"3390","RJOB",2019-11-01 07:00:00,133.8553,34.7569,68,53.6,59.97,270,3,0,30.06,NA,6.21,NA,"FEW","SCT",NA,NA,3000,4500,NA,NA,NA,NA,NA,NA,NA,NA,NA,NA,"RJOB 010700Z 27003KT 240V300 9999 FEW030 SCT045 20/12 Q1018"
"3391","RJOB",2019-11-01 08:00:00,133.8553,34.7569,64.4,48.2,55.63,280,3,0,30.06,NA,6.21,NA,"FEW",NA,NA,NA,3000,NA,NA,NA,NA,NA,NA,NA,NA,NA,NA,NA,"RJOB 010800Z 28003KT 9999 FEW030 18/09 Q1018"
"3392","RJOB",2019-11-01 09:00:00,133.8553,34.7569,62.6,50,63.38,10,6,0,30.09,NA,6.21,NA,"FEW",NA,NA,NA,3000,NA,NA,NA,NA,NA,NA,NA,NA,NA,NA,NA,"RJOB 010900Z 01006KT 330V040 9999 FEW030 17/10 Q1019"
"3393","RJOB",2019-11-01 10:00:00,133.8553,34.7569,62.6,51.8,67.75,20,5,0,30.12,NA,6.21,NA,"FEW","SCT",NA,NA,2500,4500,NA,NA,NA,NA,NA,NA,NA,NA,NA,NA,"RJOB 011000Z 02005KT 9999 FEW025 SCT045 17/11 Q1020"
"3394","RJOB",2019-11-01 11:00:00,133.8553,34.7569,60.8,51.8,72.2,10,6,0,30.12,NA,6.21,NA,"FEW","SCT",NA,NA,2500,5000,NA,NA,NA,NA,NA,NA,NA,NA,NA,NA,"RJOB 011100Z 01006KT 9999 FEW025 SCT050 16/11 Q1020"
"3395","RJOB",2019-11-01 12:00:00,133.8553,34.7569,59,50,72.01,10,6,0,30.15,NA,6.21,NA,"FEW",NA,NA,NA,2500,NA,NA,NA,NA,NA,NA,NA,NA,NA,NA,NA,"RJOB 011200Z 01006KT 9999 FEW025 15/10 Q1021"
"3396","RJOB",2019-11-01 21:15:00,133.8553,34.7569,50,42.8,76.18,350,3,0,30.15,NA,6.21,NA,"FEW","SCT",NA,NA,2000,NA,NA,NA,NA,NA,NA,NA,NA,NA,NA,49.27,"RJOB 012115Z 35003KT 290V050 9999 FEW020 SCT/// 10/06 Q1021 RMK 1CU020 A3017"
"3397","RJOB",2019-11-01 22:00:00,133.8553,34.7569,46.4,44.6,93.4,60,3,0,30.15,NA,6.21,NA,"FEW","SCT",NA,NA,2000,NA,NA,NA,NA,NA,NA,NA,NA,NA,NA,45.15,"RJOB 012200Z 06003KT 9999 FEW020 SCT/// 08/07 Q1021"
"3398","RJOB",2019-11-01 23:00:00,133.8553,34.7569,55.4,48.2,76.66,80,5,0,30.18,NA,6.21,NA,"FEW",NA,NA,NA,2000,NA,NA,NA,NA,NA,NA,NA,NA,NA,NA,NA,"RJOB 012300Z 08005KT 9999 FEW020 13/09 Q1022"
"3399","RJSO",2019-11-01 01:50:00,141.1322,41.2328,59,35.6,41.42,260,15,0,29.83,NA,6.21,25,"SCT",NA,NA,NA,3000,NA,NA,NA,NA,NA,NA,NA,NA,NA,NA,NA,"RJSO 010150Z 26015G25KT 230V320 9999 SCT030 15/02 Q1010 RMK 3CU030 A2983"
"3400","RJSO",2019-11-01 06:10:00,141.1322,41.2328,53.6,32,43.61,270,15,0,29.85,NA,6.21,25,"FEW","BKN",NA,NA,2000,3000,NA,NA,NA,NA,NA,NA,NA,NA,NA,NA,"RJSO 010610Z 27015G25KT 240V310 9999 FEW020 BKN030 12/M00 Q1011 RMK 1CU020 6CU030 A2988"
"3401","RJOO",2019-11-01 00:00:00,135.4392,34.7844,60.8,55.4,82.37,90,3,0,30.12,NA,6.21,NA,"FEW",NA,NA,NA,2500,NA,NA,NA,NA,NA,NA,NA,NA,NA,NA,NA,"RJOO 010000Z 09003KT 050V140 9999 FEW025 16/13 Q1020"
"3402","RJOO",2019-11-01 01:00:00,135.4392,34.7844,66.2,55.4,68.15,NA,1,0,30.09,NA,6.21,NA,"FEW",NA,NA,NA,2500,NA,NA,NA,NA,NA,NA,NA,NA,NA,NA,NA,"RJOO 010100Z VRB01KT 9999 FEW025 19/13 Q1019"
"3403","RJOO",2019-11-01 02:00:00,135.4392,34.7844,68,55.4,64.04,NA,2,0,30.09,NA,6.21,NA,"FEW",NA,NA,NA,2500,NA,NA,NA,NA,NA,NA,NA,NA,NA,NA,NA,"RJOO 010200Z VRB02KT 9999 FEW025 20/13 Q1019"
"3404","RJOO",2019-11-01 03:00:00,135.4392,34.7844,69.8,53.6,56.38,NA,2,0,30.06,NA,6.21,NA,"FEW",NA,NA,NA,3000,NA,NA,NA,NA,NA,NA,NA,NA,NA,NA,NA,"RJOO 010300Z VRB02KT 9999 FEW030 21/12 Q1018 RMK 1CU030 A3006"
"3405","RJOO",2019-11-01 04:00:00,135.4392,34.7844,73.4,55.4,53.29,130,4,0,30.03,NA,6.21,NA,"FEW",NA,NA,NA,3000,NA,NA,NA,NA,NA,NA,NA,NA,NA,NA,NA,"RJOO 010400Z 13004KT 080V200 9999 FEW030 23/13 Q1017"
"3406","RJOO",2019-11-01 05:00:00,135.4392,34.7844,71.6,55.4,56.63,NA,3,0,30.03,NA,6.21,NA,"FEW",NA,NA,NA,3000,NA,NA,NA,NA,NA,NA,NA,NA,NA,NA,NA,"RJOO 010500Z VRB03KT 9999 FEW030 22/13 Q1017"
"3407","RJOO",2019-11-01 06:00:00,135.4392,34.7844,73.4,50,43.69,310,7,0,30.03,NA,6.21,NA,"FEW",NA,NA,NA,3500,NA,NA,NA,NA,NA,NA,NA,NA,NA,NA,NA,"RJOO 010600Z 31007KT 9999 FEW035 23/10 Q1017 RMK 1CU035 A3003"
"3408","RJOO",2019-11-01 07:00:00,135.4392,34.7844,71.6,50,46.43,310,9,0,30.03,NA,6.21,NA,"FEW",NA,NA,NA,3500,NA,NA,NA,NA,NA,NA,NA,NA,NA,NA,NA,"RJOO 010700Z 31009KT 9999 FEW035 22/10 Q1017"
"3409","RJOO",2019-11-01 08:00:00,135.4392,34.7844,69.8,51.8,52.77,320,9,0,30.03,NA,6.21,NA,"FEW","SCT",NA,NA,3500,6000,NA,NA,NA,NA,NA,NA,NA,NA,NA,NA,"RJOO 010800Z 32009KT 9999 FEW035 SCT060 21/11 Q1017"
"3410","RJOO",2019-11-01 09:00:00,135.4392,34.7844,68,53.6,59.97,350,8,0,30.06,NA,6.21,NA,"FEW",NA,NA,NA,4000,NA,NA,NA,NA,NA,NA,NA,NA,NA,NA,NA,"RJOO 010900Z 35008KT 310V020 9999 FEW040 20/12 Q1018"
"3411","RJOO",2019-11-01 10:00:00,135.4392,34.7844,66.2,53.6,63.82,330,8,0,30.09,NA,6.21,NA,"FEW","SCT","BKN",NA,4000,6000,7000,NA,NA,NA,NA,NA,NA,NA,NA,NA,"RJOO 011000Z 33008KT 9999 FEW040 SCT060 BKN070 19/12 Q1019"
"3412","RJOO",2019-11-01 11:00:00,135.4392,34.7844,64.4,53.6,67.95,340,13,0,30.09,NA,6.21,NA,"FEW",NA,NA,NA,4000,NA,NA,NA,NA,NA,NA,NA,NA,NA,NA,NA,"RJOO 011100Z 34013KT 9999 FEW040 18/12 Q1019"
"3413","RJOO",2019-11-01 20:00:00,135.4392,34.7844,50,48.2,93.5,320,4,0,30.15,NA,6.21,NA,NA,NA,NA,NA,NA,NA,NA,NA,NA,NA,NA,NA,NA,NA,NA,48.44,"RJOO 012000Z 32004KT CAVOK 10/09 Q1021"
"3414","RJOO",2019-11-01 21:00:00,135.4392,34.7844,50,48.2,93.5,320,4,0,30.15,NA,6.21,NA,"FEW","SCT",NA,NA,4000,NA,NA,NA,NA,NA,NA,NA,NA,NA,NA,48.44,"RJOO 012100Z 32004KT 9999 FEW040 SCT/// 10/09 Q1021"
"3415","RJOO",2019-11-01 22:00:00,135.4392,34.7844,51.8,48.2,87.47,310,3,0,30.18,NA,6.21,NA,"FEW","SCT",NA,NA,3500,NA,NA,NA,NA,NA,NA,NA,NA,NA,NA,NA,"RJOO 012200Z 31003KT 9999 FEW035 SCT/// 11/09 Q1022"
"3416","RJOO",2019-11-01 23:00:00,135.4392,34.7844,57.2,50,76.82,300,2,0,30.18,NA,6.21,NA,"FEW","SCT",NA,NA,3000,NA,NA,NA,NA,NA,NA,NA,NA,NA,NA,NA,"RJOO 012300Z 30002KT 9999 FEW030 SCT/// 14/10 Q1022"
"3417","RJTO",2019-11-01 00:00:00,139.3603,34.7819,69.8,53.6,56.38,220,7,0,29.97,NA,6.21,NA,"FEW",NA,NA,NA,2000,NA,NA,NA,NA,NA,NA,NA,NA,NA,NA,NA,"RJTO 010000Z 22007KT 190V250 9999 FEW020 21/12 Q1015"
"3418","RJTO",2019-11-01 01:00:00,139.3603,34.7819,69.8,55.4,60.21,200,10,0,29.94,NA,6.21,NA,NA,NA,NA,NA,NA,NA,NA,NA,NA,NA,NA,NA,NA,NA,NA,NA,"RJTO 010100Z 20010KT 160V220 CAVOK 21/13 Q1014"
"3419","RJTO",2019-11-01 02:00:00,139.3603,34.7819,71.6,53.6,53.03,220,8,0,29.94,NA,6.21,NA,NA,NA,NA,NA,NA,NA,NA,NA,NA,NA,NA,NA,NA,NA,NA,NA,"RJTO 010200Z 22008KT CAVOK 22/12 Q1014"
"3420","RJTO",2019-11-01 03:00:00,139.3603,34.7819,71.6,53.6,53.03,210,11,0,29.91,NA,6.21,NA,NA,NA,NA,NA,NA,NA,NA,NA,NA,NA,NA,NA,NA,NA,NA,NA,"RJTO 010300Z 21011KT CAVOK 22/12 Q1013"
"3421","RJTO",2019-11-01 04:00:00,139.3603,34.7819,71.6,55.4,56.63,210,12,0,29.88,NA,6.21,NA,NA,NA,NA,NA,NA,NA,NA,NA,NA,NA,NA,NA,NA,NA,NA,NA,"RJTO 010400Z 21012KT CAVOK 22/13 Q1012"
"3422","RJTO",2019-11-01 05:00:00,139.3603,34.7819,71.6,53.6,53.03,220,9,0,29.85,NA,6.21,NA,NA,NA,NA,NA,NA,NA,NA,NA,NA,NA,NA,NA,NA,NA,NA,NA,"RJTO 010500Z 22009KT CAVOK 22/12 Q1011"
"3423","RJTO",2019-11-01 06:00:00,139.3603,34.7819,71.6,53.6,53.03,180,3,0,29.88,NA,6.21,NA,NA,NA,NA,NA,NA,NA,NA,NA,NA,NA,NA,NA,NA,NA,NA,NA,"RJTO 010600Z 18003KT 090V220 CAVOK 22/12 Q1012"
"3424","RJTO",2019-11-01 07:00:00,139.3603,34.7819,71.6,55.4,56.63,NA,1,0,29.88,NA,6.21,NA,NA,NA,NA,NA,NA,NA,NA,NA,NA,NA,NA,NA,NA,NA,NA,NA,"RJTO 010700Z VRB01KT CAVOK 22/13 Q1012"
"3425","RJTO",2019-11-01 23:00:00,139.3603,34.7819,62.6,51.8,67.75,40,15,0,30.12,NA,6.21,NA,"FEW","SCT",NA,NA,2000,3000,NA,NA,NA,NA,NA,NA,NA,NA,NA,NA,"RJTO 012300Z 04015KT 9999 FEW020 SCT030 17/11 Q1020"
"3426","RJSD",2019-11-01 00:00:00,138.4139,38.0602,62.6,60.8,93.83,NA,6,0,29.97,NA,6.21,NA,"FEW","SCT","BKN","///",1200,1500,2300,NA,NA,NA,NA,NA,NA,NA,NA,NA,"RJSD 010000Z AUTO VRB06KT 9999 FEW012 SCT015 BKN023 //////CB 17/16 Q1015"
"3427","RJSD",2019-11-01 01:00:00,138.4139,38.0602,64.4,57.2,77.45,120,6,0,29.97,NA,6.21,NA,"FEW","SCT","BKN","///",3100,4000,4400,NA,NA,NA,NA,NA,NA,NA,NA,NA,"RJSD 010100Z AUTO 12006KT 080V190 9999 FEW031 SCT040 BKN044 //////TCU 18/14 Q1015"
"3428","RJSD",2019-11-01 02:00:00,138.4139,38.0602,62.6,50,63.38,NA,6,0,30,NA,6.21,NA,"FEW","SCT","BKN",NA,3400,4200,4600,NA,NA,NA,NA,NA,NA,NA,NA,NA,"RJSD 010200Z AUTO VRB06KT 9999 FEW034 SCT042 BKN046 17/10 Q1016"
"3429","RJSD",2019-11-01 03:00:00,138.4139,38.0602,62.6,46.4,55.37,NA,5,0,30,NA,6.21,NA,"FEW","SCT","BKN",NA,4900,5000,7000,NA,NA,NA,NA,NA,NA,NA,NA,NA,"RJSD 010300Z AUTO VRB05KT 9999 FEW049 SCT050 BKN070 17/08 Q1016"
"3430","RJSD",2019-11-01 04:00:00,138.4139,38.0602,62.6,46.4,55.37,NA,4,0,30,NA,6.21,NA,"NSC",NA,NA,NA,NA,NA,NA,NA,NA,NA,NA,NA,NA,NA,NA,NA,"RJSD 010400Z AUTO VRB04KT 9999 NSC 17/08 Q1016"
"3431","RJSD",2019-11-01 05:00:00,138.4139,38.0602,60.8,42.8,51.45,NA,3,0,30.03,NA,6.21,NA,"NSC",NA,NA,NA,NA,NA,NA,NA,NA,NA,NA,NA,NA,NA,NA,NA,"RJSD 010500Z AUTO VRB03KT 9999 NSC 16/06 Q1017"
"3432","RJSD",2019-11-01 06:00:00,138.4139,38.0602,60.8,39.2,44.76,NA,3,0,30.06,NA,6.21,NA,"FEW",NA,NA,NA,1400,NA,NA,NA,NA,NA,NA,NA,NA,NA,NA,NA,"RJSD 010600Z AUTO VRB03KT 9999 FEW014 16/04 Q1018"
"3433","RJSD",2019-11-01 07:00:00,138.4139,38.0602,59,41,51.18,NA,4,0,30.06,NA,6.21,NA,"NSC",NA,NA,NA,NA,NA,NA,NA,NA,NA,NA,NA,NA,NA,NA,NA,"RJSD 010700Z AUTO VRB04KT 9999 NSC 15/05 Q1018"
"3434","RJSD",2019-11-01 08:00:00,138.4139,38.0602,57.2,37.4,47.44,270,6,0,30.06,NA,6.21,NA,"NCD",NA,NA,NA,NA,NA,NA,NA,NA,NA,NA,NA,NA,NA,NA,NA,"RJSD 010800Z AUTO 27006KT 240V310 9999 NCD 14/03 Q1018"
"3435","RJSD",2019-11-01 09:00:00,138.4139,38.0602,55.4,37.4,50.64,320,5,0,30.09,NA,6.21,NA,"NCD",NA,NA,NA,NA,NA,NA,NA,NA,NA,NA,NA,NA,NA,NA,NA,"RJSD 010900Z AUTO 32005KT 270V360 9999 NCD 13/03 Q1019"
"3436","RJSD",2019-11-01 10:00:00,138.4139,38.0602,53.6,41,62.23,NA,2,0,30.12,NA,6.21,NA,"NSC",NA,NA,NA,NA,NA,NA,NA,NA,NA,NA,NA,NA,NA,NA,NA,"RJSD 011000Z AUTO VRB02KT 9999 NSC 12/05 Q1020"
"3437","RJSD",2019-11-01 11:00:00,138.4139,38.0602,50,41,71.07,NA,2,0,30.15,NA,6.21,NA,"NCD",NA,NA,NA,NA,NA,NA,NA,NA,NA,NA,NA,NA,NA,NA,NA,"RJSD 011100Z AUTO VRB02KT 9999 NCD 10/05 Q1021"
"3438","RJSD",2019-11-01 12:00:00,138.4139,38.0602,46.4,41,81.34,NA,1,0,30.15,NA,6.21,NA,"NCD",NA,NA,NA,NA,NA,NA,NA,NA,NA,NA,NA,NA,NA,NA,NA,"RJSD 011200Z AUTO VRB01KT 9999 NCD 08/05 Q1021"
"3439","RJSD",2019-11-01 13:00:00,138.4139,38.0602,44.6,41,87.09,NA,1,0,30.15,NA,6.21,NA,"NCD",NA,NA,NA,NA,NA,NA,NA,NA,NA,NA,NA,NA,NA,NA,NA,"RJSD 011300Z AUTO VRB01KT 9999 NCD 07/05 Q1021"
"3440","RJSD",2019-11-01 14:00:00,138.4139,38.0602,46.4,41,81.34,240,3,0,30.15,NA,6.21,NA,"NCD",NA,NA,NA,NA,NA,NA,NA,NA,NA,NA,NA,NA,NA,NA,45.15,"RJSD 011400Z AUTO 24003KT 210V290 9999 NCD 08/05 Q1021"
"3441","RJSD",2019-11-01 15:00:00,138.4139,38.0602,46.4,41,81.34,270,3,0,30.18,NA,6.21,NA,"FEW","OVC",NA,NA,4900,5000,NA,NA,NA,NA,NA,NA,NA,NA,NA,45.15,"RJSD 011500Z AUTO 27003KT 210V300 9999 FEW049 OVC050 08/05 Q1022"
"3442","RJSD",2019-11-01 16:00:00,138.4139,38.0602,48.2,41,76.01,240,3,0,30.15,NA,6.21,NA,"FEW","OVC",NA,NA,4600,5000,NA,NA,NA,NA,NA,NA,NA,NA,NA,47.21,"RJSD 011600Z AUTO 24003KT 200V280 9999 FEW046 OVC050 09/05 Q1021"
"3443","RJSD",2019-11-01 17:00:00,138.4139,38.0602,46.4,44.6,93.4,250,3,0,30.15,NA,6.21,NA,"FEW","OVC",NA,NA,4700,5000,NA,NA,NA,NA,NA,NA,NA,NA,NA,45.15,"RJSD 011700Z AUTO 25003KT 9999 FEW047 OVC050 08/07 Q1021"
"3444","RJSD",2019-11-01 18:00:00,138.4139,38.0602,48.2,42.8,81.47,NA,2,0,30.15,NA,6.21,NA,"NSC",NA,NA,NA,NA,NA,NA,NA,NA,NA,NA,NA,NA,NA,NA,NA,"RJSD 011800Z AUTO VRB02KT 9999 NSC 09/06 Q1021"
"3445","RJSD",2019-11-01 19:00:00,138.4139,38.0602,46.4,42.8,87.19,260,2,0,30.15,NA,6.21,NA,"NSC",NA,NA,NA,NA,NA,NA,NA,NA,NA,NA,NA,NA,NA,NA,NA,"RJSD 011900Z AUTO 26002KT 9999 NSC 08/06 Q1021"
"3446","RJSD",2019-11-01 20:00:00,138.4139,38.0602,46.4,44.6,93.4,NA,2,0,30.15,NA,6.21,NA,"FEW","BKN",NA,NA,4900,5000,NA,NA,NA,NA,NA,NA,NA,NA,NA,NA,"RJSD 012000Z AUTO VRB02KT 9999 FEW049 BKN050 08/07 Q1021"
"3447","RJSD",2019-11-01 21:00:00,138.4139,38.0602,46.4,44.6,93.4,250,3,0,30.18,NA,6.21,NA,"BKN",NA,NA,NA,4800,NA,NA,NA,NA,NA,NA,NA,NA,NA,NA,45.15,"RJSD 012100Z AUTO 25003KT 9999 BKN048 08/07 Q1022"
"3448","RJSD",2019-11-01 22:00:00,138.4139,38.0602,48.2,44.6,87.28,220,3,0,30.18,NA,6.21,NA,"OVC",NA,NA,NA,4800,NA,NA,NA,NA,NA,NA,NA,NA,NA,NA,47.21,"RJSD 012200Z AUTO 22003KT 190V270 9999 OVC048 09/07 Q1022"
"3449","RJSD",2019-11-01 23:00:00,138.4139,38.0602,51.8,46.4,81.74,NA,1,0,30.18,NA,6.21,NA,"OVC",NA,NA,NA,4400,NA,NA,NA,NA,NA,NA,NA,NA,NA,NA,NA,"RJSD 012300Z AUTO VRB01KT 9999 OVC044 11/08 Q1022"
"3450","RJFS",2019-11-01 00:00:00,130.3,33.15,59,53.6,82.25,20,3,0,30.18,NA,6.21,NA,NA,NA,NA,NA,NA,NA,NA,NA,NA,NA,NA,NA,NA,NA,NA,NA,"RJFS 010000Z 02003KT 340V060 CAVOK 15/12 Q1022"
"3451","RJFS",2019-11-01 01:00:00,130.3,33.15,62.6,55.4,77.29,NA,2,0,30.15,NA,6.21,NA,NA,NA,NA,NA,NA,NA,NA,NA,NA,NA,NA,NA,NA,NA,NA,NA,"RJFS 010100Z VRB02KT CAVOK 17/13 Q1021"
"3452","RJFS",2019-11-01 02:00:00,130.3,33.15,64.4,57.2,77.45,180,3,0,30.15,NA,6.21,NA,NA,NA,NA,NA,NA,NA,NA,NA,NA,NA,NA,NA,NA,NA,NA,NA,"RJFS 010200Z 18003KT 110V210 CAVOK 18/14 Q1021"
"3453","RJFS",2019-11-01 03:00:00,130.3,33.15,66.2,57.2,72.74,180,5,0,30.12,NA,6.21,NA,NA,NA,NA,NA,NA,NA,NA,NA,NA,NA,NA,NA,NA,NA,NA,NA,"RJFS 010300Z 18005KT 140V210 CAVOK 19/14 Q1020"
"3454","RJFS",2019-11-01 04:00:00,130.3,33.15,68,57.2,68.35,230,7,0,30.06,NA,6.21,NA,"FEW",NA,NA,NA,4000,NA,NA,NA,NA,NA,NA,NA,NA,NA,NA,NA,"RJFS 010400Z 23007KT 200V260 9999 FEW040 20/14 Q1018"
"3455","RJFS",2019-11-01 05:00:00,130.3,33.15,71.6,60.8,68.75,250,8,0,30.06,NA,6.21,NA,"FEW",NA,NA,NA,4000,NA,NA,NA,NA,NA,NA,NA,NA,NA,NA,NA,"RJFS 010500Z 25008KT 9999 FEW040 22/16 Q1018"
"3456","RJFS",2019-11-01 06:00:00,130.3,33.15,73.4,57.2,56.88,240,8,0,30.06,NA,6.21,NA,"FEW",NA,NA,NA,4000,NA,NA,NA,NA,NA,NA,NA,NA,NA,NA,NA,"RJFS 010600Z 24008KT 9999 FEW040 23/14 Q1018"
"3457","RJFS",2019-11-01 07:00:00,130.3,33.15,73.4,59,60.67,290,4,0,30.06,NA,6.21,NA,"FEW",NA,NA,NA,5000,NA,NA,NA,NA,NA,NA,NA,NA,NA,NA,NA,"RJFS 010700Z 29004KT 240V350 9999 FEW050 23/15 Q1018"
"3458","RJFS",2019-11-01 07:20:00,130.3,33.15,73.4,46.4,38.18,10,10,0,30.06,NA,6.21,NA,"FEW",NA,NA,NA,5000,NA,NA,NA,NA,NA,NA,NA,NA,NA,NA,NA,"RJFS 010720Z 01010KT 9999 FEW050 23/08 Q1018 RMK 1SC050 A3007"
"3459","RJFS",2019-11-01 08:00:00,130.3,33.15,69.8,44.6,40.29,10,7,0,30.06,NA,6.21,NA,NA,NA,NA,NA,NA,NA,NA,NA,NA,NA,NA,NA,NA,NA,NA,NA,"RJFS 010800Z 01007KT CAVOK 21/07 Q1018"
"3460","RJFS",2019-11-01 09:00:00,130.3,33.15,64.4,51.8,63.6,350,8,0,30.09,NA,6.21,NA,"FEW",NA,NA,NA,4000,NA,NA,NA,NA,NA,NA,NA,NA,NA,NA,NA,"RJFS 010900Z 35008KT 9999 FEW040 18/11 Q1019"
"3461","RJFS",2019-11-01 10:00:00,130.3,33.15,62.6,53.6,72.38,20,3,0,30.09,NA,6.21,NA,"FEW","SCT",NA,NA,4000,NA,NA,NA,NA,NA,NA,NA,NA,NA,NA,NA,"RJFS 011000Z 02003KT 340V040 9999 FEW040 SCT/// 17/12 Q1019"
"3462","RJFS",2019-11-01 11:00:00,130.3,33.15,59,53.6,82.25,360,3,0,30.12,NA,6.21,NA,"FEW","SCT",NA,NA,4000,NA,NA,NA,NA,NA,NA,NA,NA,NA,NA,NA,"RJFS 011100Z 36003KT 9999 FEW040 SCT/// 15/12 Q1020"
"3463","RJFS",2019-11-01 12:00:00,130.3,33.15,57.2,51.8,82.12,330,6,0,30.12,NA,6.21,NA,"FEW",NA,NA,NA,4000,NA,NA,NA,NA,NA,NA,NA,NA,NA,NA,NA,"RJFS 011200Z 33006KT 9999 FEW040 14/11 Q1020"
"3464","RJFS",2019-11-01 13:00:00,130.3,33.15,57.2,51.8,82.12,30,5,0,30.12,NA,6.21,NA,NA,NA,NA,NA,NA,NA,NA,NA,NA,NA,NA,NA,NA,NA,NA,NA,"RJFS 011300Z 03005KT CAVOK 14/11 Q1020"
"3465","RJFS",2019-11-01 14:00:00,130.3,33.15,57.2,53.6,87.74,340,3,0,30.12,NA,6.21,NA,NA,NA,NA,NA,NA,NA,NA,NA,NA,NA,NA,NA,NA,NA,NA,NA,"RJFS 011400Z 34003KT 270V060 CAVOK 14/12 Q1020"
"3466","RJFS",2019-11-01 21:00:00,130.3,33.15,50,50,100,340,4,0,30.09,NA,3.11,NA,"NSC",NA,NA,NA,NA,NA,NA,NA,"BR",NA,NA,NA,NA,NA,NA,48.44,"RJFS 012100Z 34004KT 5000 BR NSC 10/10 Q1019"
"3467","RJFS",2019-11-01 22:00:00,130.3,33.15,51.8,50,93.55,340,3,0,30.09,NA,4.35,NA,"NSC",NA,NA,NA,NA,NA,NA,NA,NA,NA,NA,NA,NA,NA,NA,NA,"RJFS 012200Z 34003KT 300V010 7000 NSC 11/10 Q1019"
"3468","RJFS",2019-11-01 23:00:00,130.3,33.15,55.4,53.6,93.65,330,3,0,30.12,NA,4.35,NA,"NSC",NA,NA,NA,NA,NA,NA,NA,NA,NA,NA,NA,NA,NA,NA,NA,"RJFS 012300Z 33003KT 7000 NSC 13/12 Q1020"
"3469","RJCO",2019-11-01 00:00:00,141.3814,43.1175,55.4,33.8,43.9,290,10,0,29.74,NA,6.21,NA,"FEW","SCT",NA,NA,1500,3500,NA,NA,NA,NA,NA,NA,NA,NA,NA,NA,"RJCO 010000Z 29010KT 9999 FEW015 SCT035 13/01 Q1007"
"3470","RJCO",2019-11-01 00:44:00,141.3814,43.1175,53.6,30.2,40.54,300,15,0,29.74,NA,6.21,25,"FEW","BKN",NA,NA,1500,5000,NA,NA,NA,NA,NA,NA,NA,NA,NA,NA,"RJCO 010044Z 30015G25KT 9999 FEW015 BKN050 12/M01 Q1007 RMK 1CU015 5CU050 A2976"
"3471","RJCO",2019-11-01 01:00:00,141.3814,43.1175,55.4,32,40.84,300,16,0,29.74,NA,6.21,26,"FEW","SCT",NA,NA,1500,5000,NA,NA,NA,NA,NA,NA,NA,NA,NA,NA,"RJCO 010100Z 30016G26KT 9999 FEW015 SCT050 13/M00 Q1007"
"3472","RJCO",2019-11-01 01:28:00,141.3814,43.1175,55.4,32,40.84,270,15,0,29.74,NA,6.21,NA,"FEW","SCT",NA,NA,1500,6000,NA,NA,NA,NA,NA,NA,NA,NA,NA,NA,"RJCO 010128Z 27015KT 9999 FEW015 SCT060 13/M00 Q1007 RMK 1CU015 3CU060 A2975 MAX WIND 23KT"
"3473","RJCO",2019-11-01 01:46:00,141.3814,43.1175,55.4,32,40.84,270,16,0,29.74,NA,6.21,27,"FEW","SCT",NA,NA,1500,6000,NA,NA,NA,NA,NA,NA,NA,NA,NA,NA,"RJCO 010146Z 27016G27KT 9999 FEW015 SCT060 13/M00 Q1007 RMK 1CU015 3CU060 A2975"
"3474","RJCO",2019-11-01 02:00:00,141.3814,43.1175,53.6,32,43.61,270,17,0,29.74,NA,6.21,27,"FEW","BKN",NA,NA,1500,6000,NA,NA,NA,NA,NA,NA,NA,NA,NA,NA,"RJCO 010200Z 27017G27KT 9999 FEW015 BKN060 12/M00 Q1007"
"3475","RJCO",2019-11-01 02:05:00,141.3814,43.1175,53.6,33.8,46.88,270,17,0,29.74,NA,6.21,28,"FEW","BKN",NA,NA,1500,6000,NA,NA,"-SHRA",NA,NA,NA,NA,NA,NA,NA,"RJCO 010205Z 27017G28KT 9999 -SHRA FEW015 BKN060 12/01 Q1007 RMK 1CU015 5CU060 A2975"
"3476","RJCO",2019-11-01 02:17:00,141.3814,43.1175,55.4,32,40.84,270,15,0,29.74,NA,6.21,NA,"FEW","SCT",NA,NA,1500,6000,NA,NA,NA,NA,NA,NA,NA,NA,NA,NA,"RJCO 010217Z 27015KT 9999 FEW015 SCT060 13/00 Q1007 RMK 1CU015 4CU060 A2975 MAX WIND 23KT"
"3477","RJCO",2019-11-01 03:00:00,141.3814,43.1175,53.6,32,43.61,300,19,0,29.74,NA,6.21,NA,"FEW","SCT",NA,NA,1500,6000,NA,NA,NA,NA,NA,NA,NA,NA,NA,NA,"RJCO 010300Z 30019KT 9999 FEW015 SCT060 12/M00 Q1007"
"3478","RJCO",2019-11-01 03:13:00,141.3814,43.1175,53.6,32,43.61,290,15,0,29.74,NA,6.21,NA,"FEW","BKN","BKN",NA,1500,6000,8000,NA,"-SHRA",NA,NA,NA,NA,NA,NA,NA,"RJCO 010313Z 29015KT 9999 -SHRA FEW015 BKN060 BKN080 12/00 Q1007 RMK 1CU015 5CU060 7AC080 A2975"
"3479","RJCO",2019-11-01 03:49:00,141.3814,43.1175,53.6,32,43.61,300,19,0,29.77,NA,6.21,29,"FEW","BKN",NA,NA,1500,6000,NA,NA,"-SHRA",NA,NA,NA,NA,NA,NA,NA,"RJCO 010349Z 30019G29KT 9999 -SHRA FEW015 BKN060 12/M00 Q1008 RMK 1CU015 7CU060 A2977"
"3480","RJCO",2019-11-01 04:00:00,141.3814,43.1175,51.8,32,46.59,300,21,0,29.77,NA,6.21,31,"FEW","SCT","BKN",NA,1500,2500,6000,NA,"-SHRA",NA,NA,NA,NA,NA,NA,NA,"RJCO 010400Z 30021G31KT 9999 -SHRA FEW015 SCT025 BKN060 11/00 Q1008"
"3481","RJCO",2019-11-01 05:00:00,141.3814,43.1175,50,33.8,53.54,310,21,0,29.77,NA,6.21,31,"FEW","SCT","BKN",NA,1500,2500,6000,NA,"-SHRA",NA,NA,NA,NA,NA,NA,42.86,"RJCO 010500Z 31021G31KT 9999 -SHRA FEW015 SCT025 BKN060 10/01 Q1008"
"3482","RJCO",2019-11-01 05:01:00,141.3814,43.1175,51.8,37.4,57.77,300,22,0,29.77,NA,6.21,36,"FEW","SCT","BKN",NA,1500,2500,6000,NA,"-SHRA",NA,NA,NA,NA,NA,NA,NA,"RJCO 010501Z 30022G36KT 9999 -SHRA FEW015 SCT025 BKN060 11/03 Q1008 RMK 1CU015 3CU025 6CU060 A2979"
"3483","RJCO",2019-11-01 05:39:00,141.3814,43.1175,51.8,35.6,53.81,300,26,0,29.8,NA,6.21,35,"FEW","BKN",NA,NA,1500,6000,NA,NA,NA,NA,NA,NA,NA,NA,NA,NA,"RJCO 010539Z 30026G35KT 9999 FEW015 BKN060 11/02 Q1009 RMK 1CU015 5CU060 A2979"
"3484","RJCO",2019-11-01 06:00:00,141.3814,43.1175,51.8,33.8,50.08,300,25,0,29.8,NA,6.21,36,"FEW","BKN",NA,NA,1500,6000,NA,NA,NA,NA,NA,NA,NA,NA,NA,NA,"RJCO 010600Z 30025G36KT 9999 FEW015 BKN060 11/01 Q1009"
"3485","RJCO",2019-11-01 06:05:00,141.3814,43.1175,50,33.8,53.54,300,20,0,29.8,NA,6.21,30,"FEW","BKN",NA,NA,1500,6000,NA,NA,NA,NA,NA,NA,NA,NA,NA,43.05,"RJCO 010605Z 30020G30KT 9999 FEW015 BKN060 10/01 Q1009 RMK 1CU015 6CU060 A2981"
"3486","RJCO",2019-11-01 06:16:00,141.3814,43.1175,50,35.6,57.52,300,16,0,29.8,NA,6.21,26,"FEW","SCT","BKN",NA,1500,2500,6000,NA,"-SHRA",NA,NA,NA,NA,NA,NA,43.88,"RJCO 010616Z 30016G26KT 9999 -SHRA FEW015 SCT025 BKN060 10/02 Q1009 RMK 1CU015 3CU025 6CU060 A2981"
"3487","RJCO",2019-11-01 07:00:00,141.3814,43.1175,50,35.6,57.52,290,15,0,29.83,NA,6.21,25,"FEW","SCT","BKN",NA,1500,2500,6000,NA,NA,NA,NA,NA,NA,NA,NA,44.12,"RJCO 010700Z 29015G25KT 9999 FEW015 SCT025 BKN060 10/02 Q1010"
"3488","RJCO",2019-11-01 07:26:00,141.3814,43.1175,50,33.8,53.54,300,15,0,29.83,NA,6.21,NA,"FEW","SCT","BKN",NA,1200,2500,6000,NA,NA,NA,NA,NA,NA,NA,NA,44.12,"RJCO 010726Z 30015KT 9999 FEW012 SCT025 BKN060 10/01 Q1010 RMK 1ST012 3CU025 6CU060 A2984 MAX WIND 21KT"
"3489","RJCO",2019-11-01 07:44:00,141.3814,43.1175,50,33.8,53.54,300,17,0,29.85,NA,6.21,NA,"FEW","SCT","BKN",NA,1200,2500,6000,NA,"-SHRA",NA,NA,NA,NA,NA,NA,43.66,"RJCO 010744Z 30017KT 9999 -SHRA FEW012 SCT025 BKN060 10/01 Q1011 RMK 1ST012 4CU025 7CU060 A2985 MAX WIND 25KT"
"3490","RJCO",2019-11-01 08:00:00,141.3814,43.1175,48.2,35.6,61.52,310,17,0,29.85,NA,6.21,28,"FEW","SCT","BKN",NA,1200,2500,6000,NA,"-SHRA",NA,NA,NA,NA,NA,NA,41.3,"RJCO 010800Z 31017G28KT 9999 -SHRA FEW012 SCT025 BKN060 09/02 Q1011"
"3491","RJCO",2019-11-01 08:28:00,141.3814,43.1175,48.2,35.6,61.52,290,13,0,29.85,NA,6.21,NA,"FEW","SCT","BKN",NA,1200,2500,5000,NA,"-SHRA",NA,NA,NA,NA,NA,NA,42.32,"RJCO 010828Z 29013KT 9999 -SHRA FEW012 SCT025 BKN050 09/02 Q1011 RMK 1ST012 3CU025 6SC050 A2987 MAX WIND 19KT"
"3492","RJCO",2019-11-01 08:43:00,141.3814,43.1175,48.2,35.6,61.52,280,15,0,29.85,NA,6.21,25,"FEW","SCT","BKN",NA,1200,2500,6000,NA,"-SHRA",NA,NA,NA,NA,NA,NA,41.78,"RJCO 010843Z 28015G25KT 9999 -SHRA FEW012 SCT025 BKN060 09/02 Q1011 RMK 1ST012 3CU025 6CU060 A2988"
"3493","RJCO",2019-11-01 09:00:00,141.3814,43.1175,48.2,33.8,57.26,280,14,0,29.88,NA,6.21,25,"FEW","BKN",NA,NA,1200,6000,NA,NA,NA,NA,NA,NA,NA,NA,NA,42.04,"RJCO 010900Z 28014G25KT 9999 FEW012 BKN060 09/01 Q1012"
"3494","RJCO",2019-11-01 09:32:00,141.3814,43.1175,48.2,33.8,57.26,290,10,0,29.88,NA,6.21,NA,"FEW","BKN",NA,NA,1200,6000,NA,NA,NA,NA,NA,NA,NA,NA,NA,43.28,"RJCO 010932Z 29010KT 9999 FEW012 BKN060 09/01 Q1012 RMK 1ST012 6CU060 A2990"
"3495","RJCO",2019-11-01 10:00:00,141.3814,43.1175,48.2,33.8,57.26,290,9,0,29.91,NA,6.21,NA,"FEW","BKN",NA,NA,2500,6000,NA,NA,NA,NA,NA,NA,NA,NA,NA,43.66,"RJCO 011000Z 29009KT 9999 FEW025 BKN060 09/01 Q1013"
"3496","RJCO",2019-11-01 10:14:00,141.3814,43.1175,50,33.8,53.54,290,9,0,29.91,NA,6.21,NA,"FEW","BKN",NA,NA,2500,6000,NA,NA,"-SHRA",NA,NA,NA,NA,NA,NA,45.9,"RJCO 011014Z 29009KT 9999 -SHRA FEW025 BKN060 10/01 Q1013 RMK 2CU025 6SC060 A2992"
"3497","RJCO",2019-11-01 11:00:00,141.3814,43.1175,50,33.8,53.54,270,9,0,29.91,NA,6.21,NA,"FEW","BKN",NA,NA,2500,6000,NA,NA,NA,NA,NA,NA,NA,NA,NA,45.9,"RJCO 011100Z 27009KT 9999 FEW025 BKN060 10/01 Q1013"
"3498","RJCO",2019-11-01 21:00:00,141.3814,43.1175,48.2,35.6,61.52,280,3,0,30,NA,6.21,NA,"FEW","SCT","BKN",NA,1500,4000,6000,NA,NA,NA,NA,NA,NA,NA,NA,47.21,"RJCO 012100Z 28003KT 9999 FEW015 SCT040 BKN060 09/02 Q1016"
"3499","RJCO",2019-11-01 21:24:00,141.3814,43.1175,48.2,35.6,61.52,200,3,0,30,NA,6.21,NA,"FEW","SCT",NA,NA,1500,4000,NA,NA,NA,NA,NA,NA,NA,NA,NA,47.21,"RJCO 012124Z 20003KT 9999 FEW015 SCT040 09/02 Q1016 RMK 1ST015 3CU040 A3000"
"3500","RJCO",2019-11-01 22:00:00,141.3814,43.1175,46.4,35.6,65.83,180,2,0,30,NA,6.21,NA,"FEW","SCT",NA,NA,1500,4000,NA,NA,NA,NA,NA,NA,NA,NA,NA,NA,"RJCO 012200Z 18002KT 9999 FEW015 SCT040 08/02 Q1016"
"3501","RJCO",2019-11-01 22:43:00,141.3814,43.1175,50,35.6,57.52,160,3,0,30,NA,6.21,NA,"FEW","SCT","BKN",NA,1500,4000,6000,NA,NA,NA,NA,NA,NA,NA,NA,49.27,"RJCO 012243Z 16003KT 9999 FEW015 SCT040 BKN060 10/02 Q1016 RMK 1ST015 4CU040 5SC060 A3002"
"3502","RJCO",2019-11-01 23:00:00,141.3814,43.1175,48.2,39.2,70.88,150,3,0,30,NA,6.21,NA,"FEW","SCT","BKN",NA,1500,4000,6000,NA,NA,NA,NA,NA,NA,NA,NA,47.21,"RJCO 012300Z 15003KT 9999 FEW015 SCT040 BKN060 09/04 Q1016"
"3503","RJSS",2019-11-01 00:00:00,140.9169,38.1397,66.2,50,55.88,190,13,0,29.85,NA,6.21,NA,"FEW",NA,NA,NA,3000,NA,NA,NA,NA,NA,NA,NA,NA,NA,NA,NA,"RJSS 010000Z 19013KT 9999 FEW030 19/10 Q1011"
"3504","RJSS",2019-11-01 01:00:00,140.9169,38.1397,68,46.4,45.88,200,6,0,29.85,NA,6.21,NA,"FEW","BKN",NA,NA,3000,5000,NA,NA,NA,NA,NA,NA,NA,NA,NA,NA,"RJSS 010100Z 20006KT 160V250 9999 FEW030 BKN050 20/08 Q1011"
"3505","RJSS",2019-11-01 01:34:00,140.9169,38.1397,68,46.4,45.88,260,10,0,29.85,NA,6.21,NA,"FEW","BKN",NA,NA,3000,5000,NA,NA,NA,NA,NA,NA,NA,NA,NA,NA,"RJSS 010134Z 26010KT 220V300 9999 FEW030 BKN050 20/08 Q1011 RMK 1CU030 7CU050 A2987"
"3506","RJSS",2019-11-01 02:00:00,140.9169,38.1397,71.6,46.4,40.57,280,13,0,29.85,NA,6.21,NA,"FEW","BKN",NA,NA,2000,5000,NA,NA,NA,NA,NA,NA,NA,NA,NA,NA,"RJSS 010200Z 28013KT 9999 FEW020 BKN050 22/08 Q1011"
"3507","RJSS",2019-11-01 02:24:00,140.9169,38.1397,71.6,48.2,43.42,270,19,0,29.85,NA,6.21,29,"FEW","BKN",NA,NA,2000,5000,NA,NA,NA,NA,NA,NA,NA,NA,NA,NA,"RJSS 010224Z 27019G29KT 9999 FEW020 BKN050 22/09 Q1011 RMK 1CU020 6CU050 A2986"
"3508","RJSS",2019-11-01 03:00:00,140.9169,38.1397,69.8,48.2,46.16,270,20,0,29.85,NA,6.21,NA,"FEW","SCT","BKN",NA,2000,3000,5000,NA,NA,NA,NA,NA,NA,NA,NA,NA,"RJSS 010300Z 27020KT 9999 FEW020 SCT030 BKN050 21/09 Q1011"
"3509","RJSS",2019-11-01 04:00:00,140.9169,38.1397,71.6,48.2,43.42,280,11,0,29.83,NA,6.21,NA,"FEW","SCT",NA,NA,2000,5000,NA,NA,NA,NA,NA,NA,NA,NA,NA,NA,"RJSS 010400Z 28011KT 9999 FEW020 SCT050 22/09 Q1010"
"3510","RJSS",2019-11-01 05:00:00,140.9169,38.1397,68,44.6,42.85,300,15,0,29.85,NA,6.21,NA,"FEW","SCT","BKN",NA,2000,3000,5000,NA,NA,NA,NA,NA,NA,NA,NA,NA,"RJSS 010500Z 30015KT 9999 FEW020 SCT030 BKN050 20/07 Q1011"
"3511","RJSS",2019-11-01 06:00:00,140.9169,38.1397,64.4,41,42.28,300,16,0,29.85,NA,6.21,NA,"FEW","SCT",NA,NA,3000,5000,NA,NA,NA,NA,NA,NA,NA,NA,NA,NA,"RJSS 010600Z 30016KT 9999 FEW030 SCT050 18/05 Q1011"
"3512","RJSS",2019-11-01 07:00:00,140.9169,38.1397,62.6,41,45.04,300,9,0,29.88,NA,6.21,NA,"FEW",NA,NA,NA,3000,NA,NA,NA,NA,NA,NA,NA,NA,NA,NA,NA,"RJSS 010700Z 30009KT 9999 FEW030 17/05 Q1012"
"3513","RJSS",2019-11-01 08:00:00,140.9169,38.1397,59,35.6,41.42,320,6,0,29.91,NA,6.21,NA,"FEW",NA,NA,NA,3000,NA,NA,NA,NA,NA,NA,NA,NA,NA,NA,NA,"RJSS 010800Z 32006KT 290V350 9999 FEW030 15/02 Q1013"
"3514","RJSS",2019-11-01 09:00:00,140.9169,38.1397,59,33.8,38.56,310,11,0,29.97,NA,6.21,NA,"FEW",NA,NA,NA,3000,NA,NA,NA,NA,NA,NA,NA,NA,NA,NA,NA,"RJSS 010900Z 31011KT 9999 FEW030 15/01 Q1015"
"3515","RJSS",2019-11-01 10:00:00,140.9169,38.1397,59,33.8,38.56,310,11,0,30,NA,6.21,NA,"FEW",NA,NA,NA,3000,NA,NA,NA,NA,NA,NA,NA,NA,NA,NA,NA,"RJSS 011000Z 31011KT 9999 FEW030 15/01 Q1016"
"3516","RJSS",2019-11-01 11:00:00,140.9169,38.1397,57.2,33.8,41.13,300,9,0,30.03,NA,6.21,NA,"FEW",NA,NA,NA,3000,NA,NA,NA,NA,NA,NA,NA,NA,NA,NA,NA,"RJSS 011100Z 30009KT 9999 FEW030 14/01 Q1017"
"3517","RJSS",2019-11-01 12:00:00,140.9169,38.1397,53.6,35.6,50.36,280,7,0,30.06,NA,6.21,NA,"FEW",NA,NA,NA,3000,NA,NA,NA,NA,NA,NA,NA,NA,NA,NA,NA,"RJSS 011200Z 28007KT 9999 FEW030 12/02 Q1018"
"3518","RJSS",2019-11-01 20:30:00,140.9169,38.1397,42.8,37.4,81.07,240,3,0,30.12,NA,6.21,NA,"FEW",NA,NA,NA,1500,NA,NA,NA,NA,NA,NA,NA,NA,NA,NA,41.03,"RJSS 012030Z 24003KT 190V290 9999 FEW015 06/03 Q1020 RMK 1CU015 A3013"
"3519","RJSS",2019-11-01 21:00:00,140.9169,38.1397,42.8,37.4,81.07,250,3,0,30.12,NA,6.21,NA,"FEW",NA,NA,NA,2000,NA,NA,NA,NA,NA,NA,NA,NA,NA,NA,41.03,"RJSS 012100Z 25003KT 9999 FEW020 06/03 Q1020"
"3520","RJSS",2019-11-01 22:00:00,140.9169,38.1397,46.4,39.2,75.84,240,4,0,30.15,NA,6.21,NA,"FEW",NA,NA,NA,3000,NA,NA,NA,NA,NA,NA,NA,NA,NA,NA,44.24,"RJSS 012200Z 24004KT 9999 FEW030 08/04 Q1021"
"3521","RJSS",2019-11-01 23:00:00,140.9169,38.1397,51.8,41,66.48,210,2,0,30.15,NA,6.21,NA,"FEW",NA,NA,NA,3000,NA,NA,NA,NA,NA,NA,NA,NA,NA,NA,NA,"RJSS 012300Z 21002KT 9999 FEW030 11/05 Q1021"
"3522","RORS",2019-11-01 00:00:00,125.1447,24.8267,78.8,69.8,73.95,50,14,0,30.03,NA,6.21,NA,"FEW","BKN",NA,NA,2100,3100,NA,NA,NA,NA,NA,NA,NA,NA,NA,NA,"RORS 010000Z 05014KT 9999 FEW021 BKN031 26/21 Q1017"
"3523","RORS",2019-11-01 01:00:00,125.1447,24.8267,78.8,69.8,73.95,50,15,0,30.03,NA,6.21,NA,"FEW","BKN",NA,NA,1900,3300,NA,NA,NA,NA,NA,NA,NA,NA,NA,NA,"RORS 010100Z 05015KT 9999 FEW019 BKN033 26/21 Q1017"
"3524","RORS",2019-11-01 02:00:00,125.1447,24.8267,78.8,69.8,73.95,50,16,0,30.03,NA,6.21,NA,"FEW","BKN",NA,NA,2100,3500,NA,NA,NA,NA,NA,NA,NA,NA,NA,NA,"RORS 010200Z 05016KT 9999 FEW021 BKN035 26/21 Q1017"
"3525","RORS",2019-11-01 03:00:00,125.1447,24.8267,82.4,69.8,65.74,40,18,0,30,NA,6.21,NA,"FEW","SCT",NA,NA,2100,4200,NA,NA,NA,NA,NA,NA,NA,NA,NA,86.22,"RORS 010300Z 04018KT 9999 FEW021 SCT042 28/21 Q1016"
"3526","RORS",2019-11-01 04:00:00,125.1447,24.8267,80.6,69.8,69.71,40,18,0,29.97,NA,6.21,NA,"FEW","SCT",NA,NA,2100,NA,NA,NA,NA,NA,NA,NA,NA,NA,NA,83.9,"RORS 010400Z 04018KT 9999 FEW021 SCT/// 27/21 Q1015"
"3527","RORS",2019-11-01 05:00:00,125.1447,24.8267,80.6,68,65.54,40,17,0,29.97,NA,6.21,NA,"FEW","BKN",NA,NA,2200,NA,NA,NA,NA,NA,NA,NA,NA,NA,NA,83.29,"RORS 010500Z 04017KT 9999 FEW022 BKN/// 27/20 Q1015"
"3528","RORS",2019-11-01 06:00:00,125.1447,24.8267,80.6,68,65.54,40,17,0,29.97,NA,6.21,NA,"SCT",NA,NA,NA,2400,NA,NA,NA,NA,NA,NA,NA,NA,NA,NA,83.29,"RORS 010600Z 04017KT 9999 SCT024 27/20 Q1015"
"3529","RORS",2019-11-01 07:00:00,125.1447,24.8267,78.8,68,69.52,40,17,0,29.97,NA,6.21,NA,"SCT","BKN","BKN",NA,2300,2700,NA,NA,NA,NA,NA,NA,NA,NA,NA,NA,"RORS 010700Z 04017KT 9999 SCT023 BKN027 BKN/// 26/20 Q1015"
"3530","RORS",2019-11-01 08:00:00,125.1447,24.8267,77,68,73.78,50,15,0,29.97,NA,6.21,NA,"SCT","BKN",NA,NA,2300,2700,NA,NA,NA,NA,NA,NA,NA,NA,NA,NA,"RORS 010800Z 05015KT 9999 SCT023 BKN027 25/20 Q1015"
"3531","RORS",2019-11-01 09:00:00,125.1447,24.8267,77,68,73.78,40,17,0,29.97,NA,6.21,NA,"SCT","BKN",NA,NA,2300,2800,NA,NA,NA,NA,NA,NA,NA,NA,NA,NA,"RORS 010900Z 04017KT 9999 SCT023 BKN028 25/20 Q1015"
"3532","RORS",2019-11-01 10:00:00,125.1447,24.8267,77,68,73.78,50,16,0,29.97,NA,6.21,NA,"FEW","BKN",NA,NA,2300,2700,NA,NA,NA,NA,NA,NA,NA,NA,NA,NA,"RORS 011000Z 05016KT 9999 FEW023 BKN027 25/20 Q1015"
"3533","RORS",2019-11-01 22:00:00,125.1447,24.8267,75.2,69.8,83.32,30,12,0,29.94,NA,6.21,NA,"FEW","SCT",NA,NA,1900,3200,NA,NA,NA,NA,NA,NA,NA,NA,NA,NA,"RORS 012200Z 03012KT 9999 FEW019 SCT032 24/21 Q1014"
"3534","RORS",2019-11-01 23:00:00,125.1447,24.8267,77,69.8,78.48,50,11,0,29.97,NA,6.21,NA,"FEW","SCT","BKN",NA,2400,3400,4000,NA,NA,NA,NA,NA,NA,NA,NA,NA,"RORS 012300Z 05011KT 9999 FEW024 SCT034 BKN040 25/21 Q1015"
"3535","RJNY",2019-11-01 04:25:00,138.2981,34.8128,73.4,53.6,49.9,80,6,0,29.85,NA,6.21,NA,"FEW",NA,NA,NA,2500,NA,NA,NA,NA,NA,NA,NA,NA,NA,NA,NA,"RJNY 010425Z 08006KT 9999 FEW025 23/12 Q1011 RMK 1CU025 A2988"
"3536","RJNS",2019-11-01 00:00:00,138.1894,34.7961,62.6,44.6,51.72,280,7,0,30,NA,6.21,NA,"FEW",NA,NA,NA,3000,NA,NA,NA,NA,NA,NA,NA,NA,NA,NA,NA,"RJNS 010000Z 28007KT 250V310 9999 FEW030 17/07 Q1016"
"3537","RJNS",2019-11-01 01:00:00,138.1894,34.7961,66.2,48.2,52.25,280,11,0,29.97,NA,6.21,NA,"FEW",NA,NA,NA,3000,NA,NA,NA,NA,NA,NA,NA,NA,NA,NA,NA,"RJNS 010100Z 28011KT 9999 FEW030 19/09 Q1015"
"3538","RJNS",2019-11-01 02:00:00,138.1894,34.7961,69.8,48.2,46.16,260,13,0,29.94,NA,6.21,NA,"FEW",NA,NA,NA,3000,NA,NA,NA,NA,NA,NA,NA,NA,NA,NA,NA,"RJNS 010200Z 26013KT 9999 FEW030 21/09 Q1014"
"3539","RJNS",2019-11-01 03:00:00,138.1894,34.7961,73.4,48.2,40.85,260,14,0,29.91,NA,6.21,NA,"FEW",NA,NA,NA,3000,NA,NA,NA,NA,NA,NA,NA,NA,NA,NA,NA,"RJNS 010300Z 26014KT 9999 FEW030 23/09 Q1013"
"3540","RJNS",2019-11-01 04:00:00,138.1894,34.7961,75.2,46.4,35.94,250,17,0,29.85,NA,6.21,NA,"FEW",NA,NA,NA,3000,NA,NA,NA,NA,NA,NA,NA,NA,NA,NA,NA,"RJNS 010400Z 25017KT 9999 FEW030 24/08 Q1011"
"3541","RJNS",2019-11-01 05:00:00,138.1894,34.7961,75.2,39.2,27.26,260,17,0,29.85,NA,6.21,NA,"FEW",NA,NA,NA,3000,NA,NA,NA,NA,NA,NA,NA,NA,NA,NA,NA,"RJNS 010500Z 26017KT 9999 FEW030 24/04 Q1011"
"3542","RJNS",2019-11-01 06:00:00,138.1894,34.7961,73.4,42.8,33.29,270,16,0,29.85,NA,6.21,NA,"FEW",NA,NA,NA,3000,NA,NA,NA,NA,NA,NA,NA,NA,NA,NA,NA,"RJNS 010600Z 27016KT 9999 FEW030 23/06 Q1011"
"3543","RJNS",2019-11-01 07:00:00,138.1894,34.7961,71.6,48.2,43.42,340,6,0,29.88,NA,6.21,16,"FEW",NA,NA,NA,3000,NA,NA,NA,NA,NA,NA,NA,NA,NA,NA,NA,"RJNS 010700Z 34006G16KT 280V050 9999 FEW030 22/09 Q1012"
"3544","RJNS",2019-11-01 08:00:00,138.1894,34.7961,66.2,53.6,63.82,80,6,0,29.88,NA,6.21,NA,"FEW",NA,NA,NA,3000,NA,NA,NA,NA,NA,NA,NA,NA,NA,NA,NA,"RJNS 010800Z 08006KT 9999 FEW030 19/12 Q1012"
"3545","RJNS",2019-11-01 09:00:00,138.1894,34.7961,66.2,53.6,63.82,70,3,0,29.91,NA,6.21,NA,"FEW",NA,NA,NA,3000,NA,NA,NA,NA,NA,NA,NA,NA,NA,NA,NA,"RJNS 010900Z 07003KT 9999 FEW030 19/12 Q1013"
"3546","RJNS",2019-11-01 10:00:00,138.1894,34.7961,60.8,55.4,82.37,320,3,0,29.94,NA,6.21,NA,"FEW",NA,NA,NA,3000,NA,NA,NA,NA,NA,NA,NA,NA,NA,NA,NA,"RJNS 011000Z 32003KT 9999 FEW030 16/13 Q1014"
"3547","RJNS",2019-11-01 11:00:00,138.1894,34.7961,60.8,53.6,77.14,320,6,0,29.97,NA,6.21,NA,"FEW",NA,NA,NA,3000,NA,NA,NA,NA,NA,NA,NA,NA,NA,NA,NA,"RJNS 011100Z 32006KT 290V350 9999 FEW030 16/12 Q1015"
"3548","RJNS",2019-11-01 12:00:00,138.1894,34.7961,60.8,51.8,72.2,320,6,0,29.97,NA,6.21,NA,"FEW",NA,NA,NA,3000,NA,NA,NA,NA,NA,NA,NA,NA,NA,NA,NA,"RJNS 011200Z 32006KT 9999 FEW030 16/11 Q1015"
"3549","RJNS",2019-11-01 22:30:00,138.1894,34.7961,57.2,51.8,82.12,10,4,0,30.12,NA,6.21,NA,"FEW","SCT","BKN",NA,2500,5000,NA,NA,NA,NA,NA,NA,NA,NA,NA,NA,"RJNS 012230Z 01004KT 310V070 9999 FEW025 SCT050 BKN/// 14/11 Q1020"
"3550","RJNS",2019-11-01 23:00:00,138.1894,34.7961,57.2,51.8,82.12,10,5,0,30.12,NA,6.21,NA,"FEW","SCT","BKN",NA,2500,5000,NA,NA,NA,NA,NA,NA,NA,NA,NA,NA,"RJNS 012300Z 01005KT 340V050 9999 FEW025 SCT050 BKN/// 14/11 Q1020"
"3551","RJSY",2019-11-01 00:00:00,139.7872,38.8122,62.6,59,88,250,19,0,29.91,NA,6.21,NA,"FEW","SCT","BKN",NA,1000,1500,2000,NA,"VCSH",NA,NA,NA,NA,NA,NA,NA,"RJSY 010000Z 25019KT 9999 VCSH FEW010 SCT015 BKN020 17/15 Q1013"
"3552","RJSY",2019-11-01 01:00:00,139.7872,38.8122,64.4,50,59.5,290,13,0,29.91,NA,6.21,NA,"FEW","SCT","BKN",NA,3000,4000,5000,NA,NA,NA,NA,NA,NA,NA,NA,NA,"RJSY 010100Z 29013KT 9999 FEW030 SCT040 BKN050 18/10 Q1013"
"3553","RJSY",2019-11-01 02:00:00,139.7872,38.8122,62.6,50,63.38,290,13,0,29.94,NA,6.21,NA,"FEW","SCT","BKN",NA,2500,4000,5000,NA,NA,NA,NA,NA,NA,NA,NA,NA,"RJSY 010200Z 29013KT 9999 FEW025 SCT040 BKN050 17/10 Q1014"
"3554","RJSY",2019-11-01 03:00:00,139.7872,38.8122,62.6,48.2,59.26,300,11,0,29.94,NA,6.21,NA,"FEW","SCT","BKN",NA,3000,5000,7000,NA,NA,NA,NA,NA,NA,NA,NA,NA,"RJSY 010300Z 30011KT 280V340 9999 FEW030 SCT050 BKN070 17/09 Q1014"
"3555","RJSY",2019-11-01 04:00:00,139.7872,38.8122,60.8,46.4,59.01,280,15,0,29.97,NA,6.21,NA,"FEW","SCT","BKN",NA,3500,5000,7000,NA,NA,NA,NA,NA,NA,NA,NA,NA,"RJSY 010400Z 28015KT 9999 FEW035 SCT050 BKN070 16/08 Q1015"
"3556","RJSY",2019-11-01 05:00:00,139.7872,38.8122,60.8,41,48,280,17,0,29.97,NA,6.21,NA,"FEW","SCT",NA,NA,3000,7000,NA,NA,NA,NA,NA,NA,NA,NA,NA,NA,"RJSY 010500Z 28017KT 9999 FEW030 SCT070 16/05 Q1015"
"3557","RJSY",2019-11-01 06:00:00,139.7872,38.8122,60.8,41,48,280,17,0,30,NA,6.21,NA,"FEW","SCT",NA,NA,3000,8000,NA,NA,NA,NA,NA,NA,NA,NA,NA,NA,"RJSY 010600Z 28017KT 9999 FEW030 SCT080 16/05 Q1016"
"3558","RJSY",2019-11-01 07:00:00,139.7872,38.8122,59,42.8,54.86,300,15,0,30,NA,6.21,25,"FEW","SCT","BKN",NA,3000,4000,5000,NA,NA,NA,NA,NA,NA,NA,NA,NA,"RJSY 010700Z 30015G25KT 9999 FEW030 SCT040 BKN050 15/06 Q1016"
"3559","RJSY",2019-11-01 08:00:00,139.7872,38.8122,57.2,41,54.6,290,15,0,30.03,NA,6.21,NA,"FEW","SCT","BKN",NA,3000,4000,5000,NA,NA,NA,NA,NA,NA,NA,NA,NA,"RJSY 010800Z 29015KT 9999 FEW030 SCT040 BKN050 14/05 Q1017"
"3560","RJSY",2019-11-01 09:00:00,139.7872,38.8122,57.2,41,54.6,300,13,0,30.06,NA,6.21,NA,"FEW","SCT","BKN",NA,2000,4000,5000,NA,"-SHRA",NA,NA,NA,NA,NA,NA,NA,"RJSY 010900Z 30013KT 270V340 9999 -SHRA FEW020 SCT040 BKN050 14/05 Q1018"
"3561","RJSY",2019-11-01 10:00:00,139.7872,38.8122,57.2,39.2,50.91,300,13,0,30.06,NA,6.21,NA,"FEW","SCT",NA,NA,2000,4000,NA,NA,NA,NA,NA,NA,NA,NA,NA,NA,"RJSY 011000Z 30013KT 270V350 9999 FEW020 SCT040 14/04 Q1018"
"3562","RJSY",2019-11-01 11:00:00,139.7872,38.8122,57.2,39.2,50.91,290,13,0,30.09,NA,6.21,NA,"FEW","SCT",NA,NA,2000,4000,NA,NA,NA,NA,NA,NA,NA,NA,NA,NA,"RJSY 011100Z 29013KT 260V330 9999 FEW020 SCT040 14/04 Q1019"
"3563","RJSY",2019-11-01 12:00:00,139.7872,38.8122,57.2,41,54.6,300,12,0,30.09,NA,6.21,NA,"FEW","SCT","BKN",NA,2000,4000,5000,NA,NA,NA,NA,NA,NA,NA,NA,NA,"RJSY 011200Z 30012KT 9999 FEW020 SCT040 BKN050 14/05 Q1019"
"3564","RJSY",2019-11-01 22:00:00,139.7872,38.8122,57.2,41,54.6,270,11,0,30.15,NA,6.21,NA,"FEW","SCT","BKN",NA,3500,4000,5000,NA,NA,NA,NA,NA,NA,NA,NA,NA,"RJSY 012200Z 27011KT 9999 FEW035 SCT040 BKN050 14/05 Q1021"
"3565","RJSY",2019-11-01 23:00:00,139.7872,38.8122,59,41,51.18,260,12,0,30.15,NA,6.21,NA,"FEW","BKN",NA,NA,4000,5000,NA,NA,NA,NA,NA,NA,NA,NA,NA,NA,"RJSY 012300Z 26012KT 9999 FEW040 BKN050 15/05 Q1021"
"3566","RJTC",2019-11-01 23:25:00,139.4031,35.7108,55.4,42.8,62.46,330,3,0,30.18,NA,6.21,NA,"FEW","SCT",NA,NA,3000,6000,NA,NA,NA,NA,NA,NA,NA,NA,NA,NA,"RJTC 012325Z 33003KT 280V020 9999 FEW030 SCT060 13/06 Q1022 RMK 1CU030 3SC060 A3019"
"3567","RJBT",2019-11-01 00:00:00,134.7869,35.5128,55.4,53.6,93.65,160,3,0,30.09,NA,6.21,NA,"FEW",NA,NA,NA,0,NA,NA,NA,"PRFG",NA,NA,NA,NA,NA,NA,NA,"RJBT 010000Z 16003KT 130V190 9999 PRFG FEW000 13/12 Q1019"
"3568","RJBT",2019-11-01 01:00:00,134.7869,35.5128,62.6,55.4,77.29,NA,2,0,30.09,NA,6.21,NA,"FEW",NA,NA,NA,3000,NA,NA,NA,NA,NA,NA,NA,NA,NA,NA,NA,"RJBT 010100Z VRB02KT 9999 FEW030 17/13 Q1019"
"3569","RJBT",2019-11-01 02:00:00,134.7869,35.5128,68,57.2,68.35,NA,1,0,30.09,NA,6.21,NA,"FEW","SCT",NA,NA,3000,4000,NA,NA,NA,NA,NA,NA,NA,NA,NA,NA,"RJBT 010200Z VRB01KT 9999 FEW030 SCT040 20/14 Q1019"
"3570","RJBT",2019-11-01 03:00:00,134.7869,35.5128,68,53.6,59.97,20,7,0,30.06,NA,6.21,NA,"FEW","SCT",NA,NA,3000,4000,NA,NA,NA,NA,NA,NA,NA,NA,NA,NA,"RJBT 010300Z 02007KT 330V050 9999 FEW030 SCT040 20/12 Q1018"
"3571","RJBT",2019-11-01 04:00:00,134.7869,35.5128,68,55.4,64.04,20,7,0,30.06,NA,6.21,NA,"FEW","SCT",NA,NA,3500,4000,NA,NA,NA,NA,NA,NA,NA,NA,NA,NA,"RJBT 010400Z 02007KT 340V050 9999 FEW035 SCT040 20/13 Q1018"
"3572","RJBT",2019-11-01 05:00:00,134.7869,35.5128,68,55.4,64.04,360,6,0,30.03,NA,6.21,NA,"FEW","SCT",NA,NA,3000,4000,NA,NA,NA,NA,NA,NA,NA,NA,NA,NA,"RJBT 010500Z 36006KT 310V040 9999 FEW030 SCT040 20/13 Q1017"
"3573","RJBT",2019-11-01 06:00:00,134.7869,35.5128,64.4,55.4,72.56,350,7,0,30.06,NA,6.21,NA,"FEW","BKN",NA,NA,3000,3500,NA,NA,NA,NA,NA,NA,NA,NA,NA,NA,"RJBT 010600Z 35007KT 310V030 9999 FEW030 BKN035 18/13 Q1018"
"3574","RJBT",2019-11-01 07:00:00,134.7869,35.5128,64.4,57.2,77.45,20,8,0,30.06,NA,6.21,NA,"FEW","SCT","BKN",NA,2000,3000,3500,NA,NA,NA,NA,NA,NA,NA,NA,NA,"RJBT 010700Z 02008KT 340V050 9999 FEW020 SCT030 BKN035 18/14 Q1018"
"3575","RJBT",2019-11-01 08:00:00,134.7869,35.5128,60.8,55.4,82.37,10,7,0,30.09,NA,6.21,NA,"FEW","SCT","BKN",NA,2000,2500,3500,NA,NA,NA,NA,NA,NA,NA,NA,NA,"RJBT 010800Z 01007KT 340V040 9999 FEW020 SCT025 BKN035 16/13 Q1019"
"3576","RJBT",2019-11-01 09:00:00,134.7869,35.5128,60.8,55.4,82.37,10,5,0,30.12,NA,6.21,NA,"FEW","SCT",NA,NA,2000,3000,NA,NA,NA,NA,NA,NA,NA,NA,NA,NA,"RJBT 010900Z 01005KT 9999 FEW020 SCT030 16/13 Q1020"
"3577","RJBT",2019-11-01 23:30:00,134.7869,35.5128,50,48.2,93.5,NA,2,0,30.18,NA,6.21,NA,"FEW",NA,NA,NA,0,NA,NA,NA,"PRFG",NA,NA,NA,NA,NA,NA,NA,"RJBT 012330Z VRB02KT 9999 PRFG FEW000 10/09 Q1022"
"3578","RJOT",2019-11-01 00:00:00,134.0167,34.2167,64.4,57.2,77.45,260,8,0,30.12,NA,6.21,NA,"FEW",NA,NA,NA,1000,NA,NA,NA,NA,NA,NA,NA,NA,NA,NA,NA,"RJOT 010000Z 26008KT 9999 FEW010 18/14 Q1020"
"3579","RJOT",2019-11-01 01:00:00,134.0167,34.2167,66.2,53.6,63.82,260,10,0,30.12,NA,6.21,NA,"FEW",NA,NA,NA,2000,NA,NA,NA,NA,NA,NA,NA,NA,NA,NA,NA,"RJOT 010100Z 26010KT 9999 FEW020 19/12 Q1020"
"3580","RJOT",2019-11-01 02:00:00,134.0167,34.2167,68,53.6,59.97,280,9,0,30.09,NA,6.21,NA,"FEW",NA,NA,NA,2500,NA,NA,NA,NA,NA,NA,NA,NA,NA,NA,NA,"RJOT 010200Z 28009KT 9999 FEW025 20/12 Q1019"
"3581","RJOT",2019-11-01 03:00:00,134.0167,34.2167,69.8,53.6,56.38,290,10,0,30.09,NA,6.21,NA,"FEW",NA,NA,NA,2500,NA,NA,NA,NA,NA,NA,NA,NA,NA,NA,NA,"RJOT 010300Z 29010KT 250V320 9999 FEW025 21/12 Q1019"
"3582","RJOT",2019-11-01 04:00:00,134.0167,34.2167,69.8,53.6,56.38,280,9,0,30.06,NA,6.21,NA,"FEW",NA,NA,NA,3500,NA,NA,NA,NA,NA,NA,NA,NA,NA,NA,NA,"RJOT 010400Z 28009KT 240V330 9999 FEW035 21/12 Q1018"
"3583","RJOT",2019-11-01 05:00:00,134.0167,34.2167,69.8,51.8,52.77,270,8,0,30.06,NA,6.21,NA,"FEW",NA,NA,NA,3500,NA,NA,NA,NA,NA,NA,NA,NA,NA,NA,NA,"RJOT 010500Z 27008KT 9999 FEW035 21/11 Q1018"
"3584","RJOT",2019-11-01 06:00:00,134.0167,34.2167,69.8,51.8,52.77,270,8,0,30.06,NA,6.21,NA,"FEW",NA,NA,NA,3500,NA,NA,NA,NA,NA,NA,NA,NA,NA,NA,NA,"RJOT 010600Z 27008KT 240V310 9999 FEW035 21/11 Q1018"
"3585","RJOT",2019-11-01 07:00:00,134.0167,34.2167,68,51.8,56.13,280,5,0,30.06,NA,6.21,NA,"FEW",NA,NA,NA,3500,NA,NA,NA,NA,NA,NA,NA,NA,NA,NA,NA,"RJOT 010700Z 28005KT 9999 FEW035 20/11 Q1018"
"3586","RJOT",2019-11-01 08:00:00,134.0167,34.2167,64.4,53.6,67.95,220,4,0,30.06,NA,6.21,NA,"FEW",NA,NA,NA,3500,NA,NA,NA,NA,NA,NA,NA,NA,NA,NA,NA,"RJOT 010800Z 22004KT 9999 FEW035 18/12 Q1018"
"3587","RJOT",2019-11-01 09:00:00,134.0167,34.2167,60.8,53.6,77.14,140,6,0,30.09,NA,6.21,NA,"FEW",NA,NA,NA,3500,NA,NA,NA,NA,NA,NA,NA,NA,NA,NA,NA,"RJOT 010900Z 14006KT 9999 FEW035 16/12 Q1019"
"3588","RJOT",2019-11-01 10:00:00,134.0167,34.2167,59,53.6,82.25,140,6,0,30.09,NA,6.21,NA,"FEW","SCT",NA,NA,3000,4000,NA,NA,NA,NA,NA,NA,NA,NA,NA,NA,"RJOT 011000Z 14006KT 9999 FEW030 SCT040 15/12 Q1019"
"3589","RJOT",2019-11-01 11:00:00,134.0167,34.2167,57.2,53.6,87.74,140,7,0,30.12,NA,6.21,NA,"FEW","SCT",NA,NA,3000,5000,NA,NA,NA,NA,NA,NA,NA,NA,NA,NA,"RJOT 011100Z 14007KT 9999 FEW030 SCT050 14/12 Q1020"
"3590","RJOT",2019-11-01 12:00:00,134.0167,34.2167,57.2,53.6,87.74,140,7,0,30.12,NA,6.21,NA,"FEW","BKN",NA,NA,3000,4500,NA,NA,NA,NA,NA,NA,NA,NA,NA,NA,"RJOT 011200Z 14007KT 9999 FEW030 BKN045 14/12 Q1020"
"3591","RJOT",2019-11-01 21:20:00,134.0167,34.2167,53.6,50,87.56,140,4,0,30.15,NA,6.21,NA,"FEW",NA,NA,NA,3000,NA,NA,NA,NA,NA,NA,NA,NA,NA,NA,NA,"RJOT 012120Z 14004KT 9999 FEW030 12/10 Q1021 RMK 2CU030 A3017"
"3592","RJOT",2019-11-01 22:00:00,134.0167,34.2167,53.6,50,87.56,140,4,0,30.18,NA,6.21,NA,"FEW",NA,NA,NA,3000,NA,NA,NA,NA,NA,NA,NA,NA,NA,NA,NA,"RJOT 012200Z 14004KT 100V220 9999 FEW030 12/10 Q1022"
"3593","RJOT",2019-11-01 23:00:00,134.0167,34.2167,57.2,50,76.82,120,4,0,30.18,NA,6.21,NA,"FEW",NA,NA,NA,3000,NA,NA,NA,NA,NA,NA,NA,NA,NA,NA,NA,"RJOT 012300Z 12004KT 080V190 9999 FEW030 14/10 Q1022"
"3594","RJFG",2019-11-01 00:00:00,130.9917,30.605,64.4,59,82.62,310,4,0,30.12,NA,6.21,NA,"FEW","BKN",NA,NA,3000,NA,NA,NA,NA,NA,NA,NA,NA,NA,NA,NA,"RJFG 010000Z 31004KT 9999 FEW030 BKN/// 18/15 Q1020"
"3595","RJFG",2019-11-01 01:00:00,130.9917,30.605,68,59,72.92,300,5,0,30.12,NA,6.21,NA,"FEW","SCT",NA,NA,3000,NA,NA,NA,NA,NA,NA,NA,NA,NA,NA,NA,"RJFG 010100Z 30005KT 9999 FEW030 SCT/// 20/15 Q1020"
"3596","RJFG",2019-11-01 02:00:00,130.9917,30.605,71.6,57.2,60.44,NA,2,0,30.09,NA,6.21,NA,"FEW","SCT",NA,NA,3000,NA,NA,NA,NA,NA,NA,NA,NA,NA,NA,NA,"RJFG 010200Z VRB02KT 9999 FEW030 SCT/// 22/14 Q1019"
"3597","RJFG",2019-11-01 03:00:00,130.9917,30.605,71.6,59,64.48,250,5,0,30.09,NA,6.21,NA,"FEW","SCT",NA,NA,2500,NA,NA,NA,NA,NA,NA,NA,NA,NA,NA,NA,"RJFG 010300Z 25005KT 210V280 9999 FEW025 SCT/// 22/15 Q1019"
"3598","RJFG",2019-11-01 04:00:00,130.9917,30.605,69.8,57.2,64.26,NA,4,0,30.06,NA,6.21,NA,"FEW",NA,NA,NA,2500,NA,NA,NA,NA,NA,NA,NA,NA,NA,NA,NA,"RJFG 010400Z VRB04KT 9999 FEW025 21/14 Q1018"
"3599","RJFG",2019-11-01 05:00:00,130.9917,30.605,71.6,60.8,68.75,110,5,0,30.03,NA,6.21,NA,"FEW","SCT",NA,NA,2000,NA,NA,NA,NA,NA,NA,NA,NA,NA,NA,NA,"RJFG 010500Z 11005KT 030V160 9999 FEW020 SCT/// 22/16 Q1017"
"3600","RJFG",2019-11-01 06:00:00,130.9917,30.605,68,60.8,77.75,70,4,0,30.03,NA,6.21,NA,"FEW","SCT",NA,NA,2000,NA,NA,NA,NA,NA,NA,NA,NA,NA,NA,NA,"RJFG 010600Z 07004KT 360V140 9999 FEW020 SCT/// 20/16 Q1017"
"3601","RJFG",2019-11-01 07:00:00,130.9917,30.605,68,60.8,77.75,NA,2,0,30.06,NA,6.21,NA,"FEW","SCT",NA,NA,1800,NA,NA,NA,NA,NA,NA,NA,NA,NA,NA,NA,"RJFG 010700Z VRB02KT 9999 FEW018 SCT/// 20/16 Q1018"
"3602","RJFG",2019-11-01 08:00:00,130.9917,30.605,66.2,60.8,82.74,NA,2,0,30.06,NA,6.21,NA,"FEW","SCT",NA,NA,1800,NA,NA,NA,NA,NA,NA,NA,NA,NA,NA,NA,"RJFG 010800Z VRB02KT 9999 FEW018 SCT/// 19/16 Q1018"
"3603","RJFG",2019-11-01 09:00:00,130.9917,30.605,60.8,59,93.79,20,2,0,30.06,NA,6.21,NA,"FEW",NA,NA,NA,2000,NA,NA,NA,NA,NA,NA,NA,NA,NA,NA,NA,"RJFG 010900Z 02002KT 9999 FEW020 16/15 Q1018"
"3604","RJFG",2019-11-01 23:10:00,130.9917,30.605,66.2,60.8,82.74,40,4,0,30.09,NA,6.21,NA,"FEW",NA,NA,NA,2500,NA,NA,NA,NA,NA,NA,NA,NA,NA,NA,NA,"RJFG 012310Z 04004KT 330V100 9999 FEW025 19/16 Q1019 RMK 1CU025 A3011"
"3605","RJFG",2019-11-01 23:30:00,130.9917,30.605,66.2,60.8,82.74,40,4,0,30.09,NA,6.21,NA,"FEW","SCT",NA,NA,2000,2500,NA,NA,NA,NA,NA,NA,NA,NA,NA,NA,"RJFG 012330Z 04004KT 310V120 9999 FEW020 SCT025 19/16 Q1019"
"3606","RJCT",2019-11-01 01:18:00,143.1585,42.8905,57.2,26.6,30.69,280,11,0,29.68,NA,6.21,21,"FEW",NA,NA,NA,4000,NA,NA,NA,NA,NA,NA,NA,NA,NA,NA,NA,"RJCT 010118Z 28011G21KT 9999 FEW040 14/M03 Q1005 RMK 2CU040 A2970"
"3607","RJOS",2019-11-01 00:00:00,134.6092,34.1322,60.8,50,67.54,290,3,0,30.09,NA,6.21,NA,"FEW",NA,NA,NA,3000,NA,NA,NA,NA,NA,NA,NA,NA,NA,NA,NA,"RJOS 010000Z 29003KT 260V330 9999 FEW030 16/10 Q1019"
"3608","RJOS",2019-11-01 01:00:00,134.6092,34.1322,68,55.4,64.04,330,10,0,30.09,NA,6.21,NA,"FEW",NA,NA,NA,3000,NA,NA,NA,NA,NA,NA,NA,NA,NA,NA,NA,"RJOS 010100Z 33010KT 9999 FEW030 20/13 Q1019"
"3609","RJOS",2019-11-01 02:00:00,134.6092,34.1322,69.8,55.4,60.21,340,12,0,30.09,NA,6.21,NA,"FEW",NA,NA,NA,3000,NA,NA,NA,NA,NA,NA,NA,NA,NA,NA,NA,"RJOS 010200Z 34012KT 310V010 9999 FEW030 21/13 Q1019"
"3610","RJOS",2019-11-01 03:00:00,134.6092,34.1322,71.6,53.6,53.03,350,10,0,30.06,NA,6.21,NA,"FEW",NA,NA,NA,3000,NA,NA,NA,NA,NA,NA,NA,NA,NA,NA,NA,"RJOS 010300Z 35010KT 9999 FEW030 22/12 Q1018"
"3611","RJOS",2019-11-01 04:00:00,134.6092,34.1322,73.4,51.8,46.71,350,13,0,30.03,NA,6.21,NA,"FEW",NA,NA,NA,3000,NA,NA,NA,NA,NA,NA,NA,NA,NA,NA,NA,"RJOS 010400Z 35013KT 9999 FEW030 23/11 Q1017"
"3612","RJOS",2019-11-01 05:00:00,134.6092,34.1322,73.4,48.2,40.85,340,12,0,30.03,NA,6.21,NA,"FEW",NA,NA,NA,3000,NA,NA,NA,NA,NA,NA,NA,NA,NA,NA,NA,"RJOS 010500Z 34012KT 9999 FEW030 23/09 Q1017"
"3613","RJOS",2019-11-01 06:00:00,134.6092,34.1322,73.4,48.2,40.85,360,12,0,30.03,NA,6.21,NA,"FEW",NA,NA,NA,3000,NA,NA,NA,NA,NA,NA,NA,NA,NA,NA,NA,"RJOS 010600Z 36012KT 9999 FEW030 23/09 Q1017"
"3614","RJOS",2019-11-01 07:00:00,134.6092,34.1322,71.6,51.8,49.64,340,9,0,30.03,NA,6.21,NA,"FEW",NA,NA,NA,3000,NA,NA,NA,NA,NA,NA,NA,NA,NA,NA,NA,"RJOS 010700Z 34009KT 9999 FEW030 22/11 Q1017"
"3615","RJOS",2019-11-01 08:00:00,134.6092,34.1322,69.8,51.8,52.77,360,4,0,30.06,NA,6.21,NA,"FEW",NA,NA,NA,3000,NA,NA,NA,NA,NA,NA,NA,NA,NA,NA,NA,"RJOS 010800Z 36004KT 9999 FEW030 21/11 Q1018"
"3616","RJOS",2019-11-01 09:00:00,134.6092,34.1322,66.2,51.8,59.74,20,3,0,30.06,NA,6.21,NA,"FEW",NA,NA,NA,3000,NA,NA,NA,NA,NA,NA,NA,NA,NA,NA,NA,"RJOS 010900Z 02003KT 350V060 9999 FEW030 19/11 Q1018"
"3617","RJOS",2019-11-01 10:00:00,134.6092,34.1322,66.2,53.6,63.82,330,7,0,30.09,NA,6.21,NA,"FEW","SCT",NA,NA,3000,6000,NA,NA,NA,NA,NA,NA,NA,NA,NA,NA,"RJOS 011000Z 33007KT 9999 FEW030 SCT060 19/12 Q1019"
"3618","RJOS",2019-11-01 11:00:00,134.6092,34.1322,66.2,53.6,63.82,320,7,0,30.09,NA,6.21,NA,"SCT",NA,NA,NA,3000,NA,NA,NA,NA,NA,NA,NA,NA,NA,NA,NA,"RJOS 011100Z 32007KT 9999 SCT030 19/12 Q1019"
"3619","RJOS",2019-11-01 12:00:00,134.6092,34.1322,64.4,55.4,72.56,330,6,0,30.12,NA,6.21,NA,"SCT",NA,NA,NA,3000,NA,NA,NA,NA,NA,NA,NA,NA,NA,NA,NA,"RJOS 011200Z 33006KT 290V020 9999 SCT030 18/13 Q1020"
"3620","RJOS",2019-11-01 12:06:00,134.6092,34.1322,64.4,55.4,72.56,20,10,0,30.12,NA,6.21,NA,"FEW","BKN",NA,NA,1500,3000,NA,NA,NA,NA,NA,NA,NA,NA,NA,NA,"RJOS 011206Z 02010KT 340V060 9999 FEW015 BKN030 18/13 Q1020 RMK 1CU015 5CU030 A3012"
"3621","RJOS",2019-11-01 13:00:00,134.6092,34.1322,66.2,53.6,63.82,40,12,0,30.12,NA,6.21,NA,"FEW","BKN",NA,NA,1500,3000,NA,NA,NA,NA,NA,NA,NA,NA,NA,NA,"RJOS 011300Z 04012KT 9999 FEW015 BKN030 19/12 Q1020"
"3622","RJOS",2019-11-01 14:00:00,134.6092,34.1322,64.4,53.6,67.95,30,12,0,30.12,NA,6.21,NA,"SCT","BKN",NA,NA,3000,4500,NA,NA,NA,NA,NA,NA,NA,NA,NA,NA,"RJOS 011400Z 03012KT 9999 SCT030 BKN045 18/12 Q1020"
"3623","RJOS",2019-11-01 15:00:00,134.6092,34.1322,62.6,51.8,67.75,30,12,0,30.12,NA,6.21,NA,"FEW","BKN",NA,NA,3000,4500,NA,NA,NA,NA,NA,NA,NA,NA,NA,NA,"RJOS 011500Z 03012KT 9999 FEW030 BKN045 17/11 Q1020"
"3624","RJOS",2019-11-01 15:12:00,134.6092,34.1322,62.6,51.8,67.75,30,13,0,30.12,NA,6.21,NA,"FEW","SCT",NA,NA,3000,4500,NA,NA,NA,NA,NA,NA,NA,NA,NA,NA,"RJOS 011512Z 03013KT 9999 FEW030 SCT045 17/11 Q1020 RMK 1CU030 4SC045 A3014"
"3625","RJOS",2019-11-01 16:00:00,134.6092,34.1322,62.6,50,63.38,30,10,0,30.12,NA,6.21,NA,"FEW",NA,NA,NA,3000,NA,NA,NA,NA,NA,NA,NA,NA,NA,NA,NA,"RJOS 011600Z 03010KT 9999 FEW030 17/10 Q1020"
"3626","RJOS",2019-11-01 17:00:00,134.6092,34.1322,60.8,48.2,63.15,60,11,0,30.12,NA,6.21,NA,"FEW","SCT",NA,NA,3000,4500,NA,NA,NA,NA,NA,NA,NA,NA,NA,NA,"RJOS 011700Z 06011KT 9999 FEW030 SCT045 16/09 Q1020"
"3627","RJOS",2019-11-01 18:00:00,134.6092,34.1322,60.8,48.2,63.15,50,11,0,30.12,NA,6.21,NA,"FEW","SCT",NA,NA,3000,4500,NA,NA,NA,NA,NA,NA,NA,NA,NA,NA,"RJOS 011800Z 05011KT 9999 FEW030 SCT045 16/09 Q1020"
"3628","RJOS",2019-11-01 19:00:00,134.6092,34.1322,59,46.4,62.92,50,13,0,30.12,NA,6.21,NA,"FEW",NA,NA,NA,3000,NA,NA,NA,NA,NA,NA,NA,NA,NA,NA,NA,"RJOS 011900Z 05013KT 9999 FEW030 15/08 Q1020"
"3629","RJOS",2019-11-01 20:00:00,134.6092,34.1322,59,46.4,62.92,40,11,0,30.15,NA,6.21,NA,"FEW","SCT",NA,NA,3000,NA,NA,NA,NA,NA,NA,NA,NA,NA,NA,NA,"RJOS 012000Z 04011KT 9999 FEW030 SCT/// 15/08 Q1021"
"3630","RJOS",2019-11-01 21:00:00,134.6092,34.1322,59,46.4,62.92,50,12,0,30.15,NA,6.21,NA,"FEW",NA,NA,NA,3000,NA,NA,NA,NA,NA,NA,NA,NA,NA,NA,NA,"RJOS 012100Z 05012KT 9999 FEW030 15/08 Q1021"
"3631","RJOS",2019-11-01 22:00:00,134.6092,34.1322,59,46.4,62.92,40,12,0,30.15,NA,6.21,NA,"FEW","SCT",NA,NA,3000,NA,NA,NA,NA,NA,NA,NA,NA,NA,NA,NA,"RJOS 012200Z 04012KT 9999 FEW030 SCT/// 15/08 Q1021"
"3632","RJOS",2019-11-01 23:00:00,134.6092,34.1322,60.8,44.6,55.12,20,10,0,30.18,NA,6.21,NA,"FEW","SCT",NA,NA,3000,NA,NA,NA,NA,NA,NA,NA,NA,NA,NA,NA,"RJOS 012300Z 02010KT 9999 FEW030 SCT/// 16/07 Q1022"
"3633","RJTI",2019-11-01 00:00:00,139.85,35.63,64.4,59,82.62,120,3,0,29.97,NA,4.97,NA,"FEW",NA,NA,NA,1000,NA,NA,NA,NA,NA,NA,NA,NA,NA,NA,NA,"RJTI 010000Z 12003KT 8000 FEW010 18/15 Q1015"
"3634","RJTI",2019-11-01 01:00:00,139.85,35.63,66.2,59,77.6,140,5,0,29.94,NA,4.35,NA,"FEW",NA,NA,NA,1000,NA,NA,NA,NA,NA,NA,NA,NA,NA,NA,NA,"RJTI 010100Z 14005KT 7000 FEW010 19/15 Q1014"
"3635","RJTI",2019-11-01 02:00:00,139.85,35.63,66.2,57.2,72.74,150,6,0,29.94,NA,4.97,NA,"FEW",NA,NA,NA,1000,NA,NA,NA,NA,NA,NA,NA,NA,NA,NA,NA,"RJTI 010200Z 15006KT 8000 FEW010 19/14 Q1014"
"3636","RJTI",2019-11-01 03:00:00,139.85,35.63,68,60.8,77.75,140,5,0,29.91,NA,4.97,NA,"FEW",NA,NA,NA,1500,NA,NA,NA,NA,NA,NA,NA,NA,NA,NA,NA,"RJTI 010300Z 14005KT 8000 FEW015 20/16 Q1013"
"3637","RJTI",2019-11-01 04:00:00,139.85,35.63,68,59,72.92,150,6,0,29.88,NA,5.59,NA,"FEW",NA,NA,NA,1500,NA,NA,NA,NA,NA,NA,NA,NA,NA,NA,NA,"RJTI 010400Z 15006KT 9000 FEW015 20/15 Q1012"
"3638","RJTI",2019-11-01 05:00:00,139.85,35.63,69.8,60.8,73.09,150,6,0,29.88,NA,6.21,NA,"FEW",NA,NA,NA,2000,NA,NA,NA,NA,NA,NA,NA,NA,NA,NA,NA,"RJTI 010500Z 15006KT 9999 FEW020 21/16 Q1012"
"3639","RJTI",2019-11-01 06:00:00,139.85,35.63,69.8,59,68.55,160,5,0,29.88,NA,6.21,NA,"FEW",NA,NA,NA,2000,NA,NA,NA,NA,NA,NA,NA,NA,NA,NA,NA,"RJTI 010600Z 16005KT 100V250 9999 FEW020 21/15 Q1012"
"3640","RJTI",2019-11-01 07:00:00,139.85,35.63,69.8,60.8,73.09,NA,2,0,29.88,NA,6.21,NA,"FEW",NA,NA,NA,2500,NA,NA,NA,NA,NA,NA,NA,NA,NA,NA,NA,"RJTI 010700Z VRB02KT 9999 FEW025 21/16 Q1012"
"3641","RJTI",2019-11-01 23:30:00,139.85,35.63,60.8,39.2,44.76,10,6,0,30.18,NA,6.21,NA,"FEW","SCT",NA,NA,3000,6000,NA,NA,NA,NA,NA,NA,NA,NA,NA,NA,"RJTI 012330Z 01006KT 340V050 9999 FEW030 SCT060 16/04 Q1022"
"3642","RJTT",2019-11-01 00:00:00,139.7811,35.5533,64.4,57.2,77.45,110,3,0,29.97,NA,5.59,NA,"FEW",NA,NA,NA,1000,NA,NA,NA,NA,NA,NA,NA,NA,NA,NA,NA,"RJTT 010000Z 11003KT 9000 FEW010 18/14 Q1015 NOSIG"
"3643","RJTT",2019-11-01 00:30:00,139.7811,35.5533,64.4,57.2,77.45,90,3,0,29.97,NA,6.21,NA,"FEW",NA,NA,NA,1000,NA,NA,NA,NA,NA,NA,NA,NA,NA,NA,NA,"RJTT 010030Z 09003KT 060V130 9999 FEW010 18/14 Q1015 NOSIG RMK 1CU010 A2998"
"3644","RJTT",2019-11-01 01:00:00,139.7811,35.5533,64.4,57.2,77.45,90,4,0,29.97,NA,6.21,NA,"FEW",NA,NA,NA,1500,NA,NA,NA,NA,NA,NA,NA,NA,NA,NA,NA,"RJTT 010100Z 09004KT 9999 FEW015 18/14 Q1015 NOSIG"
"3645","RJTT",2019-11-01 01:30:00,139.7811,35.5533,64.4,60.8,88.09,120,5,0,29.94,NA,5.59,NA,"FEW",NA,NA,NA,1500,NA,NA,NA,NA,NA,NA,NA,NA,NA,NA,NA,"RJTT 010130Z 12005KT 090V150 9000 FEW015 18/16 Q1014 NOSIG RMK 1CU015 A2996"
"3646","RJTT",2019-11-01 02:00:00,139.7811,35.5533,66.2,59,77.6,120,5,0,29.94,NA,5.59,NA,"FEW",NA,NA,NA,2000,NA,NA,NA,NA,NA,NA,NA,NA,NA,NA,NA,"RJTT 010200Z 12005KT 9000 FEW020 19/15 Q1014 NOSIG"
"3647","RJTT",2019-11-01 02:30:00,139.7811,35.5533,66.2,59,77.6,120,5,0,29.91,NA,5.59,NA,"FEW",NA,NA,NA,2000,NA,NA,NA,NA,NA,NA,NA,NA,NA,NA,NA,"RJTT 010230Z 12005KT 9000 FEW020 19/15 Q1013 NOSIG"
"3648","RJTT",2019-11-01 03:00:00,139.7811,35.5533,66.2,60.8,82.74,120,5,0,29.91,NA,5.59,NA,"FEW",NA,NA,NA,2000,NA,NA,NA,NA,NA,NA,NA,NA,NA,NA,NA,"RJTT 010300Z 12005KT 9000 FEW020 19/16 Q1013 NOSIG RMK 1CU020 A2992"
"3649","RJTT",2019-11-01 03:30:00,139.7811,35.5533,66.2,60.8,82.74,140,5,0,29.88,NA,5.59,NA,"FEW",NA,NA,NA,2000,NA,NA,NA,NA,NA,NA,NA,NA,NA,NA,NA,"RJTT 010330Z 14005KT 110V180 9000 FEW020 19/16 Q1012 NOSIG"
"3650","RJTT",2019-11-01 04:00:00,139.7811,35.5533,68,59,72.92,160,6,0,29.88,NA,5.59,NA,"FEW",NA,NA,NA,2000,NA,NA,NA,NA,NA,NA,NA,NA,NA,NA,NA,"RJTT 010400Z 16006KT 110V210 9000 FEW020 20/15 Q1012 NOSIG"
"3651","RJTT",2019-11-01 04:30:00,139.7811,35.5533,69.8,57.2,64.26,120,5,0,29.88,NA,5.59,NA,"FEW",NA,NA,NA,2000,NA,NA,NA,NA,NA,NA,NA,NA,NA,NA,NA,"RJTT 010430Z 12005KT 9000 FEW020 21/14 Q1012 NOSIG"
"3652","RJTT",2019-11-01 05:00:00,139.7811,35.5533,69.8,53.6,56.38,120,4,0,29.88,NA,6.21,NA,"FEW",NA,NA,NA,3000,NA,NA,NA,NA,NA,NA,NA,NA,NA,NA,NA,"RJTT 010500Z 12004KT 9999 FEW030 21/12 Q1012 NOSIG"
"3653","RJTT",2019-11-01 05:30:00,139.7811,35.5533,69.8,53.6,56.38,150,4,0,29.88,NA,6.21,NA,"FEW",NA,NA,NA,3000,NA,NA,NA,NA,NA,NA,NA,NA,NA,NA,NA,"RJTT 010530Z 15004KT 9999 FEW030 21/12 Q1012 NOSIG RMK 1CU030 A2990"
"3654","RJTT",2019-11-01 06:00:00,139.7811,35.5533,69.8,51.8,52.77,140,5,0,29.88,NA,6.21,NA,"FEW",NA,NA,NA,3000,NA,NA,NA,NA,NA,NA,NA,NA,NA,NA,NA,"RJTT 010600Z 14005KT 9999 FEW030 21/11 Q1012 NOSIG"
"3655","RJTT",2019-11-01 06:30:00,139.7811,35.5533,69.8,57.2,64.26,150,4,0,29.88,NA,6.21,NA,"FEW",NA,NA,NA,3000,NA,NA,NA,NA,NA,NA,NA,NA,NA,NA,NA,"RJTT 010630Z 15004KT 9999 FEW030 21/14 Q1012 NOSIG RMK 1CU030 A2990"
"3656","RJTT",2019-11-01 07:00:00,139.7811,35.5533,68,55.4,64.04,170,5,0,29.88,NA,6.21,NA,"FEW",NA,NA,NA,3000,NA,NA,NA,NA,NA,NA,NA,NA,NA,NA,NA,"RJTT 010700Z 17005KT 9999 FEW030 20/13 Q1012 NOSIG"
"3657","RJTT",2019-11-01 07:30:00,139.7811,35.5533,68,51.8,56.13,190,4,0,29.88,NA,6.21,NA,"FEW",NA,NA,NA,3000,NA,NA,NA,NA,NA,NA,NA,NA,NA,NA,NA,"RJTT 010730Z 19004KT 150V290 9999 FEW030 20/11 Q1012 NOSIG"
"3658","RJTT",2019-11-01 08:00:00,139.7811,35.5533,69.8,50,49.37,220,3,0,29.88,NA,6.21,NA,"FEW",NA,NA,NA,6000,NA,NA,NA,NA,NA,NA,NA,NA,NA,NA,NA,"RJTT 010800Z 22003KT 160V320 9999 FEW060 21/10 Q1012 BECMG 33012KT RMK 1SC060 A2991"
"3659","RJTT",2019-11-01 08:30:00,139.7811,35.5533,66.2,50,55.88,NA,1,0,29.91,NA,6.21,NA,"FEW",NA,NA,NA,6000,NA,NA,NA,NA,NA,NA,NA,NA,NA,NA,NA,"RJTT 010830Z VRB01KT 9999 FEW060 19/10 Q1013 BECMG 33010KT RMK 1SC060 A2992"
"3660","RJTT",2019-11-01 09:00:00,139.7811,35.5533,69.8,51.8,52.77,NA,1,0,29.94,NA,6.21,NA,"FEW",NA,NA,NA,6000,NA,NA,NA,NA,NA,NA,NA,NA,NA,NA,NA,"RJTT 010900Z VRB01KT 9999 FEW060 21/11 Q1014 BECMG 33010KT"
"3661","RJTT",2019-11-01 09:30:00,139.7811,35.5533,64.4,57.2,77.45,350,4,0,29.94,NA,6.21,NA,NA,NA,NA,NA,NA,NA,NA,NA,NA,NA,NA,NA,NA,NA,NA,NA,"RJTT 010930Z 35004KT CAVOK 18/14 Q1014 BECMG 36018KT"
"3662","RJTT",2019-11-01 10:00:00,139.7811,35.5533,69.8,55.4,60.21,360,7,0,29.94,NA,6.21,NA,NA,NA,NA,NA,NA,NA,NA,NA,NA,NA,NA,NA,NA,NA,NA,NA,"RJTT 011000Z 36007KT CAVOK 21/13 Q1014 BECMG 36018KT"
"3663","RJTT",2019-11-01 10:30:00,139.7811,35.5533,68,48.2,49.1,330,13,0,29.97,NA,6.21,NA,NA,NA,NA,NA,NA,NA,NA,NA,NA,NA,NA,NA,NA,NA,NA,NA,"RJTT 011030Z 33013KT CAVOK 20/09 Q1015 NOSIG RMK A2997"
"3664","RJTT",2019-11-01 11:00:00,139.7811,35.5533,68,50,52.51,340,14,0,29.97,NA,6.21,NA,NA,NA,NA,NA,NA,NA,NA,NA,NA,NA,NA,NA,NA,NA,NA,NA,"RJTT 011100Z 34014KT CAVOK 20/10 Q1015 NOSIG"
"3665","RJTT",2019-11-01 11:30:00,139.7811,35.5533,68,46.4,45.88,350,19,0,29.97,NA,6.21,NA,NA,NA,NA,NA,NA,NA,NA,NA,NA,NA,NA,NA,NA,NA,NA,NA,"RJTT 011130Z 35019KT CAVOK 20/08 Q1015 NOSIG RMK A3000"
"3666","RJTT",2019-11-01 12:00:00,139.7811,35.5533,68,46.4,45.88,360,20,0,30,NA,6.21,NA,NA,NA,NA,NA,NA,NA,NA,NA,NA,NA,NA,NA,NA,NA,NA,NA,"RJTT 011200Z 36020KT CAVOK 20/08 Q1016 NOSIG"
"3667","RJTT",2019-11-01 12:30:00,139.7811,35.5533,66.2,48.2,52.25,10,18,0,30,NA,6.21,NA,"FEW",NA,NA,NA,4000,NA,NA,NA,NA,NA,NA,NA,NA,NA,NA,NA,"RJTT 011230Z 01018KT 9999 FEW040 19/09 Q1016 NOSIG RMK 1SC040 A3002"
"3668","RJTT",2019-11-01 13:00:00,139.7811,35.5533,66.2,46.4,48.83,20,18,0,30.03,NA,6.21,NA,"FEW",NA,NA,NA,4000,NA,NA,NA,NA,NA,NA,NA,NA,NA,NA,NA,"RJTT 011300Z 02018KT 9999 FEW040 19/08 Q1017 NOSIG"
"3669","RJTT",2019-11-01 13:30:00,139.7811,35.5533,64.4,46.4,51.98,10,16,0,30.03,NA,6.21,NA,"FEW",NA,NA,NA,4000,NA,NA,NA,NA,NA,NA,NA,NA,NA,NA,NA,"RJTT 011330Z 01016KT 9999 FEW040 18/08 Q1017 NOSIG"
"3670","RJTT",2019-11-01 14:00:00,139.7811,35.5533,64.4,46.4,51.98,360,18,0,30.03,NA,6.21,NA,"FEW",NA,NA,NA,5000,NA,NA,NA,NA,NA,NA,NA,NA,NA,NA,NA,"RJTT 011400Z 36018KT 9999 FEW050 18/08 Q1017 NOSIG"
"3671","RJTT",2019-11-01 14:30:00,139.7811,35.5533,62.6,44.6,51.72,350,17,0,30.06,NA,6.21,NA,"FEW",NA,NA,NA,4000,NA,NA,NA,NA,NA,NA,NA,NA,NA,NA,NA,"RJTT 011430Z 35017KT 9999 FEW040 17/07 Q1018 NOSIG RMK 1SC040 A3006"
"3672","RJTT",2019-11-01 15:00:00,139.7811,35.5533,62.6,44.6,51.72,350,17,0,30.06,NA,6.21,NA,"FEW",NA,NA,NA,4000,NA,NA,NA,NA,NA,NA,NA,NA,NA,NA,NA,"RJTT 011500Z 35017KT 9999 FEW040 17/07 Q1018 NOSIG"
"3673","RJTT",2019-11-01 15:30:00,139.7811,35.5533,62.6,44.6,51.72,340,17,0,30.06,NA,6.21,NA,"FEW",NA,NA,NA,4000,NA,NA,NA,NA,NA,NA,NA,NA,NA,NA,NA,"RJTT 011530Z 34017KT 9999 FEW040 17/07 Q1018 NOSIG RMK 1SC040 A3007"
"3674","RJTT",2019-11-01 16:00:00,139.7811,35.5533,60.8,42.8,51.45,340,15,0,30.06,NA,6.21,NA,"FEW",NA,NA,NA,4000,NA,NA,NA,NA,NA,NA,NA,NA,NA,NA,NA,"RJTT 011600Z 34015KT 9999 FEW040 16/06 Q1018 NOSIG"
"3675","RJTT",2019-11-01 16:30:00,139.7811,35.5533,60.8,44.6,55.12,10,14,0,30.09,NA,6.21,NA,"FEW",NA,NA,NA,4000,NA,NA,NA,NA,NA,NA,NA,NA,NA,NA,NA,"RJTT 011630Z 01014KT 9999 FEW040 16/07 Q1019 NOSIG"
"3676","RJTT",2019-11-01 17:00:00,139.7811,35.5533,60.8,44.6,55.12,360,11,0,30.09,NA,6.21,NA,"FEW",NA,NA,NA,4000,NA,NA,NA,NA,NA,NA,NA,NA,NA,NA,NA,"RJTT 011700Z 36011KT 9999 FEW040 16/07 Q1019 NOSIG"
"3677","RJTT",2019-11-01 17:30:00,139.7811,35.5533,60.8,44.6,55.12,10,10,0,30.09,NA,6.21,NA,NA,NA,NA,NA,NA,NA,NA,NA,NA,NA,NA,NA,NA,NA,NA,NA,"RJTT 011730Z 01010KT CAVOK 16/07 Q1019 NOSIG"
"3678","RJTT",2019-11-01 18:00:00,139.7811,35.5533,59,44.6,58.77,10,9,0,30.09,NA,6.21,NA,"FEW",NA,NA,NA,4000,NA,NA,NA,NA,NA,NA,NA,NA,NA,NA,NA,"RJTT 011800Z 01009KT 9999 FEW040 15/07 Q1019 NOSIG"
"3679","RJTT",2019-11-01 18:30:00,139.7811,35.5533,59,44.6,58.77,10,11,0,30.09,NA,6.21,NA,"FEW",NA,NA,NA,4000,NA,NA,NA,NA,NA,NA,NA,NA,NA,NA,NA,"RJTT 011830Z 01011KT 9999 FEW040 15/07 Q1019 NOSIG"
"3680","RJTT",2019-11-01 19:00:00,139.7811,35.5533,59,44.6,58.77,10,10,0,30.12,NA,6.21,NA,"FEW",NA,NA,NA,4000,NA,NA,NA,NA,NA,NA,NA,NA,NA,NA,NA,"RJTT 011900Z 01010KT 9999 FEW040 15/07 Q1020 NOSIG"
"3681","RJTT",2019-11-01 19:30:00,139.7811,35.5533,59,42.8,54.86,10,10,0,30.12,NA,6.21,NA,"FEW",NA,NA,NA,4000,NA,NA,NA,NA,NA,NA,NA,NA,NA,NA,NA,"RJTT 011930Z 01010KT 9999 FEW040 15/06 Q1020 NOSIG RMK 1SC040 A3013"
"3682","RJTT",2019-11-01 20:00:00,139.7811,35.5533,59,42.8,54.86,10,9,0,30.12,NA,6.21,NA,"FEW",NA,NA,NA,4000,NA,NA,NA,NA,NA,NA,NA,NA,NA,NA,NA,"RJTT 012000Z 01009KT 9999 FEW040 15/06 Q1020 NOSIG RMK 1SC040 A3013"
"3683","RJTT",2019-11-01 20:30:00,139.7811,35.5533,59,42.8,54.86,10,8,0,30.12,NA,6.21,NA,"FEW",NA,NA,NA,6000,NA,NA,NA,NA,NA,NA,NA,NA,NA,NA,NA,"RJTT 012030Z 01008KT 9999 FEW060 15/06 Q1020 NOSIG"
"3684","RJTT",2019-11-01 21:00:00,139.7811,35.5533,59,44.6,58.77,10,7,0,30.15,NA,6.21,NA,"SCT","BKN",NA,NA,4000,6000,NA,NA,NA,NA,NA,NA,NA,NA,NA,NA,"RJTT 012100Z 01007KT 9999 SCT040 BKN060 15/07 Q1021 NOSIG"
"3685","RJTT",2019-11-01 21:30:00,139.7811,35.5533,59,44.6,58.77,10,6,0,30.15,NA,6.21,NA,"BKN",NA,NA,NA,4000,NA,NA,NA,NA,NA,NA,NA,NA,NA,NA,NA,"RJTT 012130Z 01006KT 9999 BKN040 15/07 Q1021 NOSIG"
"3686","RJTT",2019-11-01 22:00:00,139.7811,35.5533,60.8,42.8,51.45,20,7,0,30.15,NA,6.21,NA,"FEW","BKN",NA,NA,4000,6000,NA,NA,NA,NA,NA,NA,NA,NA,NA,NA,"RJTT 012200Z 02007KT 9999 FEW040 BKN060 16/06 Q1021 NOSIG"
"3687","RJTT",2019-11-01 22:30:00,139.7811,35.5533,60.8,42.8,51.45,10,7,0,30.18,NA,6.21,NA,"FEW","SCT",NA,NA,4000,6000,NA,NA,NA,NA,NA,NA,NA,NA,NA,NA,"RJTT 012230Z 01007KT 9999 FEW040 SCT060 16/06 Q1022 NOSIG"
"3688","RJTT",2019-11-01 23:00:00,139.7811,35.5533,60.8,42.8,51.45,360,10,0,30.15,NA,6.21,NA,"FEW",NA,NA,NA,3000,NA,NA,NA,NA,NA,NA,NA,NA,NA,NA,NA,"RJTT 012300Z 36010KT 9999 FEW030 16/06 Q1021 NOSIG"
"3689","RJTT",2019-11-01 23:30:00,139.7811,35.5533,60.8,44.6,55.12,360,9,0,30.18,NA,6.21,NA,"FEW",NA,NA,NA,4000,NA,NA,NA,NA,NA,NA,NA,NA,NA,NA,NA,"RJTT 012330Z 36009KT 9999 FEW040 16/07 Q1022 NOSIG"
"3690","RJOR",2019-11-01 00:00:00,134.165,35.53,64.4,51.8,63.6,140,5,0,30.09,NA,6.21,NA,"FEW",NA,NA,NA,3000,NA,NA,NA,NA,NA,NA,NA,NA,NA,NA,NA,"RJOR 010000Z 14005KT 110V220 9999 FEW030 18/11 Q1019"
"3691","RJOR",2019-11-01 01:00:00,134.165,35.53,69.8,59,68.55,280,15,0,30.09,NA,6.21,NA,"FEW",NA,NA,NA,3000,NA,NA,NA,NA,NA,NA,NA,NA,NA,NA,NA,"RJOR 010100Z 28015KT 9999 FEW030 21/15 Q1019"
"3692","RJOR",2019-11-01 02:00:00,134.165,35.53,69.8,57.2,64.26,280,14,0,30.09,NA,6.21,NA,"FEW","SCT",NA,NA,3000,4000,NA,NA,NA,NA,NA,NA,NA,NA,NA,NA,"RJOR 010200Z 28014KT 9999 FEW030 SCT040 21/14 Q1019"
"3693","RJOR",2019-11-01 03:00:00,134.165,35.53,69.8,57.2,64.26,280,12,0,30.09,NA,6.21,NA,"FEW",NA,NA,NA,4000,NA,NA,NA,NA,NA,NA,NA,NA,NA,NA,NA,"RJOR 010300Z 28012KT 9999 FEW040 21/14 Q1019"
"3694","RJOR",2019-11-01 04:00:00,134.165,35.53,71.6,59,64.48,290,10,0,30.06,NA,6.21,NA,"FEW","SCT",NA,NA,2500,4000,NA,NA,NA,NA,NA,NA,NA,NA,NA,NA,"RJOR 010400Z 29010KT 9999 FEW025 SCT040 22/15 Q1018"
"3695","RJOR",2019-11-01 05:00:00,134.165,35.53,71.6,59,64.48,280,9,0,30.06,NA,6.21,NA,"FEW","SCT",NA,NA,2500,4000,NA,NA,NA,NA,NA,NA,NA,NA,NA,NA,"RJOR 010500Z 28009KT 9999 FEW025 SCT040 22/15 Q1018"
"3696","RJOR",2019-11-01 06:00:00,134.165,35.53,69.8,57.2,64.26,330,10,0,30.06,NA,6.21,NA,"FEW",NA,NA,NA,3000,NA,NA,NA,NA,NA,NA,NA,NA,NA,NA,NA,"RJOR 010600Z 33010KT 9999 FEW030 21/14 Q1018"
"3697","RJOR",2019-11-01 07:00:00,134.165,35.53,66.2,57.2,72.74,20,14,0,30.09,NA,6.21,NA,"FEW",NA,NA,NA,3000,NA,NA,NA,NA,NA,NA,NA,NA,NA,NA,NA,"RJOR 010700Z 02014KT 9999 FEW030 19/14 Q1019"
"3698","RJOR",2019-11-01 08:00:00,134.165,35.53,64.4,57.2,77.45,30,15,0,30.09,NA,6.21,NA,"FEW",NA,NA,NA,3000,NA,NA,NA,NA,NA,NA,NA,NA,NA,NA,NA,"RJOR 010800Z 03015KT 9999 FEW030 18/14 Q1019"
"3699","RJOR",2019-11-01 09:00:00,134.165,35.53,64.4,55.4,72.56,40,16,0,30.12,NA,6.21,NA,"FEW","SCT",NA,NA,2500,4000,NA,NA,NA,NA,NA,NA,NA,NA,NA,NA,"RJOR 010900Z 04016KT 9999 FEW025 SCT040 18/13 Q1020"
"3700","RJOR",2019-11-01 10:00:00,134.165,35.53,64.4,55.4,72.56,40,16,0,30.15,NA,6.21,NA,"FEW","SCT",NA,NA,2500,4000,NA,NA,NA,NA,NA,NA,NA,NA,NA,NA,"RJOR 011000Z 04016KT 9999 FEW025 SCT040 18/13 Q1021"
"3701","RJOR",2019-11-01 11:00:00,134.165,35.53,62.6,53.6,72.38,50,16,0,30.15,NA,6.21,NA,"FEW","SCT",NA,NA,2500,4500,NA,NA,NA,NA,NA,NA,NA,NA,NA,NA,"RJOR 011100Z 05016KT 9999 FEW025 SCT045 17/12 Q1021"
"3702","RJOR",2019-11-01 12:00:00,134.165,35.53,62.6,51.8,67.75,50,15,0,30.18,NA,6.21,NA,"FEW","SCT",NA,NA,2500,4500,NA,NA,NA,NA,NA,NA,NA,NA,NA,NA,"RJOR 011200Z 05015KT 9999 FEW025 SCT045 17/11 Q1022"
"3703","RJOR",2019-11-01 21:30:00,134.165,35.53,48.2,46.4,93.45,140,7,0,30.18,NA,6.21,NA,"FEW","SCT",NA,NA,100,NA,NA,NA,NA,NA,NA,NA,NA,NA,NA,44.53,"RJOR 012130Z 14007KT 9999 FEW001 SCT/// 09/08 Q1022"
"3704","RJOR",2019-11-01 22:00:00,134.165,35.53,48.2,46.4,93.45,130,7,0,30.18,NA,6.21,NA,"FEW","SCT",NA,NA,100,NA,NA,NA,"PRFG",NA,NA,NA,NA,NA,NA,44.53,"RJOR 012200Z 13007KT 9999 R10/P2000N PRFG FEW001 SCT/// 09/08 Q1022"
"3705","RJOR",2019-11-01 23:00:00,134.165,35.53,51.8,48.2,87.47,130,5,0,30.21,NA,6.21,NA,"FEW",NA,NA,NA,100,NA,NA,NA,NA,NA,NA,NA,NA,NA,NA,NA,"RJOR 012300Z 13005KT 9999 FEW001 11/09 Q1023"
"3706","RJNT",2019-11-01 00:00:00,137.1875,36.6483,62.6,46.4,55.37,170,3,0,30.06,NA,6.21,NA,"FEW",NA,NA,NA,4000,NA,NA,NA,NA,NA,NA,NA,NA,NA,NA,NA,"RJNT 010000Z 17003KT 120V220 9999 FEW040 17/08 Q1018"
"3707","RJNT",2019-11-01 01:00:00,137.1875,36.6483,66.2,48.2,52.25,160,4,0,30.06,NA,6.21,NA,"FEW","SCT",NA,NA,4000,6000,NA,NA,NA,NA,NA,NA,NA,NA,NA,NA,"RJNT 010100Z 16004KT 080V210 9999 FEW040 SCT060 19/09 Q1018"
"3708","RJNT",2019-11-01 02:00:00,137.1875,36.6483,69.8,50,49.37,220,3,0,30.06,NA,6.21,NA,"FEW","BKN",NA,NA,4000,7000,NA,NA,NA,NA,NA,NA,NA,NA,NA,NA,"RJNT 010200Z 22003KT 160V260 9999 FEW040 BKN070 21/10 Q1018"
"3709","RJNT",2019-11-01 03:00:00,137.1875,36.6483,69.8,53.6,56.38,270,8,0,30.03,NA,6.21,NA,"FEW","SCT","BKN",NA,3000,6000,8000,NA,NA,NA,NA,NA,NA,NA,NA,NA,"RJNT 010300Z 27008KT 240V310 9999 FEW030 SCT060 BKN080 21/12 Q1017"
"3710","RJNT",2019-11-01 04:00:00,137.1875,36.6483,69.8,53.6,56.38,280,7,0,30.03,NA,6.21,NA,"FEW","SCT","BKN",NA,3000,5000,8000,NA,"VCSH",NA,NA,NA,NA,NA,NA,NA,"RJNT 010400Z 28007KT 240V330 9999 VCSH FEW030 SCT050 BKN080 21/12 Q1017"
"3711","RJNT",2019-11-01 05:00:00,137.1875,36.6483,64.4,59,82.62,300,3,0,30.03,NA,6.21,NA,"FEW","SCT","BKN",NA,2000,4000,6000,NA,"-SHRA",NA,NA,NA,NA,NA,NA,NA,"RJNT 010500Z 30003KT 270V340 9999 -SHRA FEW020 SCT040 BKN060 18/15 Q1017"
"3712","RJNT",2019-11-01 05:49:00,137.1875,36.6483,66.2,57.2,72.74,20,10,0,30.06,NA,6.21,NA,"FEW","SCT","BKN",NA,2000,4000,7000,NA,"-SHRA",NA,NA,NA,NA,NA,NA,NA,"RJNT 010549Z 02010KT 9999 -SHRA FEW020 SCT040 BKN070 19/14 Q1018 RMK 1CU020 3CU040 6AC070 A3007"
"3713","RJNT",2019-11-01 06:00:00,137.1875,36.6483,64.4,55.4,72.56,10,11,0,30.06,NA,6.21,NA,"FEW","BKN","BKN",NA,2000,3000,7000,NA,"-SHRA",NA,NA,NA,NA,NA,NA,NA,"RJNT 010600Z 01011KT 9999 -SHRA FEW020 BKN030 BKN070 18/13 Q1018"
"3714","RJNT",2019-11-01 07:00:00,137.1875,36.6483,62.6,50,63.38,20,10,0,30.09,NA,6.21,NA,"FEW","BKN","BKN",NA,2000,3000,7000,NA,"-SHRA",NA,NA,NA,NA,NA,NA,NA,"RJNT 010700Z 02010KT 9999 -SHRA FEW020 BKN030 BKN070 17/10 Q1019"
"3715","RJNT",2019-11-01 08:00:00,137.1875,36.6483,60.8,48.2,63.15,10,7,0,30.12,NA,6.21,NA,"FEW","BKN",NA,NA,2000,3500,NA,NA,"-SHRA",NA,NA,NA,NA,NA,NA,NA,"RJNT 010800Z 01007KT 9999 -SHRA FEW020 BKN035 16/09 Q1020"
"3716","RJNT",2019-11-01 09:00:00,137.1875,36.6483,60.8,48.2,63.15,10,7,0,30.12,NA,6.21,NA,"FEW","BKN",NA,NA,2000,3500,NA,NA,NA,NA,NA,NA,NA,NA,NA,NA,"RJNT 010900Z 01007KT 9999 FEW020 BKN035 16/09 Q1020"
"3717","RJNT",2019-11-01 10:00:00,137.1875,36.6483,60.8,48.2,63.15,NA,1,0,30.15,NA,6.21,NA,"FEW","BKN",NA,NA,2000,3500,NA,NA,NA,NA,NA,NA,NA,NA,NA,NA,"RJNT 011000Z VRB01KT 9999 FEW020 BKN035 16/09 Q1021"
"3718","RJNT",2019-11-01 11:00:00,137.1875,36.6483,59,50,72.01,30,2,0,30.15,NA,6.21,NA,"FEW","BKN",NA,NA,2000,4000,NA,NA,NA,NA,NA,NA,NA,NA,NA,NA,"RJNT 011100Z 03002KT 9999 FEW020 BKN040 15/10 Q1021"
"3719","RJNT",2019-11-01 12:00:00,137.1875,36.6483,57.2,51.8,82.12,NA,1,0,30.18,NA,6.21,NA,"FEW","BKN",NA,NA,2000,4000,NA,NA,NA,NA,NA,NA,NA,NA,NA,NA,"RJNT 011200Z VRB01KT 9999 FEW020 BKN040 14/11 Q1022"
"3720","RJNT",2019-11-01 21:10:00,137.1875,36.6483,50,46.4,87.37,NA,2,0,30.21,NA,6.21,NA,"FEW","BKN",NA,NA,3000,4500,NA,NA,NA,NA,NA,NA,NA,NA,NA,NA,"RJNT 012110Z VRB02KT 9999 FEW030 BKN045 10/08 Q1023 RMK 1CU030 6SC045 A3021"
"3721","RJNT",2019-11-01 22:00:00,137.1875,36.6483,51.8,44.6,76.34,NA,2,0,30.21,NA,6.21,NA,"FEW","BKN",NA,NA,3000,4500,NA,NA,NA,NA,NA,NA,NA,NA,NA,NA,"RJNT 012200Z VRB02KT 9999 FEW030 BKN045 11/07 Q1023"
"3722","RJNT",2019-11-01 23:00:00,137.1875,36.6483,55.4,44.6,66.91,200,5,0,30.21,NA,6.21,NA,"FEW",NA,NA,NA,3000,NA,NA,NA,NA,NA,NA,NA,NA,NA,NA,NA,"RJNT 012300Z 20005KT 150V220 9999 FEW030 13/07 Q1023"
"3723","RJDT",2019-11-01 00:00:00,129.3306,34.285,66.2,46.4,48.83,280,4,0,30.15,NA,6.21,NA,NA,NA,NA,NA,NA,NA,NA,NA,NA,NA,NA,NA,NA,NA,NA,NA,"RJDT 010000Z 28004KT 230V330 CAVOK 19/08 Q1021"
"3724","RJDT",2019-11-01 01:00:00,129.3306,34.285,68,42.8,40,300,7,0,30.15,NA,6.21,NA,NA,NA,NA,NA,NA,NA,NA,NA,NA,NA,NA,NA,NA,NA,NA,NA,"RJDT 010100Z 30007KT 240V330 CAVOK 20/06 Q1021"
"3725","RJDT",2019-11-01 02:00:00,129.3306,34.285,68,44.6,42.85,270,9,0,30.15,NA,6.21,NA,NA,NA,NA,NA,NA,NA,NA,NA,NA,NA,NA,NA,NA,NA,NA,NA,"RJDT 010200Z 27009KT 240V320 CAVOK 20/07 Q1021"
"3726","RJDT",2019-11-01 03:00:00,129.3306,34.285,69.8,44.6,40.29,310,9,0,30.12,NA,6.21,NA,NA,NA,NA,NA,NA,NA,NA,NA,NA,NA,NA,NA,NA,NA,NA,NA,"RJDT 010300Z 31009KT 270V340 CAVOK 21/07 Q1020"
"3727","RJDT",2019-11-01 04:00:00,129.3306,34.285,69.8,44.6,40.29,310,11,0,30.09,NA,6.21,NA,NA,NA,NA,NA,NA,NA,NA,NA,NA,NA,NA,NA,NA,NA,NA,NA,"RJDT 010400Z 31011KT 270V350 CAVOK 21/07 Q1019"
"3728","RJDT",2019-11-01 05:00:00,129.3306,34.285,68,44.6,42.85,310,10,0,30.09,NA,6.21,NA,NA,NA,NA,NA,NA,NA,NA,NA,NA,NA,NA,NA,NA,NA,NA,NA,"RJDT 010500Z 31010KT 280V340 CAVOK 20/07 Q1019"
"3729","RJDT",2019-11-01 06:00:00,129.3306,34.285,69.8,41,35.09,290,4,0,30.09,NA,6.21,NA,NA,NA,NA,NA,NA,NA,NA,NA,NA,NA,NA,NA,NA,NA,NA,NA,"RJDT 010600Z 29004KT 200V340 CAVOK 21/05 Q1019"
"3730","RJDT",2019-11-01 07:00:00,129.3306,34.285,68,42.8,40,320,6,0,30.09,NA,6.21,NA,NA,NA,NA,NA,NA,NA,NA,NA,NA,NA,NA,NA,NA,NA,NA,NA,"RJDT 010700Z 32006KT CAVOK 20/06 Q1019"
"3731","RJDT",2019-11-01 08:00:00,129.3306,34.285,66.2,42.8,42.57,20,4,0,30.12,NA,6.21,NA,NA,NA,NA,NA,NA,NA,NA,NA,NA,NA,NA,NA,NA,NA,NA,NA,"RJDT 010800Z 02004KT CAVOK 19/06 Q1020"
"3732","RJDT",2019-11-01 09:00:00,129.3306,34.285,64.4,46.4,51.98,30,4,0,30.12,NA,6.21,NA,"FEW",NA,NA,NA,4000,NA,NA,NA,NA,NA,NA,NA,NA,NA,NA,NA,"RJDT 010900Z 03004KT 9999 FEW040 18/08 Q1020"
"3733","RJDT",2019-11-01 10:00:00,129.3306,34.285,64.4,50,59.5,360,3,0,30.12,NA,6.21,NA,"FEW","SCT",NA,NA,3000,NA,NA,NA,NA,NA,NA,NA,NA,NA,NA,NA,"RJDT 011000Z 36003KT 310V050 9999 FEW030 SCT/// 18/10 Q1020"
"3734","RJDT",2019-11-01 11:00:00,129.3306,34.285,64.4,48.2,55.63,70,3,0,30.15,NA,6.21,NA,"FEW","SCT","BKN",NA,3000,3500,NA,NA,NA,NA,NA,NA,NA,NA,NA,NA,"RJDT 011100Z 07003KT 9999 FEW030 SCT035 BKN/// 18/09 Q1021"
"3735","RJDT",2019-11-01 22:30:00,129.3306,34.285,64.4,51.8,63.6,60,5,0,30.12,NA,6.21,NA,"FEW","BKN",NA,NA,2500,3500,NA,NA,NA,NA,NA,NA,NA,NA,NA,NA,"RJDT 012230Z 06005KT 040V100 9999 FEW025 BKN035 18/11 Q1020"
"3736","RJDT",2019-11-01 23:00:00,129.3306,34.285,66.2,51.8,59.74,60,5,0,30.12,NA,6.21,NA,"FEW","SCT","BKN",NA,2500,3000,3500,NA,NA,NA,NA,NA,NA,NA,NA,NA,"RJDT 012300Z 06005KT 020V140 9999 FEW025 SCT030 BKN035 19/11 Q1020"
"3737","RJCW",2019-11-01 00:00:00,141.8022,45.4044,50,37.4,61.76,270,20,0,29.56,NA,6.21,NA,"FEW","SCT","BKN",NA,3000,4000,10000,NA,"-SHRA",NA,NA,NA,NA,NA,NA,43.05,"RJCW 010000Z 27020KT 9999 -SHRA FEW030 SCT040 BKN100 10/03 Q1001"
"3738","RJCW",2019-11-01 01:00:00,141.8022,45.4044,48.2,37.4,66.05,280,21,0,29.56,NA,6.21,NA,"FEW","SCT","BKN",NA,1000,4000,6000,NA,"-SHRA",NA,NA,NA,NA,NA,NA,40.46,"RJCW 010100Z 28021KT 9999 -SHRA FEW010 SCT040 BKN060 09/03 Q1001"
"3739","RJCW",2019-11-01 02:00:00,141.8022,45.4044,50,41,71.07,290,25,0,29.59,NA,6.21,NA,"FEW","SCT",NA,NA,2000,3500,NA,NA,"-SHRA",NA,NA,NA,NA,NA,NA,42.18,"RJCW 010200Z 29025KT 9999 -SHRA FEW020 SCT035 10/05 Q1002"
"3740","RJCW",2019-11-01 03:00:00,141.8022,45.4044,50,35.6,57.52,280,24,0,29.59,NA,6.21,NA,"FEW","SCT","BKN",NA,3000,4000,6000,NA,NA,NA,NA,NA,NA,NA,NA,42.34,"RJCW 010300Z 28024KT 9999 FEW030 SCT040 BKN060 10/02 Q1002"
"3741","RJCW",2019-11-01 03:43:00,141.8022,45.4044,48.2,39.2,70.88,290,25,0,29.59,NA,6.21,35,"FEW","SCT","BKN",NA,2000,4000,6000,NA,"-SHRAGS",NA,NA,NA,NA,NA,NA,39.75,"RJCW 010343Z 29025G35KT 9999 -SHRAGS FEW020 SCT040 BKN060 09/04 Q1002 RMK 1CU020 4CU040 6CU060 A2959 SNOW PELLETS"
"3742","RJCW",2019-11-01 04:00:00,141.8022,45.4044,48.2,41,76.01,290,24,0,29.59,NA,6.21,NA,"FEW","SCT","BKN",NA,2000,3000,4000,NA,"-SHRA",NA,NA,NA,NA,NA,NA,39.91,"RJCW 010400Z 29024KT 9999 -SHRA FEW020 SCT030 BKN040 09/05 Q1002"
"3743","RJCW",2019-11-01 05:00:00,141.8022,45.4044,48.2,41,76.01,290,24,0,29.59,NA,6.21,34,"FEW","SCT","BKN",NA,1000,3000,10000,NA,"VCSH",NA,NA,NA,NA,NA,NA,39.91,"RJCW 010500Z 29024G34KT 9999 VCSH FEW010 SCT030 BKN100 09/05 Q1002"
"3744","RJCW",2019-11-01 06:00:00,141.8022,45.4044,46.4,41,81.34,310,22,0,29.62,NA,6.21,NA,"FEW","BKN",NA,NA,1000,2000,NA,NA,"-SHRA",NA,NA,NA,NA,NA,NA,37.86,"RJCW 010600Z 31022KT 9999 -SHRA FEW010 BKN020 08/05 Q1003"
"3745","RJCW",2019-11-01 07:00:00,141.8022,45.4044,46.4,39.2,75.84,310,19,0,29.68,NA,6.21,NA,"FEW","SCT",NA,NA,1500,3000,NA,NA,NA,NA,NA,NA,NA,NA,NA,38.48,"RJCW 010700Z 31019KT 9999 FEW015 SCT030 08/04 Q1005"
"3746","RJCW",2019-11-01 08:00:00,141.8022,45.4044,48.2,37.4,66.05,310,23,0,29.68,NA,6.21,NA,"FEW","BKN",NA,NA,2000,3000,NA,NA,NA,NA,NA,NA,NA,NA,NA,40.09,"RJCW 010800Z 31023KT 9999 FEW020 BKN030 09/03 Q1005"
"3747","RJCW",2019-11-01 09:00:00,141.8022,45.4044,50,37.4,61.76,310,21,0,29.71,NA,6.21,NA,"FEW","SCT","BKN",NA,3000,4000,6000,NA,NA,NA,NA,NA,NA,NA,NA,42.86,"RJCW 010900Z 31021KT 9999 FEW030 SCT040 BKN060 10/03 Q1006"
"3748","RJCW",2019-11-01 23:30:00,141.8022,45.4044,48.2,32,53.27,260,25,0,29.83,NA,6.21,NA,"FEW","SCT",NA,NA,3000,4000,NA,NA,NA,NA,NA,NA,NA,NA,NA,39.75,"RJCW 012330Z 26025KT 9999 FEW030 SCT040 09/M00 Q1010"
"3749","RJSC",2019-11-01 00:00:00,140.3711,38.4119,64.4,51.8,63.6,210,6,0,29.85,NA,6.21,NA,"FEW","SCT","BKN",NA,4000,5000,6000,NA,NA,NA,NA,NA,NA,NA,NA,NA,"RJSC 010000Z 21006KT 160V260 9999 FEW040 SCT050 BKN060 18/11 Q1011"
"3750","RJSC",2019-11-01 01:00:00,140.3711,38.4119,59,55.4,87.83,320,7,0,29.91,NA,3.11,NA,"FEW","SCT","BKN",NA,500,1500,3000,NA,"-SHRA BR",NA,NA,NA,NA,NA,NA,NA,"RJSC 010100Z 32007KT 5000 -SHRA BR FEW005 SCT015 BKN030 15/13 Q1013"
"3751","RJSC",2019-11-01 02:00:00,140.3711,38.4119,60.8,57.2,87.92,200,4,0,29.88,NA,6.21,NA,"FEW","SCT","BKN",NA,2000,3000,4000,NA,"VCSH",NA,NA,NA,NA,NA,NA,NA,"RJSC 010200Z 20004KT 9999 VCSH FEW020 SCT030 BKN040 16/14 Q1012"
"3752","RJSC",2019-11-01 03:00:00,140.3711,38.4119,64.4,55.4,72.56,200,9,0,29.88,NA,6.21,NA,"FEW","SCT",NA,NA,2000,4000,NA,NA,NA,NA,NA,NA,NA,NA,NA,NA,"RJSC 010300Z 20009KT 170V240 9999 FEW020 SCT040 18/13 Q1012"
"3753","RJSC",2019-11-01 04:00:00,140.3711,38.4119,66.2,48.2,52.25,270,11,0,29.91,NA,6.21,NA,"FEW","SCT","BKN",NA,4000,5000,6000,NA,NA,NA,NA,NA,NA,NA,NA,NA,"RJSC 010400Z 27011KT 220V320 9999 FEW040 SCT050 BKN060 19/09 Q1013"
"3754","RJSC",2019-11-01 05:00:00,140.3711,38.4119,62.6,44.6,51.72,270,9,0,29.94,NA,6.21,NA,"FEW","SCT","BKN",NA,3000,5000,7000,NA,NA,NA,NA,NA,NA,NA,NA,NA,"RJSC 010500Z 27009KT 230V320 9999 FEW030 SCT050 BKN070 17/07 Q1014"
"3755","RJSC",2019-11-01 06:00:00,140.3711,38.4119,62.6,39.2,42,260,11,0,29.94,NA,6.21,NA,"FEW",NA,NA,NA,5000,NA,NA,NA,NA,NA,NA,NA,NA,NA,NA,NA,"RJSC 010600Z 26011KT 230V300 9999 FEW050 17/04 Q1014"
"3756","RJSC",2019-11-01 07:00:00,140.3711,38.4119,59,37.4,44.47,270,9,0,29.94,NA,6.21,NA,"FEW",NA,NA,NA,5000,NA,NA,NA,NA,NA,NA,NA,NA,NA,NA,NA,"RJSC 010700Z 27009KT 230V300 9999 FEW050 15/03 Q1014"
"3757","RJSC",2019-11-01 08:00:00,140.3711,38.4119,57.2,37.4,47.44,280,6,0,29.97,NA,6.21,NA,"FEW",NA,NA,NA,4000,NA,NA,NA,NA,NA,NA,NA,NA,NA,NA,NA,"RJSC 010800Z 28006KT 240V310 9999 FEW040 14/03 Q1015"
"3758","RJSC",2019-11-01 09:00:00,140.3711,38.4119,55.4,41,58.27,330,7,0,30,NA,6.21,NA,"FEW","BKN",NA,NA,5000,7000,NA,NA,NA,NA,NA,NA,NA,NA,NA,NA,"RJSC 010900Z 33007KT 290V010 9999 FEW050 BKN070 13/05 Q1016"
"3759","RJSC",2019-11-01 10:00:00,140.3711,38.4119,53.6,41,62.23,240,5,0,30.03,NA,6.21,NA,"FEW","SCT",NA,NA,5000,7000,NA,NA,NA,NA,NA,NA,NA,NA,NA,NA,"RJSC 011000Z 24005KT 210V280 9999 FEW050 SCT070 12/05 Q1017"
"3760","RJSC",2019-11-01 22:40:00,140.3711,38.4119,46.4,41,81.34,NA,1,0,30.18,NA,6.21,NA,"FEW","SCT",NA,NA,300,5000,NA,NA,NA,NA,NA,NA,NA,NA,NA,NA,"RJSC 012240Z VRB01KT 9999 FEW003 SCT050 08/05 Q1022 RMK 1ST003 3CU050 A3018"
"3761","RJSC",2019-11-01 23:00:00,140.3711,38.4119,46.4,42.8,87.19,NA,1,0,30.18,NA,6.21,NA,"FEW","SCT",NA,NA,300,5000,NA,NA,NA,NA,NA,NA,NA,NA,NA,NA,"RJSC 012300Z VRB01KT 9999 FEW003 SCT050 08/06 Q1022"
"3762","RJDC",2019-11-01 00:00:00,131.2786,33.93,64.4,57.2,77.45,NA,2,0,30.15,NA,6.21,NA,NA,NA,NA,NA,NA,NA,NA,NA,NA,NA,NA,NA,NA,NA,NA,NA,"RJDC 010000Z VRB02KT CAVOK 18/14 Q1021"
"3763","RJDC",2019-11-01 01:00:00,131.2786,33.93,68,59,72.92,220,4,0,30.12,NA,6.21,NA,"FEW",NA,NA,NA,3000,NA,NA,NA,NA,NA,NA,NA,NA,NA,NA,NA,"RJDC 010100Z 22004KT 9999 FEW030 20/15 Q1020"
"3764","RJDC",2019-11-01 02:00:00,131.2786,33.93,69.8,59,68.55,250,7,0,30.12,NA,6.21,NA,"FEW",NA,NA,NA,3000,NA,NA,NA,NA,NA,NA,NA,NA,NA,NA,NA,"RJDC 010200Z 25007KT 9999 FEW030 21/15 Q1020"
"3765","RJDC",2019-11-01 03:00:00,131.2786,33.93,71.6,57.2,60.44,250,10,0,30.09,NA,6.21,NA,"FEW",NA,NA,NA,3000,NA,NA,NA,NA,NA,NA,NA,NA,NA,NA,NA,"RJDC 010300Z 25010KT 9999 FEW030 22/14 Q1019"
"3766","RJDC",2019-11-01 04:00:00,131.2786,33.93,75.2,55.4,50.17,260,10,0,30.06,NA,6.21,NA,"FEW",NA,NA,NA,3500,NA,NA,NA,NA,NA,NA,NA,NA,NA,NA,NA,"RJDC 010400Z 26010KT 230V310 9999 FEW035 24/13 Q1018"
"3767","RJDC",2019-11-01 05:00:00,131.2786,33.93,75.2,48.2,38.46,330,5,0,30.06,NA,6.21,NA,"FEW",NA,NA,NA,3000,NA,NA,NA,NA,NA,NA,NA,NA,NA,NA,NA,"RJDC 010500Z 33005KT 230V030 9999 FEW030 24/09 Q1018"
"3768","RJDC",2019-11-01 06:00:00,131.2786,33.93,75.2,48.2,38.46,320,5,0,30.06,NA,6.21,NA,"FEW",NA,NA,NA,4500,NA,NA,NA,NA,NA,NA,NA,NA,NA,NA,NA,"RJDC 010600Z 32005KT 240V020 9999 FEW045 24/09 Q1018"
"3769","RJDC",2019-11-01 07:00:00,131.2786,33.93,71.6,50,46.43,340,5,0,30.06,NA,6.21,NA,NA,NA,NA,NA,NA,NA,NA,NA,NA,NA,NA,NA,NA,NA,NA,NA,"RJDC 010700Z 34005KT 270V030 CAVOK 22/10 Q1018"
"3770","RJDC",2019-11-01 08:00:00,131.2786,33.93,69.8,51.8,52.77,360,6,0,30.06,NA,6.21,NA,"FEW",NA,NA,NA,3500,NA,NA,NA,NA,NA,NA,NA,NA,NA,NA,NA,"RJDC 010800Z 36006KT 310V030 9999 FEW035 21/11 Q1018"
"3771","RJDC",2019-11-01 09:00:00,131.2786,33.93,66.2,51.8,59.74,10,4,0,30.09,NA,6.21,NA,NA,NA,NA,NA,NA,NA,NA,NA,NA,NA,NA,NA,NA,NA,NA,NA,"RJDC 010900Z 01004KT 310V040 CAVOK 19/11 Q1019"
"3772","RJDC",2019-11-01 10:00:00,131.2786,33.93,64.4,53.6,67.95,350,3,0,30.12,NA,6.21,NA,NA,NA,NA,NA,NA,NA,NA,NA,NA,NA,NA,NA,NA,NA,NA,NA,"RJDC 011000Z 35003KT 300V060 CAVOK 18/12 Q1020"
"3773","RJDC",2019-11-01 11:00:00,131.2786,33.93,62.6,53.6,72.38,NA,1,0,30.12,NA,6.21,NA,NA,NA,NA,NA,NA,NA,NA,NA,NA,NA,NA,NA,NA,NA,NA,NA,"RJDC 011100Z VRB01KT CAVOK 17/12 Q1020"
"3774","RJDC",2019-11-01 12:00:00,131.2786,33.93,60.8,53.6,77.14,310,3,0,30.12,NA,6.21,NA,NA,NA,NA,NA,NA,NA,NA,NA,NA,NA,NA,NA,NA,NA,NA,NA,"RJDC 011200Z 31003KT 270V340 CAVOK 16/12 Q1020"
"3775","RJDC",2019-11-01 21:30:00,131.2786,33.93,55.4,48.2,76.66,30,3,0,30.12,NA,6.21,NA,"FEW","SCT",NA,NA,1000,NA,NA,NA,NA,NA,NA,NA,NA,NA,NA,NA,"RJDC 012130Z 03003KT 9999 FEW010 SCT/// 13/09 Q1020"
"3776","RJDC",2019-11-01 22:00:00,131.2786,33.93,57.2,48.2,71.83,50,7,0,30.12,NA,6.21,NA,"FEW","BKN",NA,NA,1000,NA,NA,NA,NA,NA,NA,NA,NA,NA,NA,NA,"RJDC 012200Z 05007KT 9999 FEW010 BKN/// 14/09 Q1020"
"3777","RJDC",2019-11-01 23:00:00,131.2786,33.93,60.8,50,67.54,50,7,0,30.15,NA,6.21,NA,"FEW","BKN",NA,NA,1500,NA,NA,NA,NA,NA,NA,NA,NA,NA,NA,NA,"RJDC 012300Z 05007KT 9999 FEW015 BKN/// 16/10 Q1021"
"3778","RJOY",2019-11-01 00:00:00,135.6006,34.5967,60.8,55.4,82.37,NA,2,0,30.12,NA,6.21,NA,"FEW","BKN",NA,NA,2000,3000,NA,NA,NA,NA,NA,NA,NA,NA,NA,NA,"RJOY 010000Z VRB02KT 9999 FEW020 BKN030 16/13 Q1020"
"3779","RJOY",2019-11-01 01:00:00,135.6006,34.5967,66.2,55.4,68.15,NA,2,0,30.09,NA,6.21,NA,"FEW",NA,NA,NA,2500,NA,NA,NA,NA,NA,NA,NA,NA,NA,NA,NA,"RJOY 010100Z VRB02KT 9999 FEW025 19/13 Q1019"
"3780","RJOY",2019-11-01 02:00:00,135.6006,34.5967,68,55.4,64.04,240,4,0,30.09,NA,6.21,NA,"FEW",NA,NA,NA,3000,NA,NA,NA,NA,NA,NA,NA,NA,NA,NA,NA,"RJOY 010200Z 24004KT 150V290 9999 FEW030 20/13 Q1019"
"3781","RJOY",2019-11-01 03:00:00,135.6006,34.5967,69.8,55.4,60.21,NA,2,0,30.06,NA,6.21,NA,"FEW",NA,NA,NA,3000,NA,NA,NA,NA,NA,NA,NA,NA,NA,NA,NA,"RJOY 010300Z VRB02KT 9999 FEW030 21/13 Q1018"
"3782","RJOY",2019-11-01 04:00:00,135.6006,34.5967,71.6,53.6,53.03,NA,3,0,30.03,NA,6.21,NA,"FEW",NA,NA,NA,3000,NA,NA,NA,NA,NA,NA,NA,NA,NA,NA,NA,"RJOY 010400Z VRB03KT 9999 FEW030 22/12 Q1017"
"3783","RJOY",2019-11-01 05:00:00,135.6006,34.5967,71.6,50,46.43,320,4,0,30.03,NA,6.21,NA,"FEW",NA,NA,NA,3500,NA,NA,NA,NA,NA,NA,NA,NA,NA,NA,NA,"RJOY 010500Z 32004KT 260V030 9999 FEW035 22/10 Q1017"
"3784","RJOY",2019-11-01 06:00:00,135.6006,34.5967,73.4,50,43.69,340,6,0,30.03,NA,6.21,NA,"FEW",NA,NA,NA,3500,NA,NA,NA,NA,NA,NA,NA,NA,NA,NA,NA,"RJOY 010600Z 34006KT 290V040 9999 FEW035 23/10 Q1017"
"3785","RJOY",2019-11-01 07:00:00,135.6006,34.5967,71.6,51.8,49.64,270,8,0,30.03,NA,6.21,NA,"FEW",NA,NA,NA,3500,NA,NA,NA,NA,NA,NA,NA,NA,NA,NA,NA,"RJOY 010700Z 27008KT 230V290 9999 FEW035 22/11 Q1017"
"3786","RJOY",2019-11-01 08:00:00,135.6006,34.5967,68,53.6,59.97,270,10,0,30.03,NA,6.21,NA,"FEW","SCT",NA,NA,3000,6000,NA,NA,NA,NA,NA,NA,NA,NA,NA,NA,"RJOY 010800Z 27010KT 9999 FEW030 SCT060 20/12 Q1017"
"3787","RJOY",2019-11-01 09:00:00,135.6006,34.5967,68,53.6,59.97,290,5,0,30.06,NA,6.21,NA,"FEW","BKN",NA,NA,3000,6000,NA,NA,NA,NA,NA,NA,NA,NA,NA,NA,"RJOY 010900Z 29005KT 9999 FEW030 BKN060 20/12 Q1018"
"3788","RJOY",2019-11-01 10:00:00,135.6006,34.5967,68,51.8,56.13,340,7,0,30.09,NA,6.21,NA,"FEW","SCT","BKN",NA,3000,5000,7000,NA,NA,NA,NA,NA,NA,NA,NA,NA,"RJOY 011000Z 34007KT 9999 FEW030 SCT050 BKN070 20/11 Q1019"
"3789","RJOY",2019-11-01 23:00:00,135.6006,34.5967,57.2,50,76.82,NA,2,0,30.18,NA,6.21,NA,"FEW","BKN",NA,NA,2500,NA,NA,NA,NA,NA,NA,NA,NA,NA,NA,NA,"RJOY 012300Z VRB02KT 9999 FEW025 BKN/// 14/10 Q1022"
"3790","RJTY",2019-11-01 00:56:00,139.3485,35.7485,66.4,52.9,61.77,0,0,0,30.01,1016.4,10,NA,"CLR",NA,NA,NA,NA,NA,NA,NA,NA,NA,NA,NA,NA,NA,NA,NA,"RJTY 010056Z AUTO 00000KT 10SM CLR 19/12 A3001 RMK AO2 SLP164 T01910116 FZRANO $"
"3791","RJTY",2019-11-01 01:56:00,139.3485,35.7485,69.3,52.9,55.9,120,3,0,30,1016.1,10,NA,"CLR",NA,NA,NA,NA,NA,NA,NA,NA,NA,NA,NA,NA,NA,NA,NA,"RJTY 010156Z AUTO 12003KT 10SM CLR 21/12 A3000 RMK AO2 SLP161 T02070116 FZRANO $"
"3792","RJTY",2019-11-01 02:56:00,139.3485,35.7485,70.5,50.9,49.84,0,0,0,29.97,1015,10,NA,"CLR",NA,NA,NA,NA,NA,NA,NA,NA,NA,NA,NA,NA,NA,NA,NA,"RJTY 010256Z AUTO 00000KT 10SM CLR 21/11 A2997 RMK AO2 SLP150 T02140105 57020 FZRANO $"
"3793","RJTY",2019-11-01 03:56:00,139.3485,35.7485,72,50.5,46.67,0,0,0,29.94,1014,10,NA,"CLR",NA,NA,NA,NA,NA,NA,NA,NA,NA,NA,NA,NA,NA,NA,NA,"RJTY 010356Z AUTO 00000KT 10SM CLR 22/10 A2994 RMK AO2 SLP140 T02220103 FZRANO $"
"3794","RJTY",2019-11-01 04:56:00,139.3485,35.7485,73.2,46,37.86,0,0,0,29.93,1013.6,10,NA,"CLR",NA,NA,NA,NA,NA,NA,NA,NA,NA,NA,NA,NA,NA,NA,NA,"RJTY 010456Z AUTO 00000KT 10SM CLR 23/08 A2993 RMK AO2 SLP136 T02290078 FZRANO $"
"3795","RJTY",2019-11-01 05:56:00,139.3485,35.7485,73.4,44.1,34.98,0,0,0,29.94,1014,10,NA,"CLR",NA,NA,NA,NA,NA,NA,NA,NA,NA,NA,NA,NA,NA,NA,NA,"RJTY 010556Z AUTO 00000KT 10SM CLR 23/07 A2994 RMK AO2 SLP140 T02300067 10231 20177 55009 FZRANO $"
"3796","RJTY",2019-11-01 06:56:00,139.3485,35.7485,73,43.7,34.92,0,0,0,29.95,1014.4,10,NA,"CLR",NA,NA,NA,NA,NA,NA,NA,NA,NA,NA,NA,NA,NA,NA,NA,"RJTY 010656Z AUTO 00000KT 10SM CLR 23/07 A2995 RMK AO2 SLP144 T02280065 FZRANO $"
"3797","RJTY",2019-11-01 07:56:00,139.3485,35.7485,67.8,46.2,45.85,0,0,0,29.97,1015.1,10,NA,"CLR",NA,NA,NA,NA,NA,NA,NA,NA,NA,NA,NA,NA,NA,NA,NA,"RJTY 010756Z AUTO 00000KT 10SM CLR 20/08 A2997 RMK AO2 SLP151 T01990079 FZRANO $"
"3798","RJTY",2019-11-01 08:56:00,139.3485,35.7485,65.5,48.9,54.96,30,13,0,30,1016.2,10,NA,"CLR",NA,NA,NA,NA,NA,NA,NA,NA,NA,NA,NA,NA,NA,NA,NA,"RJTY 010856Z AUTO 03013KT 10SM CLR 19/09 A3000 RMK AO2 SLP162 T01860094 53020 FZRANO $"
"3799","RJTY",2019-11-01 09:56:00,139.3485,35.7485,62.6,48,58.81,20,15,0,30.02,1016.9,10,NA,"CLR",NA,NA,NA,NA,NA,NA,NA,NA,NA,NA,NA,NA,NA,NA,NA,"RJTY 010956Z AUTO 02015KT 10SM CLR 17/09 A3002 RMK AO2 SLP169 T01700089 FZRANO $"
"3800","RJTY",2019-11-01 10:56:00,139.3485,35.7485,60.6,47.5,61.95,30,13,0,30.04,1017.6,10,NA,"CLR",NA,NA,NA,NA,NA,NA,NA,NA,NA,NA,NA,NA,NA,NA,NA,"RJTY 011056Z AUTO 03013KT 10SM CLR 16/09 A3004 RMK AO2 SLP176 T01590086 FZRANO $"
"3801","RJTY",2019-11-01 11:56:00,139.3485,35.7485,59,46,61.98,30,12,0,30.05,1017.8,10,NA,"CLR",NA,NA,NA,NA,NA,NA,NA,NA,NA,NA,NA,NA,NA,NA,NA,"RJTY 011156Z AUTO 03012KT 10SM CLR 15/08 A3005 RMK AO2 SLP178 T01500078 10229 20150 52018 FZRANO $"
"3802","RJTY",2019-11-01 12:56:00,139.3485,35.7485,57,45,64.12,30,10,0,30.07,1018.4,10,NA,"CLR",NA,NA,NA,NA,NA,NA,NA,NA,NA,NA,NA,NA,NA,NA,NA,"RJTY 011256Z AUTO 03010KT 10SM CLR 14/07 A3007 RMK AO2 SLP184 T01390072 FZRANO $"
"3803","RJTY",2019-11-01 13:56:00,139.3485,35.7485,55.8,44.2,64.95,30,9,0,30.09,1019.1,10,NA,"CLR",NA,NA,NA,NA,NA,NA,NA,NA,NA,NA,NA,NA,NA,NA,NA,"RJTY 011356Z AUTO 03009KT 10SM CLR 13/07 A3009 RMK AO2 SLP191 T01320068 FZRANO $"
"3804","RJTY",2019-11-01 14:56:00,139.3485,35.7485,55.2,43.3,64.14,360,5,0,30.1,1019.5,10,NA,"CLR",NA,NA,NA,NA,NA,NA,NA,NA,NA,NA,NA,NA,NA,NA,NA,"RJTY 011456Z AUTO 36005KT 10SM CLR 13/06 A3010 RMK AO2 SLP195 T01290063 402310094 52017 FZRANO $"
"3805","RJTY",2019-11-01 15:56:00,139.3485,35.7485,53.8,45.7,73.96,310,3,0,30.12,1020.1,10,NA,"CLR",NA,NA,NA,NA,NA,NA,NA,NA,NA,NA,NA,NA,NA,NA,NA,"RJTY 011556Z AUTO 31003KT 10SM CLR 12/08 A3012 RMK AO2 SLP201 T01210076 FZRANO $"
"3806","RJTY",2019-11-01 16:56:00,139.3485,35.7485,51.8,46.2,81.12,0,0,0,30.13,1020.5,10,NA,"CLR",NA,NA,NA,NA,NA,NA,NA,NA,NA,NA,NA,NA,NA,NA,NA,"RJTY 011656Z AUTO 00000KT 10SM CLR 11/08 A3013 RMK AO2 SLP205 T01100079 FZRANO $"
"3807","RJTY",2019-11-01 17:56:00,139.3485,35.7485,51.1,47.7,88.09,260,3,0,30.14,1020.8,10,NA,"CLR",NA,NA,NA,NA,NA,NA,NA,NA,NA,NA,NA,NA,NA,NA,NA,"RJTY 011756Z AUTO 26003KT 10SM CLR 11/09 A3014 RMK AO2 SLP208 T01060087 10150 20091 52013 FZRANO $"
"3808","RJTY",2019-11-01 18:56:00,139.3485,35.7485,50.5,47.7,90.07,280,4,0,30.16,1021.6,10,NA,"CLR",NA,NA,NA,NA,NA,NA,NA,NA,NA,NA,NA,NA,NA,NA,NA,"RJTY 011856Z AUTO 28004KT 10SM CLR 10/09 A3016 RMK AO2 SLP216 T01030087 FZRANO $"
"3809","RJTY",2019-11-01 19:56:00,139.3485,35.7485,50.4,46.4,86.08,270,4,0,30.18,1022.3,10,NA,"CLR",NA,NA,NA,NA,NA,NA,NA,NA,NA,NA,NA,NA,NA,NA,NA,"RJTY 011956Z AUTO 27004KT 10SM CLR 10/08 A3018 RMK AO2 SLP223 T01020080 FZRANO $"
"3810","RJTY",2019-11-01 20:56:00,139.3485,35.7485,49.6,45.7,86.37,280,3,0,30.19,1022.7,10,NA,"FEW",NA,NA,NA,5500,NA,NA,NA,NA,NA,NA,NA,NA,NA,NA,48.81,"RJTY 012056Z AUTO 28003KT 10SM FEW055 10/08 A3019 RMK AO2 SLP227 T00980076 52016 FZRANO $"
"3811","RJTY",2019-11-01 21:56:00,139.3485,35.7485,50,46.9,89.04,0,0,0,30.22,1023.8,10,NA,"OVC",NA,NA,NA,5500,NA,NA,NA,NA,NA,NA,NA,NA,NA,NA,NA,"RJTY 012156Z AUTO 00000KT 10SM OVC055 10/08 A3022 RMK AO2 SLP238 T01000083 FZRANO $"
"3812","RJTY",2019-11-01 22:56:00,139.3485,35.7485,52.9,45.5,75.86,0,0,0,30.23,1024.1,10,NA,"OVC",NA,NA,NA,6000,NA,NA,NA,NA,NA,NA,NA,NA,NA,NA,NA,"RJTY 012256Z AUTO 00000KT 10SM OVC060 12/08 A3023 RMK AO2 SLP241 T01160075 FZRANO $"
"3813","RJTY",2019-11-01 23:56:00,139.3485,35.7485,57.2,44.8,63.17,0,0,0,30.23,1024,10,NA,"FEW",NA,NA,NA,5000,NA,NA,NA,NA,NA,NA,NA,NA,NA,NA,NA,"RJTY 012356Z AUTO 00000KT 10SM FEW050 14/07 A3023 RMK AO2 SLP240 T01400071 10140 20083 51013 FZRANO $"
"3814","ROYN",2019-11-01 00:00:00,122.978,24.467,78.8,69.8,73.95,50,15,0,30.03,NA,6.21,NA,"FEW","BKN",NA,NA,2400,3100,NA,NA,NA,NA,NA,NA,NA,NA,NA,NA,"ROYN 010000Z AUTO 05015KT 9999 FEW024 BKN031 26/21 Q1017"
"3815","ROYN",2019-11-01 01:00:00,122.978,24.467,80.6,69.8,69.71,50,17,0,30.03,NA,6.21,NA,"FEW","BKN",NA,NA,2500,2900,NA,NA,NA,NA,NA,NA,NA,NA,NA,83.9,"ROYN 010100Z AUTO 05017KT 9999 FEW025 BKN029 27/21 Q1017"
"3816","ROYN",2019-11-01 02:00:00,122.978,24.467,82.4,71.6,69.9,40,16,0,30.03,NA,6.21,NA,"FEW",NA,NA,NA,2600,NA,NA,NA,NA,NA,NA,NA,NA,NA,NA,87.18,"ROYN 010200Z AUTO 04016KT 9999 FEW026 28/22 Q1017"
"3817","ROYN",2019-11-01 03:00:00,122.978,24.467,82.4,69.8,65.74,50,18,0,30.03,NA,6.21,NA,"FEW","BKN",NA,NA,2600,3500,NA,NA,NA,NA,NA,NA,NA,NA,NA,86.22,"ROYN 010300Z AUTO 05018KT 9999 FEW026 BKN035 28/21 Q1017"
"3818","ROYN",2019-11-01 04:00:00,122.978,24.467,82.4,69.8,65.74,50,18,0,30,NA,6.21,NA,"FEW",NA,NA,NA,2700,NA,NA,NA,NA,NA,NA,NA,NA,NA,NA,86.22,"ROYN 010400Z AUTO 05018KT 9999 FEW027 28/21 Q1016"
"3819","ROYN",2019-11-01 05:00:00,122.978,24.467,82.4,69.8,65.74,50,17,0,29.97,NA,6.21,NA,"FEW",NA,NA,NA,2900,NA,NA,NA,NA,NA,NA,NA,NA,NA,NA,86.22,"ROYN 010500Z AUTO 05017KT 9999 FEW029 28/21 Q1015"
"3820","ROYN",2019-11-01 06:00:00,122.978,24.467,80.6,69.8,69.71,40,19,0,29.97,NA,6.21,NA,"FEW","SCT",NA,NA,2700,2900,NA,NA,NA,NA,NA,NA,NA,NA,NA,83.9,"ROYN 010600Z AUTO 04019KT 9999 FEW027 SCT029 27/21 Q1015"
"3821","ROYN",2019-11-01 07:00:00,122.978,24.467,80.6,68,65.54,50,19,0,29.97,NA,6.21,NA,"FEW",NA,NA,NA,2700,NA,NA,NA,NA,NA,NA,NA,NA,NA,NA,83.29,"ROYN 010700Z AUTO 05019KT 9999 FEW027 27/20 Q1015"
"3822","ROYN",2019-11-01 08:00:00,122.978,24.467,78.8,68,69.52,50,19,0,29.97,NA,6.21,NA,"FEW","SCT","BKN",NA,2800,3300,3600,NA,NA,NA,NA,NA,NA,NA,NA,NA,"ROYN 010800Z AUTO 05019KT 9999 FEW028 SCT033 BKN036 26/20 Q1015"
"3823","ROYN",2019-11-01 09:00:00,122.978,24.467,77,68,73.78,40,21,0,29.97,NA,6.21,NA,"SCT","BKN",NA,NA,2600,3600,NA,NA,NA,NA,NA,NA,NA,NA,NA,NA,"ROYN 010900Z AUTO 04021KT 9999 SCT026 BKN036 25/20 Q1015"
"3824","ROYN",2019-11-01 10:00:00,122.978,24.467,77,68,73.78,50,20,0,30,NA,6.21,NA,"SCT","SCT",NA,NA,2500,3800,NA,NA,NA,NA,NA,NA,NA,NA,NA,NA,"ROYN 011000Z AUTO 05020KT 9999 SCT025 SCT038 25/20 Q1016"
"3825","ROYN",2019-11-01 11:00:00,122.978,24.467,77,68,73.78,40,17,0,30,NA,6.21,NA,"FEW","SCT",NA,NA,2900,3400,NA,NA,NA,NA,NA,NA,NA,NA,NA,NA,"ROYN 011100Z AUTO 04017KT 9999 FEW029 SCT034 25/20 Q1016"
"3826","ROYN",2019-11-01 12:00:00,122.978,24.467,77,66.2,69.33,50,18,0,30,NA,6.21,NA,"FEW","SCT",NA,NA,2700,3800,NA,NA,NA,NA,NA,NA,NA,NA,NA,NA,"ROYN 011200Z AUTO 05018KT 9999 FEW027 SCT038 25/19 Q1016"
"3827","ROYN",2019-11-01 13:00:00,122.978,24.467,77,68,73.78,60,15,0,30.03,NA,6.21,NA,"BKN",NA,NA,NA,2800,NA,NA,NA,NA,NA,NA,NA,NA,NA,NA,NA,"ROYN 011300Z AUTO 06015KT 9999 BKN028 25/20 Q1017"
"3828","ROYN",2019-11-01 14:00:00,122.978,24.467,77,68,73.78,40,16,0,30,NA,6.21,NA,"FEW","SCT","BKN",NA,2900,3300,3600,NA,NA,NA,NA,NA,NA,NA,NA,NA,"ROYN 011400Z AUTO 04016KT 9999 FEW029 SCT033 BKN036 25/20 Q1016"
"3829","ROYN",2019-11-01 15:00:00,122.978,24.467,77,66.2,69.33,50,12,0,30,NA,6.21,NA,"SCT",NA,NA,NA,3600,NA,NA,NA,NA,NA,NA,NA,NA,NA,NA,NA,"ROYN 011500Z AUTO 05012KT 9999 SCT036 25/19 Q1016"
"3830","ROYN",2019-11-01 16:00:00,122.978,24.467,77,68,73.78,40,13,0,30,NA,6.21,NA,"FEW",NA,NA,NA,3600,NA,NA,NA,NA,NA,NA,NA,NA,NA,NA,NA,"ROYN 011600Z AUTO 04013KT 9999 FEW036 25/20 Q1016"
"3831","ROYN",2019-11-01 17:00:00,122.978,24.467,77,68,73.78,50,12,0,29.97,NA,6.21,NA,"SCT","BKN",NA,NA,2700,3800,NA,NA,NA,NA,NA,NA,NA,NA,NA,NA,"ROYN 011700Z AUTO 05012KT 9999 SCT027 BKN038 25/20 Q1015"
"3832","ROYN",2019-11-01 18:00:00,122.978,24.467,75.2,68,78.34,60,14,0,29.97,NA,6.21,NA,"FEW","SCT",NA,NA,2900,3800,NA,NA,NA,NA,NA,NA,NA,NA,NA,NA,"ROYN 011800Z AUTO 06014KT 9999 FEW029 SCT038 24/20 Q1015"
"3833","ROYN",2019-11-01 19:00:00,122.978,24.467,77,64.4,65.12,50,14,0,29.94,NA,6.21,NA,"FEW","BKN",NA,NA,2900,4000,NA,NA,NA,NA,NA,NA,NA,NA,NA,NA,"ROYN 011900Z AUTO 05014KT 9999 FEW029 BKN040 25/18 Q1014"
"3834","ROYN",2019-11-01 20:00:00,122.978,24.467,77,68,73.78,50,14,0,29.94,NA,6.21,NA,"OVC",NA,NA,NA,2900,NA,NA,NA,NA,NA,NA,NA,NA,NA,NA,NA,"ROYN 012000Z AUTO 05014KT 9999 OVC029 25/20 Q1014"
"3835","ROYN",2019-11-01 21:00:00,122.978,24.467,77,66.2,69.33,60,13,0,29.97,NA,6.21,NA,"FEW","BKN",NA,NA,2800,4200,NA,NA,NA,NA,NA,NA,NA,NA,NA,NA,"ROYN 012100Z AUTO 06013KT 9999 FEW028 BKN042 25/19 Q1015"
"3836","ROYN",2019-11-01 22:00:00,122.978,24.467,77,68,73.78,50,14,0,29.97,NA,6.21,NA,"BKN","BKN","OVC",NA,3000,3200,3900,NA,NA,NA,NA,NA,NA,NA,NA,NA,"ROYN 012200Z AUTO 05014KT 9999 BKN030 BKN032 OVC039 25/20 Q1015"
"3837","ROYN",2019-11-01 23:00:00,122.978,24.467,77,66.2,69.33,40,13,0,29.97,NA,6.21,NA,"FEW","SCT","BKN",NA,3300,3700,3900,NA,NA,NA,NA,NA,NA,NA,NA,NA,"ROYN 012300Z AUTO 04013KT 9999 FEW033 SCT037 BKN039 25/19 Q1015"
"3838","RORY",2019-11-01 00:00:00,128.402,27.044,75.2,64.4,69.14,30,10,0,30.06,NA,6.21,NA,"BKN",NA,NA,NA,3500,NA,NA,NA,NA,NA,NA,NA,NA,NA,NA,NA,"RORY 010000Z AUTO 03010KT 9999 BKN035 24/18 Q1018"
"3839","RORY",2019-11-01 01:00:00,128.402,27.044,77,64.4,65.12,30,10,0,30.06,NA,6.21,NA,"FEW","BKN",NA,NA,2900,3800,NA,NA,NA,NA,NA,NA,NA,NA,NA,NA,"RORY 010100Z AUTO 03010KT 350V060 9999 FEW029 BKN038 25/18 Q1018"
"3840","RORY",2019-11-01 02:00:00,128.402,27.044,77,64.4,65.12,30,10,0,30.06,NA,6.21,NA,"SCT",NA,NA,NA,3800,NA,NA,NA,NA,NA,NA,NA,NA,NA,NA,NA,"RORY 010200Z AUTO 03010KT 9999 SCT038 25/18 Q1018"
"3841","RORY",2019-11-01 03:00:00,128.402,27.044,78.8,64.4,61.36,20,11,0,30.03,NA,6.21,NA,"FEW",NA,NA,NA,2700,NA,NA,NA,NA,NA,NA,NA,NA,NA,NA,NA,"RORY 010300Z AUTO 02011KT 9999 FEW027 26/18 Q1017"
"3842","RORY",2019-11-01 04:00:00,128.402,27.044,78.8,66.2,65.33,30,10,0,30,NA,6.21,NA,"NCD",NA,NA,NA,NA,NA,NA,NA,NA,NA,NA,NA,NA,NA,NA,NA,"RORY 010400Z AUTO 03010KT 9999 NCD 26/19 Q1016"
"3843","RORY",2019-11-01 05:00:00,128.402,27.044,78.8,66.2,65.33,20,9,0,30,NA,6.21,NA,"SCT",NA,NA,NA,2900,NA,NA,NA,NA,NA,NA,NA,NA,NA,NA,NA,"RORY 010500Z AUTO 02009KT 350V050 9999 SCT029 26/19 Q1016"
"3844","RORY",2019-11-01 06:00:00,128.402,27.044,77,64.4,65.12,20,11,0,30,NA,6.21,NA,"SCT",NA,NA,NA,3000,NA,NA,NA,NA,NA,NA,NA,NA,NA,NA,NA,"RORY 010600Z AUTO 02011KT 9999 SCT030 25/18 Q1016"
"3845","RORY",2019-11-01 07:00:00,128.402,27.044,77,64.4,65.12,30,8,0,30,NA,6.21,NA,"BKN",NA,NA,NA,3000,NA,NA,NA,NA,NA,NA,NA,NA,NA,NA,NA,"RORY 010700Z AUTO 03008KT 350V070 9999 BKN030 25/18 Q1016"
"3846","RORY",2019-11-01 08:00:00,128.402,27.044,75.2,64.4,69.14,50,9,0,30,NA,6.21,NA,"FEW","BKN",NA,NA,3000,3300,NA,NA,NA,NA,NA,NA,NA,NA,NA,NA,"RORY 010800Z AUTO 05009KT 010V070 9999 FEW030 BKN033 24/18 Q1016"
"3847","RORY",2019-11-01 09:00:00,128.402,27.044,75.2,64.4,69.14,60,7,0,30,NA,6.21,NA,"SCT","BKN",NA,NA,2900,3300,NA,NA,NA,NA,NA,NA,NA,NA,NA,NA,"RORY 010900Z AUTO 06007KT 9999 SCT029 BKN033 24/18 Q1016"
"3848","RORY",2019-11-01 10:00:00,128.402,27.044,73.4,64.4,73.44,60,6,0,30,NA,6.21,NA,"SCT","BKN",NA,NA,2900,3600,NA,NA,NA,NA,NA,NA,NA,NA,NA,NA,"RORY 011000Z AUTO 06006KT 9999 SCT029 BKN036 23/18 Q1016"
"3849","RORY",2019-11-01 11:00:00,128.402,27.044,73.4,64.4,73.44,60,6,0,30.03,NA,6.21,NA,"FEW","SCT",NA,NA,2800,3000,NA,NA,NA,NA,NA,NA,NA,NA,NA,NA,"RORY 011100Z AUTO 06006KT 9999 FEW028 SCT030 23/18 Q1017"
"3850","RORY",2019-11-01 12:00:00,128.402,27.044,75.2,64.4,69.14,50,8,0,30.03,NA,6.21,NA,"BKN",NA,NA,NA,2900,NA,NA,NA,NA,NA,NA,NA,NA,NA,NA,NA,"RORY 011200Z AUTO 05008KT 9999 BKN029 24/18 Q1017"
"3851","RORY",2019-11-01 13:00:00,128.402,27.044,73.4,62.6,68.94,70,9,0,30.03,NA,6.21,NA,"FEW","SCT",NA,NA,3600,3800,NA,NA,NA,NA,NA,NA,NA,NA,NA,NA,"RORY 011300Z AUTO 07009KT 9999 FEW036 SCT038 23/17 Q1017"
"3852","RORY",2019-11-01 14:00:00,128.402,27.044,73.4,62.6,68.94,70,7,0,30.03,NA,6.21,NA,"BKN",NA,NA,NA,3400,NA,NA,NA,NA,NA,NA,NA,NA,NA,NA,NA,"RORY 011400Z AUTO 07007KT 9999 BKN034 23/17 Q1017"
"3853","RORY",2019-11-01 15:00:00,128.402,27.044,73.4,62.6,68.94,60,7,0,30,NA,6.21,NA,"BKN",NA,NA,NA,3400,NA,NA,NA,NA,NA,NA,NA,NA,NA,NA,NA,"RORY 011500Z AUTO 06007KT 9999 BKN034 23/17 Q1016"
"3854","RORY",2019-11-01 16:00:00,128.402,27.044,71.6,60.8,68.75,70,6,0,30,NA,6.21,NA,"FEW",NA,NA,NA,3400,NA,NA,NA,NA,NA,NA,NA,NA,NA,NA,NA,"RORY 011600Z AUTO 07006KT 9999 FEW034 22/16 Q1016"
"3855","RORY",2019-11-01 17:00:00,128.402,27.044,73.4,62.6,68.94,60,7,0,30,NA,6.21,NA,"BKN",NA,NA,NA,3400,NA,NA,NA,NA,NA,NA,NA,NA,NA,NA,NA,"RORY 011700Z AUTO 06007KT 9999 BKN034 23/17 Q1016"
"3856","RORY",2019-11-01 18:00:00,128.402,27.044,71.6,62.6,73.27,70,6,0,29.97,NA,6.21,NA,"SCT","BKN",NA,NA,3200,3500,NA,NA,NA,NA,NA,NA,NA,NA,NA,NA,"RORY 011800Z AUTO 07006KT 9999 SCT032 BKN035 22/17 Q1015"
"3857","RORY",2019-11-01 19:00:00,128.402,27.044,71.6,62.6,73.27,70,5,0,29.97,NA,6.21,NA,"FEW",NA,NA,NA,3400,NA,NA,NA,NA,NA,NA,NA,NA,NA,NA,NA,"RORY 011900Z AUTO 07005KT 9999 FEW034 22/17 Q1015"
"3858","RORY",2019-11-01 20:00:00,128.402,27.044,73.4,62.6,68.94,70,6,0,29.97,NA,6.21,NA,"SCT",NA,NA,NA,3400,NA,NA,NA,NA,NA,NA,NA,NA,NA,NA,NA,"RORY 012000Z AUTO 07006KT 9999 SCT034 23/17 Q1015"
"3859","RORY",2019-11-01 21:00:00,128.402,27.044,73.4,62.6,68.94,60,6,0,29.97,NA,6.21,NA,"FEW",NA,NA,NA,3500,NA,NA,NA,NA,NA,NA,NA,NA,NA,NA,NA,"RORY 012100Z AUTO 06006KT 9999 FEW035 23/17 Q1015"
"3860","RORY",2019-11-01 22:00:00,128.402,27.044,73.4,62.6,68.94,80,6,0,30,NA,6.21,NA,"FEW",NA,NA,NA,3300,NA,NA,NA,NA,NA,NA,NA,NA,NA,NA,NA,"RORY 012200Z AUTO 08006KT 9999 FEW033 23/17 Q1016"
"3861","RORY",2019-11-01 23:00:00,128.402,27.044,75.2,64.4,69.14,70,9,0,30,NA,6.21,NA,"FEW",NA,NA,NA,3200,NA,NA,NA,NA,NA,NA,NA,NA,NA,NA,NA,"RORY 012300Z AUTO 07009KT 040V100 9999 FEW032 24/18 Q1016"
